{"type":"Topology","bbox":[139.62582167899893,35.892638103555974,139.70114003774395,35.965423635259526],"objects":{"town":{"type":"GeometryCollection","geometries":[{"type":"Polygon","arcs":[[0,1,2]],"properties":{"name":"砂町"}},{"type":"MultiPolygon","arcs":[[[13,3,4,5,6,7,14,15]]],"properties":{"name":"大和田町"}},{"type":"MultiPolygon","arcs":[[[10,11,41,42,-18,-29,38,39,40,29]]],"properties":{"name":"島町"}},{"type":"Polygon","arcs":[[-7,16,17,18,19,20]],"properties":{"name":"堀崎町"}},{"type":"MultiPolygon","arcs":[[[31,-1,-3,52,102,23,49,50,51,-39,28,-17,-6,-5]]],"properties":{"name":"東大宮"}},{"type":"Polygon","arcs":[[33]],"properties":{"name":"大字御蔵"}},{"type":"MultiPolygon","arcs":[[[-80,-94,-87,37,34,55,56,57]]],"properties":{"name":"染谷"}},{"type":"MultiPolygon","arcs":[[[43,44,45,73,74,75]]],"properties":{"name":"片柳"}},{"type":"Polygon","arcs":[[47,48]],"properties":{"name":"大字上山口新田"}},{"type":"Polygon","arcs":[[59,60]],"properties":{"name":"大字東新井"}},{"type":"Polygon","arcs":[[61,62,63,64,-56,-35,65,66,67]],"properties":{"name":"大字染谷"}},{"type":"Polygon","arcs":[[68,-67,69]],"properties":{"name":"大字山"}},{"type":"Polygon","arcs":[[70,-45,71,72]],"properties":{"name":"片柳東"}},{"type":"Polygon","arcs":[[76,-60,77,-62]],"properties":{"name":"大字笹丸"}},{"type":"MultiPolygon","arcs":[[[92,-73,-88,93,79,-58,80,81,82,94]]],"properties":{"name":"加田屋"}},{"type":"Polygon","arcs":[[-76,83,84,85,-70,-66,-38,86,87,-72,-44]],"properties":{"name":"大字片柳"}},{"type":"Polygon","arcs":[[88,89,90,91]],"properties":{"name":"大字南中野"}},{"type":"Polygon","arcs":[[95,96,97,98,-85]],"properties":{"name":"大字西山新田"}},{"type":"Polygon","arcs":[[-48,99]],"properties":{"name":"大字新右エ門新田"}},{"type":"Polygon","arcs":[[100,-98]],"properties":{"name":"大字西山村新田"}},{"type":"Polygon","arcs":[[103,104,105,-90]],"properties":{"name":"大字中川"}},{"type":"Polygon","arcs":[[106,-20,107,108,109,110,111,112]],"properties":{"name":"大字風渡野"}},{"type":"Polygon","arcs":[[113,-15,-8,-21,-107,114,115,116]],"properties":{"name":"大字蓮沼"}},{"type":"Polygon","arcs":[[-95,-83,117,118,119,120]],"properties":{"name":"大字膝子"}},{"type":"Polygon","arcs":[[-91,-106,121,-104,-89,122,-16,-114,123]],"properties":{"name":"大字南中丸"}},{"type":"Polygon","arcs":[[-64,124,-116,125,126,127,128,129,-118,-82,130]],"properties":{"name":"大字大谷"}},{"type":"Polygon","arcs":[[-111,131,132,133,134]],"properties":{"name":"大字東門前"}},{"type":"MultiPolygon","arcs":[[[141,146,137,-120,135,145,143,144]]],"properties":{"name":"東宮下"}},{"type":"Polygon","arcs":[[-81,-57,-65,-131]],"properties":{"name":"大字加田屋新田"}},{"type":"Polygon","arcs":[[-75,138,-96,-84]],"properties":{"name":"大字見山"}},{"type":"Polygon","arcs":[[139,140,-127]],"properties":{"name":"大字新堤"}},{"type":"Polygon","arcs":[[-119,-130,147,-128,-141,148,-112,-135,149,-144,-146,-136]],"properties":{"name":"大字東宮下"}},{"type":"MultiPolygon","arcs":[[[157,161,162,165,166,167,164,160,159,155,154,150,151,176,177,-175,178,179]]],"properties":{"name":"深作"}},{"type":"Polygon","arcs":[[168,169,-167,170,171,172,173,174,175]],"properties":{"name":"大字丸ケ崎"}},{"type":"Polygon","arcs":[[180,-176,-178,181,182,-40,-52]],"properties":{"name":"大字深作"}},{"type":"MultiPolygon","arcs":[[[-194,210,-196,187,-133,188,186,-155,-156,183,-208]]],"properties":{"name":"宮ケ谷塔"}},{"type":"Polygon","arcs":[[-181,-51,191,-169]],"properties":{"name":"丸ケ崎町"}},{"type":"MultiPolygon","arcs":[[[-165,192,193,207,-184,-160,-161]]],"properties":{"name":"卸町"}},{"type":"Polygon","arcs":[[-150,-134,-188,195,196,-145]],"properties":{"name":"大字宮ケ谷塔"}},{"type":"Polygon","arcs":[[197,-108,-19,-43,198,199,-151,-187,-189,-132,-110]],"properties":{"name":"大字小深作"}},{"type":"MultiPolygon","arcs":[[[-158,-180,-179,-174,-173,-172,-171,-166,-163,-162]]],"properties":{"name":"春野"}},{"type":"MultiPolygon","arcs":[[[-42,-12,-11,-30,-41,-183,-182,-177,-152,-200,-199]]],"properties":{"name":"春岡"}}]}},"arcs":[[[139.63105682844665,35.94879775723063],[139.6346498734633,35.94622089172177],[139.63762524617098,35.942355593458494]],[[139.63762524617098,35.942355593458494],[139.63703770421859,35.94116907063944],[139.6307705900596,35.948455631019]],[[139.6307705900596,35.948455631019],[139.63105682844665,35.94879775723063]],[[139.64192635456618,35.927403950082244],[139.64188115903139,35.92958773441178],[139.64273234160345,35.93411544725503],[139.6422728536663,35.936415700082144]],[[139.6422728536663,35.936415700082144],[139.6458734312721,35.93718730387858],[139.64570018172202,35.93798802479941]],[[139.64570018172202,35.93798802479941],[139.64776411114457,35.937886114864035]],[[139.64776411114457,35.937886114864035],[139.6528862717553,35.93346759123727]],[[139.6528862717553,35.93346759123727],[139.6548296797517,35.930140959775265]],[[139.6548296797517,35.930140959775265],[139.64192635456618,35.927403950082244]],[[139.65671282703508,35.945456567206435],[139.65742089041362,35.94581325198026]],[[139.65742089041362,35.94581325198026],[139.65742842300276,35.94580597269916]],[[139.65742842300276,35.94580597269916],[139.6604188608887,35.943607629807424]],[[139.6604188608887,35.943607629807424],[139.6578276502268,35.942821467448795],[139.65800843236602,35.94428460294959],[139.65671282703508,35.945456567206435]],[[139.644683282189,35.91677619967849],[139.6436889804234,35.91731486647977],[139.64408067505832,35.91936034446844],[139.6434178072146,35.922046399193775],[139.64164764876824,35.92414283215013],[139.64289052597525,35.92492899450877],[139.64192635456618,35.927403950082244]],[[139.6548296797517,35.930140959775265],[139.6598539167037,35.92983522996913],[139.65968819974276,35.92677065262668],[139.65552267795198,35.922847120114604]],[[139.65552267795198,35.922847120114604],[139.65203508918322,35.920619660098474],[139.64762852454018,35.91896726328912],[139.64750800311404,35.917074650203524],[139.644683282189,35.91677619967849]],[[139.64776411114457,35.937886114864035],[139.64853996782531,35.94500525177833],[139.649594530304,35.94480143190758]],[[139.649594530304,35.94480143190758],[139.6551912440301,35.939625863046565],[139.6592211792165,35.9399315928527]],[[139.6592211792165,35.9399315928527],[139.66076535998886,35.936917970477936]],[[139.66076535998886,35.936917970477936],[139.65929650510782,35.93523645654419]],[[139.65929650510782,35.93523645654419],[139.65673542480246,35.935163663733206],[139.6528862717553,35.93346759123727]],[[139.64246870098378,35.94310535941163],[139.6393577416717,35.94605346825651]],[[139.6393577416717,35.94605346825651],[139.6409395853897,35.95106889293335],[139.64118062824195,35.95375494765869]],[[139.64118062824195,35.95375494765869],[139.6428528630296,35.95079955953271],[139.64432925049974,35.95101065868457]],[[139.64432925049974,35.95101065868457],[139.64600148528734,35.94934370331302],[139.64503731387828,35.947771378595746]],[[139.64503731387828,35.947771378595746],[139.64246870098378,35.94310535941163]],[[139.64570018172202,35.93798802479941],[139.6450900420022,35.940149971285656],[139.64246870098378,35.94310535941163]],[[139.64503731387828,35.947771378595746],[139.6484721745231,35.94692698198833]],[[139.6484721745231,35.94692698198833],[139.649594530304,35.94480143190758]],[[139.6532704338011,35.948637613046465],[139.65742089041362,35.94581325198026]],[[139.65671282703508,35.945456567206435],[139.65366966102516,35.947349180292036],[139.65113117848722,35.94746564878961],[139.6532704338011,35.948637613046465]],[[139.6422728536663,35.936415700082144],[139.64230298402285,35.9394729981435],[139.63852162427787,35.941372890510195],[139.63762524617098,35.942355593458494]],[[139.63762524617098,35.942355593458494],[139.6393577416717,35.94605346825651]],[[139.66412489474234,35.91278715363653],[139.66221161710246,35.912546937360275],[139.66136796711953,35.91485446946849],[139.66258071397,35.91486902803069],[139.66412489474234,35.91278715363653]],[[139.68183401179502,35.90600286365276],[139.6820072613451,35.90916935093059],[139.6809752966338,35.91114931538937]],[[139.6809752966338,35.91114931538937],[139.68425950549596,35.91156423441198]],[[139.68425950549596,35.91156423441198],[139.68758890989295,35.906723512481506]],[[139.68758890989295,35.906723512481506],[139.68574342555524,35.90559522391124],[139.68183401179502,35.90600286365276]],[[139.6484721745231,35.94692698198833],[139.65229872980288,35.94938737899961]],[[139.65229872980288,35.94938737899961],[139.6527732829183,35.94951840605938]],[[139.6527732829183,35.94951840605938],[139.6532704338011,35.948637613046465]],[[139.6604188608887,35.943607629807424],[139.66180485728927,35.94226824208531]],[[139.66180485728927,35.94226824208531],[139.6617445965762,35.9399461514149],[139.6592211792165,35.9399315928527]],[[139.68885438486734,35.90133684446864],[139.6903533701049,35.900834574072846],[139.6948578584067,35.90290916918591]],[[139.6948578584067,35.90290916918591],[139.69692932041838,35.903586142328066]],[[139.69692932041838,35.903586142328066],[139.70077847346556,35.89910210517141],[139.70113250515482,35.897602573265125],[139.70066548462856,35.892638103555974],[139.69395394771067,35.894072121932375],[139.6942326535086,35.89514945553494],[139.6924097669383,35.895345996124604]],[[139.6924097669383,35.895345996124604],[139.69247756024052,35.89841785274815],[139.68885438486734,35.90133684446864]],[[139.64973764949752,35.901322285906446],[139.6515078079439,35.901213096689965]],[[139.6515078079439,35.901213096689965],[139.6527808155074,35.89934960072876],[139.65458863689943,35.899036591641526],[139.65672035962422,35.89739147411327],[139.66045652383437,35.89751522189194],[139.66082562070193,35.89385374349942],[139.65215561060936,35.89414491474336],[139.64942128075393,35.89844696987255],[139.64837425086438,35.90140963727963],[139.64973764949752,35.901322285906446]],[[139.64432925049974,35.95101065868457],[139.645135237537,35.95328907366839],[139.64635551697663,35.95389325399956]],[[139.64635551697663,35.95389325399956],[139.65175638338528,35.95174586607551]],[[139.65175638338528,35.95174586607551],[139.65229872980288,35.94938737899961]],[[139.6307705900596,35.948455631019],[139.62714741468642,35.95016626207715],[139.62582167899893,35.95248835274755],[139.63206619539054,35.95393692968615],[139.63397194044128,35.95355112778793]],[[139.63397194044128,35.95355112778793],[139.63321868152795,35.95231365000119]],[[139.63321868152795,35.95231365000119],[139.63105682844665,35.94879775723063]],[[139.6809752966338,35.91114931538937],[139.68023710289873,35.91502189293375]],[[139.68023710289873,35.91502189293375],[139.68280571579322,35.91584445169788]],[[139.68280571579322,35.91584445169788],[139.6855325130595,35.91484719018739],[139.68831957103887,35.912990973507284]],[[139.68831957103887,35.912990973507284],[139.68425950549596,35.91156423441198]],[[139.67290036108278,35.913027369912776],[139.67302088250892,35.91124394604365]],[[139.67302088250892,35.91124394604365],[139.67164995128664,35.90971529701297],[139.6723429494869,35.90872531478358],[139.6698195321272,35.9076916568676],[139.6684184705484,35.907953710987144],[139.66671610540425,35.9105160179338],[139.66971407587934,35.91058881074479],[139.67290036108278,35.913027369912776]],[[139.6775027730433,35.90950419786112],[139.6754991043338,35.913347658281104],[139.67434661819638,35.91417749632633]],[[139.67434661819638,35.91417749632633],[139.67420349900286,35.91496365868497]],[[139.67420349900286,35.91496365868497],[139.67735212126064,35.91550960476735]],[[139.67735212126064,35.91550960476735],[139.68023710289873,35.91502189293375]],[[139.68183401179502,35.90600286365276],[139.68123893725348,35.906213962804614]],[[139.68123893725348,35.906213962804614],[139.67869292212637,35.90649785476745]],[[139.67869292212637,35.90649785476745],[139.67769108777162,35.908106575890216],[139.67958176764412,35.90826672007438],[139.67986047344206,35.91015205387888],[139.6775027730433,35.90950419786112]],[[139.67512247487713,35.90515118776423],[139.67621470030147,35.90646873764306],[139.67869292212637,35.90649785476745]],[[139.68123893725348,35.906213962804614],[139.68082464485113,35.90425583618912],[139.68212025018207,35.902210358200456],[139.6797550171942,35.90001201530872],[139.67861006364592,35.90135140303084],[139.6790168234591,35.90382635860431],[139.67747264268675,35.903389601738404],[139.6773219909041,35.90496192645568],[139.67512247487713,35.90515118776423]],[[139.6938936869976,35.9062867556156],[139.69692932041838,35.903586142328066]],[[139.6948578584067,35.90290916918591],[139.6917092361489,35.90586455731189]],[[139.6917092361489,35.90586455731189],[139.6938936869976,35.9062867556156]],[[139.6924097669383,35.895345996124604],[139.6890276344174,35.89572451874172],[139.68618031572498,35.89484372572881]],[[139.68618031572498,35.89484372572881],[139.68630836974026,35.8982067535963]],[[139.68630836974026,35.8982067535963],[139.6863836956316,35.89985915040565],[139.68885438486734,35.90133684446864]],[[139.6775027730433,35.90950419786112],[139.67546144138814,35.908958251778735],[139.67302088250892,35.91124394604365]],[[139.67290036108278,35.913027369912776],[139.67434661819638,35.91417749632633]],[[139.69176949686198,35.91360971240065],[139.68902010182828,35.91235767605172]],[[139.68902010182828,35.91235767605172],[139.68831957103887,35.912990973507284]],[[139.68280571579322,35.91584445169788],[139.68251947740615,35.91675436183519]],[[139.68251947740615,35.91675436183519],[139.6851483510137,35.91745317282064]],[[139.6851483510137,35.91745317282064],[139.68662473848386,35.91793360537314],[139.68901256923917,35.91639039778027],[139.69176949686198,35.91360971240065]],[[139.68630836974026,35.8982067535963],[139.6833179318543,35.89617583416983],[139.6790996819396,35.89831594281278]],[[139.6790996819396,35.89831594281278],[139.67650847127769,35.89938599713425],[139.67650847127769,35.901271330938755],[139.6747307802422,35.90176632205345]],[[139.6747307802422,35.90176632205345],[139.673985053918,35.90321489899205],[139.67512247487713,35.90515118776423]],[[139.68758890989295,35.906723512481506],[139.68959257860243,35.90718210719071],[139.69128741115745,35.90616300783692]],[[139.69128741115745,35.90616300783692],[139.6917092361489,35.90586455731189]],[[139.65308211907276,35.90919846805498],[139.65316497755322,35.91173893715835]],[[139.65316497755322,35.91173893715835],[139.6527054896161,35.91358059527626]],[[139.6527054896161,35.91358059527626],[139.65459616948857,35.913900883644594],[139.66032846981912,35.90967890060748]],[[139.66032846981912,35.90967890060748],[139.65930403769696,35.90706563869313],[139.65815155155954,35.90646145836196],[139.66302513672886,35.90384091716651],[139.6631004626202,35.90249425016329],[139.65641152346973,35.904765385866014],[139.6527732829183,35.90716754862851],[139.65308211907276,35.90919846805498]],[[139.69272613568194,35.91180445068823],[139.6935095249518,35.908514215631726],[139.69462434814355,35.90782268392737],[139.6938936869976,35.9062867556156]],[[139.69128741115745,35.90616300783692],[139.68902010182828,35.91235767605172]],[[139.69176949686198,35.91360971240065],[139.69272613568194,35.91180445068823]],[[139.6790996819396,35.89831594281278],[139.67848200963064,35.89643788828937]],[[139.67848200963064,35.89643788828937],[139.66960108704234,35.89703478933945],[139.6697442062359,35.90013576308739]],[[139.6697442062359,35.90013576308739],[139.67081383389282,35.90045605145573]],[[139.67081383389282,35.90045605145573],[139.6747307802422,35.90176632205345]],[[139.64973764949752,35.901322285906446],[139.64881114103412,35.90415392625375],[139.6484420441666,35.908062900203625],[139.6505662343022,35.90820120654449],[139.65012934413247,35.90448149390318],[139.6515078079439,35.901213096689965]],[[139.6697442062359,35.90013576308739],[139.67081383389282,35.90045605145573]],[[139.6393577416717,35.94605346825651],[139.63321868152795,35.95231365000119]],[[139.63397194044128,35.95355112778793],[139.636947313149,35.955057938975315],[139.63835590731694,35.953572965631224],[139.64118062824195,35.95375494765869]],[[139.65316497755322,35.91173893715835],[139.65188443740055,35.91025396381426],[139.6485851633601,35.913558757432966]],[[139.6485851633601,35.913558757432966],[139.6525473052443,35.91427940626171]],[[139.6525473052443,35.91427940626171],[139.6527054896161,35.91358059527626]],[[139.66353735278994,35.93429742928249],[139.65929650510782,35.93523645654419]],[[139.66076535998886,35.936917970477936],[139.66283682200054,35.93583335759426],[139.66523218534496,35.93816272754577]],[[139.66523218534496,35.93816272754577],[139.6662566174671,35.93889793493672]],[[139.6662566174671,35.93889793493672],[139.66691948531084,35.9399243135716],[139.67019616158387,35.93926917827274],[139.67152189727136,35.93750759224691],[139.67363855481784,35.93751487152801],[139.67513000746627,35.9385121330385]],[[139.67513000746627,35.9385121330385],[139.67647080833203,35.936932529040135]],[[139.67647080833203,35.936932529040135],[139.67454246551387,35.93509815020332]],[[139.67454246551387,35.93509815020332],[139.67374401106574,35.93388978954098],[139.67140890843436,35.93303083437136],[139.67036941113395,35.93391890666537],[139.66957848927495,35.93220099632613],[139.668621850455,35.93362773542143],[139.66592518354523,35.93356950117264],[139.66353735278994,35.93429742928249]],[[139.66029833946257,35.91915652459768],[139.65795570424208,35.922075516318166],[139.65552267795198,35.922847120114604]],[[139.66353735278994,35.93429742928249],[139.6675371576198,35.92819739172197]],[[139.6675371576198,35.92819739172197],[139.6663018130019,35.9280882025055],[139.66496101213616,35.92632661647967],[139.6677631352938,35.92310189495305],[139.6638461889444,35.92033576813564]],[[139.6638461889444,35.92033576813564],[139.66029833946257,35.91915652459768]],[[139.6851483510137,35.91745317282064],[139.68206752205813,35.921995444226084],[139.68020697254218,35.923356669791495],[139.67935578997012,35.92541670634236]],[[139.67935578997012,35.92541670634236],[139.682511944817,35.92676337334558]],[[139.682511944817,35.92676337334558],[139.69018012055483,35.930184635461856]],[[139.69018012055483,35.930184635461856],[139.69295211335594,35.92870694139887],[139.69326848209954,35.92580978752168],[139.69541527000257,35.925271120720396],[139.69572410615703,35.923371228353695],[139.6977277748665,35.922075516318166],[139.6971101025576,35.92008827257828],[139.69861662038426,35.91675436183519],[139.6985111641364,35.91538585698868],[139.69525708563074,35.91847227217443],[139.69246249506227,35.91690722673825],[139.69549812848302,35.913857207958],[139.69272613568194,35.91180445068823]],[[139.6525473052443,35.91427940626171],[139.65225353426808,35.91584445169788],[139.6480880124773,35.915298505615496],[139.6485851633601,35.913558757432966]],[[139.65308211907276,35.90919846805498],[139.6502272677912,35.90868163909699],[139.64903711870812,35.91142592807111],[139.644683282189,35.91677619967849]],[[139.66029833946257,35.91915652459768],[139.66103653319766,35.917518686350526],[139.6604188608887,35.91500005509046],[139.66032846981912,35.90967890060748]],[[139.67420349900286,35.91496365868497],[139.67183073342582,35.91590996522777],[139.66833561206792,35.91552416332955],[139.66473503446215,35.9186105785153],[139.6638461889444,35.92033576813564]],[[139.6675371576198,35.92819739172197],[139.66874237188114,35.927454905049935]],[[139.66874237188114,35.927454905049935],[139.67494169273795,35.92680704903217]],[[139.67494169273795,35.92680704903217],[139.67651600386682,35.92662506700471]],[[139.67651600386682,35.92662506700471],[139.6772315998345,35.92633389576077]],[[139.6772315998345,35.92633389576077],[139.67935578997012,35.92541670634236]],[[139.68251947740615,35.91675436183519],[139.67756303375637,35.91651414555894],[139.67735212126064,35.91550960476735]],[[139.67513000746627,35.9385121330385],[139.67642561279723,35.93843206094642]],[[139.67642561279723,35.93843206094642],[139.6766515904712,35.93833015101104]],[[139.6766515904712,35.93833015101104],[139.6781355105305,35.93774052924206]],[[139.6781355105305,35.93774052924206],[139.67647080833203,35.936932529040135]],[[139.682511944817,35.92676337334558],[139.6797173542485,35.92730931942796],[139.6789866931026,35.92960957225508]],[[139.6789866931026,35.92960957225508],[139.68437249433296,35.9309125635717],[139.68643642375554,35.9318734286767]],[[139.68643642375554,35.9318734286767],[139.69018012055483,35.930184635461856]],[[139.68618031572498,35.89484372572881],[139.68609745724453,35.89323500460605],[139.67848954221978,35.89384646421832],[139.67771368553903,35.89432689677082],[139.67848200963064,35.89643788828937]],[[139.66874237188114,35.927454905049935],[139.67144657138002,35.931458509654085],[139.673194132059,35.93176423946022]],[[139.673194132059,35.93176423946022],[139.6760640485188,35.92984978853133],[139.67463285658346,35.927920779040235],[139.67494169273795,35.92680704903217]],[[139.6826625965997,35.938213682513464],[139.68287350909543,35.934195519347114]],[[139.68287350909543,35.934195519347114],[139.678557335522,35.934180960784914]],[[139.678557335522,35.934180960784914],[139.6796420283572,35.93814816898358]],[[139.6796420283572,35.93814816898358],[139.68078698190547,35.939152709775165],[139.6826625965997,35.938213682513464]],[[139.6789866931026,35.92960957225508],[139.6782033038327,35.92987162637462],[139.68073425378154,35.93158953671386],[139.67878331319596,35.931582257432765],[139.678557335522,35.934180960784914]],[[139.68287350909543,35.934195519347114],[139.68643642375554,35.9318734286767]],[[139.6772315998345,35.92633389576077],[139.67651600386682,35.92662506700471]],[[139.673194132059,35.93176423946022],[139.67579287531,35.93323465424211],[139.67454246551387,35.93509815020332]],[[139.6781355105305,35.93774052924206],[139.6796420283572,35.93814816898358]],[[139.66885536071814,35.947749540752454],[139.66620388934317,35.94660669361999]],[[139.66620388934317,35.94660669361999],[139.66203083496325,35.950879631624794]],[[139.66203083496325,35.950879631624794],[139.66558621703425,35.95258298340183]],[[139.66558621703425,35.95258298340183],[139.6711678655821,35.94879775723063]],[[139.6711678655821,35.94879775723063],[139.66885536071814,35.947749540752454]],[[139.672968154385,35.946941540550526],[139.6711678655821,35.94879775723063]],[[139.66558621703425,35.95258298340183],[139.66856912233106,35.95400972249713]],[[139.66856912233106,35.95400972249713],[139.66924705535308,35.95338370432267]],[[139.66924705535308,35.95338370432267],[139.673194132059,35.95110528933885]],[[139.673194132059,35.95110528933885],[139.6743692159638,35.947684027222564],[139.672968154385,35.946941540550526]],[[139.6751375400554,35.95216806437922],[139.673194132059,35.95110528933885]],[[139.66924705535308,35.95338370432267],[139.6718457986041,35.954511992892925]],[[139.6718457986041,35.954511992892925],[139.67290789367192,35.954956029039934]],[[139.67290789367192,35.954956029039934],[139.6751375400554,35.95216806437922]],[[139.67686250296697,35.95293966817566],[139.6751375400554,35.95216806437922]],[[139.67290789367192,35.954956029039934],[139.6690060125008,35.960422769144884]],[[139.6690060125008,35.960422769144884],[139.66969901070107,35.96101239091386]],[[139.66969901070107,35.96101239091386],[139.67188346154975,35.96192230105117],[139.67317153429158,35.959483741883176],[139.6757702775426,35.95762024592197],[139.67702068733877,35.95481044341796],[139.67686250296697,35.95293966817566]],[[139.65172625302876,35.95200064091396],[139.65247197935295,35.954985146164326],[139.6534964114751,35.95566211930648],[139.6518091115092,35.957758552262845],[139.65252470747689,35.95934543554231],[139.6498657035128,35.959978732997875]],[[139.6498657035128,35.959978732997875],[139.6502272677912,35.96147826490416],[139.64877347808846,35.96160929196393],[139.6492103682582,35.96385858982335],[139.65424967038845,35.96333448158427],[139.66048665419092,35.96463747290089],[139.6620609653198,35.96541635597843],[139.66763508127852,35.964433653030135],[139.66606830273878,35.963210733805596],[139.66954082632927,35.964062409694115],[139.67118293076035,35.96253376066343],[139.66969901070107,35.96101239091386]],[[139.6690060125008,35.960422769144884],[139.66755222279807,35.95926536345022]],[[139.66755222279807,35.95926536345022],[139.66223421486987,35.960415489863784]],[[139.66223421486987,35.960415489863784],[139.658912343062,35.96144186849867],[139.65402369271445,35.96139091353098],[139.65396343200138,35.959993291560075],[139.65736062970055,35.96016071502534],[139.6600798943777,35.9588941201142]],[[139.6600798943777,35.9588941201142],[139.6583699966444,35.95703790343409],[139.6600798943777,35.95603336264251]],[[139.6600798943777,35.95603336264251],[139.6586788327989,35.954155308119105]],[[139.6586788327989,35.954155308119105],[139.65678062033726,35.95529087597046],[139.65589930740867,35.95430089374107],[139.65366212843603,35.955480137279025],[139.65251717488775,35.954621182109406],[139.65172625302876,35.95200064091396]],[[139.66203083496325,35.950879631624794],[139.65859597431842,35.95394420896724]],[[139.65859597431842,35.95394420896724],[139.6586788327989,35.954155308119105]],[[139.6600798943777,35.95603336264251],[139.6640043733162,35.955319993094854]],[[139.6640043733162,35.955319993094854],[139.66856912233106,35.95400972249713]],[[139.65175638338528,35.95174586607551],[139.65172625302876,35.95200064091396]],[[139.65859597431842,35.95394420896724],[139.6570367283678,35.953580244912324],[139.6573982926462,35.952342767125586]],[[139.6573982926462,35.952342767125586],[139.6562684042762,35.95120719927422],[139.6527732829183,35.94951840605938]],[[139.672968154385,35.946941540550526],[139.67344270750039,35.946417432311435]],[[139.67344270750039,35.946417432311435],[139.6752505288924,35.94431372007398]],[[139.6752505288924,35.94431372007398],[139.67128838700822,35.94310535941163]],[[139.67128838700822,35.94310535941163],[139.67137877807784,35.94542017080094],[139.66885536071814,35.947749540752454]],[[139.67938592032664,35.940062619912474],[139.6766515904712,35.93833015101104]],[[139.67642561279723,35.93843206094642],[139.6756120931708,35.940004385663684],[139.67430895525072,35.93966225945206],[139.67220736288252,35.94119818776383],[139.67338997937645,35.94199162940357],[139.67128838700822,35.94310535941163]],[[139.6752505288924,35.94431372007398],[139.6778869350891,35.94193339515478]],[[139.6778869350891,35.94193339515478],[139.67938592032664,35.940062619912474]],[[139.64635551697663,35.95389325399956],[139.64756073123797,35.95395876752944],[139.6492856941495,35.957270840429246],[139.6498657035128,35.959978732997875]],[[139.67686250296697,35.95293966817566],[139.67996592968993,35.95105433437116]],[[139.67996592968993,35.95105433437116],[139.67997346227907,35.949591198870365],[139.67809784758484,35.948695847295255]],[[139.67809784758484,35.948695847295255],[139.6751375400554,35.95216806437922]],[[139.67938592032664,35.940062619912474],[139.68178128367109,35.94162038606755]],[[139.68178128367109,35.94162038606755],[139.6826625965997,35.938213682513464]],[[139.6662566174671,35.93889793493672],[139.66523218534496,35.93816272754577]],[[139.66180485728927,35.94226824208531],[139.66426048134676,35.941947953716976],[139.6626033117374,35.94560943210951]],[[139.6626033117374,35.94560943210951],[139.66620388934317,35.94660669361999]],[[139.66223421486987,35.960415489863784],[139.6600798943777,35.9588941201142]],[[139.66484802329916,35.95629541676205],[139.6640043733162,35.955319993094854]],[[139.66223421486987,35.960415489863784],[139.66072769704317,35.95878493089773],[139.66484802329916,35.95629541676205]],[[139.66484802329916,35.95629541676205],[139.6676501464568,35.95754017382989],[139.66972160846848,35.9574746603],[139.6718457986041,35.954511992892925]],[[139.6626033117374,35.94560943210951],[139.6610892613216,35.94759667584938]],[[139.6610892613216,35.94759667584938],[139.6573982926462,35.952342767125586]],[[139.66484802329916,35.95629541676205],[139.66755222279807,35.95926536345022]],[[139.67809784758484,35.948695847295255],[139.67344270750039,35.946417432311435]],[[139.65742842300276,35.94580597269916],[139.6610892613216,35.94759667584938]],[[139.67809784758484,35.948695847295255],[139.6788586390873,35.946359198062645],[139.67830122749143,35.94487422471856],[139.67880591096338,35.942282800647504],[139.6778869350891,35.94193339515478]],[[139.67996592968993,35.95105433437116],[139.68172102295802,35.95063213606745],[139.68247428187135,35.94899429782029],[139.68181894661674,35.9470361712048],[139.68248934704962,35.94527458517897],[139.68107322029255,35.94453209850693],[139.68230103232128,35.94298161163296],[139.68178128367109,35.94162038606755]]]}