{"type":"Topology","bbox":[139.63277172710752,35.84664867042962,139.66873164976218,35.901602677731354],"objects":{"town":{"type":"GeometryCollection","geometries":[{"type":"MultiPolygon","arcs":[[[133,160,34,35,-24,-23,53,54,55,11,12,9,6,7]]],"properties":{"name":"岸町"}},{"type":"MultiPolygon","arcs":[[[-162,175,70,96,80,182,-136,76,77,37,38,39,40,41,16,82,83,-50,84,92,-26]]],"properties":{"name":"常盤"}},{"type":"MultiPolygon","arcs":[[[-163,-28,233,19,20,-52,62,63,-54,22,23,-36,231,239]]],"properties":{"name":"高砂"}},{"type":"MultiPolygon","arcs":[[[161,25,-93,-85,49,50,51,-21,-20,-234,27,162,163]]],"properties":{"name":"仲町"}},{"type":"MultiPolygon","arcs":[[[64,72,115,114,74,30,116,202,203,-130,144,145,146,87,88,89,68]]],"properties":{"name":"上木崎"}},{"type":"MultiPolygon","arcs":[[[-199,112,113,-103,-60,47,43,170,-116,-73,-65,171]]],"properties":{"name":"針ケ谷"}},{"type":"MultiPolygon","arcs":[[[-77,135,136,-48,59,102,103,189,190,191,192,56,-39,-38,-78]]],"properties":{"name":"北浦和"}},{"type":"MultiPolygon","arcs":[[[129,-204,247,167,91,168,248,131,176,177,178,-145]]],"properties":{"name":"大原"}},{"type":"MultiPolygon","arcs":[[[150,-160,204,205,184,185,186,100,201,-110,-109]]],"properties":{"name":"瀬ケ崎"}},{"type":"MultiPolygon","arcs":[[[215,216,106,107,108,109,110,217,218]]],"properties":{"name":"駒場"}},{"type":"MultiPolygon","arcs":[[[147,187,188,120,121,122,149]]],"properties":{"name":"前地"}},{"type":"MultiPolygon","arcs":[[[179,180,229,-146,-179,230,126,127,174,173,138,139,140]]],"properties":{"name":"木崎"}},{"type":"MultiPolygon","arcs":[[[226,227,166,206,-191,-190,-104,-114,-113,198,-172,-69,-90,-89,210,211,158,159,-151,-108,-107,-217]]],"properties":{"name":"領家"}},{"type":"MultiPolygon","arcs":[[[194,-221,-219,224,245,-122,-244,222,223,212,-83,-17,-42,213]]],"properties":{"name":"本太"}},{"type":"MultiPolygon","arcs":[[[-227,-216,220,-195,-214,-41,-40,-57,-193,-192,-207,-167,-228]]],"properties":{"name":"元町"}},{"type":"MultiPolygon","arcs":[[[-159,-212,-180,-141,-140,-139,-174,236,-186,-185,-206,-205]]],"properties":{"name":"大東"}},{"type":"MultiPolygon","arcs":[[[237,-7,-10,241]]],"properties":{"name":"神明"}},{"type":"Polygon","arcs":[[-127,-231,-178,240]],"properties":{"name":"大字三崎"}},{"type":"Polygon","arcs":[[-88,-147,-230,-181,-211]],"properties":{"name":"皇山町"}},{"type":"Polygon","arcs":[[-55,-64,242,-223,243,-121,-189,244]],"properties":{"name":"東高砂町"}},{"type":"Polygon","arcs":[[-63,-51,-84,-213,-224,-243]],"properties":{"name":"東仲町"}},{"type":"Polygon","arcs":[[-12,-56,-245,-188,-148,246]],"properties":{"name":"東岸町"}}]}},"arcs":[[[139.66090239167445,35.851589529771985],[139.6550403380764,35.85217210050646]],[[139.6550403380764,35.85217210050646],[139.65502595266878,35.85249636157564]],[[139.65502595266878,35.85249636157564],[139.65493964022318,35.853996756014425]],[[139.65493964022318,35.853996756014425],[139.659471043618,35.853617535441984],[139.6605535455401,35.854496887494015]],[[139.6605535455401,35.854496887494015],[139.66090239167445,35.851589529771985]],[[139.66090239167445,35.851589529771985],[139.66082686828454,35.850226534091334]],[[139.66082686828454,35.850226534091334],[139.65730244342188,35.84992425682344],[139.65691763376853,35.849154823777916]],[[139.65691763376853,35.849154823777916],[139.65549707476777,35.850385916650765]],[[139.65549707476777,35.850385916650765],[139.6550403380764,35.85217210050646]],[[139.6639485017343,35.850506827557915],[139.66082686828454,35.850226534091334]],[[139.6605535455401,35.854496887494015],[139.66031618631465,35.85520586508597]],[[139.66031618631465,35.85520586508597],[139.66578983390744,35.85113336589499]],[[139.66578983390744,35.85113336589499],[139.6639485017343,35.850506827557915]],[[139.65044060399543,35.863669628586784],[139.65042621858785,35.863669628586784]],[[139.65042621858785,35.863669628586784],[139.6500701797497,35.866631945812074]],[[139.6500701797497,35.866631945812074],[139.65141161900863,35.86703315018581]],[[139.65141161900863,35.86703315018581],[139.6540009923771,35.864048849159225]],[[139.6540009923771,35.864048849159225],[139.65044060399543,35.863669628586784]],[[139.65308751899434,35.856228111846455],[139.65256964432064,35.858371532473285]],[[139.65256964432064,35.858371532473285],[139.65358741190852,35.859311339978895]],[[139.65358741190852,35.859311339978895],[139.65472026275722,35.85941026708475]],[[139.65472026275722,35.85941026708475],[139.6555510200463,35.85677770687898]],[[139.6555510200463,35.85677770687898],[139.65432106769626,35.85651390126337]],[[139.65432106769626,35.85651390126337],[139.65308751899434,35.856228111846455]],[[139.64706003320882,35.85887166395288],[139.64680828857578,35.860894173672555]],[[139.64680828857578,35.860894173672555],[139.65014210678768,35.861009588629386]],[[139.65014210678768,35.861009588629386],[139.65008456515727,35.85911348576719]],[[139.65008456515727,35.85911348576719],[139.64706003320882,35.85887166395288]],[[139.64629041390208,35.88704940127021],[139.642021544196,35.8867196442507]],[[139.642021544196,35.8867196442507],[139.64056861802814,35.89038544311761]],[[139.64056861802814,35.89038544311761],[139.6419711952694,35.890566809478344],[139.64180216673006,35.892034228215174],[139.6441541808731,35.89283114101232],[139.6425250334621,35.89130876277224],[139.64501011262544,35.88878062562265]],[[139.64501011262544,35.88878062562265],[139.64629041390208,35.88704940127021]],[[139.65432106769626,35.85651390126337],[139.65488929129657,35.8541671304745]],[[139.65488929129657,35.8541671304745],[139.65005219799016,35.85420010617646]],[[139.65005219799016,35.85420010617646],[139.64988676580273,35.85442544013979]],[[139.64988676580273,35.85442544013979],[139.65052332008915,35.85622261589613],[139.65308751899434,35.856228111846455]],[[139.64793394672068,35.86662095391142],[139.6474592282698,35.870506590791344],[139.64664645274024,35.871237552184596]],[[139.64664645274024,35.871237552184596],[139.64725423621147,35.87128701573752]],[[139.64725423621147,35.87128701573752],[139.64792675401688,35.8713474711911]],[[139.64792675401688,35.8713474711911],[139.64875031860214,35.871094657476135]],[[139.64875031860214,35.871094657476135],[139.65112031450468,35.86852255272394]],[[139.65112031450468,35.86852255272394],[139.65141161900863,35.86703315018581]],[[139.6500701797497,35.866631945812074],[139.64793394672068,35.86662095391142]],[[139.63782460152794,35.87632680218573],[139.6370801566845,35.88165237805086],[139.63997162361264,35.88265813696037]],[[139.63997162361264,35.88265813696037],[139.6403708186736,35.881762297057364]],[[139.6403708186736,35.881762297057364],[139.64105772188663,35.880146487661754]],[[139.64105772188663,35.880146487661754],[139.64212224204923,35.87768430191606]],[[139.64212224204923,35.87768430191606],[139.63782460152794,35.87632680218573]],[[139.65358741190852,35.859311339978895],[139.65284296706508,35.86164711886711]],[[139.65284296706508,35.86164711886711],[139.65489288764846,35.862652877776625]],[[139.65489288764846,35.862652877776625],[139.65645730072524,35.86024015558386]],[[139.65645730072524,35.86024015558386],[139.65472026275722,35.85941026708475]],[[139.65493964022318,35.853996756014425],[139.65488929129657,35.8541671304745]],[[139.6555510200463,35.85677770687898],[139.65871580971884,35.85685465018353]],[[139.65871580971884,35.85685465018353],[139.65980910069666,35.85564004516166]],[[139.65980910069666,35.85564004516166],[139.66031618631465,35.85520586508597]],[[139.64787280873838,35.871429910445976],[139.64792675401688,35.8713474711911]],[[139.64725423621147,35.87128701573752],[139.64440952185805,35.873721721731584]],[[139.64440952185805,35.873721721731584],[139.64212224204923,35.87768430191606]],[[139.64212224204923,35.87768430191606],[139.644265667782,35.87831633620346]],[[139.644265667782,35.87831633620346],[139.6458156954512,35.875145172865814]],[[139.6458156954512,35.875145172865814],[139.64787280873838,35.871429910445976]],[[139.65645730072524,35.86024015558386],[139.6574247193865,35.858855176101905]],[[139.6574247193865,35.858855176101905],[139.65871580971884,35.85685465018353]],[[139.64391682164765,35.88450477626964],[139.64228767423666,35.8848235413885]],[[139.64228767423666,35.8848235413885],[139.642021544196,35.8867196442507]],[[139.64629041390208,35.88704940127021],[139.64675074694537,35.886587741442895]],[[139.64675074694537,35.886587741442895],[139.64947318533416,35.88401014074037]],[[139.64947318533416,35.88401014074037],[139.64391682164765,35.88450477626964]],[[139.6436542879589,35.863229952560765],[139.6402449463571,35.86286172388898]],[[139.6402449463571,35.86286172388898],[139.64002197253924,35.86565916260451],[139.64329105641696,35.866824304073454]],[[139.64329105641696,35.866824304073454],[139.6436542879589,35.863229952560765]],[[139.64228767423666,35.8848235413885],[139.6398925038708,35.88523573766289]],[[139.6398925038708,35.88523573766289],[139.637605224062,35.88889604057948]],[[139.637605224062,35.88889604057948],[139.64056861802814,35.89038544311761]],[[139.64239556479367,35.86854453652524],[139.6419711952694,35.87258406001427]],[[139.6419711952694,35.87258406001427],[139.64227328882905,35.87249062885874]],[[139.64227328882905,35.87249062885874],[139.64487345125323,35.871122137227765],[139.64664645274024,35.871237552184596]],[[139.64793394672068,35.86662095391142],[139.64614655982606,35.86648355515329]],[[139.64614655982606,35.86648355515329],[139.6459092006006,35.86815432405215]],[[139.6459092006006,35.86815432405215],[139.6435931499766,35.867588241168654],[139.64239556479367,35.86854453652524]],[[139.6501385104358,35.86122393069207],[139.65044060399543,35.863669628586784]],[[139.6540009923771,35.864048849159225],[139.65486411683324,35.862696845379226]],[[139.65486411683324,35.862696845379226],[139.65489288764846,35.862652877776625]],[[139.65284296706508,35.86164711886711],[139.6501385104358,35.86122393069207]],[[139.64675074694537,35.886587741442895],[139.64884022739966,35.887280231183865]],[[139.64884022739966,35.887280231183865],[139.65114908531987,35.88797272092484]],[[139.65114908531987,35.88797272092484],[139.65337522714637,35.88337261050265]],[[139.65337522714637,35.88337261050265],[139.65114189261607,35.883257195545816]],[[139.65114189261607,35.883257195545816],[139.64947318533416,35.88401014074037]],[[139.64868918061984,35.89983298172664],[139.6452115083319,35.898827222817125]],[[139.6452115083319,35.898827222817125],[139.64288466865216,35.898035805970295],[139.6441433918174,35.9008277487355],[139.645315802537,35.901602677731354],[139.64836910530067,35.90140482351965],[139.64868918061984,35.89983298172664]],[[139.6501385104358,35.86122393069207],[139.65014210678768,35.861009588629386]],[[139.64680828857578,35.860894173672555],[139.64649900231234,35.8634552865241]],[[139.64649900231234,35.8634552865241],[139.65042621858785,35.863669628586784]],[[139.64649900231234,35.8634552865241],[139.6436542879589,35.863229952560765]],[[139.64329105641696,35.866824304073454],[139.6459092006006,35.86815432405215]],[[139.64614655982606,35.86648355515329],[139.64649900231234,35.8634552865241]],[[139.66246680475123,35.87538699468012],[139.66262504423486,35.87756888695923]],[[139.66262504423486,35.87756888695923],[139.66711329140688,35.8780855062898]],[[139.66711329140688,35.8780855062898],[139.66783615813893,35.87435925196931]],[[139.66783615813893,35.87435925196931],[139.66478645172717,35.87572774360029],[139.66246680475123,35.87538699468012]],[[139.644265667782,35.87831633620346],[139.6463731299958,35.879811234691914]],[[139.6463731299958,35.879811234691914],[139.65008456515727,35.877151194734516]],[[139.65008456515727,35.877151194734516],[139.64952713061268,35.876376265738664],[139.6458156954512,35.875145172865814]],[[139.66471812104103,35.86950083188183],[139.66070099596803,35.872677491169796]],[[139.66070099596803,35.872677491169796],[139.6600824234411,35.87313915099711]],[[139.6600824234411,35.87313915099711],[139.6606110871705,35.873457916115974]],[[139.6606110871705,35.873457916115974],[139.66193814102184,35.87379866503614]],[[139.66193814102184,35.87379866503614],[139.66411753027364,35.87302923199061],[139.6671924111487,35.873496387768256]],[[139.6671924111487,35.873496387768256],[139.66778580921232,35.872441165305816],[139.66471812104103,35.86950083188183]],[[139.64105772188663,35.880146487661754],[139.64749878814072,35.881734817305734]],[[139.64749878814072,35.881734817305734],[139.64753475165972,35.880734554346546]],[[139.64753475165972,35.880734554346546],[139.6463731299958,35.879811234691914]],[[139.64068010493708,35.88396617313777],[139.63842878864725,35.88344405785688],[139.63612712343084,35.88703840936956],[139.63391536701192,35.88684605110818],[139.63277172710752,35.88832995769598],[139.63357371358137,35.88997324684322],[139.63601923287382,35.88732419878647],[139.637098138444,35.88732969473679],[139.6359149386687,35.889275261151916],[139.637605224062,35.88889604057948]],[[139.6398925038708,35.88523573766289],[139.64068010493708,35.88396617313777]],[[139.64501011262544,35.88878062562265],[139.64493099288364,35.88992927924062],[139.64715713471014,35.89024804435948]],[[139.64715713471014,35.89024804435948],[139.6479375430726,35.89026453221045]],[[139.6479375430726,35.89026453221045],[139.64884022739966,35.887280231183865]],[[139.66482960794997,35.858338556771336],[139.6633622963745,35.85848145147979]],[[139.6633622963745,35.85848145147979],[139.66244522663985,35.86033908268971]],[[139.66244522663985,35.86033908268971],[139.66615666180132,35.86208679489312]],[[139.66615666180132,35.86208679489312],[139.66784694719462,35.860014821620524],[139.66482960794997,35.858338556771336]],[[139.66128000862403,35.886472326486064],[139.6611541363075,35.88640637508216]],[[139.6611541363075,35.88640637508216],[139.65754339899925,35.88819805488818]],[[139.65754339899925,35.88819805488818],[139.6583777526402,35.890550321627366]],[[139.6583777526402,35.890550321627366],[139.66258548436397,35.89047337832281]],[[139.66258548436397,35.89047337832281],[139.663416241653,35.88943464371135]],[[139.663416241653,35.88943464371135],[139.66128000862403,35.886472326486064]],[[139.65196905355322,35.889583034370126],[139.6490883756808,35.89151211293428]],[[139.6490883756808,35.89151211293428],[139.65209852222165,35.89417215289168]],[[139.65209852222165,35.89417215289168],[139.65336443809068,35.894084217686476]],[[139.65336443809068,35.894084217686476],[139.6519187046266,35.890885574597206],[139.65196905355322,35.889583034370126]],[[139.65549707476777,35.850385916650765],[139.64925021151632,35.850402404501736],[139.649624232114,35.85221057215873]],[[139.649624232114,35.85221057215873],[139.65502595266878,35.85249636157564]],[[139.6419711952694,35.87258406001427],[139.6381518695509,35.87423284511183]],[[139.6381518695509,35.87423284511183],[139.63782460152794,35.87632680218573]],[[139.64440952185805,35.873721721731584],[139.64227328882905,35.87249062885874]],[[139.66562440172,35.88386724603192],[139.66377228049117,35.884109067846225]],[[139.66377228049117,35.884109067846225],[139.66022627751713,35.88403212454167]],[[139.66022627751713,35.88403212454167],[139.65644291531763,35.883817782478985]],[[139.65644291531763,35.883817782478985],[139.6611541363075,35.88640637508216]],[[139.66128000862403,35.886472326486064],[139.66562440172,35.88386724603192]],[[139.6479375430726,35.89026453221045],[139.6490883756808,35.89151211293428]],[[139.65196905355322,35.889583034370126],[139.65256604796872,35.889681961475986]],[[139.65256604796872,35.889681961475986],[139.65254806620922,35.888335453646306]],[[139.65254806620922,35.888335453646306],[139.65114908531987,35.88797272092484]],[[139.66682558325482,35.853469144783205],[139.66311774444526,35.85507396227816]],[[139.66311774444526,35.85507396227816],[139.6640132360685,35.85511792988076],[139.66482960794997,35.858338556771336]],[[139.66482960794997,35.858338556771336],[139.66625735965454,35.8574811885206],[139.66682558325482,35.853469144783205]],[[139.6606110871705,35.873457916115974],[139.65858993740233,35.877667814065084]],[[139.65858993740233,35.877667814065084],[139.66256030990064,35.87771727761801]],[[139.66256030990064,35.87771727761801],[139.66262504423486,35.87756888695923]],[[139.66246680475123,35.87538699468012],[139.66193814102184,35.87379866503614]],[[139.6600824234411,35.87313915099711],[139.6568097432115,35.8767335025098]],[[139.6568097432115,35.8767335025098],[139.65526331189423,35.87826687265053]],[[139.65526331189423,35.87826687265053],[139.65484253872185,35.87893188263988]],[[139.65484253872185,35.87893188263988],[139.65765848226008,35.879882682046144]],[[139.65765848226008,35.879882682046144],[139.65825907302747,35.87968482783443]],[[139.65825907302747,35.87968482783443],[139.65858993740233,35.877667814065084]],[[139.649624232114,35.85221057215873],[139.65005219799016,35.85420010617646]],[[139.64046072747112,35.85998184591857],[139.64680828857578,35.860894173672555]],[[139.64706003320882,35.85887166395288],[139.64292063217118,35.85854190693337]],[[139.64292063217118,35.85854190693337],[139.64020538648617,35.858338556771336],[139.64046072747112,35.85998184591857]],[[139.65164897823408,35.87619489937793],[139.65526331189423,35.87826687265053]],[[139.6568097432115,35.8767335025098],[139.65372766963264,35.87510670121354]],[[139.65372766963264,35.87510670121354],[139.65164897823408,35.87619489937793]],[[139.64616813793748,35.89535378221159],[139.64489862571654,35.89679921714713],[139.64606744008424,35.897227901272494],[139.6452115083319,35.898827222817125]],[[139.64868918061984,35.89983298172664],[139.6501277213801,35.89725538102412]],[[139.6501277213801,35.89725538102412],[139.64616813793748,35.89535378221159]],[[139.63997162361264,35.88265813696037],[139.64068010493708,35.88396617313777]],[[139.64391682164765,35.88450477626964],[139.64456776134168,35.88323521174452]],[[139.64456776134168,35.88323521174452],[139.6403708186736,35.881762297057364]],[[139.66844034525823,35.88313078868834],[139.66562440172,35.88386724603192]],[[139.663416241653,35.88943464371135],[139.66844034525823,35.88313078868834]],[[139.64046072747112,35.85998184591857],[139.6402449463571,35.86286172388898]],[[139.65336443809068,35.894084217686476],[139.65429229688104,35.8940677298355]],[[139.65429229688104,35.8940677298355],[139.65382117478205,35.8928915964659],[139.65537839515505,35.89232001763208],[139.65488209859276,35.89049536212411]],[[139.65488209859276,35.89049536212411],[139.65256604796872,35.889681961475986]],[[139.65644291531763,35.883817782478985],[139.65573443399322,35.883729847273784]],[[139.65573443399322,35.883729847273784],[139.65596819686675,35.88530718501712],[139.654511674347,35.88834094959663]],[[139.654511674347,35.88834094959663],[139.65754339899925,35.88819805488818]],[[139.64239556479367,35.86854453652524],[139.6398169804809,35.869434880477925],[139.63935664743764,35.871122137227765],[139.63799003371537,35.87120457648264],[139.6381518695509,35.87423284511183]],[[139.66256030990064,35.87771727761801],[139.66211076591307,35.87974528328801]],[[139.66211076591307,35.87974528328801],[139.66586535729735,35.87999260105265]],[[139.66586535729735,35.87999260105265],[139.66693707016375,35.879063785447684]],[[139.66693707016375,35.879063785447684],[139.66711329140688,35.8780855062898]],[[139.66311774444526,35.85507396227816],[139.661679203685,35.85731081406052]],[[139.661679203685,35.85731081406052],[139.6633622963745,35.85848145147979]],[[139.65008456515727,35.877151194734516],[139.65010254691677,35.87717317853581]],[[139.65010254691677,35.87717317853581],[139.65163099647455,35.8761894034276]],[[139.65163099647455,35.8761894034276],[139.64828638920696,35.87314464694744]],[[139.64828638920696,35.87314464694744],[139.64787280873838,35.871429910445976]],[[139.65583872819832,35.865400852939224],[139.6551086687625,35.869022684203536]],[[139.6551086687625,35.869022684203536],[139.65913298653933,35.86957227923605]],[[139.65913298653933,35.86957227923605],[139.6601004052006,35.86557672334963]],[[139.6601004052006,35.86557672334963],[139.6600968088487,35.86557672334963]],[[139.6600968088487,35.86557672334963],[139.65583872819832,35.865400852939224]],[[139.64749878814072,35.881734817305734],[139.64667522355546,35.88329017124777],[139.64456776134168,35.88323521174452]],[[139.65114189261607,35.883257195545816],[139.6528321780094,35.881498491441754]],[[139.6528321780094,35.881498491441754],[139.64753475165972,35.880734554346546]],[[139.66783615813893,35.87435925196931],[139.6671924111487,35.873496387768256]],[[139.64715713471014,35.89024804435948],[139.64666803085166,35.89350714290233]],[[139.64666803085166,35.89350714290233],[139.6490883756808,35.89151211293428]],[[139.65825907302747,35.87968482783443],[139.6612116779379,35.879926649648745]],[[139.6612116779379,35.879926649648745],[139.66211076591307,35.87974528328801]],[[139.65164897823408,35.87619489937793],[139.65163099647455,35.8761894034276]],[[139.65010254691677,35.87717317853581],[139.65338241985017,35.88113575872029]],[[139.65338241985017,35.88113575872029],[139.65484253872185,35.87893188263988]],[[139.65338241985017,35.88113575872029],[139.6528321780094,35.881498491441754]],[[139.65337522714637,35.88337261050265],[139.65573443399322,35.883729847273784]],[[139.65573443399322,35.883729847273784],[139.65522375202332,35.882757064066226],[139.65765848226008,35.879882682046144]],[[139.6550403380764,35.86295515504451],[139.65486411683324,35.862696845379226]],[[139.65112031450468,35.86852255272394],[139.6551086687625,35.869022684203536]],[[139.65583872819832,35.865400852939224],[139.6550403380764,35.86295515504451]],[[139.66017233223863,35.86968219824256],[139.658963958,35.87197950547849]],[[139.658963958,35.87197950547849],[139.66070099596803,35.872677491169796]],[[139.66471812104103,35.86950083188183],[139.6645526888536,35.868599496028494]],[[139.6645526888536,35.868599496028494],[139.66321844229847,35.86825874710833],[139.66017233223863,35.86968219824256]],[[139.64875031860214,35.871094657476135],[139.65211650398115,35.87111664127744],[139.658963958,35.87197950547849]],[[139.66017233223863,35.86968219824256],[139.65913298653933,35.86957227923605]],[[139.6600968088487,35.86557672334963],[139.66025145198043,35.86403236130825],[139.66235531784233,35.86050396119947]],[[139.66235531784233,35.86050396119947],[139.6617583234268,35.860251147484504]],[[139.6617583234268,35.860251147484504],[139.66057512365148,35.8621032827441],[139.6550403380764,35.86295515504451]],[[139.6645526888536,35.868599496028494],[139.665081352583,35.86572511400841]],[[139.665081352583,35.86572511400841],[139.6601004052006,35.86557672334963]],[[139.658963958,35.87197950547849],[139.65725928719908,35.87377668123484],[139.65535322069175,35.87426032486346]],[[139.65535322069175,35.87426032486346],[139.65372766963264,35.87510670121354]],[[139.64828638920696,35.87314464694744],[139.65545391854496,35.87382064883744],[139.65535322069175,35.87426032486346]],[[139.654511674347,35.88834094959663],[139.65254806620922,35.888335453646306]],[[139.65488209859276,35.89049536212411],[139.6583777526402,35.890550321627366]],[[139.64988676580273,35.85442544013979],[139.64789079049788,35.85459031864954],[139.64736212676848,35.85614567259158]],[[139.64736212676848,35.85614567259158],[139.64706003320882,35.85887166395288]],[[139.65008456515727,35.85911348576719],[139.650818220945,35.85787689694402],[139.65256964432064,35.858371532473285]],[[139.6612116779379,35.879926649648745],[139.66219348200678,35.881102783018335],[139.66022627751713,35.88403212454167]],[[139.66377228049117,35.884109067846225],[139.66410314486603,35.88183374441159],[139.66586535729735,35.87999260105265]],[[139.66844034525823,35.88313078868834],[139.66855183216714,35.88169084970313],[139.6671924111487,35.881262165577766],[139.66804474654916,35.879135232801914],[139.66693707016375,35.879063785447684]],[[139.6611649253632,35.84709933835629],[139.65813679706284,35.84664867042962],[139.65691763376853,35.849154823777916]],[[139.66082686828454,35.850226534091334],[139.6611649253632,35.84709933835629]],[[139.64736212676848,35.85614567259158],[139.6452366827952,35.855057474427184],[139.6453050134813,35.856827170431906],[139.6430285227282,35.8575251561232],[139.64292063217118,35.85854190693337]],[[139.65429229688104,35.8940677298355],[139.6634593978758,35.893809420170214],[139.66513170150964,35.89454587751379],[139.66258548436397,35.89047337832281]],[[139.6639485017343,35.850506827557915],[139.66441962383328,35.84896796146686],[139.66295950496163,35.84883056270873],[139.6628480180527,35.847038882902716],[139.6611649253632,35.84709933835629]],[[139.6574247193865,35.858855176101905],[139.6617583234268,35.860251147484504]],[[139.66235531784233,35.86050396119947],[139.66244522663985,35.86033908268971]],[[139.661679203685,35.85731081406052],[139.65980910069666,35.85564004516166]],[[139.665081352583,35.86572511400841],[139.66615666180132,35.86208679489312]],[[139.66682558325482,35.853469144783205],[139.66578983390744,35.85113336589499]],[[139.64666803085166,35.89350714290233],[139.64616813793748,35.89535378221159]],[[139.6501277213801,35.89725538102412],[139.65209852222165,35.89417215289168]]]}