{"type":"Topology","bbox":[139.6164526272069,35.82866027610319,139.69800462951542,35.866994883935945],"objects":{"town":{"type":"GeometryCollection","geometries":[{"type":"MultiPolygon","arcs":[[[-9,5,0,1,2,3,31,-18,-24]]],"properties":{"name":"大谷場"}},{"type":"MultiPolygon","arcs":[[[14,15,21,22,6,7,-6,8,23,17,18,19]],[[12,13]]],"properties":{"name":"南浦和"}},{"type":"MultiPolygon","arcs":[[[-32,-4,-3,-2,10,24,37,-36]]],"properties":{"name":"太田窪"}},{"type":"MultiPolygon","arcs":[[[20]],[[29,30,26,27,32,33]]],"properties":{"name":"大字大谷口"}},{"type":"MultiPolygon","arcs":[[[-27,34]],[[-19,35,36]]],"properties":{"name":"大字太田窪"}},{"type":"MultiPolygon","arcs":[[[165,-72,-77,94,52,53,54,55,-156,143,-137,44,38,39,40,41,56,57,58]]],"properties":{"name":"白幡"}},{"type":"MultiPolygon","arcs":[[[132,-45,136,137,63,64,68,69,70,92,93,49,135]]],"properties":{"name":"辻"}},{"type":"MultiPolygon","arcs":[[[-165,-187,-191,205,-113,206,203,182,75,76,71,-166,-59,-101]]],"properties":{"name":"別所"}},{"type":"MultiPolygon","arcs":[[[-202,207,-169,-115,78,79,-142,-141,196,-88,-87,-155,-41,-40,179,223,224,81,208]]],"properties":{"name":"内谷"}},{"type":"Polygon","arcs":[[-34,82,-30]],"properties":{"name":"大字広ケ谷戸"}},{"type":"MultiPolygon","arcs":[[[-79,114,115,116,117,118,-177,-160,-159,-97,-122,84,85,86,87,-197,140,141,-80]]],"properties":{"name":"曲本"}},{"type":"Polygon","arcs":[[88]],"properties":{"name":"大字円正寺"}},{"type":"MultiPolygon","arcs":[[[-86,-85,121,96,97,98,99,100,-58,-57,-42,154]]],"properties":{"name":"沼影"}},{"type":"MultiPolygon","arcs":[[[104,-16,-15,152,-13,153,226,-93,-71,124,221,-149,-216]]],"properties":{"name":"文蔵"}},{"type":"MultiPolygon","arcs":[[[-218,127,128,129,184,187,188,210,110,111,112,-206,190,186,164,-100]]],"properties":{"name":"鹿手袋"}},{"type":"MultiPolygon","arcs":[[[145,146,147,148,-222,-125,-70,-69,-65,-64,-138,-144,155,-56,-55,-173]]],"properties":{"name":"根岸"}},{"type":"MultiPolygon","arcs":[[[-119,175,216,-128,217,-99,-98,158,159,176]]],"properties":{"name":"四谷"}},{"type":"MultiPolygon","arcs":[[[-116,168,-208,201,199,214,166,-175,209,-117]]],"properties":{"name":"松本"}},{"type":"MultiPolygon","arcs":[[[172,-54,170,194,-192,-146]]],"properties":{"name":"神明"}},{"type":"Polygon","arcs":[[173,174]],"properties":{"name":"大字堤外"}},{"type":"MultiPolygon","arcs":[[[-148,-147,191,192,-7,-23,-22,-105,215]]],"properties":{"name":"南本町"}},{"type":"MultiPolygon","arcs":[[[-188,-185,-130,212,218,-111,-211,-189]]],"properties":{"name":"関"}}]}},"arcs":[[[139.66748481827045,35.85404032449331],[139.66483411312493,35.85834189764947],[139.66777843484041,35.8599751152649]],[[139.66777843484041,35.8599751152649],[139.6694830421494,35.85920067874303]],[[139.6694830421494,35.85920067874303],[139.671644386345,35.858096531622735],[139.67330005755898,35.85627928948725]],[[139.67330005755898,35.85627928948725],[139.6733082135748,35.85627545564308]],[[139.6733082135748,35.85627545564308],[139.66986637489353,35.85469591184599]],[[139.66986637489353,35.85469591184599],[139.66748481827045,35.85404032449331]],[[139.66683233700385,35.84952788990794],[139.66550290642317,35.850900406119976]],[[139.66550290642317,35.850900406119976],[139.66748481827045,35.85404032449331]],[[139.66986637489353,35.85469591184599],[139.67276991652986,35.852690811346285]],[[139.67276991652986,35.852690811346285],[139.66683233700385,35.84952788990794]],[[139.66777843484041,35.8599751152649],[139.6665713444972,35.86157382828283],[139.6708614088251,35.86386646709511],[139.6739606948414,35.860749551786775]],[[139.6739606948414,35.860749551786775],[139.6694830421494,35.85920067874303]],[[139.6773780654752,35.83952155663027],[139.67527381339042,35.84165700783167]],[[139.67527381339042,35.84165700783167],[139.67746778164934,35.84174902009169],[139.67913160887917,35.840200147047945],[139.6773780654752,35.83952155663027]],[[139.67506175697878,35.84187937079339],[139.67435218360137,35.842596299652755]],[[139.67435218360137,35.842596299652755],[139.67055148022345,35.84578605800027]],[[139.67055148022345,35.84578605800027],[139.67220715143742,35.84697071584809],[139.673153249274,35.850405840222344],[139.67563267808706,35.85253362373541]],[[139.67563267808706,35.85253362373541],[139.6758447344987,35.85256429448875]],[[139.6758447344987,35.85256429448875],[139.67601601083118,35.85159049807016]],[[139.67601601083118,35.85159049807016],[139.6757468623087,35.849090831672825],[139.67783480236182,35.84416434191734],[139.67506175697878,35.84187937079339]],[[139.6838947221253,35.85506012704192],[139.6838947221253,35.85506012704192]],[[139.67055148022345,35.84578605800027],[139.66886318494613,35.84748445096656]],[[139.66886318494613,35.84748445096656],[139.66683233700385,35.84952788990794]],[[139.67276991652986,35.852690811346285],[139.67563267808706,35.85253362373541]],[[139.6739606948414,35.860749551786775],[139.67736990945937,35.8583495653378]],[[139.67736990945937,35.8583495653378],[139.67330005755898,35.85627928948725]],[[139.68471032370854,35.85632529561726],[139.68468585566106,35.85694254452826]],[[139.68468585566106,35.85694254452826],[139.68211671067385,35.858154039285246],[139.68002877062074,35.858019854739375],[139.67601601083118,35.85964923851065],[139.67661955600278,35.8617080128287]],[[139.67661955600278,35.8617080128287],[139.67905004872085,35.860833896358464],[139.68212486668966,35.86168884360786]],[[139.68212486668966,35.86168884360786],[139.683715289777,35.85942687554892],[139.6864557110967,35.85795467938853],[139.68596635014674,35.85980642612152],[139.68732840479078,35.86150481908781],[139.6889759199889,35.86130545919109],[139.68909826022642,35.863486916522504]],[[139.68909826022642,35.863486916522504],[139.69210783006858,35.86441087296692],[139.69449754270747,35.86340640579498],[139.6952071160849,35.860331662772495],[139.68471032370854,35.85632529561726]],[[139.6733082135748,35.85627545564308],[139.67595076270453,35.85371061389489],[139.6758447344987,35.85256429448875]],[[139.67661955600278,35.8617080128287],[139.67417275125305,35.86465623899365],[139.674613176108,35.86589073681565],[139.67704366882606,35.86687603476675],[139.6816273497239,35.86650031803831],[139.68309543257374,35.86472908203284]],[[139.68309543257374,35.86472908203284],[139.68398443829946,35.863701611795896],[139.68183940613554,35.86358659647087],[139.68212486668966,35.86168884360786]],[[139.68471032370854,35.85632529561726],[139.68468585566106,35.85694254452826]],[[139.6758447344987,35.85256429448875],[139.68100749252062,35.85390230610328]],[[139.68100749252062,35.85390230610328],[139.68453904737606,35.851908707136076],[139.68669223555582,35.84984226512969],[139.68701847618914,35.84833556437179],[139.6848000398827,35.8492710223487],[139.6806730958715,35.84993811123388],[139.67601601083118,35.85159049807016]],[[139.67736990945937,35.8583495653378],[139.68100749252062,35.85390230610328]],[[139.65347278307033,35.83522765116245],[139.65343200299117,35.83526982344829]],[[139.65343200299117,35.83526982344829],[139.6526898055504,35.83610560147685]],[[139.6526898055504,35.83610560147685],[139.65184157990385,35.837182911687975]],[[139.65184157990385,35.837182911687975],[139.6513766870014,35.838106868132385]],[[139.6513766870014,35.838106868132385],[139.6511238505106,35.841959881520914]],[[139.6511238505106,35.841959881520914],[139.65563412726593,35.83892731078427]],[[139.65563412726593,35.83892731078427],[139.65347278307033,35.83522765116245]],[[139.65735504660657,35.830439179797004],[139.6601851841004,35.83186536982738]],[[139.6601851841004,35.83186536982738],[139.6617429831244,35.83270881554427]],[[139.6617429831244,35.83270881554427],[139.66300716557845,35.833548427417]],[[139.66300716557845,35.833548427417],[139.66619616776893,35.831550994605635]],[[139.66619616776893,35.831550994605635],[139.66248518056517,35.82866027610319],[139.65998943972045,35.828794460649064],[139.65949192275465,35.830270490653625],[139.65735504660657,35.830439179797004]],[[139.65579724758257,35.84484293233502],[139.65297526610456,35.84760330013576]],[[139.65297526610456,35.84760330013576],[139.65751001090737,35.84799818608503]],[[139.65751001090737,35.84799818608503],[139.6581380241265,35.846648672938]],[[139.6581380241265,35.846648672938],[139.6584397967123,35.84623845161206]],[[139.6584397967123,35.84623845161206],[139.6587741933614,35.84528765825847]],[[139.6587741933614,35.84528765825847],[139.65579724758257,35.84484293233502]],[[139.6513766870014,35.838106868132385],[139.64814690473176,35.8422704228985]],[[139.64814690473176,35.8422704228985],[139.64698059446772,35.84478542467251]],[[139.64698059446772,35.84478542467251],[139.65085470198812,35.84632663002792]],[[139.65085470198812,35.84632663002792],[139.6510993824631,35.8458895717928]],[[139.6510993824631,35.8458895717928],[139.6511238505106,35.841959881520914]],[[139.6617429831244,35.83270881554427],[139.65928802235885,35.83758546532558]],[[139.65928802235885,35.83758546532558],[139.66013624800544,35.839471716656085]],[[139.66013624800544,35.839471716656085],[139.6601770280846,35.83947938434442]],[[139.6601770280846,35.83947938434442],[139.66157170679193,35.83858226480918]],[[139.66157170679193,35.83858226480918],[139.66627772792725,35.83545001412418]],[[139.66627772792725,35.83545001412418],[139.66300716557845,35.833548427417]],[[139.66831673188537,35.835994419995984],[139.66627772792725,35.83545001412418]],[[139.66157170679193,35.83858226480918],[139.66416531982665,35.838858301589255]],[[139.66416531982665,35.838858301589255],[139.66719935771633,35.839360535175224]],[[139.66719935771633,35.839360535175224],[139.66824332774286,35.83892731078427],[139.66831673188537,35.835994419995984]],[[139.65070789370313,35.84766847548661],[139.65075682979813,35.846529823768805]],[[139.65075682979813,35.846529823768805],[139.65011250454737,35.847614801668264]],[[139.65011250454737,35.847614801668264],[139.6478125080826,35.8522384177345]],[[139.6478125080826,35.8522384177345],[139.64744548737016,35.85540900686118]],[[139.64744548737016,35.85540900686118],[139.65005541243653,35.854197512104186],[139.64924796686913,35.850405840222344],[139.65024300080069,35.850402006378175]],[[139.65024300080069,35.850402006378175],[139.65070789370313,35.84766847548661]],[[139.63460791844992,35.83069221351207],[139.63215295768435,35.833391239806126]],[[139.63215295768435,35.833391239806126],[139.63485259892488,35.83485193443401]],[[139.63485259892488,35.83485193443401],[139.63567635652396,35.835101134304914]],[[139.63567635652396,35.835101134304914],[139.63717706343712,35.83136697008558]],[[139.63717706343712,35.83136697008558],[139.63460791844992,35.83069221351207]],[[139.68309543257374,35.86472908203284],[139.68488975605686,35.863954645510965],[139.68711634837913,35.86455655904529],[139.68909826022642,35.863486916522504]],[[139.642975990694,35.83645064745194],[139.64218485715824,35.83847491717248]],[[139.64218485715824,35.83847491717248],[139.64532492325372,35.839000153823456],[139.64751889151265,35.83856309558834]],[[139.64751889151265,35.83856309558834],[139.6478532881618,35.837715816027284]],[[139.6478532881618,35.837715816027284],[139.64461534987632,35.83688387184289]],[[139.64461534987632,35.83688387184289],[139.642975990694,35.83645064745194]],[[139.69477484724578,35.850547692456544],[139.69343726064926,35.849566228349616],[139.6930947079843,35.85339240482897],[139.69497059162575,35.853695278518224],[139.6962184620481,35.8549681147819],[139.69800462951542,35.85396364760996],[139.69556598078154,35.85243010994288],[139.69623477407978,35.851264621315906],[139.69477484724578,35.850547692456544]],[[139.6601851841004,35.83186536982738],[139.6573632026224,35.83563403864422]],[[139.6573632026224,35.83563403864422],[139.6592227742322,35.83748961922139]],[[139.6592227742322,35.83748961922139],[139.65928802235885,35.83758546532558]],[[139.66831673188537,35.835994419995984],[139.66834119993285,35.83556119560504]],[[139.66834119993285,35.83556119560504],[139.66826779579037,35.83302319076603],[139.66619616776893,35.831550994605635]],[[139.65024300080069,35.850402006378175],[139.65549547499677,35.85038283715733],[139.65751001090737,35.84799818608503]],[[139.65297526610456,35.84760330013576],[139.65070789370313,35.84766847548661]],[[139.64172812027164,35.83932219673355],[139.639713584361,35.83941420899357]],[[139.639713584361,35.83941420899357],[139.63963202420268,35.842067229157614]],[[139.63963202420268,35.842067229157614],[139.63962386818685,35.84263463809443]],[[139.63962386818685,35.84263463809443],[139.64307386288397,35.84433686490488]],[[139.64307386288397,35.84433686490488],[139.64669513391357,35.84541034127184],[139.64698059446772,35.84478542467251]],[[139.64814690473176,35.8422704228985],[139.64627102109029,35.841760521624195]],[[139.64627102109029,35.841760521624195],[139.6421767011424,35.84071388216642],[139.64172812027164,35.83932219673355]],[[139.67107346523673,35.84077905751727],[139.66941779402273,35.84514963986844]],[[139.66941779402273,35.84514963986844],[139.67055148022345,35.84578605800027]],[[139.67435218360137,35.842596299652755],[139.67107346523673,35.84077905751727]],[[139.65011250454737,35.847614801668264],[139.64908484655248,35.8477528200583]],[[139.64908484655248,35.8477528200583],[139.64450116565465,35.848987317880294]],[[139.64450116565465,35.848987317880294],[139.6429025865515,35.850183477260614],[139.6424213816174,35.85184353178523]],[[139.6424213816174,35.85184353178523],[139.6478125080826,35.8522384177345]],[[139.63822103346368,35.852859500489664],[139.63706287921548,35.85406716140249]],[[139.63706287921548,35.85406716140249],[139.63751146008624,35.855002619379405],[139.63606784528392,35.86043134272086],[139.63769089243456,35.85969141079649],[139.6393547196644,35.854672908780984]],[[139.6393547196644,35.854672908780984],[139.63954230802852,35.85409783215583]],[[139.63954230802852,35.85409783215583],[139.63822103346368,35.852859500489664]],[[139.63215295768435,35.833391239806126],[139.63052175451787,35.83539634030583]],[[139.63052175451787,35.83539634030583],[139.629249416048,35.8371560747788]],[[139.629249416048,35.8371560747788],[139.62835225430644,35.83923018447352]],[[139.62835225430644,35.83923018447352],[139.6322916099535,35.838658941692536],[139.63252813441264,35.83949855356526]],[[139.63252813441264,35.83949855356526],[139.63300933934676,35.8386512740042]],[[139.63300933934676,35.8386512740042],[139.63214480166852,35.83841740950997],[139.63382494093,35.83645831514028]],[[139.63382494093,35.83645831514028],[139.63485259892488,35.83485193443401]],[[139.64218485715824,35.83847491717248],[139.64172812027164,35.83932219673355]],[[139.64627102109029,35.841760521624195],[139.64751889151265,35.83856309558834]],[[139.67259048418157,35.83625128755522],[139.66831673188537,35.835994419995984]],[[139.66719935771633,35.839360535175224],[139.6671912017005,35.84045701460718]],[[139.6671912017005,35.84045701460718],[139.67107346523673,35.84077905751727]],[[139.67107346523673,35.84077905751727],[139.67259048418157,35.83625128755522]],[[139.63630436974304,35.84369661292888],[139.63570898058728,35.84416817576151]],[[139.63570898058728,35.84416817576151],[139.6334742322492,35.848205213670084]],[[139.6334742322492,35.848205213670084],[139.63610046934724,35.84943971149208]],[[139.63610046934724,35.84943971149208],[139.63773167251372,35.84720074649815]],[[139.63773167251372,35.84720074649815],[139.63630436974304,35.84369661292888]],[[139.65435363278024,35.83411583635382],[139.65347278307033,35.83522765116245]],[[139.65563412726593,35.83892731078427],[139.6592227742322,35.83748961922139]],[[139.6573632026224,35.83563403864422],[139.65435363278024,35.83411583635382]],[[139.65735504660657,35.830439179797004],[139.65435363278024,35.83411583635382]],[[139.65563412726593,35.83892731078427],[139.65789334365152,35.84097458356982]],[[139.65789334365152,35.84097458356982],[139.66013624800544,35.839471716656085]],[[139.63382494093,35.83645831514028],[139.63914266325276,35.83733626545468]],[[139.63914266325276,35.83733626545468],[139.63961571217104,35.835453847968346]],[[139.63961571217104,35.835453847968346],[139.64009691710513,35.83416951017217]],[[139.64009691710513,35.83416951017217],[139.63567635652396,35.835101134304914]],[[139.6510993824631,35.8458895717928],[139.6543944128594,35.843294059291274]],[[139.6543944128594,35.843294059291274],[139.65789334365152,35.84097458356982]],[[139.66067454505037,35.84306786248538],[139.66118021803197,35.84611960244286]],[[139.66118021803197,35.84611960244286],[139.66459758866577,35.84602375633867]],[[139.66459758866577,35.84602375633867],[139.66547028235985,35.845916408701974]],[[139.66547028235985,35.845916408701974],[139.6654295022807,35.84392664357894]],[[139.6654295022807,35.84392664357894],[139.66617169972145,35.84288383796533]],[[139.66617169972145,35.84288383796533],[139.66446709241245,35.84291450871867]],[[139.66446709241245,35.84291450871867],[139.66067454505037,35.84306786248538]],[[139.67606494692618,35.83694521334957],[139.67259048418157,35.83625128755522]],[[139.67506175697878,35.84187937079339],[139.67527381339042,35.84165700783167]],[[139.6773780654752,35.83952155663027],[139.67562452207122,35.83892731078427],[139.67606494692618,35.83694521334957]],[[139.65184157990385,35.837182911687975],[139.64844867731756,35.83628195830857],[139.6478532881618,35.837715816027284]],[[139.6543944128594,35.843294059291274],[139.65579724758257,35.84484293233502]],[[139.6587741933614,35.84528765825847],[139.65873341328225,35.843374570018796],[139.66031568035373,35.84107426351818]],[[139.66031568035373,35.84107426351818],[139.6601770280846,35.83947938434442]],[[139.639713584361,35.83941420899357],[139.6389550748886,35.8389004738751]],[[139.6389550748886,35.8389004738751],[139.63673663858216,35.838635938627526]],[[139.63673663858216,35.838635938627526],[139.63570898058728,35.84119694653155]],[[139.63570898058728,35.84119694653155],[139.63963202420268,35.842067229157614]],[[139.63962386818685,35.84263463809443],[139.63991748475684,35.84658733143132]],[[139.63991748475684,35.84658733143132],[139.6421196090316,35.846560494522144]],[[139.6421196090316,35.846560494522144],[139.64307386288397,35.84433686490488]],[[139.65085470198812,35.84632663002792],[139.65075682979813,35.846529823768805]],[[139.62477991937183,35.83414650710716],[139.62420899826355,35.83466024222563]],[[139.62420899826355,35.83466024222563],[139.62433133850104,35.835683878618404],[139.629249416048,35.8371560747788]],[[139.63052175451787,35.83539634030583],[139.6305543785812,35.83520848194161]],[[139.6305543785812,35.83520848194161],[139.62477991937183,35.83414650710716]],[[139.6581380241265,35.846648672938],[139.66116390600033,35.84710106654979]],[[139.66116390600033,35.84710106654979],[139.66118021803197,35.84611960244286]],[[139.66118021803197,35.84611960244286],[139.6584397967123,35.84623845161206]],[[139.62420899826355,35.83466024222563],[139.6189157439883,35.82922001735167],[139.61703986034684,35.83025898912112],[139.6164526272069,35.83421935014635],[139.6225043909546,35.83669984732284]],[[139.6225043909546,35.83669984732284],[139.62420899826355,35.83466024222563]],[[139.63252813441264,35.83949855356526],[139.63172068884523,35.84012730400876],[139.63570898058728,35.84119694653155]],[[139.63673663858216,35.838635938627526],[139.63300933934676,35.8386512740042]],[[139.6464993895336,35.832080065100776],[139.64563485185536,35.834257688588025]],[[139.64563485185536,35.834257688588025],[139.6526898055504,35.83610560147685]],[[139.65343200299117,35.83526982344829],[139.6500227883732,35.83283149855764],[139.6464993895336,35.832080065100776]],[[139.6424213816174,35.85184353178523],[139.64225010528492,35.854504219637604]],[[139.64225010528492,35.854504219637604],[139.64523520707957,35.85505245935359]],[[139.64523520707957,35.85505245935359],[139.64744548737016,35.85540900686118]],[[139.63991748475684,35.84658733143132],[139.63773167251372,35.84720074649815]],[[139.63610046934724,35.84943971149208],[139.63617387348972,35.84981159437635]],[[139.63617387348972,35.84981159437635],[139.6424295376332,35.8488799702436]],[[139.6424295376332,35.8488799702436],[139.6421196090316,35.846560494522144]],[[139.63617387348972,35.84981159437635],[139.6365408942022,35.85145631352429]],[[139.6365408942022,35.85145631352429],[139.63703025515215,35.85178985796688]],[[139.63703025515215,35.85178985796688],[139.64161393604996,35.85070104622326]],[[139.64161393604996,35.85070104622326],[139.6424295376332,35.8488799702436]],[[139.66459758866577,35.84602375633867],[139.66441815631745,35.84896814865946]],[[139.66441815631745,35.84896814865946],[139.663953263415,35.8505055201707],[139.66550290642317,35.850900406119976]],[[139.66886318494613,35.84748445096656],[139.66547028235985,35.845916408701974]],[[139.66116390600033,35.84710106654979],[139.66285220127764,35.84703589119894],[139.66295822948345,35.84883013026942],[139.66441815631745,35.84896814865946]],[[139.6406678382134,35.83296951694768],[139.64009691710513,35.83416951017217]],[[139.63961571217104,35.835453847968346],[139.642975990694,35.83645064745194]],[[139.64461534987632,35.83688387184289],[139.64563485185536,35.834257688588025]],[[139.64563485185536,35.834257688588025],[139.6406678382134,35.83296951694768]],[[139.63158203657608,35.82962257098929],[139.630709342882,35.829135672779984],[139.62680261129827,35.832164409672465]],[[139.62680261129827,35.832164409672465],[139.63111714367363,35.83348708591032]],[[139.63111714367363,35.83348708591032],[139.63158203657608,35.82962257098929]],[[139.64225010528492,35.854504219637604],[139.63964833623436,35.85469207800182]],[[139.63964833623436,35.85469207800182],[139.63999904491516,35.85831889458446],[139.64291889858316,35.858541257546186],[139.643024926789,35.85752912268591],[139.64530861122208,35.85682752920322],[139.64523520707957,35.85505245935359]],[[139.64450116565465,35.848987317880294],[139.6424295376332,35.8488799702436]],[[139.64161393604996,35.85070104622326],[139.64049656188092,35.85198538401943],[139.64063521415008,35.85393297685662],[139.63954230802852,35.85409783215583]],[[139.6393547196644,35.854672908780984],[139.63964833623436,35.85469207800182]],[[139.63111714367363,35.83348708591032],[139.6305543785812,35.83520848194161]],[[139.63460791844992,35.83069221351207],[139.63300933934676,35.82945388184591],[139.63158203657608,35.82962257098929]],[[139.6225043909546,35.83669984732284],[139.62835225430644,35.83923018447352]],[[139.63703025515215,35.85178985796688],[139.63822103346368,35.852859500489664]],[[139.64908484655248,35.8477528200583],[139.6421196090316,35.846560494522144]],[[139.6334742322492,35.848205213670084],[139.63324586380588,35.84977708977884]],[[139.63324586380588,35.84977708977884],[139.6365408942022,35.85145631352429]],[[139.62680261129827,35.832164409672465],[139.62477991937183,35.83414650710716]],[[139.66941779402273,35.84514963986844],[139.6654295022807,35.84392664357894]],[[139.63570898058728,35.84119694653155],[139.63570898058728,35.84416817576151]],[[139.63630436974304,35.84369661292888],[139.63962386818685,35.84263463809443]],[[139.63324586380588,35.84977708977884],[139.63305827544175,35.85164800573268],[139.63706287921548,35.85406716140249]],[[139.66031568035373,35.84107426351818],[139.66067454505037,35.84306786248538]],[[139.66446709241245,35.84291450871867],[139.66416531982665,35.838858301589255]],[[139.6671912017005,35.84045701460718],[139.66617169972145,35.84288383796533]],[[139.64103485892588,35.83221041580248],[139.6406678382134,35.83296951694768]],[[139.6464993895336,35.832080065100776],[139.6451454909054,35.83184620060654],[139.64646676547028,35.82963790636595],[139.64512102285792,35.82942704493673],[139.64249478575988,35.830857068811284],[139.64113273111585,35.83034716753698],[139.64103485892588,35.83221041580248]],[[139.64103485892588,35.83221041580248],[139.63717706343712,35.83136697008558]],[[139.63914266325276,35.83733626545468],[139.6389550748886,35.8389004738751]],[[139.67606494692618,35.83694521334957],[139.67690501655693,35.83295034772684],[139.66834119993285,35.83556119560504]]]}