{"type":"Topology","bbox":[139.60414263186186,35.85467142818893,139.6459092230763,35.90243522841693],"objects":{"town":{"type":"GeometryCollection","geometries":[{"type":"MultiPolygon","arcs":[[[10,8,11,12,45,41,73,20,99,100,3,4,0,7]]],"properties":{"name":"上落合"}},{"type":"MultiPolygon","arcs":[[[52,38,-11,-8,-1,74,75,30,31,18,15,78]]],"properties":{"name":"下落合"}},{"type":"Polygon","arcs":[[22,23]],"properties":{"name":"大字上落合"}},{"type":"MultiPolygon","arcs":[[[37,32,-128,92,93,124,-99,-98,-68,-77,64,65,25,26,27,61,142]]],"properties":{"name":"鈴谷"}},{"type":"MultiPolygon","arcs":[[[70,77,-65,76,67,97,98,-19,-32,50,51,72]]],"properties":{"name":"新中里"}},{"type":"MultiPolygon","arcs":[[[58,-156,-160,178,169,132,170,55,56,-105,119,120,121]]],"properties":{"name":"八王子"}},{"type":"MultiPolygon","arcs":[[[168,110,111,-177,153,154,84,85,86,79,80,81,82,151,-121,-162,108,166,-135,-138,180,-174]]],"properties":{"name":"本町西"}},{"type":"MultiPolygon","arcs":[[[-26,-66,-78,-71,89,172,147,118,113,-27]]],"properties":{"name":"大戸"}},{"type":"MultiPolygon","arcs":[[[129,163,136,137,134,-167,-109,161,-120,104,-57,101,138]]],"properties":{"name":"円阿弥"}},{"type":"Polygon","arcs":[[-4,-101,122,-23,123]],"properties":{"name":"新都心"}},{"type":"MultiPolygon","arcs":[[[145,143,-81,-80,-93,127,-33,128,141]]],"properties":{"name":"上峰"}},{"type":"MultiPolygon","arcs":[[[179,-12,-9,-39,-53,-79,-16,-125,-94,-87,-86,-85,-155,-154,176,-112,-111,-169,173,174]]],"properties":{"name":"本町東"}},{"type":"MultiPolygon","arcs":[[[158,159,155,-59,-122,-152,-83,-82,-144]]],"properties":{"name":"桜丘"}},{"type":"Polygon","arcs":[[-76,157,-51,-31]],"properties":{"name":"大字下落合"}}]}},"arcs":[[[139.63278067060236,35.88833394446122],[139.6297606440549,35.88861577906603]],[[139.6297606440549,35.88861577906603],[139.62790602194278,35.89290062043062]],[[139.62790602194278,35.89290062043062],[139.62968127959513,35.89343562849398]],[[139.62968127959513,35.89343562849398],[139.6300906331244,35.89108541450136],[139.6335743151999,35.88997240665527]],[[139.6335743151999,35.88997240665527],[139.63278067060236,35.88833394446122]],[[139.62646910751354,35.88812853957976],[139.62526193230994,35.89215065377037]],[[139.62526193230994,35.89215065377037],[139.62790602194278,35.89290062043062]],[[139.6297606440549,35.88861577906603],[139.62646910751354,35.88812853957976]],[[139.62339895604413,35.888071217287255],[139.62270973836732,35.891453232544926]],[[139.62270973836732,35.891453232544926],[139.62526193230994,35.89215065377037]],[[139.62646910751354,35.88812853957976],[139.62339895604413,35.888071217287255]],[[139.62270973836732,35.891453232544926],[139.62225861406978,35.893058256735]],[[139.62225861406978,35.893058256735],[139.62276404036612,35.89321589303938]],[[139.62276404036612,35.89321589303938],[139.62716250226717,35.894586851201744]],[[139.62716250226717,35.894586851201744],[139.62790602194278,35.89290062043062]],[[139.62878738515371,35.87927702224577],[139.62701212750133,35.88110178189045]],[[139.62701212750133,35.88110178189045],[139.63260523337553,35.882262558313634]],[[139.63260523337553,35.882262558313634],[139.6338040544255,35.88053333582313]],[[139.6338040544255,35.88053333582313],[139.62878738515371,35.87927702224577]],[[139.62534129676968,35.89868061825799],[139.6203120962674,35.901747360906896]],[[139.6203120962674,35.901747360906896],[139.62209988515028,35.902382682982136],[139.62260948852344,35.90136521229021],[139.62513662000507,35.90167093118355],[139.62639392013062,35.899330270906354]],[[139.62639392013062,35.899330270906354],[139.62534129676968,35.89868061825799]],[[139.6321833486158,35.8950072146801],[139.6316110890902,35.89568075161701]],[[139.6316110890902,35.89568075161701],[139.6321833486158,35.8950072146801]],[[139.62996532081954,35.86636995271722],[139.63245068153284,35.86683808477266]],[[139.63245068153284,35.86683808477266],[139.63280573306332,35.86586360580011]],[[139.63280573306332,35.86586360580011],[139.63412986641816,35.86342263151103]],[[139.63412986641816,35.86342263151103],[139.63198702600482,35.86278730943579],[139.63128945417435,35.865543556333634],[139.62996532081954,35.86636995271722]],[[139.63260523337553,35.882262558313634],[139.63151919339995,35.88412553281997]],[[139.63151919339995,35.88412553281997],[139.6354957705413,35.88433571455915]],[[139.6354957705413,35.88433571455915],[139.6363604254449,35.88142660821463]],[[139.6363604254449,35.88142660821463],[139.6338040544255,35.88053333582313]],[[139.62135218839788,35.87244133886481],[139.62180748977224,35.87417533821302]],[[139.62180748977224,35.87417533821302],[139.62506560969896,35.87280438005067],[139.62839473993176,35.87353523928007]],[[139.62839473993176,35.87353523928007],[139.62932205098784,35.87032519089991]],[[139.62932205098784,35.87032519089991],[139.62624354536476,35.870454166058046]],[[139.62624354536476,35.870454166058046],[139.6252410469258,35.87046371977346]],[[139.6252410469258,35.87046371977346],[139.62461866247824,35.87185378536666],[139.62135218839788,35.87244133886481]],[[139.62470638109164,35.88555381327484],[139.62339895604413,35.888071217287255]],[[139.6297606440549,35.88861577906603],[139.6308341528,35.886131813057574]],[[139.6308341528,35.886131813057574],[139.62470638109164,35.88555381327484]],[[139.62181166684906,35.89548967730867],[139.6216320525454,35.89732399066876]],[[139.6216320525454,35.89732399066876],[139.62534129676968,35.89868061825799]],[[139.62534129676968,35.89868061825799],[139.6262894932099,35.89670777602435]],[[139.6262894932099,35.89670777602435],[139.62181166684906,35.89548967730867]],[[139.62276404036612,35.89321589303938],[139.62181166684906,35.89548967730867]],[[139.6262894932099,35.89670777602435],[139.62716250226717,35.894586851201744]],[[139.63815239140462,35.87426132165178],[139.63748823618877,35.87487753629618]],[[139.63748823618877,35.87487753629618],[139.63583411376445,35.877380609735475]],[[139.63583411376445,35.877380609735475],[139.6338040544255,35.88053333582313]],[[139.6363604254449,35.88142660821463],[139.6370872368132,35.88167022795777]],[[139.6370872368132,35.88167022795777],[139.63815239140462,35.87426132165178]],[[139.62603469152333,35.88300774811617],[139.62470638109164,35.88555381327484]],[[139.6308341528,35.886131813057574],[139.63151919339995,35.88412553281997]],[[139.63151919339995,35.88412553281997],[139.62603469152333,35.88300774811617]],[[139.60892538483122,35.88204282285904],[139.61039153879824,35.88476085489521]],[[139.61039153879824,35.88476085489521],[139.61267222274694,35.885458276120666]],[[139.61267222274694,35.885458276120666],[139.61401724148593,35.884068210527474]],[[139.61401724148593,35.884068210527474],[139.61376661687618,35.88392012793851]],[[139.61376661687618,35.88392012793851],[139.61031217433847,35.882429748333436]],[[139.61031217433847,35.882429748333436],[139.60892538483122,35.88204282285904]],[[139.62996532081954,35.86636995271722],[139.62830702131836,35.8658588289424]],[[139.62830702131836,35.8658588289424],[139.62624354536476,35.870454166058046]],[[139.62932205098784,35.87032519089991],[139.6323420775353,35.870162777737825]],[[139.6323420775353,35.870162777737825],[139.63232954630482,35.87011023230303]],[[139.63232954630482,35.87011023230303],[139.63245068153284,35.86683808477266]],[[139.63486920901693,35.8745001645372],[139.63277649352554,35.87418011507073]],[[139.63277649352554,35.87418011507073],[139.6312393292524,35.87670229594086]],[[139.6312393292524,35.87670229594086],[139.63583411376445,35.877380609735475]],[[139.63748823618877,35.87487753629618],[139.63486920901693,35.8745001645372]],[[139.63938045199237,35.870659570939516],[139.6357839888425,35.87034907518846]],[[139.6357839888425,35.87034907518846],[139.63486920901693,35.8745001645372]],[[139.63815239140462,35.87426132165178],[139.63798948540827,35.87120413271829],[139.63938045199237,35.870659570939516]],[[139.6216320525454,35.89732399066876],[139.61958528489913,35.90120757598582],[139.6203120962674,35.901747360906896]],[[139.63278067060236,35.88833394446122],[139.6339168354999,35.88684356485615]],[[139.6339168354999,35.88684356485615],[139.6354957705413,35.88433571455915]],[[139.6323420775353,35.870162777737825],[139.63277649352554,35.87418011507073]],[[139.6357839888425,35.87034907518846],[139.63232954630482,35.87011023230303]],[[139.62701212750133,35.88110178189045],[139.62603469152333,35.88300774811617]],[[139.62268467590636,35.87805892353009],[139.62156521931615,35.87778186578299]],[[139.62156521931615,35.87778186578299],[139.62123105316982,35.87948720398495],[139.61788103755285,35.878517501870114]],[[139.61788103755285,35.878517501870114],[139.61689942449803,35.880748294420016]],[[139.61689942449803,35.880748294420016],[139.61636058158706,35.88206670714758]],[[139.61636058158706,35.88206670714758],[139.6187749319943,35.88278801266158],[139.6211851053247,35.88258260778011]],[[139.6211851053247,35.88258260778011],[139.62130206347592,35.88225778145593]],[[139.62130206347592,35.88225778145593],[139.62194115623078,35.87989801374789]],[[139.62194115623078,35.87989801374789],[139.62268467590636,35.87805892353009]],[[139.63648573774978,35.865940035523444],[139.63633536298394,35.865987804100534]],[[139.63633536298394,35.865987804100534],[139.6357839888425,35.87034907518846]],[[139.63938045199237,35.870659570939516],[139.6394556393753,35.87019143888408]],[[139.6394556393753,35.87019143888408],[139.64027852351063,35.8660260189622]],[[139.64027852351063,35.8660260189622],[139.63648573774978,35.865940035523444]],[[139.62268885298317,35.87553674265997],[139.62354933081,35.876879039676076],[139.62268467590636,35.87805892353009]],[[139.62268467590636,35.87805892353009],[139.6262644307489,35.8789569727793]],[[139.6262644307489,35.8789569727793],[139.62744654349157,35.8761147424427]],[[139.62744654349157,35.8761147424427],[139.62744236641473,35.8761147424427]],[[139.62744236641473,35.8761147424427],[139.62418842356485,35.87479632971514],[139.62268885298317,35.87553674265997]],[[139.6312393292524,35.87670229594086],[139.63123097509876,35.87671662651398]],[[139.63123097509876,35.87671662651398],[139.62878738515371,35.87927702224577]],[[139.62639392013062,35.899330270906354],[139.6290296556098,35.896368619127045]],[[139.6290296556098,35.896368619127045],[139.62968127959513,35.89343562849398]],[[139.61039153879824,35.88476085489521],[139.60759289732272,35.88698687058741]],[[139.60759289732272,35.88698687058741],[139.61108493355187,35.88808077100267]],[[139.61108493355187,35.88808077100267],[139.6120205987616,35.886389763373835]],[[139.6120205987616,35.886389763373835],[139.61267222274694,35.885458276120666]],[[139.62839473993176,35.87353523928007],[139.62744236641473,35.8761147424427]],[[139.62744654349157,35.8761147424427],[139.63123097509876,35.87671662651398]],[[139.63277649352554,35.87418011507073],[139.62839473993176,35.87353523928007]],[[139.61462709470297,35.88677191199052],[139.61373737733837,35.88890239052855]],[[139.61373737733837,35.88890239052855],[139.61815254754674,35.890182588394445]],[[139.61815254754674,35.890182588394445],[139.61912580644795,35.887502771219935]],[[139.61912580644795,35.887502771219935],[139.61912998352477,35.88748844064681]],[[139.61912998352477,35.88748844064681],[139.61462709470297,35.88677191199052]],[[139.63527438546936,35.86176506188615],[139.63412986641816,35.86342263151103]],[[139.63280573306332,35.86586360580011],[139.63633536298394,35.865987804100534]],[[139.63648573774978,35.865940035523444],[139.63735874680708,35.8622331939416]],[[139.63735874680708,35.8622331939416],[139.63527438546936,35.86176506188615]],[[139.63735874680708,35.8622331939416],[139.64024092981919,35.862878069732254]],[[139.64024092981919,35.862878069732254],[139.64057091888867,35.85879863324914],[139.63957259752652,35.85748499737928],[139.63930108753263,35.854680981904345],[139.63844478678266,35.85846425320953],[139.63527438546936,35.86176506188615]],[[139.6120205987616,35.886389763373835],[139.61437647009322,35.886748027701984]],[[139.61437647009322,35.886748027701984],[139.61534137484074,35.88445513600187]],[[139.61534137484074,35.88445513600187],[139.61401724148593,35.884068210527474]],[[139.6290296556098,35.896368619127045],[139.62892105161225,35.89799752760567],[139.6316110890902,35.89568075161701]],[[139.6321833486158,35.8950072146801],[139.63709559096685,35.88732602748472],[139.636113977912,35.88720660604201],[139.6335743151999,35.88997240665527]],[[139.6262644307489,35.8789569727793],[139.62878738515371,35.87927702224577]],[[139.62010741950277,35.87032996775763],[139.61931795198208,35.87508771803536]],[[139.61931795198208,35.87508771803536],[139.62156521931615,35.87778186578299]],[[139.62268885298317,35.87553674265997],[139.62180748977224,35.87417533821302]],[[139.62135218839788,35.87244133886481],[139.62010741950277,35.87032996775763]],[[139.60605155597278,35.89011093552882],[139.60691203379957,35.89480180979863]],[[139.60691203379957,35.89480180979863],[139.60939321743606,35.89075581131947]],[[139.60939321743606,35.89075581131947],[139.60605155597278,35.89011093552882]],[[139.60765555347515,35.87780097321383],[139.60414263186186,35.87819267554593],[139.60441831893257,35.88146959993401],[139.60735062686663,35.881832641119864]],[[139.60735062686663,35.881832641119864],[139.60765555347515,35.87780097321383]],[[139.6124800772128,35.891816273730775],[139.61162795353965,35.89157265398764]],[[139.61162795353965,35.89157265398764],[139.6069705128752,35.895083644403435]],[[139.6069705128752,35.895083644403435],[139.60712506471785,35.89619187539183],[139.61148175585063,35.89531293357345],[139.6127975350518,35.89414260343485]],[[139.6127975350518,35.89414260343485],[139.61165719307746,35.89336875248606],[139.6124800772128,35.891816273730775]],[[139.60759289732272,35.88698687058741],[139.60504488045694,35.88902658882897],[139.60605155597278,35.89011093552882]],[[139.60939321743606,35.89075581131947],[139.61108493355187,35.88808077100267]],[[139.6160347695944,35.873668991295915],[139.61931795198208,35.87508771803536]],[[139.62010741950277,35.87032996775763],[139.62114333455642,35.86885391872568],[139.61904226491137,35.869322050781115],[139.6160347695944,35.873668991295915]],[[139.62830702131836,35.8658588289424],[139.6258300147587,35.8663030767093],[139.62421766310266,35.86983795141364],[139.6252410469258,35.87046371977346]],[[139.61351181518958,35.877208642857966],[139.61788103755285,35.878517501870114]],[[139.61788103755285,35.878517501870114],[139.61931795198208,35.87508771803536]],[[139.6160347695944,35.873668991295915],[139.61351181518958,35.877208642857966]],[[139.64027852351063,35.8660260189622],[139.64038295043136,35.8656916389226]],[[139.64038295043136,35.8656916389226],[139.64024092981919,35.862878069732254]],[[139.61815254754674,35.890182588394445],[139.61968971181986,35.89060772873051]],[[139.61968971181986,35.89060772873051],[139.62270973836732,35.891453232544926]],[[139.62339895604413,35.888071217287255],[139.61912580644795,35.887502771219935]],[[139.61636058158706,35.88206670714758],[139.61534137484074,35.88445513600187]],[[139.61534137484074,35.88445513600187],[139.6200113467357,35.88546305297837]],[[139.6200113467357,35.88546305297837],[139.62033298165156,35.88471308631813]],[[139.62033298165156,35.88471308631813],[139.6211851053247,35.88258260778011]],[[139.61397964779445,35.879874129459346],[139.6135243464201,35.880886823293565],[139.61467721962492,35.88341855787911],[139.61376661687618,35.88392012793851]],[[139.61689942449803,35.880748294420016],[139.61397964779445,35.879874129459346]],[[139.6339168354999,35.88684356485615],[139.63612650914249,35.887039416022205],[139.63842807847533,35.883447219025356],[139.64067952288624,35.883963119657885],[139.64123089702767,35.88310806212805],[139.6370872368132,35.88167022795777]],[[139.61351181518958,35.877208642857966],[139.61341574242252,35.877743650921325]],[[139.61341574242252,35.877743650921325],[139.61294790981765,35.879568410566],[139.61397964779445,35.879874129459346]],[[139.61108493355187,35.88808077100267],[139.61373737733837,35.88890239052855]],[[139.61462709470297,35.88677191199052],[139.61437647009322,35.886748027701984]],[[139.61162795353965,35.89157265398764],[139.60939321743606,35.89075581131947]],[[139.60691203379957,35.89480180979863],[139.6069705128752,35.895083644403435]],[[139.62194115623078,35.87989801374789],[139.62701212750133,35.88110178189045]],[[139.62130206347592,35.88225778145593],[139.62603469152333,35.88300774811617]],[[139.61373737733837,35.88890239052855],[139.61162795353965,35.89157265398764]],[[139.6124800772128,35.891816273730775],[139.61567554098707,35.89273343041082]],[[139.61567554098707,35.89273343041082],[139.61815254754674,35.890182588394445]],[[139.6108008923275,35.87773887406362],[139.60765555347515,35.87780097321383]],[[139.60735062686663,35.881832641119864],[139.60892538483122,35.88204282285904]],[[139.61031217433847,35.882429748333436],[139.6108008923275,35.87773887406362]],[[139.6394556393753,35.87019143888408],[139.64359094543613,35.867588051432904],[139.6459092230763,35.868151720642516],[139.64183239609108,35.8658015066499],[139.64038295043136,35.8656916389226]],[[139.61567554098707,35.89273343041082],[139.6139587624103,35.894223810015895]],[[139.6139587624103,35.894223810015895],[139.61801052693457,35.89418081829652]],[[139.61801052693457,35.89418081829652],[139.61968971181986,35.89060772873051]],[[139.6200113467357,35.88546305297837],[139.61912998352477,35.88748844064681]],[[139.62470638109164,35.88555381327484],[139.62033298165156,35.88471308631813]],[[139.61341574242252,35.877743650921325],[139.6108008923275,35.87773887406362]],[[139.61801052693457,35.89418081829652],[139.62108067840398,35.894309793454646],[139.62225861406978,35.893058256735]],[[139.6127975350518,35.89414260343485],[139.6139587624103,35.894223810015895]]]}