{"type":"Topology","bbox":[139.54022318517198,35.87199694912632,139.60341395658148,35.945441328673994],"objects":{"town":{"type":"GeometryCollection","geometries":[{"type":"MultiPolygon","arcs":[[[16,17,56,-27,-50,-54,-12,9,10,4,5,6,0,1,19]]],"properties":{"name":"大字指扇"}},{"type":"Polygon","arcs":[[-10,11,12,13,14,15]],"properties":{"name":"宮前町"}},{"type":"Polygon","arcs":[[20,21,22]],"properties":{"name":"大字峰岸"}},{"type":"Polygon","arcs":[[23,24,25,26]],"properties":{"name":"大字指扇領別所"}},{"type":"MultiPolygon","arcs":[[[32,33,-6,-5,-11,-16,27,34]]],"properties":{"name":"三橋"}},{"type":"Polygon","arcs":[[29,30,31]],"properties":{"name":"大字中釘"}},{"type":"Polygon","arcs":[[35,36,-14,37]],"properties":{"name":"大字内野本郷"}},{"type":"Polygon","arcs":[[38,39,-21,40]],"properties":{"name":"大字指扇領辻"}},{"type":"Polygon","arcs":[[41,-17,42,43]],"properties":{"name":"大字土屋"}},{"type":"Polygon","arcs":[[44,45,46,47,48]],"properties":{"name":"大字二ツ宮"}},{"type":"Polygon","arcs":[[49,-26,50,-32,51,52]],"properties":{"name":"大字高木"}},{"type":"Polygon","arcs":[[53,-53,54,55,-38,-13]],"properties":{"name":"大字清河寺"}},{"type":"Polygon","arcs":[[-25,57,-39,58,-30,-51]],"properties":{"name":"大字平方領領家"}},{"type":"Polygon","arcs":[[59,60,61,62]],"properties":{"name":"大字塚本"}},{"type":"MultiPolygon","arcs":[[[63,64,65,72,73]]],"properties":{"name":"湯木町"}},{"type":"MultiPolygon","arcs":[[[89,68,69,70,-61,71,90,94,95]]],"properties":{"name":"塚本町"}},{"type":"Polygon","arcs":[[-70,74,75,76,-63,77]],"properties":{"name":"大字飯田新田"}},{"type":"Polygon","arcs":[[78,-36,-56]],"properties":{"name":"大字西新井"}},{"type":"Polygon","arcs":[[79,80,81,82,83]],"properties":{"name":"大字植田谷本"}},{"type":"Polygon","arcs":[[84,-47,85,86,-7,-34,87]],"properties":{"name":"大字佐知川"}},{"type":"Polygon","arcs":[[91,92,-80,93]],"properties":{"name":"大字三条町"}},{"type":"Polygon","arcs":[[-18,-42,96,97,98,-22,-40,-58,-24,-57]],"properties":{"name":"大字宝来"}},{"type":"Polygon","arcs":[[-82,99,100,-88,-33,101]],"properties":{"name":"大字水判土"}},{"type":"Polygon","arcs":[[-76,102,-65,103]],"properties":{"name":"大字植田谷本村新田"}},{"type":"Polygon","arcs":[[104,-97,-44,105,106,-86,-46]],"properties":{"name":"大字西遊馬"}},{"type":"Polygon","arcs":[[-45,107,-92,108,109,-95,-91,-72,-60,-77,-104,-64,-74,110,-98,-105]],"properties":{"name":"大字昭和"}},{"type":"MultiPolygon","arcs":[[[-1,-87,-107,-106,-43,-20,-2]]],"properties":{"name":"プラザ"}},{"type":"Polygon","arcs":[[-48,-85,-101,112]],"properties":{"name":"大字飯田"}},{"type":"Polygon","arcs":[[-109,-94,-84,113]],"properties":{"name":"大字島根"}},{"type":"Polygon","arcs":[[-108,-49,-113,-100,-81,-93]],"properties":{"name":"大字中野林"}}]}},"arcs":[[[139.58177527258246,35.90705545733525],[139.5792979466106,35.908825643901004],[139.57826151431627,35.908693430796504]],[[139.57826151431627,35.908693430796504],[139.57740835358618,35.91004494253136]],[[139.57740835358618,35.91004494253136],[139.57809088217024,35.9125790270342]],[[139.57809088217024,35.9125790270342],[139.5815730418909,35.91255699151679],[139.584404271573,35.91335027014376],[139.58516895637553,35.91285079841567]],[[139.58516895637553,35.91285079841567],[139.58774739769316,35.9104783077072]],[[139.58774739769316,35.9104783077072],[139.58970650751786,35.90812050734369],[139.58934628409847,35.905828813532416]],[[139.58934628409847,35.905828813532416],[139.58682472016284,35.90713625423244],[139.58410092553564,35.906328285260514],[139.58214181571094,35.90798829423919],[139.58177527258246,35.90705545733525]],[[139.57809088217024,35.9125790270342],[139.57679534180232,35.9127112401387],[139.57366708579195,35.91520859877918],[139.57139199051167,35.91932189536351]],[[139.57139199051167,35.91932189536351],[139.57105072621962,35.91965242812475],[139.5760369767089,35.920952523652296],[139.58260315447612,35.92326625298098]],[[139.58260315447612,35.92326625298098],[139.5826473924399,35.92319280125626]],[[139.5826473924399,35.92319280125626],[139.5836016685158,35.92105535606691],[139.58516895637553,35.91285079841567]],[[139.58260315447612,35.92326625298098],[139.5823250872752,35.92372899884672]],[[139.5823250872752,35.92372899884672],[139.58154776305443,35.92679193576755],[139.58231244785696,35.928709025782744],[139.5894726782807,35.93116965856087],[139.58963699071762,35.932168602017065]],[[139.58963699071762,35.932168602017065],[139.59184888890678,35.93238895719122],[139.5937700804768,35.93051593821086],[139.59647491597664,35.931074171318734],[139.59919239089476,35.93086116131705]],[[139.59919239089476,35.93086116131705],[139.59807380238195,35.926299809211926],[139.59498978433535,35.921922086418604],[139.59487602957137,35.919549595710144]],[[139.59487602957137,35.919549595710144],[139.59305595334715,35.91925578881126],[139.59022472366502,35.923031207461875],[139.58734925601914,35.92422112540234],[139.5826473924399,35.92319280125626]],[[139.5732689441179,35.911352383231375],[139.5682068571193,35.91421700049546],[139.5658116873659,35.917022856379766]],[[139.5658116873659,35.917022856379766],[139.5668733984967,35.91774268328203]],[[139.5668733984967,35.91774268328203],[139.57139199051167,35.91932189536351]],[[139.57740835358618,35.91004494253136],[139.57597377961778,35.90956750632068],[139.5732689441179,35.911352383231375]],[[139.55647115729857,35.93536375204239],[139.55843658683236,35.928099376467564]],[[139.55843658683236,35.928099376467564],[139.5577730173756,35.92788636646588],[139.55381687947158,35.93370374306372]],[[139.55381687947158,35.93370374306372],[139.55647115729857,35.93536375204239]],[[139.5668291605329,35.918146667767985],[139.5645919835073,35.92147403089781],[139.5631384504116,35.92252439056131]],[[139.5631384504116,35.92252439056131],[139.56359978917675,35.92295041056469]],[[139.56359978917675,35.92295041056469],[139.56988158003395,35.92377306988155]],[[139.56988158003395,35.92377306988155],[139.57095593058295,35.921892705728716],[139.5707663393096,35.91957897640003],[139.5668291605329,35.918146667767985]],[[139.59487602957137,35.919549595710144],[139.59701841096026,35.91492948222525],[139.59833923016464,35.91323274738421]],[[139.59833923016464,35.91323274738421],[139.597511348271,35.91248353979206],[139.5962853247033,35.91490744670783],[139.5922280714535,35.914033371183656],[139.59264517225486,35.91191796151172],[139.59173513414277,35.910412201154955],[139.58774739769316,35.9104783077072]],[[139.56273398902843,35.92497767816696],[139.56238640502727,35.92621166714226]],[[139.56238640502727,35.92621166714226],[139.5604841725846,35.927901056810825],[139.56126149680537,35.932932499954156],[139.56444663019775,35.934702686519906],[139.56445926961598,35.939095099658175],[139.56557153841965,35.9399544848374],[139.57410314572067,35.94396494900712],[139.57528493132457,35.94298804106834]],[[139.57528493132457,35.94298804106834],[139.5739135544473,35.94151900657394],[139.57367972521018,35.937207390332865],[139.57409050630244,35.935304990662615],[139.57275704767983,35.93555472652666],[139.573104631681,35.93274887064235],[139.5704945918178,35.93036168958895],[139.5693254456321,35.928393183366445],[139.56694291529692,35.92751176266981],[139.5658053676568,35.92621166714226],[139.56273398902843,35.92497767816696]],[[139.59679090143226,35.90014365003908],[139.59189312687056,35.9018183493627],[139.5918109706521,35.90342694213407]],[[139.5918109706521,35.90342694213407],[139.58934628409847,35.905828813532416]],[[139.59833923016464,35.91323274738421],[139.5992176697312,35.91208690047858],[139.5989585616576,35.90980255183978],[139.5974481511799,35.907885461824584],[139.5985793791109,35.90540279352904],[139.59776413663548,35.903338800064404],[139.5983645090011,35.90129684211718],[139.59679090143226,35.90014365003908]],[[139.58713438590934,35.93750119723175],[139.592032160471,35.93960191655874]],[[139.592032160471,35.93960191655874],[139.59413030389615,35.93904368345087],[139.59599461808415,35.93684747688174],[139.5976124636168,35.93637738584353],[139.5974102329252,35.93492304169407],[139.59919239089476,35.93086116131705]],[[139.58963699071762,35.932168602017065],[139.58694479463597,35.935312335835086],[139.58825929413123,35.936120304807005],[139.58713438590934,35.93750119723175]],[[139.5618681888801,35.92578564713888],[139.5614826866243,35.9240228057456]],[[139.5614826866243,35.9240228057456],[139.55843658683236,35.928099376467564]],[[139.55647115729857,35.93536375204239],[139.55817747875878,35.932477099260886],[139.55922655047135,35.92897345199174],[139.5618681888801,35.92578564713888]],[[139.56487005070824,35.91599453223369],[139.5658116873659,35.917022856379766]],[[139.5732689441179,35.911352383231375],[139.57206187967753,35.910419546327425],[139.57607489496357,35.906901208713336]],[[139.57607489496357,35.906901208713336],[139.57291504040765,35.90469765697173],[139.5691674529043,35.90701873147289],[139.56899050104917,35.90876688252123],[139.56487005070824,35.91599453223369]],[[139.57836262966205,35.88975757616365],[139.5761444117638,35.89351095929685],[139.5714046299299,35.8920272344575],[139.57043139472668,35.8941279537845],[139.5748678305232,35.89584672414295],[139.57304143458987,35.89913736141041]],[[139.57304143458987,35.89913736141041],[139.57620760885493,35.901260116254825],[139.57773697846,35.90043745693796]],[[139.57773697846,35.90043745693796],[139.58085891476125,35.89884355451154]],[[139.58085891476125,35.89884355451154],[139.5813202535264,35.897624255881176],[139.58308977207773,35.89728637794747],[139.58249571942122,35.893187771708085],[139.5836585458978,35.89340812688224]],[[139.5836585458978,35.89340812688224],[139.5790641173735,35.89077855513726],[139.57836262966205,35.88975757616365]],[[139.5744380903036,35.92580033748383],[139.57293399953497,35.923956699193354],[139.56988158003395,35.92377306988155]],[[139.56359978917675,35.92295041056469],[139.56273398902843,35.92497767816696]],[[139.57528493132457,35.94298804106834],[139.57999311461293,35.94311290900036]],[[139.57999311461293,35.94311290900036],[139.58123177759884,35.94103422519078],[139.58066300377877,35.93551065549183],[139.57958865322976,35.93288108374685],[139.57477303488653,35.92750441749733],[139.5744380903036,35.92580033748383]],[[139.5823250872752,35.92372899884672],[139.58133289294463,35.923347049878174],[139.57943698021109,35.926813971284965],[139.57636560158272,35.92668910335294],[139.5744380903036,35.92580033748383]],[[139.57999311461293,35.94311290900036],[139.58140872945398,35.943994329697006]],[[139.58140872945398,35.943994329697006],[139.58411356495387,35.93922731276267],[139.58599683826918,35.937376329299724],[139.58713438590934,35.93750119723175]],[[139.5668733984967,35.91774268328203],[139.5668291605329,35.918146667767985]],[[139.5631384504116,35.92252439056131],[139.5614826866243,35.9240228057456]],[[139.5618681888801,35.92578564713888],[139.56238640502727,35.92621166714226]],[[139.56167227789763,35.88526233061078],[139.5629741379747,35.883102849904006]],[[139.5629741379747,35.883102849904006],[139.5615458837154,35.88282373335007]],[[139.5615458837154,35.88282373335007],[139.55995331701922,35.88475551371021]],[[139.55995331701922,35.88475551371021],[139.56167227789763,35.88526233061078]],[[139.55754550784758,35.896662038287346],[139.55863249781484,35.89421609585416]],[[139.55863249781484,35.89421609585416],[139.55523249431266,35.89280582273954]],[[139.55523249431266,35.89280582273954],[139.55164921924623,35.89522238448283]],[[139.55164921924623,35.89522238448283],[139.5558391863874,35.89676487070195],[139.55754550784758,35.896662038287346]],[[139.56630462467663,35.87937884746069],[139.5598522016734,35.878108132623034]],[[139.5598522016734,35.878108132623034],[139.559997554983,35.880245577812396],[139.55903063948887,35.8808478819551]],[[139.55903063948887,35.8808478819551],[139.55927078843513,35.882162667827586]],[[139.55927078843513,35.882162667827586],[139.5615458837154,35.88282373335007]],[[139.5629741379747,35.883102849904006],[139.56630462467663,35.87937884746069]],[[139.55164921924623,35.89522238448283],[139.55113100309904,35.89749938794915],[139.5540886269634,35.90151719729135]],[[139.5540886269634,35.90151719729135],[139.55754550784758,35.896662038287346]],[[139.55903063948887,35.8808478819551],[139.5506127869519,35.88402834163548],[139.54962691233044,35.88678278131248],[139.55001241458626,35.88775968925126],[139.55262877415856,35.88843544511869],[139.55661019089905,35.887355704765305],[139.55789309184874,35.8885382775333],[139.5580953225403,35.890859352034454],[139.5565849120626,35.89213741204458]],[[139.5565849120626,35.89213741204458],[139.55681874129974,35.893187771708085],[139.5589358438522,35.893342020329996]],[[139.5589358438522,35.893342020329996],[139.56167227789763,35.88526233061078]],[[139.55995331701922,35.88475551371021],[139.55865145694216,35.8846012650883],[139.55927078843513,35.882162667827586]],[[139.58140872945398,35.943994329697006],[139.58517527608464,35.945441328673994],[139.5868563187084,35.94532380591444],[139.5894726782807,35.94314963486273],[139.592032160471,35.93960191655874]],[[139.59316338840205,35.886415522688885],[139.59329610229338,35.8876201309743],[139.59135595159606,35.88936093685016],[139.5888407073695,35.889904479613094],[139.5881202605308,35.888156328564754],[139.5848782497564,35.89011014444231]],[[139.5848782497564,35.89011014444231],[139.5874946093287,35.892284315494024],[139.5897317863543,35.89106501686367],[139.59173513414277,35.891300062382776],[139.59312547014736,35.89284989377437],[139.59625372615773,35.89489185172159]],[[139.59625372615773,35.89489185172159],[139.59679090143226,35.894612735167655]],[[139.59679090143226,35.894612735167655],[139.59821283598242,35.89322449757044],[139.59731543728853,35.89120457514064],[139.5988511266027,35.88968412443893],[139.602990536071,35.8890891654687],[139.60323700472634,35.88726756269564]],[[139.60323700472634,35.88726756269564],[139.59635484150354,35.88629799992933],[139.59491394782603,35.88698110096923],[139.59316338840205,35.886415522688885]],[[139.58842360656814,35.89844691519804],[139.58085891476125,35.89884355451154]],[[139.57773697846,35.90043745693796],[139.57852694209896,35.9011352483228],[139.57639720012827,35.903052338338],[139.57527861161546,35.90597571698186],[139.57713028638526,35.90637970146782]],[[139.57713028638526,35.90637970146782],[139.58118753963507,35.90354446489362],[139.58230612814785,35.90337552592677],[139.58352583200644,35.90578474249759],[139.58177527258246,35.90705545733525]],[[139.5918109706521,35.90342694213407],[139.5904206346475,35.90341225178913],[139.58931468555292,35.900767989699204],[139.5896812286814,35.89931364554974],[139.58842360656814,35.89844691519804]],[[139.5701849260713,35.875507941567946],[139.5626707919373,35.87400952638365],[139.56238640502727,35.875845819501656],[139.55774141883006,35.875515286740416]],[[139.55774141883006,35.875515286740416],[139.5598522016734,35.878108132623034]],[[139.56630462467663,35.87937884746069],[139.5701849260713,35.875507941567946]],[[139.58123177759884,35.88418259025739],[139.57958865322976,35.88726021752316]],[[139.57958865322976,35.88726021752316],[139.58029014094117,35.886937029934394],[139.5834057575333,35.889551911334436],[139.5848782497564,35.89011014444231]],[[139.59316338840205,35.886415522688885],[139.59013624773746,35.88458657474335],[139.5815920010182,35.88449108750122],[139.58123177759884,35.88418259025739]],[[139.5701849260713,35.875507941567946],[139.5728455236074,35.872239339817895]],[[139.5728455236074,35.872239339817895],[139.56349867383096,35.872239339817895],[139.55848714450525,35.87437678500725],[139.55774141883006,35.875515286740416]],[[139.56487005070824,35.91599453223369],[139.56391577463233,35.915928425681436],[139.55938454319914,35.91808056121574],[139.55527673227644,35.91855799742642]],[[139.55527673227644,35.91855799742642],[139.55236966608499,35.92267129401075],[139.55306483408728,35.92580033748383],[139.55170609662824,35.93235223132886],[139.55207895946583,35.935936675495206]],[[139.55207895946583,35.935936675495206],[139.55310275234194,35.935973401357565],[139.55381687947158,35.93370374306372]],[[139.59625372615773,35.89489185172159],[139.59504034200828,35.89658124139015],[139.59230390796282,35.89831470209355]],[[139.59230390796282,35.89831470209355],[139.58842360656814,35.89844691519804]],[[139.59679090143226,35.90014365003908],[139.595590156701,35.89866727037221],[139.5977325380899,35.89767567208848],[139.59679090143226,35.894612735167655]],[[139.5565849120626,35.89213741204458],[139.55523249431266,35.89280582273954]],[[139.55863249781484,35.89421609585416],[139.5589358438522,35.893342020329996]],[[139.57304143458987,35.89913736141041],[139.57100648825585,35.90277322178406],[139.56503436314514,35.90474172800656],[139.55998491556477,35.907430061131315],[139.5590495986162,35.9084583852774],[139.55922655047135,35.91284345324319],[139.55863881752396,35.91407009704602],[139.55417710289097,35.910559104604395],[139.55327338448797,35.91440797497973],[139.55400015103584,35.91739011500337],[139.5561172535883,35.91753701845281],[139.55527673227644,35.91855799742642]],[[139.57607489496357,35.906901208713336],[139.57623288769136,35.90703342181783]],[[139.57623288769136,35.90703342181783],[139.57713028638526,35.90637970146782]],[[139.57836262966205,35.88975757616365],[139.57958865322976,35.88726021752316]],[[139.58123177759884,35.88418259025739],[139.58323512538732,35.880429207124195]],[[139.58323512538732,35.880429207124195],[139.5813139338173,35.882177358172534],[139.5765741519834,35.8801647809152],[139.57531652987015,35.88178806403152],[139.57276336738894,35.88046593298655],[139.57106336563785,35.88210390644781],[139.56877563093937,35.88070832367813],[139.5741663428118,35.87517006363423],[139.57616969060024,35.872048365333626],[139.5728455236074,35.872239339817895]],[[139.5540886269634,35.90151719729135],[139.55496706652994,35.90447730179757],[139.55417078318186,35.90638704664029],[139.55176297401024,35.90739333526896],[139.55209159888406,35.91003759735889],[139.54999345545892,35.9107941501235],[139.5484451267265,35.91247619461959],[139.5501514481867,35.91604594844099],[139.54948155902085,35.91902808846463],[139.54604995697312,35.921922086418604],[139.54726966083172,35.92448555161133],[139.5458793248271,35.92638795128159],[139.54852728294497,35.92740158508273],[139.55003137371358,35.926167596107426],[139.55087821473458,35.930126644069844],[139.5480659441798,35.93416648892945],[139.5471685454859,35.934284011689],[139.54360422954682,35.932491789605834],[139.54022318517198,35.934871625486764],[139.54368006605617,35.93775827826827],[139.54783211494265,35.93432073755136],[139.5510425271715,35.934533747553054],[139.55207895946583,35.935936675495206]],[[139.57623288769136,35.90703342181783],[139.57826151431627,35.908693430796504]],[[139.59230390796282,35.89831470209355],[139.589997214137,35.895574952761486],[139.58992137762766,35.893856182403034],[139.58688159754485,35.895134242413164],[139.58738085456469,35.896213982766554],[139.58432843506367,35.896037698627225],[139.58320352684174,35.894634770685066],[139.5836585458978,35.89340812688224]],[[139.60323700472634,35.88726756269564],[139.60249759876027,35.88490241715965],[139.60173291395773,35.878857340215184],[139.60030465969845,35.880260268157336],[139.5976693409988,35.88083319161015],[139.59236710505394,35.88099478540454],[139.58935260380758,35.88050265884891],[139.58323512538732,35.880429207124195]]]}