{"type":"Topology","bbox":[139.6604658653631,35.85701687356804,139.7446498266253,35.918470512958876],"objects":{"town":{"type":"GeometryCollection","geometries":[{"type":"MultiPolygon","arcs":[[[0,1]],[[2,3,4]]],"properties":{"name":"太田窪"}},{"type":"MultiPolygon","arcs":[[[21,22,23,33,34,48,-19,47,7,-1,-4,-3]]],"properties":{"name":"原山"}},{"type":"Polygon","arcs":[[8]],"properties":{"name":"大字大谷口"}},{"type":"MultiPolygon","arcs":[[[18,-49,-35,-92,-54,-66,190,-176,-114,-187,-174,191,20]]],"properties":{"name":"大字中尾"}},{"type":"MultiPolygon","arcs":[[[10,11,12,13,14]],[[15,16,17]],[[70,71,72,-64,73]]],"properties":{"name":"大字大牧"}},{"type":"MultiPolygon","arcs":[[[29,30,-16,25,26,27,31,32]],[[186,-119,-126,-71,187,188,189,-136,-175]]],"properties":{"name":"大字大間木"}},{"type":"MultiPolygon","arcs":[[[-50,91,-34,-24,-23,129,36,37,38,-51]]],"properties":{"name":"道祖土"}},{"type":"Polygon","arcs":[[41,42,43]],"properties":{"name":"大字玄蕃新田"}},{"type":"Polygon","arcs":[[44,-32,-28,45,46,-12]],"properties":{"name":"大字蓮見新田"}},{"type":"MultiPolygon","arcs":[[[128,67,68,69,65,53,49,50,-39,-38,126,-57,-56,142,143,-107,144]],[[-86,-75,119]]],"properties":{"name":"大字三室"}},{"type":"Polygon","arcs":[[54,55,56]],"properties":{"name":"山崎"}},{"type":"MultiPolygon","arcs":[[[182,133,172,173,174,135,-190,194,-188,-74,63,-13,-47,-46,-27,-26,-18,61,195]]],"properties":{"name":"東浦和"}},{"type":"MultiPolygon","arcs":[[[109,-105,77,78,79,74,75,110]]],"properties":{"name":"馬場"}},{"type":"MultiPolygon","arcs":[[[166,81,82,83,165,139,140]]],"properties":{"name":"東大門"}},{"type":"MultiPolygon","arcs":[[[175,176,-69,177,208,-111,-76,85,86,87,88,209,-116,-115]]],"properties":{"name":"松木"}},{"type":"Polygon","arcs":[[92,93,94,95]],"properties":{"name":"大字寺山"}},{"type":"Polygon","arcs":[[96,97,98,99,-94,100]],"properties":{"name":"大字上野田"}},{"type":"Polygon","arcs":[[101,102,103,-78,104,105,106,107,108]],"properties":{"name":"大字新宿"}},{"type":"MultiPolygon","arcs":[[[124,-72,125,118,113,114,115,-210,-89,-212,-153]]],"properties":{"name":"芝原"}},{"type":"MultiPolygon","arcs":[[[211,-88,-87,-120,-80,120,121,-154]]],"properties":{"name":"宮本"}},{"type":"Polygon","arcs":[[131,132]],"properties":{"name":"大字代山"}},{"type":"Polygon","arcs":[[145,146,147,148,-96,149,150,151,-133]],"properties":{"name":"大字中野田"}},{"type":"Polygon","arcs":[[-14,-73,-125,152,153,154,155,156]],"properties":{"name":"大字見沼"}},{"type":"Polygon","arcs":[[157,-151,158,159,160,161]],"properties":{"name":"大字下野田"}},{"type":"MultiPolygon","arcs":[[[-171,-181,204,-44,-202,-162,-161,-160,205,-83,206,-167,-141,207]]],"properties":{"name":"大字大門"}},{"type":"Polygon","arcs":[[-109,163,164]],"properties":{"name":"大字三浦"}},{"type":"Polygon","arcs":[[167,168,169,170,171]],"properties":{"name":"大字間宮"}},{"type":"Polygon","arcs":[[179,180,-170]],"properties":{"name":"大字北原"}},{"type":"Polygon","arcs":[[-30,-33,-45,-11,184,-168,185]],"properties":{"name":"大字下山口新田"}},{"type":"Polygon","arcs":[[-108,-144,192,-164]],"properties":{"name":"大字大道"}},{"type":"Polygon","arcs":[[-43,196,-156,197,198,-97,199,-148,200,-146,-132,-152,-158,201]],"properties":{"name":"大字南部領辻"}},{"type":"Polygon","arcs":[[-122,202,-103,203,-198,-155]],"properties":{"name":"大字宮後"}},{"type":"Polygon","arcs":[[-169,-185,-15,-157,-197,-42,-205,-180]],"properties":{"name":"大字大崎"}},{"type":"Polygon","arcs":[[-99,210]],"properties":{"name":"大字高畑"}}]}},"arcs":[[[139.67085520511685,35.863863493658194],[139.6746186045252,35.86589166657538]],[[139.6746186045252,35.86589166657538],[139.67417238490856,35.86465632488945],[139.6766223831811,35.861712401170266],[139.67498063176134,35.86019434447164],[139.67085520511685,35.863863493658194]],[[139.66456603429347,35.86761254056572],[139.66750434837292,35.868208700483805]],[[139.66750434837292,35.868208700483805],[139.67085520511685,35.863863493658194]],[[139.67085520511685,35.863863493658194],[139.66657823218742,35.86157718964245],[139.66456603429347,35.86761254056572]],[[139.66750434837292,35.868208700483805],[139.67211809082434,35.8705380263493]],[[139.67211809082434,35.8705380263493],[139.67285056453468,35.86906299150044],[139.67518269347454,35.86762483252279],[139.6756289130912,35.86643251268663]],[[139.6756289130912,35.86643251268663],[139.6746186045252,35.86589166657538]],[[139.69386498270757,35.864078602906986],[139.6922063928117,35.864312150091386],[139.69223165052586,35.865621243519755],[139.69386498270757,35.864078602906986]],[[139.67943440868981,35.8757129402774],[139.67840726164772,35.87511678035932],[139.67716121441632,35.87762433960239],[139.67943440868981,35.8757129402774]],[[139.70875861481804,35.878361857026825],[139.7109223589969,35.876456603680374],[139.7117306058497,35.87343892821874]],[[139.7117306058497,35.87343892821874],[139.707403117492,35.87244327969575]],[[139.707403117492,35.87244327969575],[139.707571502253,35.87452676641978],[139.7059718470235,35.87546095515739],[139.70390071446317,35.87539949537202]],[[139.70390071446317,35.87539949537202],[139.70875861481804,35.87836800300536]],[[139.70875861481804,35.87836800300536],[139.70875861481804,35.878361857026825]],[[139.70570243140588,35.861945948354666],[139.70475105750623,35.861122387230715]],[[139.70475105750623,35.861122387230715],[139.70471738055403,35.862044284011255]],[[139.70471738055403,35.862044284011255],[139.70570243140588,35.861945948354666]],[[139.68163182982087,35.86650011845054],[139.67801155745937,35.87198233130548]],[[139.67801155745937,35.87198233130548],[139.68185914924823,35.87242484176014],[139.6863466031289,35.8722343164255]],[[139.6863466031289,35.8722343164255],[139.68574883722732,35.87114033224592],[139.6877947120735,35.868061196998916],[139.6876094888364,35.86554749177731],[139.6865823417943,35.86428756617724],[139.6830967772416,35.8647300766319],[139.68163182982087,35.86650011845054]],[[139.66456603429347,35.86761254056572],[139.66457445353151,35.86932726857753],[139.66778218322858,35.87244327969575],[139.66795056798958,35.87448989054855]],[[139.66795056798958,35.87448989054855],[139.6695165462669,35.874465306634406]],[[139.6695165462669,35.874465306634406],[139.6714192940662,35.874612810119295]],[[139.6714192940662,35.874612810119295],[139.67211809082434,35.8705380263493]],[[139.70570243140588,35.861945948354666],[139.7067127399719,35.86243762663762]],[[139.7067127399719,35.86243762663762],[139.7076051792052,35.86532623654998]],[[139.7076051792052,35.86532623654998],[139.7135154843163,35.86769858426524]],[[139.7135154843163,35.86769858426524],[139.71510672030777,35.86831318211893]],[[139.71510672030777,35.86831318211893],[139.71535929744928,35.86221022543175]],[[139.71535929744928,35.86221022543175],[139.70984469652652,35.86173698508441],[139.7094405731001,35.86124530680146],[139.71370070755341,35.860421745677506],[139.71322081098455,35.85838742678178],[139.71057717023686,35.8585902440735],[139.70887648415075,35.857090625310484],[139.7084639414863,35.859598184553555],[139.70704109025584,35.85871316364424],[139.70475105750623,35.861122387230715]],[[139.7135154843163,35.86769858426524],[139.71254727194056,35.8709866827825]],[[139.71254727194056,35.8709866827825],[139.71510672030777,35.87167503237864],[139.71510672030777,35.86831318211893]],[[139.6714192940662,35.874612810119295],[139.6732210110089,35.87414571575049],[139.6762182597547,35.874545204355385]],[[139.6762182597547,35.874545204355385],[139.6779694612691,35.87201306119817]],[[139.6779694612691,35.87201306119817],[139.674248158051,35.871435339215694],[139.67211809082434,35.8705380263493]],[[139.66804317960813,35.87913625032248],[139.66719283656508,35.88126275889626],[139.66860726855748,35.883081968543195]],[[139.66860726855748,35.883081968543195],[139.66867462246188,35.88306967658612]],[[139.66867462246188,35.88306967658612],[139.6724801180605,35.879873767746915]],[[139.6724801180605,35.879873767746915],[139.66905348817414,35.87932677565713]],[[139.66905348817414,35.87932677565713],[139.66804317960813,35.87913625032248]],[[139.71586445173227,35.88860105726936],[139.71446685821596,35.89005765418262],[139.71365861136317,35.88932628273672],[139.71313661860407,35.89228864439153],[139.71450053516816,35.89244229385495]],[[139.71450053516816,35.89244229385495],[139.71564555154296,35.89067839801485]],[[139.71564555154296,35.89067839801485],[139.71811238829162,35.88989785874065],[139.71586445173227,35.88860105726936]],[[139.7117306058497,35.87343892821874],[139.71254727194056,35.8709866827825]],[[139.7076051792052,35.86532623654998],[139.7073357635876,35.86884173627311]],[[139.7073357635876,35.86884173627311],[139.7093563807196,35.868989239757994],[139.707403117492,35.87244327969575]],[[139.68163182982087,35.86650011845054],[139.67854196945652,35.866997942712025],[139.6756289130912,35.86643251268663]],[[139.6779694612691,35.87201306119817],[139.67801155745937,35.87198233130548]],[[139.67585623251856,35.875135218294936],[139.6740629348139,35.87793778450778]],[[139.6740629348139,35.87793778450778],[139.6724801180605,35.879873767746915]],[[139.66867462246188,35.88306967658612],[139.6729684338674,35.8817851670719],[139.67334729957963,35.88300821680075],[139.6754942052824,35.88222767752656],[139.67577204013804,35.884237412508135],[139.6779694612691,35.88445252175693]],[[139.6779694612691,35.88445252175693],[139.6768917987987,35.88099233584063]],[[139.6768917987987,35.88099233584063],[139.6760161980415,35.88021179656644],[139.67585623251856,35.875135218294936]],[[139.66637617047422,35.88655444641656],[139.66491964229158,35.88723665003416],[139.66293270211176,35.88976264721284],[139.66420400705732,35.893069183665716]],[[139.66420400705732,35.893069183665716],[139.66592995085756,35.88786968582347]],[[139.66592995085756,35.88786968582347],[139.66637617047422,35.88655444641656]],[[139.70280621351668,35.86201355411857],[139.70044040762463,35.86406016497137]],[[139.70044040762463,35.86406016497137],[139.70110552743057,35.864238398348945]],[[139.70110552743057,35.864238398348945],[139.7043048378896,35.86549832394902]],[[139.7043048378896,35.86549832394902],[139.7067127399719,35.86243762663762]],[[139.70471738055403,35.862044284011255],[139.70280621351668,35.86201355411857]],[[139.70545827350244,35.86960383761169],[139.70507098855214,35.872799746450895],[139.70329452932359,35.87496927687444]],[[139.70329452932359,35.87496927687444],[139.70390071446317,35.87539949537202]],[[139.7073357635876,35.86884173627311],[139.70545827350244,35.86960383761169]],[[139.68151396048816,35.878902703138074],[139.6768917987987,35.88099233584063]],[[139.6779694612691,35.88445252175693],[139.67799471898326,35.884446375778396]],[[139.67799471898326,35.884446375778396],[139.68293681171863,35.88437262403595]],[[139.68293681171863,35.88437262403595],[139.68234746505513,35.882860713315864]],[[139.68234746505513,35.882860713315864],[139.67898818907315,35.882553414389015],[139.68181705305798,35.88112140138991],[139.68151396048816,35.878902703138074]],[[139.70086136952713,35.87349424202557],[139.69765363983007,35.87638285193793]],[[139.69765363983007,35.87638285193793],[139.69824298649357,35.87855238236147]],[[139.69824298649357,35.87855238236147],[139.69991841486552,35.877833302872645],[139.70203164361607,35.87830654321999],[139.70390071446317,35.87539949537202]],[[139.70329452932359,35.87496927687444],[139.70086136952713,35.87349424202557]],[[139.6899331985382,35.88777135016687],[139.68802203150085,35.88723050405562]],[[139.68802203150085,35.88723050405562],[139.68622873379618,35.8858783887775]],[[139.68622873379618,35.8858783887775],[139.68435124371103,35.889486078178685]],[[139.68435124371103,35.889486078178685],[139.68958800977813,35.89143435337489]],[[139.68958800977813,35.89143435337489],[139.69039625663095,35.88890221021767]],[[139.69039625663095,35.88890221021767],[139.6899331985382,35.88777135016687]],[[139.74257027482696,35.88164380956555],[139.7395309298909,35.88503638971794]],[[139.7395309298909,35.88503638971794],[139.7409622003594,35.88678184762243]],[[139.7409622003594,35.88678184762243],[139.74097061959745,35.88680028555804]],[[139.74097061959745,35.88680028555804],[139.7446498266253,35.883002070822215],[139.74257027482696,35.88164380956555]],[[139.68948697892154,35.88206173610606],[139.68622873379618,35.8858783887775]],[[139.68802203150085,35.88723050405562],[139.68894814768635,35.88699695687122]],[[139.68894814768635,35.88699695687122],[139.68980690996744,35.88662205218047]],[[139.68980690996744,35.88662205218047],[139.69285467414156,35.884145222830085]],[[139.69285467414156,35.884145222830085],[139.68948697892154,35.88206173610606]],[[139.6695165462669,35.874465306634406],[139.67073733578414,35.87682536239259]],[[139.67073733578414,35.87682536239259],[139.6740629348139,35.87793778450778]],[[139.67585623251856,35.875135218294936],[139.6762182597547,35.874545204355385]],[[139.71224417937077,35.902466384848694],[139.7079756256794,35.904217988731716],[139.7072010557788,35.90593886272206],[139.705550885121,35.90480185669273],[139.7030924676104,35.90648585481185],[139.70245260551857,35.906049490335725]],[[139.70245260551857,35.906049490335725],[139.7009539811457,35.908925808291016],[139.70527305026533,35.910788039787704]],[[139.70527305026533,35.910788039787704],[139.7064433243543,35.90890122437686],[139.7080261411077,35.90977395332911],[139.71182321746826,35.90745077344215],[139.71503094716533,35.90495550615615]],[[139.71503094716533,35.90495550615615],[139.71224417937077,35.902466384848694]],[[139.70550878893073,35.89989736582025],[139.704035422272,35.89950402319389],[139.70166961637992,35.901077393699346],[139.69820089030333,35.90628303752013],[139.7009203041935,35.9063936651338],[139.70058353467147,35.90807151727438],[139.69654230040746,35.906498146768925],[139.6945974564179,35.907794948240216]],[[139.6945974564179,35.907794948240216],[139.69351137470946,35.90851402772904],[139.6927283855708,35.9118021262463],[139.69549831488925,35.91386102905617],[139.6924589699532,35.91690943441049],[139.6944964255613,35.91797883467592]],[[139.6944964255613,35.91797883467592],[139.6977630899247,35.91555117315383],[139.70201480513998,35.9144141671245],[139.70441428798424,35.913148095545885]],[[139.70441428798424,35.913148095545885],[139.70570243140588,35.912232344743884],[139.70527305026533,35.910788039787704]],[[139.70245260551857,35.906049490335725],[139.70400174531977,35.901556780025224],[139.70550878893073,35.89989736582025]],[[139.6784914540282,35.893849722939905],[139.68610244522543,35.893235125086214],[139.68617821836787,35.894839225484354],[139.6890239208288,35.89572424639367],[139.69192855795606,35.89539850953121]],[[139.69192855795606,35.89539850953121],[139.6909266686281,35.89134830967537]],[[139.6909266686281,35.89134830967537],[139.68958800977813,35.89143435337489]],[[139.68435124371103,35.889486078178685],[139.68248217286393,35.88954753796405],[139.68055416735046,35.89153268903148]],[[139.68055416735046,35.89153268903148],[139.67699282965532,35.89222103862762]],[[139.67699282965532,35.89222103862762],[139.67695915270312,35.892233330584695]],[[139.67695915270312,35.892233330584695],[139.67748956470027,35.89402795631748]],[[139.67748956470027,35.89402795631748],[139.6784914540282,35.893849722939905]],[[139.68554677551413,35.885208477116976],[139.68344196600162,35.886511424566805],[139.68345880447774,35.887507073089786],[139.6798385321162,35.88743946732588],[139.68055416735046,35.89153268903148]],[[139.68622873379618,35.8858783887775],[139.68554677551413,35.885208477116976]],[[139.7043048378896,35.86549832394902],[139.70207373980634,35.868442247668206]],[[139.70207373980634,35.868442247668206],[139.70545827350244,35.86960383761169]],[[139.6861613798918,35.87749527405312],[139.68414918199784,35.877894762658016]],[[139.68414918199784,35.877894762658016],[139.68542890618144,35.880033563188874]],[[139.68542890618144,35.880033563188874],[139.68947014044545,35.88206173610606]],[[139.68947014044545,35.88206173610606],[139.6914991768155,35.87997824938204]],[[139.6914991768155,35.87997824938204],[139.690236291108,35.87938208946396]],[[139.690236291108,35.87938208946396],[139.6861613798918,35.87749527405312]],[[139.6899331985382,35.88777135016687],[139.68894814768635,35.88699695687122]],[[139.69039625663095,35.88890221021767],[139.6922737467161,35.89081360954266]],[[139.6922737467161,35.89081360954266],[139.69591927679176,35.8905370405085]],[[139.69591927679176,35.8905370405085],[139.68980690996744,35.88662205218047]],[[139.6914991768155,35.87997824938204],[139.69654230040746,35.88160078771579]],[[139.69654230040746,35.88160078771579],[139.69824298649357,35.87855238236147]],[[139.69765363983007,35.87638285193793],[139.69543938022292,35.87597107137596],[139.69204642728874,35.87941281935664],[139.690236291108,35.87938208946396]],[[139.66860726855748,35.883081968543195],[139.66637617047422,35.88655444641656]],[[139.66592995085756,35.88786968582347],[139.6687924917946,35.88762999266053],[139.67074575502218,35.888336780192276],[139.67304420700984,35.88755009493955],[139.67711911822605,35.888896064239134]],[[139.67711911822605,35.888896064239134],[139.67799471898326,35.884446375778396]],[[139.66795056798958,35.87448989054855],[139.66694025942357,35.87906249858003],[139.66804317960813,35.87913625032248]],[[139.66905348817414,35.87932677565713],[139.6693481615059,35.877206413061884],[139.67073733578414,35.87682536239259]],[[139.7128587837484,35.89908609665338],[139.7115453826126,35.898496082713834]],[[139.7115453826126,35.898496082713834],[139.7128587837484,35.89908609665338]],[[139.69469006803646,35.86689960705544],[139.69340192461482,35.868675794852614]],[[139.69340192461482,35.868675794852614],[139.6981166979228,35.87182253586352]],[[139.6981166979228,35.87182253586352],[139.69900071791807,35.87238181991039]],[[139.69900071791807,35.87238181991039],[139.70011205734068,35.87096824484689]],[[139.70011205734068,35.87096824484689],[139.69734212802223,35.86956696174047],[139.69805776325646,35.86862048104578]],[[139.69805776325646,35.86862048104578],[139.69469006803646,35.86689960705544]],[[139.73858797522928,35.88146557618798],[139.7378134053287,35.881256612917724]],[[139.7378134053287,35.881256612917724],[139.73406684439644,35.883475311169555],[139.73681993523877,35.88419439065838]],[[139.73681993523877,35.88419439065838],[139.73858797522928,35.88146557618798]],[[139.66420400705732,35.893069183665716],[139.66514696171893,35.893991080446256]],[[139.66514696171893,35.893991080446256],[139.6667213592343,35.89287865833107],[139.67091413978318,35.8936653435838],[139.67334729957963,35.89306303768718],[139.67486276242866,35.891858425893936],[139.67695915270312,35.892233330584695]],[[139.67699282965532,35.89222103862762],[139.67711911822605,35.888896064239134]],[[139.7115453826126,35.898496082713834],[139.71150328642236,35.8976417916972]],[[139.71150328642236,35.8976417916972],[139.7086828416756,35.89671374893812]],[[139.7086828416756,35.89671374893812],[139.7073357635876,35.89837316314309]],[[139.7073357635876,35.89837316314309],[139.70776514472814,35.90069019705152],[139.7094068961479,35.90121260522716],[139.71010569290604,35.89927662198802],[139.71187373289655,35.89989736582025],[139.7109055205208,35.90104051782812],[139.71224417937077,35.902466384848694]],[[139.71503094716533,35.90495550615615],[139.71599915954107,35.90617240990647],[139.7186428002888,35.906356789262574],[139.72198523779463,35.903222340208735],[139.7224314574113,35.89989736582025],[139.72407320883104,35.898883279361655],[139.72331547740654,35.89584101998587]],[[139.72331547740654,35.89584101998587],[139.72174949912923,35.89479620363459]],[[139.72174949912923,35.89479620363459],[139.72035190561294,35.89457494840727],[139.71734623762907,35.896142172934184],[139.71525826659266,35.89845306086407],[139.7128587837484,35.89908609665338]],[[139.69654230040746,35.88160078771579],[139.6947995181311,35.883917821624216],[139.6929641242362,35.88413907685155]],[[139.6929641242362,35.88413907685155],[139.69533834936632,35.889018983809876],[139.69668542745433,35.88820156866446],[139.6973926434505,35.889572121878196],[139.69591927679176,35.8905370405085]],[[139.69591927679176,35.8905370405085],[139.69730003183196,35.89145893728904],[139.69935432591618,35.891096324555356],[139.70118130057304,35.889639727642106]],[[139.70118130057304,35.889639727642106],[139.70220844761513,35.88592755660579],[139.70417854931884,35.8832663478993]],[[139.70417854931884,35.8832663478993],[139.7074704713964,35.879197710107846],[139.70875861481804,35.87836800300536]],[[139.721539018178,35.893708365433554],[139.72174949912923,35.89479620363459]],[[139.72331547740654,35.89584101998587],[139.72579073339324,35.895300173874624],[139.72984038689532,35.898791089683606],[139.72984880613336,35.90024154061832],[139.73191151945562,35.89853910456359],[139.73282921640308,35.89585945792148],[139.73442045239452,35.895134232454126]],[[139.73442045239452,35.895134232454126],[139.73195361564586,35.89434140122286],[139.73117904574528,35.89504818875461],[139.72823231242776,35.89364075966965],[139.72708729605296,35.894230773609195],[139.72986564460948,35.89046328876606]],[[139.72986564460948,35.89046328876606],[139.7284091164268,35.889879420805045]],[[139.7284091164268,35.889879420805045],[139.72602647205866,35.889793377105526],[139.7245867823521,35.891016426834376],[139.722549326744,35.89092423715633],[139.721539018178,35.893708365433554]],[[139.72986564460948,35.89046328876606],[139.73178523088487,35.888054065179574],[139.7284764703312,35.88503638971794],[139.7261022452011,35.88609964400483],[139.72893952842395,35.88913575740207],[139.7284091164268,35.889879420805045]],[[139.67748956470027,35.89402795631748],[139.67417238490856,35.893929620660884],[139.66907032665023,35.89565049465123],[139.66513012324282,35.89455036449312]],[[139.66513012324282,35.89455036449312],[139.66345469487086,35.89380670109015],[139.6608363118373,35.89385586891844],[139.6604658653631,35.89738980657718],[139.66600572400003,35.89838545510017],[139.66694025942357,35.900413628017354],[139.66960073864738,35.89703333982204],[139.67848303479016,35.896437179903955],[139.67770846488955,35.89432910926579],[139.6784914540282,35.893849722939905]],[[139.74257027482696,35.88164380956555],[139.74128213140528,35.882713209830975],[139.73858797522928,35.88146557618798]],[[139.73681993523877,35.88419439065838],[139.7395309298909,35.88503638971794]],[[139.71340603422166,35.87674546467161],[139.7108381666164,35.879123958365405]],[[139.7108381666164,35.879123958365405],[139.71700946810708,35.88136724053139]],[[139.71700946810708,35.88136724053139],[139.71738833381931,35.880875562248434],[139.7206802558969,35.88228913731193],[139.71947630485573,35.883401559427114],[139.72092441380033,35.88410834695886],[139.71950998180793,35.88632089923216]],[[139.71950998180793,35.88632089923216],[139.72254090750593,35.88550348408675],[139.72765980424035,35.88038388396548],[139.73069914917642,35.880408467879626],[139.7280555084287,35.878122163863885]],[[139.7280555084287,35.878122163863885],[139.72526874063414,35.87610628290377],[139.72446049378135,35.877071201534065],[139.72231358807858,35.876450457701836],[139.71903008523907,35.87916083423663],[139.71340603422166,35.87674546467161]],[[139.69340192461482,35.868675794852614],[139.6929978011884,35.8700709319805],[139.6902868065363,35.872037645112314]],[[139.6902868065363,35.872037645112314],[139.69144024214916,35.87197618532695]],[[139.69144024214916,35.87197618532695],[139.6981166979228,35.87182253586352]],[[139.68414918199784,35.877894762658016],[139.68293681171863,35.878355711048286]],[[139.68293681171863,35.878355711048286],[139.68384608942802,35.880506803536214],[139.68103406391933,35.88227684535485],[139.68234746505513,35.882860713315864]],[[139.68293681171863,35.88437262403595],[139.6850668789453,35.884686068941335]],[[139.6850668789453,35.884686068941335],[139.6859256412264,35.880795664527454],[139.68542890618144,35.880033563188874]],[[139.71700946810708,35.88136724053139],[139.71534245897317,35.883241763985154],[139.71746410696178,35.88710758448489]],[[139.71746410696178,35.88710758448489],[139.71914795457178,35.88748248917564],[139.72419107816376,35.88640694293168],[139.72490671339798,35.88531910473064],[139.71950998180793,35.88632089923216]],[[139.70044040762463,35.86406016497137],[139.69738422421247,35.86300920264156],[139.69660965431186,35.8641646466065]],[[139.69660965431186,35.8641646466065],[139.69469006803646,35.86689960705544]],[[139.69805776325646,35.86862048104578],[139.70110552743057,35.864238398348945]],[[139.70875861481804,35.878361857026825],[139.7108381666164,35.879123958365405]],[[139.71340603422166,35.87674546467161],[139.72018352085195,35.87048885852101],[139.7192658239045,35.867975153299405],[139.71763249172278,35.867071694454474],[139.71868489647903,35.862566692186896],[139.71535929744928,35.86221022543175]],[[139.69144024214916,35.87197618532695],[139.68899866311463,35.875534706899835],[139.6861613798918,35.87749527405312]],[[139.70086136952713,35.87349424202557],[139.70049092305294,35.87327298679824]],[[139.70049092305294,35.87327298679824],[139.70005312267432,35.873027147656764]],[[139.70005312267432,35.873027147656764],[139.69900071791807,35.87238181991039]],[[139.68151396048816,35.878902703138074],[139.68293681171863,35.878355711048286]],[[139.6902868065363,35.872037645112314],[139.6863466031289,35.8722343164255]],[[139.66514696171893,35.893991080446256],[139.66513012324282,35.89455036449312]],[[139.70207373980634,35.868442247668206],[139.70011205734068,35.87096824484689]],[[139.70005312267432,35.873027147656764],[139.70049092305294,35.87327298679824]],[[139.70280621351668,35.86201355411857],[139.69919436039322,35.85977027195259],[139.69975844934257,35.85865784983741],[139.698150374875,35.85749011391539],[139.69549831488925,35.86001611109407],[139.69422700994372,35.86369140625916],[139.69660965431186,35.8641646466065]],[[139.71450053516816,35.89244229385495],[139.7133470995553,35.89416931382383],[139.70983627728845,35.89520798419657],[139.70425432246128,35.89271886288911],[139.70191377428338,35.89317366530084],[139.70251154018493,35.88983639895529],[139.70401016455784,35.890020778311396],[139.70581188150055,35.885448170279915],[139.70417854931884,35.8832663478993]],[[139.70118130057304,35.889639727642106],[139.70065930781394,35.89263896516813]],[[139.70065930781394,35.89263896516813],[139.70094556190762,35.89869275402701],[139.69852924058728,35.90212221005062],[139.6938902404217,35.90628303752013],[139.6945974564179,35.907794948240216]],[[139.70550878893073,35.89989736582025],[139.7073357635876,35.89837316314309]],[[139.7086828416756,35.89671374893812],[139.7096089578611,35.895902479771244],[139.7116464134692,35.89663999719568],[139.71150328642236,35.8976417916972]],[[139.721539018178,35.893708365433554],[139.71861754257463,35.89397264251065],[139.71812922676773,35.892626673211055],[139.71630225211086,35.892485315704704],[139.71564555154296,35.89067839801485]],[[139.6922737467161,35.89081360954266],[139.6909266686281,35.89134830967537]],[[139.69192855795606,35.89539850953121],[139.69423542918176,35.895152670389734],[139.6939575943261,35.894070978167235],[139.70065930781394,35.89263896516813]],[[139.71746410696178,35.88710758448489],[139.71586445173227,35.88860105726936]],[[139.73442045239452,35.895134232454126],[139.73616323467087,35.894077124145774],[139.7372577356174,35.89059235431533],[139.73868900608588,35.88915419533769],[139.74167783559363,35.88814010887909],[139.7429491405392,35.886222563575565],[139.74097061959745,35.88680028555804]],[[139.7409622003594,35.88678184762243],[139.73952251065285,35.885902972691646],[139.73687886990513,35.888041773222504],[139.73634845790798,35.88760540874638],[139.7395309298909,35.88503638971794]],[[139.7378134053287,35.881256612917724],[139.73999398798364,35.87849706855464],[139.73911838722643,35.878349565069755],[139.7410295542638,35.87574367017009],[139.73934570665378,35.8751290723164],[139.73789759770918,35.87657337727258],[139.7390594525601,35.87756902579556],[139.7381838518029,35.88037773798694],[139.73609588076647,35.88021179656644],[139.73213883888297,35.877679653409224],[139.73469828725018,35.87344507419728],[139.73740928190227,35.87161357259327],[139.7404065306481,35.8720007692411],[139.7399518917934,35.87016926763709],[139.73649158495482,35.87059948613467],[139.73351117468513,35.87359257768216],[139.73264399316596,35.8765610853155],[139.73080859927106,35.87559002070667],[139.72917526708937,35.876155450732064],[139.7280555084287,35.878122163863885]],[[139.6850668789453,35.884686068941335],[139.68554677551413,35.885208477116976]],[[139.68948697892154,35.88206173610606],[139.68947014044545,35.88206173610606]],[[139.6944964255613,35.91797883467592],[139.69526257622385,35.918470512958876],[139.69851240211116,35.91538523173333],[139.7017453895224,35.91644848602022],[139.70480157293454,35.91368894165714],[139.70441428798424,35.913148095545885]],[[139.6929641242362,35.88413907685155],[139.69285467414156,35.884145222830085]]]}