{"type":"Topology","bbox":[139.58769975269365,35.9143978765474,139.64350338843695,35.966283816281994],"objects":{"town":{"type":"GeometryCollection","geometries":[{"type":"Polygon","arcs":[[0,1,2,3,4,5]],"properties":{"name":"大成町"}},{"type":"MultiPolygon","arcs":[[[7,8,-5,-4,26,-11,27]]],"properties":{"name":"東大成町"}},{"type":"MultiPolygon","arcs":[[[28,-22,-26,29,58,-40,59,-48,-47,75,13,14,15,9,10,-27,-3]]],"properties":{"name":"宮原町"}},{"type":"Polygon","arcs":[[16,17,-1,18]],"properties":{"name":"櫛引町"}},{"type":"MultiPolygon","arcs":[[[21,-29,-2,-18,-17,67,54,19,23,24,25]]],"properties":{"name":"日進町"}},{"type":"Polygon","arcs":[[32,33,34,35,36]],"properties":{"name":"盆栽町"}},{"type":"Polygon","arcs":[[37,38,39,40]],"properties":{"name":"別所町"}},{"type":"MultiPolygon","arcs":[[[43,73,-52,-72,74,-36,-35,41,-58,-15,61]]],"properties":{"name":"土呂町"}},{"type":"MultiPolygon","arcs":[[[49,45,46,47,-60,-39,66,-64]]],"properties":{"name":"吉野町"}},{"type":"MultiPolygon","arcs":[[[70,71,51,52,53,72,69]]],"properties":{"name":"見沼"}},{"type":"MultiPolygon","arcs":[[[-8,-28,-10,-16,57,-42,-34,-33,76]]],"properties":{"name":"植竹町"}},{"type":"Polygon","arcs":[[62,-41,-59,-30,-25]],"properties":{"name":"奈良町"}},{"type":"Polygon","arcs":[[63,64,65,-50]],"properties":{"name":"今羽町"}},{"type":"Polygon","arcs":[[-14,-76,-46,-66,77,-53,-74,-44,-62]],"properties":{"name":"本郷町"}}]}},"arcs":[[[139.6115302882096,35.919509152738875],[139.61245672120623,35.924350595060346]],[[139.61245672120623,35.924350595060346],[139.61124008028293,35.93240409825747]],[[139.61124008028293,35.93240409825747],[139.61217209420124,35.93409055994502]],[[139.61217209420124,35.93409055994502],[139.6157103985378,35.92955008617086],[139.61793160536106,35.923193422887046]],[[139.61793160536106,35.923193422887046],[139.61835017448604,35.92207776361683]],[[139.61835017448604,35.92207776361683],[139.61510207807615,35.92118523620065],[139.61491790766115,35.91977898660888],[139.6115302882096,35.919509152738875]],[[139.61793160536106,35.923193422887046],[139.62250238020593,35.92451664667266]],[[139.62250238020593,35.92451664667266],[139.62537655486418,35.91925488620752]],[[139.62537655486418,35.91925488620752],[139.62521470813584,35.91868927290309],[139.62028117338266,35.9169145962965],[139.61835017448604,35.92207776361683]],[[139.62406503827253,35.93183329584015],[139.61934915946435,35.930084564797994]],[[139.61934915946435,35.930084564797994],[139.61539786692447,35.93553832243986]],[[139.61539786692447,35.93553832243986],[139.61434865365118,35.936788898645084]],[[139.61434865365118,35.936788898645084],[139.619923994396,35.93771256073857],[139.6184617929194,35.94055619459941],[139.62225123873094,35.94159920628925]],[[139.62225123873094,35.94159920628925],[139.6256388581825,35.9352529212312]],[[139.6256388581825,35.9352529212312],[139.62686666094913,35.93268431035325]],[[139.62686666094913,35.93268431035325],[139.62406503827253,35.93183329584015]],[[139.60519594211812,35.915731478558776],[139.60533546515978,35.923084451516466]],[[139.60533546515978,35.923084451516466],[139.60838822931134,35.923447689418396],[139.60837148654636,35.92425719102842],[139.61245672120623,35.924350595060346]],[[139.6115302882096,35.919509152738875],[139.61154145005293,35.91628671363745],[139.60519594211812,35.915731478558776]],[[139.5988839197133,35.928984472866425],[139.59911273750163,35.9315790293088],[139.59761705049502,35.934469365185606]],[[139.59761705049502,35.934469365185606],[139.60104373639825,35.934002345025974],[139.60296357345152,35.932777714385175],[139.6025673280132,35.93588599300314],[139.60870076092468,35.936628036145656]],[[139.60870076092468,35.936628036145656],[139.61004018212464,35.93749461799741],[139.6105480459963,35.93617658332469],[139.60890725502634,35.9355227551012],[139.6104308466413,35.932539015192475]],[[139.6104308466413,35.932539015192475],[139.60815383060137,35.932263992209585],[139.5988839197133,35.928984472866425]],[[139.59761705049502,35.934469365185606],[139.59785703012668,35.93867254662225],[139.5995201447833,35.940898676049805]],[[139.5995201447833,35.940898676049805],[139.60284079317486,35.94070667887307],[139.60690928506975,35.94204546999733]],[[139.60690928506975,35.94204546999733],[139.6084998477447,35.9389631369438],[139.60870076092468,35.936628036145656]],[[139.61217209420124,35.93409055994502],[139.61539786692447,35.93553832243986]],[[139.61934915946435,35.930084564797994],[139.62173779393763,35.9268828821481],[139.62250238020593,35.92451664667266]],[[139.61124008028293,35.93240409825747],[139.6104308466413,35.932539015192475]],[[139.60690928506975,35.94204546999733],[139.6079808220297,35.943430963137565]],[[139.6079808220297,35.943430963137565],[139.60953789917465,35.94153693693463],[139.6107936065496,35.94199357886849]],[[139.6107936065496,35.94199357886849],[139.61434865365118,35.936788898645084]],[[139.6267382997508,35.92166263458604],[139.62773170380743,35.92354628256321],[139.62554956343584,35.9287198281093]],[[139.62554956343584,35.9287198281093],[139.6286692986474,35.92968500310587]],[[139.6286692986474,35.92968500310587],[139.63086260086234,35.92932176520393]],[[139.63086260086234,35.92932176520393],[139.6337311945989,35.927697572871004],[139.6342167347839,35.92669607408425]],[[139.6342167347839,35.92669607408425],[139.6342502203139,35.92425719102842],[139.6292050671274,35.92291321079127],[139.6267382997508,35.92166263458604]],[[139.5930406947285,35.95321244092531],[139.59178498735352,35.95525695140191],[139.59206403343686,35.957125032040416],[139.5906241556469,35.95705757357291],[139.58769975269365,35.961027244929745],[139.5916733689202,35.96123999855802],[139.59208077620184,35.96187307032996],[139.59869416837665,35.961302267912636],[139.60010614155829,35.959595049773554]],[[139.60010614155829,35.959595049773554],[139.59961502045164,35.957706212683505],[139.60113861206656,35.954187994147645],[139.60310867741484,35.95233548084779]],[[139.60310867741484,35.95233548084779],[139.60081491860993,35.95094998770756]],[[139.60081491860993,35.95094998770756],[139.59758914588667,35.95421393971207],[139.5930406947285,35.95321244092531]],[[139.6286692986474,35.92968500310587],[139.62852977560576,35.93324992365769]],[[139.62852977560576,35.93324992365769],[139.6274024294291,35.935802967196985]],[[139.6274024294291,35.935802967196985],[139.6298524540407,35.937302620820674],[139.63499806381722,35.939232970813805],[139.63600821063886,35.93908767565303]],[[139.63600821063886,35.93908767565303],[139.63086260086234,35.92932176520393]],[[139.62211171568927,35.94728647401093],[139.61918731273602,35.94633167724014]],[[139.61918731273602,35.94633167724014],[139.61703307697275,35.94603589780571]],[[139.61703307697275,35.94603589780571],[139.6138742753095,35.94740063449439],[139.61152470728794,35.947774250622096],[139.60995646829963,35.95053485867678],[139.60920862479634,35.950337672387164],[139.60699299889473,35.953601624391666]],[[139.60699299889473,35.953601624391666],[139.6051122282931,35.95689671107348],[139.60968858405965,35.9579137771989],[139.6101127341063,35.956865576396176],[139.61984586149268,35.96016066307799],[139.6210736642593,35.957763292925236]],[[139.6210736642593,35.957763292925236],[139.61933799762102,35.9486252651352],[139.62211171568927,35.94728647401093]],[[139.64227000474867,35.93642047163027],[139.63800618059545,35.935543511552744]],[[139.63800618059545,35.935543511552744],[139.6360528580122,35.93918626879784]],[[139.6360528580122,35.93918626879784],[139.6370351002255,35.94116850991981]],[[139.6370351002255,35.94116850991981],[139.63851962538877,35.941376074435205],[139.64230349027866,35.9394716700065],[139.64227000474867,35.93642047163027]],[[139.598387217685,35.92684655835791],[139.5988839197133,35.928984472866425]],[[139.60533546515978,35.923084451516466],[139.60557544479144,35.926348403520976],[139.6035663129915,35.927298011178884],[139.598387217685,35.92684655835791]],[[139.62554956343584,35.9287198281093],[139.62406503827253,35.93183329584015]],[[139.62686666094913,35.93268431035325],[139.62852977560576,35.93324992365769]],[[139.6079808220297,35.943430963137565],[139.6074952818447,35.945018831680294],[139.60410766239315,35.94833467481365],[139.60081491860993,35.95094998770756]],[[139.60310867741484,35.95233548084779],[139.60699299889473,35.953601624391666]],[[139.61703307697275,35.94603589780571],[139.61528624849115,35.94424565386047],[139.61053688415296,35.94245022080234],[139.6107936065496,35.94199357886849]],[[139.6256388581825,35.9352529212312],[139.6274024294291,35.935802967196985]],[[139.5995201447833,35.940898676049805],[139.5993694598983,35.94396544176469],[139.59766169786835,35.94606184337013],[139.59667387473337,35.948599319570775],[139.5930406947285,35.95321244092531]],[[139.6210736642593,35.957763292925236],[139.6226084177176,35.95806945058544]],[[139.6226084177176,35.95806945058544],[139.62714570703244,35.95016643166197],[139.62941156122906,35.948941801021164]],[[139.62941156122906,35.948941801021164],[139.6244054744942,35.94744733651036],[139.62211171568927,35.94728647401093]],[[139.60010614155829,35.959595049773554],[139.61099451972962,35.96443130298214],[139.61382404701453,35.96620079047584],[139.61871293439438,35.96455065257849],[139.6226084177176,35.95806945058544]],[[139.60519594211812,35.915731478558776],[139.6049671243298,35.91443938945048],[139.60349376100984,35.91528002573781],[139.5996373441383,35.914408254773164],[139.59708128201504,35.91484932936837],[139.59509447390175,35.91857511241962],[139.59483217058343,35.921413557167575],[139.5956414042251,35.92322974667724],[139.598387217685,35.92684655835791]],[[139.63797269506546,35.92563230594288],[139.64192398760534,35.92740179343657]],[[139.64192398760534,35.92740179343657],[139.64288948705365,35.92492658659055],[139.63870937672544,35.922233437003364],[139.63797269506546,35.92563230594288]],[[139.63797269506546,35.92563230594288],[139.63852520631045,35.92813864746621]],[[139.63852520631045,35.92813864746621],[139.63719694695382,35.933161708738645],[139.63800618059545,35.935543511552744]],[[139.64227000474867,35.93642047163027],[139.64273322124697,35.934116505509444],[139.64188492115366,35.929586409961054],[139.64192398760534,35.92740179343657]],[[139.63600821063886,35.93908767565303],[139.6360528580122,35.93918626879784]],[[139.63852520631045,35.92813864746621],[139.6342167347839,35.92669607408425]],[[139.61918731273602,35.94633167724014],[139.62225123873094,35.94159920628925]],[[139.6267382997508,35.92166263458604],[139.62537655486418,35.91925488620752]],[[139.62941156122906,35.948941801021164],[139.63109699957232,35.94822051433019],[139.6370351002255,35.94116850991981]]]}