{"type":"Topology","bbox":[139.56877681470044,35.83177250157056,139.6375122682518,35.88902454638201],"objects":{"town":{"type":"GeometryCollection","geometries":[{"type":"MultiPolygon","arcs":[[[58,140,1,12,13,26,23,24,27,28,29,30,15,16,-123,57,31,32,33]]],"properties":{"name":"西堀"}},{"type":"MultiPolygon","arcs":[[[39,133,131,145,146,-130,147,80,-27,-14,81,130,21,136,135]]],"properties":{"name":"田島"}},{"type":"Polygon","arcs":[[40,41,42,43,44,45,46,47]],"properties":{"name":"大字道場"}},{"type":"MultiPolygon","arcs":[[[162,163,170,-90,-144,54,138,139,-120,-119,-177,-45,-107,83,84]]],"properties":{"name":"栄和"}},{"type":"MultiPolygon","arcs":[[[-95,-94,158,-33,-122,62,63,141,142,-139,-55,143,-89]]],"properties":{"name":"中島"}},{"type":"MultiPolygon","arcs":[[[127,128,129,-147,171,66,67,149,150,151]]],"properties":{"name":"新開"}},{"type":"Polygon","arcs":[[70,71,72,73]],"properties":{"name":"大字昭和"}},{"type":"Polygon","arcs":[[74,-72,75,76,77,78]],"properties":{"name":"大字宿"}},{"type":"MultiPolygon","arcs":[[[92,93,94,88,89,90,100]]],"properties":{"name":"山久保"}},{"type":"Polygon","arcs":[[95,96,97,-42,98,-73,-75,99]],"properties":{"name":"大字塚本"}},{"type":"Polygon","arcs":[[-44,101,-97,102,103,104,105,-84,106],[107,108]],"properties":{"name":"大字下大久保"}},{"type":"Polygon","arcs":[[109,-78,110,111,112,113]],"properties":{"name":"大字神田"}},{"type":"MultiPolygon","arcs":[[[168,-150,-68,-47,-46,176,118,119,120,114,-153,166]]],"properties":{"name":"道場"}},{"type":"MultiPolygon","arcs":[[[169,124,-63,121,-32,-58,122,-17,-16,-31]]],"properties":{"name":"南元宿"}},{"type":"MultiPolygon","arcs":[[[-142,-64,-125,-170,-30,-29,-180,-169,-167,152,-115,-121,-140,-143]]],"properties":{"name":"町谷"}},{"type":"MultiPolygon","arcs":[[[-25,-24,-81,-148,-129,-128,-152,-151,179,-28]]],"properties":{"name":"桜田"}},{"type":"Polygon","arcs":[[172,-109]],"properties":{"name":"大字大久保領家"}},{"type":"Polygon","arcs":[[-77,173,174,-111]],"properties":{"name":"大字白鍬"}},{"type":"Polygon","arcs":[[-76,-71,177,-174]],"properties":{"name":"大字在家"}},{"type":"Polygon","arcs":[[-67,-172,-146,-132,178,-48]],"properties":{"name":"大字田島"}},{"type":"Polygon","arcs":[[-106,180,-113,181,-163,-85]],"properties":{"name":"大字上大久保"}},{"type":"Polygon","arcs":[[-100,-79,-110,182,-104,183]],"properties":{"name":"大字五関"}},{"type":"Polygon","arcs":[[-43,-98,-102]],"properties":{"name":"大字栄和"}}]}},"arcs":[[[139.6336352009648,35.8577732551948],[139.63680422227563,35.85804236671657]],[[139.63680422227563,35.85804236671657],[139.63723729894068,35.85441222406126]],[[139.63723729894068,35.85441222406126],[139.6357593388933,35.85420609608714]],[[139.6357593388933,35.85420609608714],[139.6336352009648,35.8577732551948]],[[139.63208849858964,35.85377093703067],[139.63021183304113,35.8575098694501]],[[139.63021183304113,35.8575098694501],[139.6326384372119,35.85769309431598]],[[139.6326384372119,35.85769309431598],[139.6336352009648,35.8577732551948]],[[139.6357593388933,35.85420609608714],[139.63208849858964,35.85377093703067]],[[139.62813581474205,35.85339876152184],[139.6268503332125,35.85691438863598]],[[139.6268503332125,35.85691438863598],[139.63021183304113,35.8575098694501]],[[139.63208849858964,35.85377093703067],[139.62813581474205,35.85339876152184]],[[139.6287544956921,35.85094812894065],[139.62813581474205,35.85339876152184]],[[139.63723729894068,35.85441222406126],[139.63654987566284,35.85339303574478],[139.6330577654114,35.85164667374183]],[[139.6330577654114,35.85164667374183],[139.6287544956921,35.85094812894065]],[[139.6268503332125,35.85691438863598],[139.62656848966859,35.85718350015774]],[[139.62656848966859,35.85718350015774],[139.6259910541152,35.85852333198951],[139.62926318891772,35.85930776344657],[139.62852077177766,35.86097969034776]],[[139.62852077177766,35.86097969034776],[139.62979250484165,35.861454929843646]],[[139.62979250484165,35.861454929843646],[139.6326384372119,35.85769309431598]],[[139.63153855996737,35.842307931358846],[139.63094050171566,35.8438596169418]],[[139.63094050171566,35.8438596169418],[139.63065178393896,35.84451808130356]],[[139.63065178393896,35.84451808130356],[139.63453572545876,35.845548721174154]],[[139.63453572545876,35.845548721174154],[139.634776323606,35.843716472515325]],[[139.634776323606,35.843716472515325],[139.63153855996737,35.842307931358846]],[[139.62517989464735,35.84850322213652],[139.6242656216878,35.85116570846889]],[[139.6242656216878,35.85116570846889],[139.62383254502276,35.85233376698889]],[[139.62383254502276,35.85233376698889],[139.62813581474205,35.85339876152184]],[[139.6287544956921,35.85094812894065],[139.62517989464735,35.84850322213652]],[[139.62383254502276,35.85233376698889],[139.62316574444327,35.85433778895949]],[[139.62316574444327,35.85433778895949],[139.6225745604243,35.85617003761833]],[[139.6225745604243,35.85617003761833],[139.625406744329,35.8568685824195]],[[139.625406744329,35.8568685824195],[139.62656848966859,35.85718350015774]],[[139.62858263987266,35.86358491890954],[139.62768898961144,35.86333871049601]],[[139.62768898961144,35.86333871049601],[139.62747588839534,35.86560611821131]],[[139.62747588839534,35.86560611821131],[139.6298406244711,35.86639627544543],[139.63142857224292,35.86455257523248]],[[139.63142857224292,35.86455257523248],[139.62858263987266,35.86358491890954]],[[139.62559234861405,35.83795634079412],[139.62284952973545,35.840836406654724]],[[139.62284952973545,35.840836406654724],[139.62688470437638,35.84341873210826]],[[139.62688470437638,35.84341873210826],[139.62700844056639,35.843080911261794]],[[139.62700844056639,35.843080911261794],[139.62835579019097,35.839227463301185]],[[139.62835579019097,35.839227463301185],[139.62559234861405,35.83795634079412]],[[139.60504526683937,35.84275454196944],[139.60125756457845,35.84427187289003],[139.5968718040658,35.849092977173584]],[[139.5968718040658,35.849092977173584],[139.60192436515797,35.85326706864949],[139.6053821042455,35.85560891146656]],[[139.6053821042455,35.85560891146656],[139.60680507043062,35.85493326977361],[139.60683944159453,35.85651358424185]],[[139.60683944159453,35.85651358424185],[139.60872298137582,35.85828284935304]],[[139.60872298137582,35.85828284935304],[139.60896357952305,35.85812252759539]],[[139.60896357952305,35.85812252759539],[139.6077674630196,35.854984801767145],[139.60981598438758,35.85319835932478]],[[139.60981598438758,35.85319835932478],[139.61332871733734,35.84898418740947]],[[139.61332871733734,35.84898418740947],[139.61225633702392,35.84845741592005],[139.60504526683937,35.84275454196944]],[[139.62688470437638,35.84341873210826],[139.62594293448575,35.8461556535424]],[[139.62594293448575,35.8461556535424],[139.62943504473716,35.84769588757123]],[[139.62943504473716,35.84769588757123],[139.63065178393896,35.84451808130356]],[[139.63094050171566,35.8438596169418],[139.62700844056639,35.843080911261794]],[[139.61413300257243,35.86243403772071],[139.6153497417742,35.865399990237194]],[[139.6153497417742,35.865399990237194],[139.6182162968428,35.865972567943075]],[[139.6182162968428,35.865972567943075],[139.61944678451013,35.86306959897424]],[[139.61944678451013,35.86306959897424],[139.616504612881,35.86202178177247],[139.61413300257243,35.86243403772071]],[[139.63527126836604,35.861764121804825],[139.6326796826086,35.861151463659525],[139.62983375023833,35.86147210717482]],[[139.62983375023833,35.86147210717482],[139.62858263987266,35.86358491890954]],[[139.63142857224292,35.86455257523248],[139.63198538509798,35.86278903589836],[139.63413701995762,35.86342459715189],[139.63527126836604,35.861764121804825]],[[139.6210484807475,35.86147210717482],[139.6207941341347,35.86366507978836]],[[139.6207941341347,35.86366507978836],[139.62283578126988,35.86463846188837]],[[139.62283578126988,35.86463846188837],[139.62463683025783,35.86247411816012]],[[139.62463683025783,35.86247411816012],[139.62291139783045,35.862004604441296]],[[139.62291139783045,35.862004604441296],[139.6210484807475,35.86147210717482]],[[139.62284952973545,35.840836406654724],[139.62113784577363,35.84258849443473]],[[139.62113784577363,35.84258849443473],[139.62594293448575,35.8461556535424]],[[139.61540473563642,35.84530823853768],[139.61332871733734,35.84898418740947]],[[139.61332871733734,35.84898418740947],[139.61577594420646,35.85071337208124],[139.61576906997368,35.85268303938948]],[[139.61576906997368,35.85268303938948],[139.61867687043895,35.84839443237241],[139.61851188885228,35.84674540857946]],[[139.61851188885228,35.84674540857946],[139.61540473563642,35.84530823853768]],[[139.59290537175266,35.880888217181386],[139.59351717846997,35.87771613669078]],[[139.59351717846997,35.87771613669078],[139.5926097797432,35.87592969424842],[139.59278850979544,35.87255721156075]],[[139.59278850979544,35.87255721156075],[139.5870966450549,35.87241406713429],[139.58640922177707,35.873673738087234],[139.58473878321192,35.87326720791605],[139.58467691511692,35.87185866675958],[139.5825802741195,35.8720075369631],[139.5821403232217,35.86974585502486],[139.57756895842402,35.86892706890544]],[[139.57756895842402,35.86892706890544],[139.57567854440998,35.87302672527958],[139.5725507684958,35.87702904344372],[139.56877681470044,35.88071071809256],[139.57105905998287,35.88210208191786],[139.57275699547915,35.88047023545609],[139.57531421007272,35.88178716417962],[139.57657906890395,35.880166769271966],[139.58131541528826,35.88217651701962],[139.58317145813845,35.88042442923962],[139.58935139340625,35.880498864341384],[139.59290537175266,35.880888217181386]],[[139.59638373353854,35.871910198753106],[139.59278850979544,35.87255721156075]],[[139.59351717846997,35.87771613669078],[139.5999927057472,35.877412670506665],[139.60178000626962,35.87700614033548]],[[139.60178000626962,35.87700614033548],[139.6015600308207,35.874818893499004]],[[139.6015600308207,35.874818893499004],[139.60141567193236,35.87361648031664]],[[139.60141567193236,35.87361648031664],[139.59833601564762,35.874114622920764],[139.59756610157643,35.871274637499575],[139.59638373353854,35.871910198753106]],[[139.62594293448575,35.8461556535424],[139.62515239771622,35.84848604480535]],[[139.62515239771622,35.84848604480535],[139.62517989464735,35.84850322213652]],[[139.6330577654114,35.85164667374183],[139.63325024392918,35.84977434464359]],[[139.63325024392918,35.84977434464359],[139.62943504473716,35.84769588757123]],[[139.611912625385,35.862909277216595],[139.61266191675784,35.86446096279954]],[[139.61266191675784,35.86446096279954],[139.6142017449002,35.867484173086616]],[[139.6142017449002,35.867484173086616],[139.61504040129918,35.86770175261485]],[[139.61504040129918,35.86770175261485],[139.6153497417742,35.865399990237194]],[[139.61413300257243,35.86243403772071],[139.611912625385,35.862909277216595]],[[139.62048479365967,35.86679135406249],[139.62027169244354,35.86668829007544]],[[139.62027169244354,35.86668829007544],[139.61995547773574,35.869121745325444]],[[139.61995547773574,35.869121745325444],[139.62129595312754,35.86948246928015]],[[139.62129595312754,35.86948246928015],[139.6252555112079,35.870415770940745]],[[139.6252555112079,35.870415770940745],[139.6246162075595,35.86831441076015]],[[139.6246162075595,35.86831441076015],[139.62361944380663,35.86805102501544]],[[139.62361944380663,35.86805102501544],[139.62048479365967,35.86679135406249]],[[139.5943352121706,35.862554279038946],[139.59642497893523,35.85986316382128]],[[139.59642497893523,35.85986316382128],[139.6053477330816,35.85563181457479]],[[139.6053477330816,35.85563181457479],[139.6053821042455,35.85560891146656]],[[139.5968718040658,35.849092977173584],[139.59177112334424,35.8524024763136],[139.58992195472683,35.85462407781244],[139.58706227389104,35.85923332834481],[139.58434007771078,35.86123162453835],[139.57983745524092,35.86296653498718],[139.57830450133133,35.86541716756837],[139.57756895842402,35.86892706890544]],[[139.59638373353854,35.871910198753106],[139.59557944830348,35.86951109816545],[139.59377152508276,35.86798231569073],[139.59262352820878,35.86505644361366],[139.5943352121706,35.862554279038946]],[[139.62129595312754,35.86948246928015],[139.61988673540796,35.870266900737214],[139.6211172230753,35.87204189162546],[139.6246162075595,35.87185294098252],[139.6252555112079,35.870415770940745]],[[139.60683944159453,35.85651358424185],[139.6053477330816,35.85563181457479]],[[139.59642497893523,35.85986316382128],[139.59712615067863,35.863063873197184]],[[139.59712615067863,35.863063873197184],[139.59750423348143,35.86397427174954],[139.60095509833621,35.865130878715426]],[[139.60095509833621,35.865130878715426],[139.60624825757557,35.865926761726605]],[[139.60624825757557,35.865926761726605],[139.60890858566083,35.86593248750366],[139.6101253248626,35.86452967212425],[139.61266191675784,35.86446096279954]],[[139.611912625385,35.862909277216595],[139.6098709782498,35.85903292614775],[139.60872298137582,35.85828284935304]],[[139.60341607367087,35.859456633650105],[139.60415161657815,35.85773890053245],[139.60575331281552,35.85813970492657],[139.60533398461604,35.85969139050952],[139.60343669636922,35.86052735396011]],[[139.60343669636922,35.86052735396011],[139.60151191119127,35.86052162818305],[139.60114070262122,35.85904437770187],[139.60341607367087,35.859456633650105]],[[139.60105821182788,35.87219648760605],[139.60141567193236,35.87361648031664]],[[139.6015600308207,35.874818893499004],[139.60587704900556,35.87465857174136],[139.60852362862525,35.87643928840666],[139.60800118693408,35.87760734692666]],[[139.60800118693408,35.87760734692666],[139.61333559157012,35.87742412206078],[139.61534286754141,35.8746528459643]],[[139.61534286754141,35.8746528459643],[139.61186450575553,35.87434937978018],[139.61097085549434,35.87315841815194]],[[139.61097085549434,35.87315841815194],[139.60943102735197,35.87148649125075],[139.60588392323834,35.872946564400756],[139.6027355246258,35.8715494747984],[139.60105821182788,35.87219648760605]],[[139.6183469072656,35.85829430090716],[139.6172951496505,35.85827139779892]],[[139.6172951496505,35.85827139779892],[139.61479292891914,35.85792212539833]],[[139.61479292891914,35.85792212539833],[139.6110877174516,35.8559238292048]],[[139.6110877174516,35.8559238292048],[139.60938978195531,35.857893496513036]],[[139.60938978195531,35.857893496513036],[139.61330122040624,35.85914171591187]],[[139.61330122040624,35.85914171591187],[139.61746013123718,35.86045864463541]],[[139.61746013123718,35.86045864463541],[139.6183469072656,35.85829430090716]],[[139.62463683025783,35.86247411816012],[139.62768898961144,35.86333871049601]],[[139.62983375023833,35.86147210717482],[139.62979250484165,35.861454929843646]],[[139.62852077177766,35.86097969034776],[139.62430686708447,35.859897518483635]],[[139.62430686708447,35.859897518483635],[139.62291139783045,35.862004604441296]],[[139.61987986117518,35.84335574856062],[139.6184431465245,35.84652210327416]],[[139.6184431465245,35.84652210327416],[139.62112409730807,35.848388706595344]],[[139.62112409730807,35.848388706595344],[139.62195587947426,35.84919031538359]],[[139.62195587947426,35.84919031538359],[139.6237569284622,35.8472263738524]],[[139.6237569284622,35.8472263738524],[139.61987986117518,35.84335574856062]],[[139.63325024392918,35.84977434464359],[139.63453572545876,35.845548721174154]],[[139.62250581809653,35.83670239561823],[139.61992798080462,35.83994318543354],[139.62029918937466,35.84209607760767]],[[139.62029918937466,35.84209607760767],[139.62113784577363,35.84258849443473]],[[139.62559234861405,35.83795634079412],[139.62250581809653,35.83670239561823]],[[139.63153855996737,35.842307931358846],[139.63237034213356,35.840326812496485]],[[139.63237034213356,35.840326812496485],[139.6322878513402,35.83866061137236],[139.62835579019097,35.839227463301185]],[[139.634776323606,35.843716472515325],[139.63571121926387,35.84119713060943],[139.63237034213356,35.840326812496485]],[[139.61330122040624,35.85914171591187],[139.6131568615179,35.86100831923305],[139.61413300257243,35.86243403772071]],[[139.61944678451013,35.86306959897424],[139.62020982434854,35.861243076092464]],[[139.62020982434854,35.861243076092464],[139.61746013123718,35.86045864463541]],[[139.63527126836604,35.861764121804825],[139.63680422227563,35.85804236671657]],[[139.6210484807475,35.86147210717482],[139.6208903733936,35.86142057518129]],[[139.6208903733936,35.86142057518129],[139.62020982434854,35.861243076092464]],[[139.6182162968428,35.865972567943075],[139.62027169244354,35.86668829007544]],[[139.62048479365967,35.86679135406249],[139.6207941341347,35.86366507978836]],[[139.62029918937466,35.84209607760767],[139.6178038428761,35.84155785456414]],[[139.6178038428761,35.84155785456414],[139.61987986117518,35.84335574856062]],[[139.6237569284622,35.8472263738524],[139.62515239771622,35.84848604480535]],[[139.6184431465245,35.84652210327416],[139.61851188885228,35.84674540857946]],[[139.61576906997368,35.85268303938948],[139.6172951496505,35.85296932824243]],[[139.6172951496505,35.85296932824243],[139.6190412047762,35.851182885800064]],[[139.6190412047762,35.851182885800064],[139.62112409730807,35.848388706595344]],[[139.61740513737496,35.85493326977361],[139.6172951496505,35.85827139779892]],[[139.6183469072656,35.85829430090716],[139.62159841936978,35.85913599013481]],[[139.62159841936978,35.85913599013481],[139.6225745604243,35.85617003761833]],[[139.6225745604243,35.85617003761833],[139.61740513737496,35.85493326977361]],[[139.62195587947426,35.84919031538359],[139.6242656216878,35.85116570846889]],[[139.62283578126988,35.86463846188837],[139.62374317999664,35.865777891523074],[139.62361944380663,35.86805102501544]],[[139.6246162075595,35.86831441076015],[139.6258260725285,35.86630466301249],[139.62747588839534,35.86560611821131]],[[139.60981598438758,35.85319835932478],[139.6135005731568,35.85325561709537]],[[139.6135005731568,35.85325561709537],[139.61576906997368,35.85268303938948]],[[139.6208903733936,35.86142057518129],[139.62159841936978,35.85913599013481]],[[139.6142017449002,35.867484173086616],[139.61600966812094,35.87062189891486],[139.61711641959826,35.87129181483075]],[[139.61711641959826,35.87129181483075],[139.61992798080462,35.86913319687957]],[[139.61992798080462,35.86913319687957],[139.61504040129918,35.86770175261485]],[[139.61541848410198,35.85459544892714],[139.61479292891914,35.85792212539833]],[[139.61740513737496,35.85493326977361],[139.61541848410198,35.85459544892714]],[[139.6135005731568,35.85325561709537],[139.6110877174516,35.8559238292048]],[[139.61541848410198,35.85459544892714],[139.6172951496505,35.85296932824243]],[[139.625406744329,35.8568685824195],[139.62430686708447,35.859897518483635]],[[139.61992798080462,35.86913319687957],[139.61995547773574,35.869121745325444]],[[139.6178038428761,35.84155785456414],[139.61540473563642,35.84530823853768]],[[139.60343669636922,35.86052735396011],[139.60341607367087,35.859456633650105]],[[139.60178000626962,35.87700614033548],[139.60173188664015,35.87885556632549]],[[139.60173188664015,35.87885556632549],[139.6025155491769,35.88497069622434],[139.60396601229314,35.888377533574364],[139.60504526683937,35.88902454638201],[139.60866798751357,35.88640786626612],[139.60971974512867,35.88453553716787],[139.6089223341264,35.88204482414727],[139.6048734110199,35.881666922861385],[139.6041447423454,35.87819137618666],[139.60800118693408,35.87760734692666]],[[139.6190412047762,35.851182885800064],[139.62383254502276,35.85233376698889]],[[139.60896357952305,35.85812252759539],[139.60938978195531,35.857893496513036]],[[139.59290537175266,35.880888217181386],[139.59766921506812,35.88083668518785],[139.60054264436948,35.88020112393432],[139.60173188664015,35.87885556632549]],[[139.62250581809653,35.83670239561823],[139.61644961901874,35.83421740837469],[139.61440797188357,35.83540837000293],[139.61250380940393,35.83432047236175],[139.61013907332816,35.83177250157056],[139.60842051513356,35.83323830049763],[139.6065026041884,35.83688562048412],[139.6070387943451,35.84144333902296],[139.60504526683937,35.84275454196944]],[[139.6172951496505,35.85296932824243],[139.62316574444327,35.85433778895949]],[[139.60624825757557,35.865926761726605],[139.6085648740219,35.867335302883085],[139.61131456713326,35.87255721156075],[139.61097085549434,35.87315841815194]],[[139.61534286754141,35.8746528459643],[139.61711641959826,35.87129181483075]],[[139.60105821182788,35.87219648760605],[139.5995183836855,35.86878965025603],[139.60095509833621,35.865130878715426]],[[139.59712615067863,35.863063873197184],[139.5943352121706,35.862554279038946]]]}