{"type":"Topology","bbox":[139.5955873226205,35.887270451739376,139.64974028274105,35.92583785254046],"objects":{"town":{"type":"GeometryCollection","geometries":[{"type":"MultiPolygon","arcs":[[[0,1,2]],[[22,23]]],"properties":{"name":"大原"}},{"type":"MultiPolygon","arcs":[[[17,18,4,-1,5,19]]],"properties":{"name":"北袋町"}},{"type":"MultiPolygon","arcs":[[[10,11,12,13,14,7,8,-46,-18,64,65,20,16]]],"properties":{"name":"吉敷町"}},{"type":"MultiPolygon","arcs":[[[96,97,26,-32,50,51,52,28,24,-57]]],"properties":{"name":"堀の内町"}},{"type":"MultiPolygon","arcs":[[[-111,-85,-76,-68,46,47,70,-34,-54,-51,31,32,142,-108]]],"properties":{"name":"高鼻町"}},{"type":"MultiPolygon","arcs":[[[53,33,34,54,-52]]],"properties":{"name":"寿能町"}},{"type":"MultiPolygon","arcs":[[[-15,-14,36,37,38,39,-42,-8]]],"properties":{"name":"浅間町"}},{"type":"MultiPolygon","arcs":[[[43,-23,44,-2,-5,-19,45,-9,41,-40,-39,55,56,-25,57]]],"properties":{"name":"天沼町"}},{"type":"MultiPolygon","arcs":[[[75,76,74,62,63,58,59,66,-47,67]]],"properties":{"name":"土手町"}},{"type":"MultiPolygon","arcs":[[[72,-64,-63,-75,-77,84,110,-107,-95,80,81,82]]],"properties":{"name":"宮町"}},{"type":"MultiPolygon","arcs":[[[98,99,89,90,91,103,104,105,86,87,100,101]]],"properties":{"name":"仲町"}},{"type":"MultiPolygon","arcs":[[[-81,94,106,107,108,109,-104,-92,-91,-90,-100,102,-82]]],"properties":{"name":"大門町"}},{"type":"MultiPolygon","arcs":[[[-101,-88,-87,-106,-37,-13,-12,-11,112,-102]]],"properties":{"name":"下町"}},{"type":"MultiPolygon","arcs":[[[-97,-56,-38,-105,-110,-109,-143,-33,-27,-98]]],"properties":{"name":"東町"}},{"type":"MultiPolygon","arcs":[[[117,-121,-149,155,132,115,146,-127,-122]]],"properties":{"name":"三橋"}},{"type":"MultiPolygon","arcs":[[[148,120,-118,121,122,123,149,150]]],"properties":{"name":"上小町"}},{"type":"Polygon","arcs":[[125,-123,126,127,128,129,130]],"properties":{"name":"櫛引町"}},{"type":"MultiPolygon","arcs":[[[-150,-124,-126,-155,152,138,139,140,141,153,135,136,158]]],"properties":{"name":"桜木町"}},{"type":"MultiPolygon","arcs":[[[-131,-130,-129,143,144,-141,-140,-139,-153,154]]],"properties":{"name":"大成町"}},{"type":"Polygon","arcs":[[-66,156,-136,-154,-142,-145,157,-59,-73,-83,-103,-99,-113,-17,-21]],"properties":{"name":"錦町"}}]}},"arcs":[[[139.64288383234475,35.89803183270097],[139.64221226848287,35.89798554719146]],[[139.64221226848287,35.89798554719146],[139.64038171537547,35.89918511331299],[139.64263470381533,35.898845686243234]],[[139.64263470381533,35.898845686243234],[139.64288383234475,35.89803183270097]],[[139.6430733866606,35.892712856232855],[139.64095037832305,35.89719097927817]],[[139.64095037832305,35.89719097927817],[139.64221226848287,35.89798554719146]],[[139.64288383234475,35.89803183270097],[139.64521264251096,35.89883025774006],[139.64606834485107,35.897229550536096],[139.64489852393038,35.89679755244732],[139.6468211462769,35.89304456905103],[139.6471894232334,35.88982386901414],[139.64493101895596,35.88992801141054],[139.6425263870634,35.89130886244432],[139.6430733866606,35.892712856232855]],[[139.6314130883168,35.89888040037537],[139.63135892994086,35.901044247945066]],[[139.63135892994086,35.901044247945066],[139.63767921241518,35.90127953261842]],[[139.63767921241518,35.90127953261842],[139.63610861951238,35.90066624961738],[139.63620610458912,35.89903082828128]],[[139.63620610458912,35.89903082828128],[139.6314130883168,35.89888040037537]],[[139.6267771313348,35.902077957657504],[139.62810401154576,35.90245209885939]],[[139.62810401154576,35.90245209885939],[139.629387565056,35.90283395431287]],[[139.629387565056,35.90283395431287],[139.63123436567616,35.903262095275856]],[[139.63123436567616,35.903262095275856],[139.63123978151376,35.903204238388966]],[[139.63123978151376,35.903204238388966],[139.63135892994086,35.901044247945066]],[[139.63135892994086,35.901044247945066],[139.6283368925624,35.90031525117025]],[[139.6283368925624,35.90031525117025],[139.6267771313348,35.902077957657504]],[[139.63429972975538,35.89294814090621],[139.63856199394328,35.89488441805414],[139.63926605283075,35.895925842018165]],[[139.63926605283075,35.895925842018165],[139.64095037832305,35.89719097927817]],[[139.6430733866606,35.892712856232855],[139.64196855579107,35.89056443716633],[139.63760339068884,35.888894301698095],[139.6359353127093,35.88928001427737],[139.63429972975538,35.89294814090621]],[[139.62996164384114,35.89878397223055],[139.6283368925624,35.90031525117025]],[[139.6314130883168,35.89888040037537],[139.62996164384114,35.89878397223055]],[[139.6439886632143,35.90014553763537],[139.64212019924375,35.90085524878122],[139.64156236797137,35.90282238293549],[139.64432986098282,35.90103653369348]],[[139.64432986098282,35.90103653369348],[139.6439886632143,35.90014553763537]],[[139.64742230425003,35.9107294908105],[139.64717859155823,35.91135820231471]],[[139.64717859155823,35.91135820231471],[139.64541844433958,35.91384990557679],[139.63988345831666,35.91367633491612],[139.6405008638026,35.91253848280727],[139.63857282561847,35.91222991274386],[139.63408309625154,35.90981920912343]],[[139.63408309625154,35.90981920912343],[139.6337527301582,35.911439201956355]],[[139.6337527301582,35.911439201956355],[139.6396939040008,35.91467918762221],[139.64369079214651,35.91731360453862]],[[139.64369079214651,35.91731360453862],[139.6467182453626,35.914416903068314],[139.64924744151983,35.91066777679782],[139.64742230425003,35.9107294908105]],[[139.63075777196772,35.91093006135172],[139.63044906922477,35.915134328465754]],[[139.63044906922477,35.915134328465754],[139.63138059329123,35.91634546596465],[139.63502003615562,35.91559332643508]],[[139.63502003615562,35.91559332643508],[139.6337527301582,35.911439201956355]],[[139.6337527301582,35.911439201956355],[139.63075777196772,35.91093006135172]],[[139.63550746153925,35.91917659629649],[139.63270205766463,35.92083516038735],[139.6284343776391,35.92255543849088]],[[139.6284343776391,35.92255543849088],[139.6350308678308,35.92443000162613]],[[139.6350308678308,35.92443000162613],[139.63550746153925,35.91917659629649]],[[139.63123436567616,35.903262095275856],[139.63114229643702,35.90512894415952]],[[139.63114229643702,35.90512894415952],[139.63579450093184,35.905522370990376]],[[139.63579450093184,35.905522370990376],[139.63584865930778,35.904450090020006]],[[139.63584865930778,35.904450090020006],[139.63615736205074,35.90337780904964]],[[139.63615736205074,35.90337780904964],[139.63123978151376,35.903204238388966]],[[139.63767921241518,35.90127953261842],[139.6385511622681,35.90157267417866],[139.63615736205074,35.90337780904964]],[[139.63584865930778,35.904450090020006],[139.6444869202731,35.90459280367433],[139.64409156412862,35.905638084764156],[139.64870044192264,35.90549151398403]],[[139.64870044192264,35.90549151398403],[139.64974028274105,35.90132196100214],[139.64531554342528,35.901603531185],[139.64432986098282,35.90103653369348]],[[139.6439886632143,35.90014553763537],[139.64263470381533,35.898845686243234]],[[139.63926605283075,35.895925842018165],[139.63812872693563,35.895867985131275],[139.63784168754304,35.89857183031195],[139.63620610458912,35.89903082828128]],[[139.627578675299,35.91598675326593],[139.62699918067622,35.91582861110844],[139.62579144889236,35.919546880372586]],[[139.62579144889236,35.919546880372586],[139.62655508199336,35.921274872727714]],[[139.62655508199336,35.921274872727714],[139.62830439753682,35.920021306845086],[139.62839646677594,35.91735603292234]],[[139.62839646677594,35.91735603292234],[139.627578675299,35.91598675326593]],[[139.63502003615562,35.91559332643508],[139.63547496651367,35.917753316878986]],[[139.63547496651367,35.917753316878986],[139.64382077224883,35.91821231484832]],[[139.64382077224883,35.91821231484832],[139.64369079214651,35.91731360453862]],[[139.63547496651367,35.917753316878986],[139.63550746153925,35.91917659629649]],[[139.6350308678308,35.92443000162613],[139.63822621201234,35.92583785254046],[139.63801499434612,35.922960436699114],[139.63870822155837,35.922231439924296],[139.6416490213729,35.924140717191676],[139.64396158402633,35.92089687440003],[139.64382077224883,35.91821231484832]],[[139.63579450093184,35.905522370990376],[139.63695349017732,35.90771707556642]],[[139.63695349017732,35.90771707556642],[139.63994844836782,35.90903235546172],[139.64330626767722,35.91129648830203],[139.64717859155823,35.91135820231471]],[[139.64742230425003,35.9107294908105],[139.64842423420527,35.90836507269959],[139.64870044192264,35.90549151398403]],[[139.62272608481314,35.91308619466984],[139.62221699607912,35.913001337902394],[139.62046768053568,35.91700117734941]],[[139.62046768053568,35.91700117734941],[139.62380925233228,35.918119743829294]],[[139.62380925233228,35.918119743829294],[139.62481118228752,35.91438218893618]],[[139.62481118228752,35.91438218893618],[139.62514154838087,35.91314790868252]],[[139.62514154838087,35.91314790868252],[139.62369010390518,35.91315176580831]],[[139.62369010390518,35.91315176580831],[139.62272608481314,35.91308619466984]],[[139.63429972975538,35.89294814090621],[139.63333029482573,35.894317420562615]],[[139.63333029482573,35.894317420562615],[139.62996164384114,35.89878397223055]],[[139.62380925233228,35.918119743829294],[139.62579144889236,35.919546880372586]],[[139.627578675299,35.91598675326593],[139.62785488301637,35.91494147217612]],[[139.62785488301637,35.91494147217612],[139.62481118228752,35.91438218893618]],[[139.63044906922477,35.915134328465754],[139.62839646677594,35.91735603292234]],[[139.62655508199336,35.921274872727714],[139.6284343776391,35.92255543849088]],[[139.62436708360465,35.90926378300928],[139.62395006410978,35.90913649785812]],[[139.62395006410978,35.90913649785812],[139.62272608481314,35.91308619466984]],[[139.62369010390518,35.91315176580831],[139.62436708360465,35.90926378300928]],[[139.62516862756885,35.91315176580831],[139.62514154838087,35.91314790868252]],[[139.62785488301637,35.91494147217612],[139.62826648667365,35.91335619347532]],[[139.62826648667365,35.91335619347532],[139.62516862756885,35.91315176580831]],[[139.62516862756885,35.91315176580831],[139.62602432990897,35.90987706601032]],[[139.62602432990897,35.90987706601032],[139.62607848828495,35.90966106696593]],[[139.62607848828495,35.90966106696593],[139.62436708360465,35.90926378300928]],[[139.62645759691665,35.908087359642515],[139.62656049783095,35.90771321844062]],[[139.62656049783095,35.90771321844062],[139.62477868726194,35.907443219635134]],[[139.62477868726194,35.907443219635134],[139.62395006410978,35.90913649785812]],[[139.62607848828495,35.90966106696593],[139.62645759691665,35.908087359642515]],[[139.62826648667365,35.91335619347532],[139.62873224870688,35.91076806206843]],[[139.62873224870688,35.91076806206843],[139.62602432990897,35.90987706601032]],[[139.62873224870688,35.9045580895422],[139.62815816992173,35.904446232894216]],[[139.62815816992173,35.904446232894216],[139.62740536849591,35.90430737636568]],[[139.62740536849591,35.90430737636568],[139.62699918067622,35.90586179806013]],[[139.62699918067622,35.90586179806013],[139.62693419062506,35.906143368242994]],[[139.62693419062506,35.906143368242994],[139.62826648667365,35.90640950992269]],[[139.62826648667365,35.90640950992269],[139.62840188261353,35.90586179806013]],[[139.62840188261353,35.90586179806013],[139.62873224870688,35.9045580895422]],[[139.62693419062506,35.906143368242994],[139.62656049783095,35.90771321844062]],[[139.62645759691665,35.908087359642515],[139.6278169721532,35.90843064383806]],[[139.6278169721532,35.90843064383806],[139.62826648667365,35.90640950992269]],[[139.63695349017732,35.90771707556642],[139.63421849219145,35.90764764730215]],[[139.63421849219145,35.90764764730215],[139.63408309625154,35.90981920912343]],[[139.62590518148187,35.90382523564159],[139.6250873900049,35.90568437027367]],[[139.6250873900049,35.90568437027367],[139.62699918067622,35.90586179806013]],[[139.62740536849591,35.90430737636568],[139.62744869519668,35.90414923420818]],[[139.62744869519668,35.90414923420818],[139.62590518148187,35.90382523564159]],[[139.6250873900049,35.90568437027367],[139.62477868726194,35.907443219635134]],[[139.62840188261353,35.90586179806013],[139.63108813806107,35.90596979758232]],[[139.63108813806107,35.90596979758232],[139.63114229643702,35.90512894415952]],[[139.63114229643702,35.90512894415952],[139.62873224870688,35.9045580895422]],[[139.6278169721532,35.90843064383806],[139.62906261480023,35.90939106816044]],[[139.62906261480023,35.90939106816044],[139.63088775207,35.90931778277038]],[[139.63088775207,35.90931778277038],[139.6310285638475,35.907485648018856]],[[139.6310285638475,35.907485648018856],[139.63108813806107,35.90596979758232]],[[139.62873224870688,35.91076806206843],[139.62906261480023,35.90939106816044]],[[139.629387565056,35.90283395431287],[139.62815816992173,35.904446232894216]],[[139.6267771313348,35.902077957657504],[139.62590518148187,35.90382523564159]],[[139.62744869519668,35.90414923420818],[139.62810401154576,35.90245209885939]],[[139.6310285638475,35.907485648018856],[139.63421849219145,35.90764764730215]],[[139.59588519368828,35.899019256903905],[139.59836564730716,35.90129881824738],[139.59776448933403,35.9033430949175],[139.59852270659744,35.904862802479826]],[[139.59852270659744,35.904862802479826],[139.6015609914887,35.90384066414476],[139.60593157242852,35.904048948937564]],[[139.60593157242852,35.904048948937564],[139.6076158979208,35.89947054062165]],[[139.6076158979208,35.89947054062165],[139.6058070081638,35.89737997844201],[139.60414434602188,35.89659698190609]],[[139.60414434602188,35.89659698190609],[139.60250876306796,35.897530406347926],[139.5998712501588,35.896940266101645],[139.598300657256,35.899377969602625],[139.59588519368828,35.899019256903905]],[[139.60783253142463,35.89868754408573],[139.6076158979208,35.89947054062165]],[[139.60593157242852,35.904048948937564],[139.60818997670597,35.904766374335004],[139.60733969020342,35.907855932094954]],[[139.60733969020342,35.907855932094954],[139.6094681143786,35.90616265387196],[139.6122735182532,35.905707513028425]],[[139.6122735182532,35.905707513028425],[139.615371377358,35.90008382362269]],[[139.615371377358,35.90008382362269],[139.60783253142463,35.89868754408573]],[[139.6134650025243,35.90604694009818],[139.6122735182532,35.905707513028425]],[[139.60733969020342,35.907855932094954],[139.60621861182108,35.90974206660758],[139.6051841868403,35.91492990079874]],[[139.6051841868403,35.91492990079874],[139.60519501851547,35.915732182963616],[139.61154238017778,35.91628760907776]],[[139.61154238017778,35.91628760907776],[139.61103870728135,35.91497618630825]],[[139.61103870728135,35.91497618630825],[139.61028590585553,35.9123649121466],[139.61066501448724,35.91070634805575]],[[139.61066501448724,35.91070634805575],[139.61174276616882,35.90813364515203],[139.6134650025243,35.90604694009818]],[[139.60414434602188,35.89659698190609],[139.6036081780999,35.895975984653475],[139.60692267070854,35.8948535610478]],[[139.60692267070854,35.8948535610478],[139.6060886317188,35.88988172590103],[139.60323990114338,35.887270451739376],[139.6023300404273,35.8895808700892],[139.5988476568532,35.8896811553598],[139.59712542049772,35.891571146998224],[139.5982085880169,35.89322585396329],[139.5966163317637,35.89506956009219],[139.5970441829338,35.8976499772475],[139.59588519368828,35.899019256903905]],[[139.6203106212454,35.90174624483933],[139.6178355834641,35.905954369079154]],[[139.6178355834641,35.905954369079154],[139.61878877088097,35.906428795551655],[139.62286148075302,35.90591194069543]],[[139.62286148075302,35.90591194069543],[139.6246920338604,35.90157653130446]],[[139.6246920338604,35.90157653130446],[139.62261235222363,35.901364389385854],[139.6221032634896,35.902382670595124],[139.6203106212454,35.90174624483933]],[[139.6202023044935,35.91000820828727],[139.61845840478762,35.909699638223856]],[[139.61845840478762,35.909699638223856],[139.6171748512774,35.91159734411386]],[[139.6171748512774,35.91159734411386],[139.6182201079334,35.912750624725874],[139.6175810390971,35.91592118212746]],[[139.6175810390971,35.91592118212746],[139.61969321575947,35.91664246465069]],[[139.61969321575947,35.91664246465069],[139.61986110672495,35.914652187741666],[139.61844215727484,35.91425490378502],[139.6202023044935,35.91000820828727]],[[139.63075777196772,35.91093006135172],[139.63088775207,35.90931778277038]],[[139.61154238017778,35.91628760907776],[139.61153154850257,35.91950830911466],[139.61492186283755,35.91977830792015],[139.61510058547822,35.92118615883448],[139.6183500880357,35.92207715489259],[139.62027812621983,35.916916320581976]],[[139.62027812621983,35.916916320581976],[139.61969321575947,35.91664246465069]],[[139.6175810390971,35.91592118212746],[139.6150139320767,35.915122757088376],[139.61103870728135,35.91497618630825]],[[139.59852270659744,35.904862802479826],[139.59744495491586,35.90788678910129],[139.59891264690432,35.90963020995959],[139.59890723106673,35.91264648232947],[139.59708209379696,35.91484890115709],[139.59964920081737,35.914405331690936],[139.6034944455104,35.91528089924587],[139.6051841868403,35.91492990079874]],[[139.6171748512774,35.91159734411386],[139.61066501448724,35.91070634805575]],[[139.6107245887008,35.89543984416829],[139.61120659824684,35.896585410528715],[139.60783253142463,35.89868754408573]],[[139.615371377358,35.90008382362269],[139.61585338690404,35.89821311761323],[139.61731024721732,35.897175550774996],[139.61895124600883,35.894197849663044]],[[139.61895124600883,35.894197849663044],[139.61199731053583,35.89409756439243],[139.6107245887008,35.89543984416829]],[[139.6178355834641,35.905954369079154],[139.61647079238998,35.90729279172922]],[[139.61647079238998,35.90729279172922],[139.61845840478762,35.909699638223856]],[[139.6202023044935,35.91000820828727],[139.62128005617504,35.90751650502519],[139.62286148075302,35.90591194069543]],[[139.61647079238998,35.90729279172922],[139.6134650025243,35.90604694009818]],[[139.6107245887008,35.89543984416829],[139.60712847253717,35.89619198369786],[139.60692267070854,35.8948535610478]],[[139.63333029482573,35.894317420562615],[139.6246920338604,35.90157653130446]],[[139.62027812621983,35.916916320581976],[139.62046768053568,35.91700117734941]],[[139.6203106212454,35.90174624483933],[139.61958489900755,35.90120624722836],[139.6227694115139,35.89320271120853],[139.621079670184,35.894309706311034],[139.61895124600883,35.894197849663044]]]}