{"type":"Topology","bbox":[139.65325133959533,35.879815594966864,139.7573164500384,36.002477501148974],"objects":{"town":{"type":"GeometryCollection","geometries":[{"type":"MultiPolygon","arcs":[[[2,3,4,0,15,16,17,-6]]],"properties":{"name":"西原台"}},{"type":"Polygon","arcs":[[-3,5,6,7,8,9,10]],"properties":{"name":"西原"}},{"type":"MultiPolygon","arcs":[[[27,-34,195,-181,14,85,86,87,-35]]],"properties":{"name":"本丸"}},{"type":"Polygon","arcs":[[-4,-11,18,19,20]],"properties":{"name":"大字岩槻"}},{"type":"MultiPolygon","arcs":[[[77,25,21,22,23,-74,78,99,-52,-51,134,133,101,102,103,104,98,80]]],"properties":{"name":"城南"}},{"type":"MultiPolygon","arcs":[[[109,110,111,31,32,33,-28,34,29,112]]],"properties":{"name":"宮町"}},{"type":"MultiPolygon","arcs":[[[182,39,35,36,37,-60,183,-95,-54]]],"properties":{"name":"城町"}},{"type":"Polygon","arcs":[[40,41,42,43]],"properties":{"name":"大字増長"}},{"type":"MultiPolygon","arcs":[[[73,-24,49,44,45,46,47,74,75]]],"properties":{"name":"東町"}},{"type":"MultiPolygon","arcs":[[[53,94,95,96,97,142,143,-135,50,51,-100,-79,-127,-40,-183]]],"properties":{"name":"府内"}},{"type":"MultiPolygon","arcs":[[[-126,-108,-119,-179,-87,-86,-15,180,181,58,59,-38,-37]]],"properties":{"name":"太田"}},{"type":"Polygon","arcs":[[60,61,62]],"properties":{"name":"大字大戸"}},{"type":"MultiPolygon","arcs":[[[-8,119,154,155,-145,-136,65,66,67,-19,-10,-9]]],"properties":{"name":"西町"}},{"type":"Polygon","arcs":[[68,69,70,71,72]],"properties":{"name":"大字笹久保新田"}},{"type":"MultiPolygon","arcs":[[[-138,-113,-30,-88,178,118,-107,-106,-47,-46,312,313,82,-20,-68,-67,113]]],"properties":{"name":"本町"}},{"type":"Polygon","arcs":[[88,89,90,91,92]],"properties":{"name":"大字加倉"}},{"type":"MultiPolygon","arcs":[[[-76,-75,-48,105,106,107,125,-36,126]]],"properties":{"name":"仲町"}},{"type":"MultiPolygon","arcs":[[[212,124,122,213,214,215]]],"properties":{"name":"古ヶ場"}},{"type":"Polygon","arcs":[[127,128,129,130,131,132]],"properties":{"name":"大字黒谷"}},{"type":"Polygon","arcs":[[-66,135,136,-110,137,-114]],"properties":{"name":"愛宕町"}},{"type":"Polygon","arcs":[[138,-62,139,140,141]],"properties":{"name":"大字新方須賀"}},{"type":"Polygon","arcs":[[144,145,146,147,-111,-137]],"properties":{"name":"日の出町"}},{"type":"Polygon","arcs":[[148,149,150,151,152]],"properties":{"name":"大字釣上"}},{"type":"Polygon","arcs":[[157,158,159,160,161]],"properties":{"name":"大字上野"}},{"type":"Polygon","arcs":[[162,163,164,-92,165,166,-22,167]],"properties":{"name":"大字柏崎"}},{"type":"Polygon","arcs":[[-139,168,169,170,171,172,-63]],"properties":{"name":"大字大谷"}},{"type":"Polygon","arcs":[[173,-105]],"properties":{"name":"大字浮谷"}},{"type":"Polygon","arcs":[[174,-168,-26,-78,-81,-99,-174,-104,175]],"properties":{"name":"大字真福寺"}},{"type":"Polygon","arcs":[[176,-141,177]],"properties":{"name":"大字大森"}},{"type":"Polygon","arcs":[[185,-44,186,-172]],"properties":{"name":"大字大口"}},{"type":"Polygon","arcs":[[187,188,189]],"properties":{"name":"大字表慈恩寺"}},{"type":"Polygon","arcs":[[190,191,192,193,194]],"properties":{"name":"大字慈恩寺"}},{"type":"Polygon","arcs":[[196,197,-72,198,-150]],"properties":{"name":"大字尾ヶ崎新田"}},{"type":"Polygon","arcs":[[199,200,201,202]],"properties":{"name":"大字南辻"}},{"type":"Polygon","arcs":[[203,204,205,206,-169,-142,-177,207]],"properties":{"name":"大字末田"}},{"type":"Polygon","arcs":[[-151,-199,-71,208,-129,209]],"properties":{"name":"大字尾ヶ崎"}},{"type":"Polygon","arcs":[[210,-162,211,-191]],"properties":{"name":"大字裏慈恩寺"}},{"type":"Polygon","arcs":[[216,-133,217,-205]],"properties":{"name":"大字高曽根"}},{"type":"Polygon","arcs":[[218,219,220,221]],"properties":{"name":"大字相野原"}},{"type":"MultiPolygon","arcs":[[[315,-125,-213,-216,-226,-160,-159,327,242,243,-190,240,224,-203,-202,244,245]]],"properties":{"name":"上野"}},{"type":"Polygon","arcs":[[225,-215,226,-222,227,-192,-212,-161]],"properties":{"name":"大字古ヶ場"}},{"type":"Polygon","arcs":[[-165,228,229,-93]],"properties":{"name":"大字谷下"}},{"type":"Polygon","arcs":[[230,-220]],"properties":{"name":"大字鹿室"}},{"type":"Polygon","arcs":[[231,232,-194,233]],"properties":{"name":"大字小溝"}},{"type":"Polygon","arcs":[[234,-229,-164,235,236,-69]],"properties":{"name":"大字横根"}},{"type":"Polygon","arcs":[[237,-102,-134,-144,238,239,-170,-207]],"properties":{"name":"大字飯塚"}},{"type":"Polygon","arcs":[[-143,-98,250,251,252,-239]],"properties":{"name":"大字村国"}},{"type":"Polygon","arcs":[[253,254,-245,255]],"properties":{"name":"大字掛"}},{"type":"Polygon","arcs":[[-197,-149,256]],"properties":{"name":"大字釣上新田"}},{"type":"Polygon","arcs":[[257,-176,-103,-238,-206,-218,-132]],"properties":{"name":"大字南下新井"}},{"type":"Polygon","arcs":[[-70,-237,258,-130,-209]],"properties":{"name":"大字笹久保"}},{"type":"Polygon","arcs":[[-186,-171,-240,-253,259,-41]],"properties":{"name":"大字大野島"}},{"type":"Polygon","arcs":[[260,-254,261,262]],"properties":{"name":"大字金重"}},{"type":"Polygon","arcs":[[-260,-252,263,264,265,-42]],"properties":{"name":"大字長宮"}},{"type":"Polygon","arcs":[[-232,266],[267]],"properties":{"name":"大字徳力"}},{"type":"Polygon","arcs":[[268]],"properties":{"name":"大字箕輪"}},{"type":"MultiPolygon","arcs":[[[298,272,326,281,278,279,-295,269,270,-284,284,-188,-244,285]]],"properties":{"name":"諏訪"}},{"type":"MultiPolygon","arcs":[[[-270,276,277,274,282,283,-271]]],"properties":{"name":"上里"}},{"type":"MultiPolygon","arcs":[[[325,319,316,-5,-21,-83,-314,-313,-45,322,288,-166,-91,-90]]],"properties":{"name":"加倉"}},{"type":"Polygon","arcs":[[-147,289,290,291,-262,-256,-201,292]],"properties":{"name":"大字本宿"}},{"type":"MultiPolygon","arcs":[[[-277,294,-280,-279,302,339,338,306,307,310,300,304,-33,305,-278]]],"properties":{"name":"東岩槻"}},{"type":"Polygon","arcs":[[296]],"properties":{"name":"大字馬込"}},{"type":"Polygon","arcs":[[-263,-292,297]],"properties":{"name":"大字平林寺"}},{"type":"MultiPolygon","arcs":[[[330,-265,-264,-251,-97,-96,-184,-59,-182,-196,-305,-301,-311,-308,-307,-339,340]]],"properties":{"name":"南平野"}},{"type":"Polygon","arcs":[[-289,-323,-50,-23,-167]],"properties":{"name":"原町"}},{"type":"Polygon","arcs":[[-156,-290,-146]],"properties":{"name":"美幸町"}},{"type":"MultiPolygon","arcs":[[[334,-17,-16,-1,-317,336]]],"properties":{"name":"並木"}},{"type":"Polygon","arcs":[[-204,337,-152,-210,-128,-217]],"properties":{"name":"大字野孫"}}]}},"arcs":[[[139.68529619158593,35.944697965383625],[139.6845052176492,35.94705330951673]],[[139.6845052176492,35.94705330951673],[139.68710710559907,35.94934731656304]],[[139.68710710559907,35.94934731656304],[139.68804378526102,35.94866034119089]],[[139.68804378526102,35.94866034119089],[139.68961532558274,35.94750720395905]],[[139.68961532558274,35.94750720395905],[139.68529619158593,35.944697965383625]],[[139.68710710559907,35.94934731656304],[139.6824757450483,35.95269632150231]],[[139.6824757450483,35.95269632150231],[139.684099323129,35.95418067900286]],[[139.684099323129,35.95418067900286],[139.68687813945948,35.95219335739055]],[[139.68687813945948,35.95219335739055],[139.68969858599712,35.95016923352616]],[[139.68969858599712,35.95016923352616],[139.68968817844532,35.9501569661088]],[[139.68968817844532,35.9501569661088],[139.68804378526102,35.94866034119089]],[[139.7046958681402,35.95344463396127],[139.70387367154802,35.955554629747176]],[[139.70387367154802,35.955554629747176],[139.70900459458517,35.95716166142133]],[[139.70900459458517,35.95716166142133],[139.71076347083928,35.955444222990934]],[[139.71076347083928,35.955444222990934],[139.7046958681402,35.95344463396127]],[[139.6845052176492,35.94705330951673],[139.68398484005922,35.94875848052977]],[[139.68398484005922,35.94875848052977],[139.6821531109425,35.95237736865095]],[[139.6821531109425,35.95237736865095],[139.6824757450483,35.95269632150231]],[[139.68968817844532,35.9501569661088],[139.69146786980303,35.948954759207524]],[[139.69146786980303,35.948954759207524],[139.69137420183685,35.948881154703365]],[[139.69137420183685,35.948881154703365],[139.68961532558274,35.94750720395905]],[[139.70127178359814,35.93931256916261],[139.69984594900163,35.93995047486533]],[[139.69984594900163,35.93995047486533],[139.69945046203324,35.942403958337316]],[[139.69945046203324,35.942403958337316],[139.704342011379,35.94293145728379]],[[139.704342011379,35.94293145728379],[139.70492483427978,35.94082146149788]],[[139.70492483427978,35.94082146149788],[139.70318677312926,35.939508847840365],[139.70127178359814,35.93931256916261]],[[139.70387367154802,35.955554629747176],[139.70334288640626,35.95689177823941]],[[139.70334288640626,35.95689177823941],[139.70659004256768,35.95862148408716]],[[139.70659004256768,35.95862148408716],[139.70900459458517,35.95716166142133]],[[139.7003559190398,35.955873582598535],[139.69951290734403,35.95524794431318]],[[139.69951290734403,35.95524794431318],[139.70059529273118,35.95978688873636]],[[139.70059529273118,35.95978688873636],[139.7046750530366,35.960240783178676],[139.7048727965208,35.96119764173275],[139.70767242795483,35.96144299007995]],[[139.70767242795483,35.96144299007995],[139.708650737824,35.960989095637636]],[[139.708650737824,35.960989095637636],[139.70659004256768,35.95862148408716]],[[139.70334288640626,35.95689177823941],[139.7003559190398,35.955873582598535]],[[139.70892133417078,35.9444894192885],[139.70680860115547,35.947482669124334]],[[139.70680860115547,35.947482669124334],[139.7084321792362,35.948304586087446]],[[139.7084321792362,35.948304586087446],[139.70948334196794,35.948807550199206]],[[139.70948334196794,35.948807550199206],[139.71172096560485,35.9457161610245]],[[139.71172096560485,35.9457161610245],[139.70892133417078,35.9444894192885]],[[139.7387806002835,35.94340988656083],[139.73353519417657,35.9450414530697]],[[139.73353519417657,35.9450414530697],[139.73401394155934,35.94653807798762],[139.73803125655394,35.95259818216343]],[[139.73803125655394,35.95259818216343],[139.7389679362159,35.951690393278795],[139.74588895816254,35.95238963606831],[139.74859492163043,35.94637860156194]],[[139.74859492163043,35.94637860156194],[139.74357848166306,35.94604738129322],[139.73943627604686,35.94447715187115],[139.7387806002835,35.94340988656083]],[[139.6962761587344,35.94203593581651],[139.6960784152502,35.94338535172611]],[[139.6960784152502,35.94338535172611],[139.6960992303538,35.94598604420642],[139.6984825597159,35.94661168249178]],[[139.6984825597159,35.94661168249178],[139.6987011183037,35.946513543152896]],[[139.6987011183037,35.946513543152896],[139.69877397116628,35.94646447348346]],[[139.69877397116628,35.94646447348346],[139.69945046203324,35.942403958337316]],[[139.69945046203324,35.942403958337316],[139.6962761587344,35.94203593581651]],[[139.71311557754598,35.942072738068596],[139.71148159191344,35.942318086415796]],[[139.71148159191344,35.942318086415796],[139.71137751639546,35.94235488866787]],[[139.71137751639546,35.94235488866787],[139.71186667133003,35.9457774981113]],[[139.71186667133003,35.9457774981113],[139.71405225720792,35.946746624082735]],[[139.71405225720792,35.946746624082735],[139.71518668035407,35.945924707119616],[139.71529075587208,35.94289465503171]],[[139.71529075587208,35.94289465503171],[139.71311557754598,35.942072738068596]],[[139.7084321792362,35.948304586087446],[139.70679819360367,35.94998522226576],[139.70756835243685,35.95198481129543]],[[139.70756835243685,35.95198481129543],[139.7126888679222,35.953640912639024]],[[139.7126888679222,35.953640912639024],[139.71374003065395,35.950917545985114]],[[139.71374003065395,35.950917545985114],[139.70948334196794,35.948807550199206]],[[139.75011442419316,35.94252663251091],[139.75283079521282,35.93965605684868]],[[139.75283079521282,35.93965605684868],[139.7487094047002,35.937300712715576],[139.74980219763916,35.9360371687275],[139.74480657277542,35.933203395317356],[139.74407804414943,35.93404984711519],[139.73988380077424,35.93165770073],[139.73766699224095,35.931044329862004]],[[139.73766699224095,35.931044329862004],[139.73516917980908,35.93430746287975],[139.73782310551795,35.936061703562224],[139.73569996495087,35.93700629469894],[139.7370841693402,35.93825757126965],[139.73963401953105,35.93739885205446],[139.7387806002835,35.936061703562224],[139.75011442419316,35.94252663251091]],[[139.68969858599712,35.95016923352616],[139.6922796588434,35.95254911249399]],[[139.6922796588434,35.95254911249399],[139.69366386323273,35.953812656482064]],[[139.69366386323273,35.953812656482064],[139.69548518479763,35.95208295063431]],[[139.69548518479763,35.95208295063431],[139.69355978771475,35.95057405829904]],[[139.69355978771475,35.95057405829904],[139.69146786980303,35.948954759207524]],[[139.70175053098095,35.91644610320367],[139.7004912172132,35.91769737977438],[139.70007491514122,35.91975830589085],[139.70190664425792,35.92250620737948],[139.7059343668043,35.91636023128215],[139.70927519093195,35.91785685620006],[139.71334454368557,35.91540337272807]],[[139.71334454368557,35.91540337272807],[139.7147183405231,35.91454465351288],[139.7161545826714,35.916004476178706],[139.7201302674588,35.91356326012408],[139.7190686971753,35.91249599481376],[139.72351272179367,35.909748093325135]],[[139.72351272179367,35.909748093325135],[139.72182669840214,35.90776077171282]],[[139.72182669840214,35.90776077171282],[139.72172262288416,35.907601295287144]],[[139.72172262288416,35.907601295287144],[139.7187252479659,35.90755222561771],[139.71796549668454,35.90887710669258],[139.71567583528864,35.90842321225026],[139.7146038574533,35.909404605639054],[139.71023268569752,35.909932104585536],[139.71157525987965,35.91149006659025],[139.7086715529276,35.91104843956529],[139.7065484123605,35.91166181043329],[139.70175053098095,35.91644610320367]],[[139.7061008876331,35.94331174722195],[139.704342011379,35.94293145728379]],[[139.69877397116628,35.94646447348346],[139.70296821454147,35.94390058325523]],[[139.70296821454147,35.94390058325523],[139.7061008876331,35.94331174722195]],[[139.7087339982384,35.94177832005196],[139.70513298531577,35.94062518282012]],[[139.70513298531577,35.94062518282012],[139.70492483427978,35.94082146149788]],[[139.7061008876331,35.94331174722195],[139.70808873002682,35.94294372470115]],[[139.70808873002682,35.94294372470115],[139.7087339982384,35.94177832005196]],[[139.7102951310083,35.93768100265373],[139.70702715974326,35.937693270071094],[139.70513298531577,35.94062518282012]],[[139.7087339982384,35.94177832005196],[139.7102951310083,35.93768100265373]],[[139.6923421041542,35.94464889571418],[139.69105156773105,35.94759307588057],[139.69137420183685,35.948881154703365]],[[139.69355978771475,35.95057405829904],[139.69323715360895,35.9497276065012],[139.69561007541924,35.94831685350481]],[[139.69561007541924,35.94831685350481],[139.6923421041542,35.94464889571418]],[[139.7046958681402,35.95344463396127],[139.704654237933,35.95343236654391]],[[139.704654237933,35.95343236654391],[139.7028849541271,35.95294166984951]],[[139.7028849541271,35.95294166984951],[139.700501624765,35.95458550377574],[139.7003559190398,35.955873582598535]],[[139.68300653019006,35.93781594424469],[139.6823300393231,35.93995047486533]],[[139.6823300393231,35.93995047486533],[139.68773155870701,35.9404779738118]],[[139.68773155870701,35.9404779738118],[139.6905311901411,35.93815943193077],[139.69482950903426,35.93898134889389]],[[139.69482950903426,35.93898134889389],[139.69532907152066,35.93749699139333],[139.69333082157516,35.93546060011158]],[[139.69333082157516,35.93546060011158],[139.69020855603532,35.933362871743036],[139.68532741424136,35.93627024965734],[139.6841409533362,35.938036757757175],[139.68300653019006,35.93781594424469]],[[139.71822568547952,35.94322587530043],[139.71529075587208,35.94289465503171]],[[139.71405225720792,35.946746624082735],[139.71591520898002,35.94835365575689]],[[139.71591520898002,35.94835365575689],[139.71611295246421,35.948218714165925]],[[139.71611295246421,35.948218714165925],[139.71797590423634,35.94735999495073]],[[139.71797590423634,35.94735999495073],[139.71939133128106,35.944931046313464],[139.71822568547952,35.94322587530043]],[[139.7104512442853,35.93709216662046],[139.7102951310083,35.93768100265373]],[[139.70808873002682,35.94294372470115],[139.71137751639546,35.94235488866787]],[[139.71148159191344,35.942318086415796],[139.71192911664082,35.93892001180709]],[[139.71192911664082,35.93892001180709],[139.71221012053942,35.937276177880854]],[[139.71221012053942,35.937276177880854],[139.71198115439984,35.93725164304614]],[[139.71198115439984,35.93725164304614],[139.71178341091564,35.93722710821142]],[[139.71178341091564,35.93722710821142],[139.7104512442853,35.93709216662046]],[[139.6987011183037,35.946513543152896],[139.70124056094275,35.94885661986864]],[[139.70124056094275,35.94885661986864],[139.70323881088825,35.94980121100536]],[[139.70323881088825,35.94980121100536],[139.70383204134083,35.950095629022],[139.7061321102885,35.94720051852505]],[[139.7061321102885,35.94720051852505],[139.70397774706603,35.94635406672722],[139.70296821454147,35.94390058325523]],[[139.69856582013028,35.95449963185422],[139.69680694387617,35.95670776697901]],[[139.69680694387617,35.95670776697901],[139.6983888917497,35.959566075223876]],[[139.6983888917497,35.959566075223876],[139.70059529273118,35.95978688873636]],[[139.69951290734403,35.95524794431318],[139.69856582013028,35.95449963185422]],[[139.69548518479763,35.95208295063431],[139.69679653632437,35.953150215944625]],[[139.69679653632437,35.953150215944625],[139.69882600892527,35.95122423141912]],[[139.69882600892527,35.95122423141912],[139.69561007541924,35.94831685350481]],[[139.70124056094275,35.94885661986864],[139.69882600892527,35.95122423141912]],[[139.69882600892527,35.95122423141912],[139.7021043877421,35.95270858891967]],[[139.7021043877421,35.95270858891967],[139.70360307520124,35.95104022015872],[139.70323881088825,35.94980121100536]],[[139.684099323129,35.95418067900286],[139.68658672800908,35.95649922088389]],[[139.68658672800908,35.95649922088389],[139.68917820840716,35.95427881834174]],[[139.68917820840716,35.95427881834174],[139.68687813945948,35.95219335739055]],[[139.69138460938865,35.97615162349453],[139.68726321887604,35.97678952919725],[139.68683650925226,35.97899766432204],[139.68771074360342,35.98081324209131]],[[139.68771074360342,35.98081324209131],[139.69062485810727,35.97975824419835],[139.69296655726217,35.97793039901172]],[[139.69296655726217,35.97793039901172],[139.69138460938865,35.97615162349453]],[[139.7061321102885,35.94720051852505],[139.70680860115547,35.947482669124334]],[[139.70892133417078,35.9444894192885],[139.7061008876331,35.94331174722195]],[[139.73386823583414,35.91780778653062],[139.73558548188106,35.914434246756635],[139.7350859193947,35.91134285758193]],[[139.7350859193947,35.91134285758193],[139.73336867334777,35.91169861268536],[139.73040252108493,35.91785685620006],[139.72566708501614,35.91988098006445],[139.7226280798907,35.91993004973389]],[[139.7226280798907,35.91993004973389],[139.71969315028323,35.921512546573325],[139.71698718681537,35.92417457614043]],[[139.71698718681537,35.92417457614043],[139.71800712689173,35.92913061275385]],[[139.71800712689173,35.92913061275385],[139.7205049393236,35.92838230029489],[139.72323171789506,35.92839456771225],[139.72733229330407,35.926603524777704],[139.72817530499984,35.927511313662336],[139.7287685354524,35.92563439880627]],[[139.7287685354524,35.92563439880627],[139.73151612912747,35.921978708433],[139.73332704314058,35.92275155572668],[139.73429494545792,35.92129173306085],[139.73230710306422,35.92082557120116],[139.73386823583414,35.91780778653062]],[[139.71839220630832,35.940085416456284],[139.71798631178814,35.93885867472029],[139.71392736658632,35.940171288377805],[139.71192911664082,35.93892001180709]],[[139.71311557754598,35.942072738068596],[139.71839220630832,35.940085416456284]],[[139.69366386323273,35.953812656482064],[139.69529784886524,35.95530928139998]],[[139.69529784886524,35.95530928139998],[139.69680694387617,35.95670776697901]],[[139.69856582013028,35.95449963185422],[139.69679653632437,35.953150215944625]],[[139.73580404046885,35.93017334322945],[139.73766699224095,35.931044329862004]],[[139.75283079521282,35.93965605684868],[139.75412133163596,35.937889548748856],[139.75678566489663,35.937472456558616]],[[139.75678566489663,35.937472456558616],[139.74322462490187,35.92974398362185],[139.7428395454853,35.92897113632817]],[[139.7428395454853,35.92897113632817],[139.73980054035985,35.9277075923401],[139.7370841693402,35.928161486782415],[139.73580404046885,35.93017334322945]],[[139.71822568547952,35.94322587530043],[139.7188813612429,35.94210954032067]],[[139.7188813612429,35.94210954032067],[139.71839220630832,35.940085416456284]],[[139.69529784886524,35.95530928139998],[139.6924669947758,35.95732113784701]],[[139.6924669947758,35.95732113784701],[139.69503766007026,35.95966421456276],[139.69487113924149,35.960400259604356]],[[139.69487113924149,35.960400259604356],[139.69482950903426,35.96178647776603],[139.69780606884893,35.959811423571075]],[[139.69780606884893,35.959811423571075],[139.6983888917497,35.959566075223876]],[[139.7449626860524,35.8939231249308],[139.73840592841873,35.899627474003175],[139.73445105873492,35.898744219953265]],[[139.73445105873492,35.898744219953265],[139.73345193376215,35.90048619321838],[139.7308396382605,35.90232630582236],[139.72783185579044,35.905736647848435],[139.72939298856036,35.906951122167065]],[[139.72939298856036,35.906951122167065],[139.73130797809148,35.905319555658195],[139.73338948845137,35.90750315594826],[139.73972768749726,35.90312368795076],[139.74120555985277,35.9045221735298]],[[139.74120555985277,35.9045221735298],[139.75158188899687,35.897247595035346],[139.75209185903503,35.8992839863171]],[[139.75209185903503,35.8992839863171],[139.75391318059997,35.89819218617207],[139.75262264417682,35.89718625794855],[139.75352810118338,35.895947248795196],[139.75140496061627,35.8948431812328],[139.75062439423132,35.89548108693552],[139.7474604984843,35.894131671025924],[139.7449626860524,35.8939231249308]],[[139.6984825597159,35.94661168249178],[139.69561007541924,35.94831685350481]],[[139.68658672800908,35.95649922088389],[139.68969858599712,35.9593452617114]],[[139.68969858599712,35.9593452617114],[139.6924669947758,35.95732113784701]],[[139.6924669947758,35.95732113784701],[139.68917820840716,35.95427881834174]],[[139.7003351039362,35.97541557845293],[139.69955453755125,35.974446452481494]],[[139.69955453755125,35.974446452481494],[139.69882600892527,35.97627429766813]],[[139.69882600892527,35.97627429766813],[139.6981703331619,35.97919394299979],[139.69657797773658,35.97983184870251]],[[139.69657797773658,35.97983184870251],[139.6980766651957,35.98115672977739],[139.69903415996126,35.97994225545875]],[[139.69903415996126,35.97994225545875],[139.7003351039362,35.97541557845293]],[[139.70258313512488,35.93287217504864],[139.69673409101358,35.928676718311536]],[[139.69673409101358,35.928676718311536],[139.69240454946498,35.92968264653505]],[[139.69240454946498,35.92968264653505],[139.69310185543557,35.932614559284076],[139.69440279941048,35.93419705612351],[139.69333082157516,35.93546060011158]],[[139.69482950903426,35.93898134889389],[139.69544355459044,35.93905495339805]],[[139.69544355459044,35.93905495339805],[139.69985635655343,35.939091755650125],[139.69984594900163,35.93995047486533]],[[139.70127178359814,35.93931256916261],[139.70057447762758,35.93894454664181],[139.70320758823286,35.93314205823055],[139.70258313512488,35.93287217504864]],[[139.73580404046885,35.93017334322945],[139.73568955739907,35.930786714097444]],[[139.73568955739907,35.930786714097444],[139.73165142730085,35.93517844951231]],[[139.73165142730085,35.93517844951231],[139.73406597931833,35.9368345508559],[139.73407638687013,35.937779141992614],[139.73778147531075,35.939521115257726]],[[139.73778147531075,35.939521115257726],[139.74192368092696,35.9403552996382],[139.749292227601,35.94457529121002]],[[139.749292227601,35.94457529121002],[139.75011442419316,35.94252663251091]],[[139.71178341091564,35.93722710821142],[139.71104447473786,35.93666280701286],[139.71216849033223,35.93478589215679],[139.71113814270407,35.93455281122695],[139.7104512442853,35.93709216662046]],[[139.71341739654815,35.93357141783815],[139.70342614682065,35.931866246825116],[139.70258313512488,35.93287217504864]],[[139.71198115439984,35.93725164304614],[139.71149199946524,35.93633158674414],[139.71341739654815,35.93357141783815]],[[139.7490112237024,35.92708195405474],[139.74409885925303,35.92902020599761],[139.7428395454853,35.92897113632817]],[[139.75678566489663,35.937472456558616],[139.75632773261745,35.93563234395462],[139.75419418449854,35.935325658520625],[139.75261223662503,35.93100752760992],[139.74947956353338,35.928161486782415],[139.7490112237024,35.92708195405474]],[[139.7028849541271,35.95294166984951],[139.7021043877421,35.95270858891967]],[[139.70756835243685,35.95198481129543],[139.704654237933,35.95343236654391]],[[139.71076347083928,35.955444222990934],[139.7125223470934,35.956045326441576]],[[139.7125223470934,35.956045326441576],[139.7126888679222,35.953640912639024]],[[139.71186667133003,35.9457774981113],[139.71172096560485,35.9457161610245]],[[139.71374003065395,35.950917545985114],[139.71591520898002,35.94835365575689]],[[139.68917820840716,35.95427881834174],[139.6922796588434,35.95254911249399]],[[139.73778147531075,35.939521115257726],[139.7387806002835,35.94340988656083]],[[139.74859492163043,35.94637860156194],[139.749292227601,35.94457529121002]],[[139.7020939801903,35.97054541376103],[139.7041546754466,35.968374080888324]],[[139.7041546754466,35.968374080888324],[139.70188582915432,35.969698961963196]],[[139.70188582915432,35.969698961963196],[139.7020939801903,35.97054541376103]],[[139.70555969493955,35.97767278324716],[139.70496646448697,35.97886272273107],[139.70150074973773,35.98049428923995],[139.70188582915432,35.98208905349674],[139.70358226009765,35.98313178397234],[139.70172971587732,35.9834507368237],[139.700553662524,35.98254294793906]],[[139.700553662524,35.98254294793906],[139.70118852318376,35.984235851534734]],[[139.70118852318376,35.984235851534734],[139.70170890077372,35.98502096624577],[139.7064963746015,35.985622069696404],[139.71199156195163,35.98520497750617],[139.71310516999418,35.9827760288689],[139.71511382749148,35.9812426016989]],[[139.71511382749148,35.9812426016989],[139.7146246725569,35.98046975440523],[139.71732022847297,35.97780772483812]],[[139.71732022847297,35.97780772483812],[139.71569665039223,35.97807760802004],[139.71369840044673,35.9770471449618],[139.70895255682618,35.9770471449618],[139.70555969493955,35.97767278324716]],[[139.708650737824,35.960989095637636],[139.7106906179767,35.95967648198012],[139.7125223470934,35.956045326441576]],[[139.73445105873492,35.898744219953265],[139.73542936860406,35.897824163651265],[139.7327754428952,35.89597178362992]],[[139.7327754428952,35.89597178362992],[139.73183876323324,35.89870741770118],[139.72805041437823,35.90155345852869],[139.72406432203903,35.90351624530628],[139.72130632081218,35.90551583433595],[139.72172262288416,35.907601295287144]],[[139.72182669840214,35.90776077171282],[139.7228466384785,35.90709833117538],[139.72414758245344,35.90825146840722],[139.72601053422554,35.906852982828184],[139.72939298856036,35.906951122167065]],[[139.69963779796564,35.967552163925205],[139.6986907107519,35.96685292113569]],[[139.6986907107519,35.96685292113569],[139.6961824907682,35.970177391240234]],[[139.6961824907682,35.970177391240234],[139.69717120818916,35.97047180925687]],[[139.69717120818916,35.97047180925687],[139.69963779796564,35.967552163925205]],[[139.75260182907323,35.90151665627661],[139.75177963248106,35.90190921363213]],[[139.75177963248106,35.90190921363213],[139.75060357912773,35.906693506402505],[139.7470754190677,35.90611693778659],[139.7445463839804,35.91194396103256],[139.74185082806434,35.916912265063345],[139.74191327337516,35.91848249448542],[139.73918649480368,35.92065382735813],[139.7404978463304,35.921672022999005],[139.73296277882758,35.92748677882762]],[[139.73296277882758,35.92748677882762],[139.73188039344043,35.92888526440665],[139.73296277882758,35.92938822851841]],[[139.73296277882758,35.92938822851841],[139.73568955739907,35.930786714097444]],[[139.7490112237024,35.92708195405474],[139.74538939567617,35.92673846636866],[139.74738764562167,35.92131626789556],[139.74536858057257,35.917562438183424],[139.7485324763196,35.91497401312047],[139.74950037863698,35.91119564857361],[139.75230001007102,35.91166181043329],[139.7526954970394,35.91018972035009],[139.75442315063813,35.91047187094937],[139.75564083419866,35.90466938253812],[139.75407970142874,35.90443630160828],[139.7547353771921,35.901847876545325],[139.75260182907323,35.90151665627661]],[[139.72351272179367,35.909748093325135],[139.7245430694218,35.91085216088753],[139.72619787015793,35.91048413836673],[139.72764451985805,35.91507215245935],[139.72577116053415,35.91761150785286],[139.7223054457849,35.918887319258296],[139.7226280798907,35.91993004973389]],[[139.7350859193947,35.91134285758193],[139.7427146548637,35.90594519394355],[139.74120555985277,35.9045221735298]],[[139.70555969493955,35.97767278324716],[139.7041442678948,35.978556037297075],[139.70088670418158,35.97785679450756],[139.7003351039362,35.97541557845293]],[[139.69903415996126,35.97994225545875],[139.700553662524,35.98254294793906]],[[139.69301859502116,35.9779672012638],[139.69296655726217,35.97793039901172]],[[139.68771074360342,35.98081324209131],[139.68938635944315,35.9829600401293]],[[139.68938635944315,35.9829600401293],[139.6926543307082,35.98310724913762],[139.69599515483583,35.98022440605803]],[[139.69599515483583,35.98022440605803],[139.69301859502116,35.9779672012638]],[[139.75177963248106,35.90190921363213],[139.75036420543634,35.90167613270229],[139.74989586560537,35.90357758239308],[139.74782476279725,35.903258629541725],[139.7472211247929,35.90528275340611],[139.7425169113795,35.90857042125858],[139.7432766626609,35.90929419888282],[139.74035214060524,35.911318322747206],[139.74022724998363,35.91676505605503],[139.73812492452015,35.916814125724464],[139.736782350338,35.91834755289446],[139.73386823583414,35.91780778653062]],[[139.7287685354524,35.92563439880627],[139.73296277882758,35.92748677882762]],[[139.6923212890506,35.98634584732064],[139.69461095044647,35.98911828364399]],[[139.69461095044647,35.98911828364399],[139.6962345285272,35.988676656619035],[139.70207316508672,35.98910601622663]],[[139.70207316508672,35.98910601622663],[139.7004183643506,35.98503323366313]],[[139.7004183643506,35.98503323366313],[139.6982744086799,35.98498416399369],[139.6943507616515,35.98625997539912],[139.6923212890506,35.98634584732064]],[[139.69717120818916,35.97047180925687],[139.6988572315807,35.97162494648871]],[[139.6988572315807,35.97162494648871],[139.70175053098095,35.969195997851436]],[[139.70175053098095,35.969195997851436],[139.70092833438878,35.96547897039137],[139.69963779796564,35.967552163925205]],[[139.69657797773658,35.97983184870251],[139.69599515483583,35.98022440605803]],[[139.68938635944315,35.9829600401293],[139.6923212890506,35.98634584732064]],[[139.7004183643506,35.98503323366313],[139.70118852318376,35.984235851534734]],[[139.69240454946498,35.92968264653505],[139.69205069270382,35.92941276335313]],[[139.69205069270382,35.92941276335313],[139.68901168757836,35.93025921515097],[139.68802297015742,35.93155956139112],[139.68472377623698,35.93249188511048],[139.68238207708208,35.93493310116511],[139.68300653019006,35.93781594424469]],[[139.69461095044647,35.98911828364399],[139.69558926031564,35.99143682552502],[139.69178009635704,35.99923890296595],[139.69282085153696,35.99966826257354],[139.69181131901243,36.0012752942477],[139.69522499600265,36.00235482697538],[139.6999396169678,35.997963091560514],[139.70298902964507,35.997803615134835],[139.7082968810628,35.99471222596013],[139.7103575763191,35.99520292265453],[139.70949374951974,35.99391484383173],[139.71189789398542,35.99284757852141],[139.7107218406321,35.991301883934064],[139.70589273659712,35.990222351206384],[139.70369674316743,35.98830863409823],[139.70207316508672,35.98910601622663]],[[139.72423084286783,35.97218924768726],[139.72294030644468,35.97426244122109],[139.7225552270281,35.97665458760628],[139.71909991983068,35.976090286407725]],[[139.71909991983068,35.976090286407725],[139.71732022847297,35.97780772483812]],[[139.71511382749148,35.9812426016989],[139.716279473293,35.98245707601754],[139.71597765429084,35.98511910558465],[139.71702881702257,35.98575701128737],[139.71524912566485,35.98688561368448],[139.7187356555177,35.991068803004225],[139.71892299145009,35.989977002859185],[139.72595849646655,35.98468974597705],[139.7266349873335,35.981598356802344],[139.72409554469442,35.97590627514733],[139.72567749256794,35.97126919138527],[139.72423084286783,35.97218924768726]],[[139.70175053098095,35.91644610320367],[139.70021021331462,35.91569779074471],[139.69861785788927,35.916752788637666],[139.69710876287837,35.92008952615957],[139.69773321598632,35.92207684777188],[139.69572455848902,35.92336492659467],[139.69541233193505,35.92526637628547],[139.6926751458118,35.9269715472985],[139.69205069270382,35.92941276335313]],[[139.69673409101358,35.928676718311536],[139.6985450050267,35.928235091286574],[139.69971065082822,35.929645844282966],[139.7041026376876,35.92466527283483],[139.70608007252952,35.921512546573325],[139.70776609592104,35.9230827759954],[139.70740183160805,35.92472660992163],[139.70944171176075,35.92581841006667]],[[139.70944171176075,35.92581841006667],[139.71109651249688,35.92491062118203],[139.71138792394726,35.92343853109884],[139.7084217716844,35.9223467309538],[139.7144477441763,35.91659331221199],[139.71334454368557,35.91540337272807]],[[139.73296277882758,35.92938822851841],[139.72592727381115,35.93011200614264],[139.72385617100304,35.9311670040356],[139.7189021763465,35.93629478449206],[139.7166541451578,35.93755832848014],[139.71221012053942,35.937276177880854]],[[139.7188813612429,35.94210954032067],[139.7206610526006,35.94193779647764],[139.72141039633016,35.940183555795166],[139.72343986893105,35.939913672613244],[139.7246679600434,35.941312158192275],[139.7248761110794,35.93896908147653],[139.72723862533786,35.93905495339805],[139.72946584142295,35.937116701455174],[139.73025681535972,35.93743565430653]],[[139.73025681535972,35.93743565430653],[139.73165142730085,35.93517844951231]],[[139.70188582915432,35.969698961963196],[139.70175053098095,35.969195997851436]],[[139.6988572315807,35.97162494648871],[139.70142789687515,35.9727903511379]],[[139.70142789687515,35.9727903511379],[139.7021772406047,35.97093797111655]],[[139.7021772406047,35.97093797111655],[139.7020939801903,35.97054541376103]],[[139.6961824907682,35.970177391240234],[139.69605760014662,35.972152445435185],[139.6945276900321,35.974029360291254]],[[139.6945276900321,35.974029360291254],[139.6945276900321,35.97417656929957]],[[139.6945276900321,35.97417656929957],[139.696296973838,35.97515796268837]],[[139.696296973838,35.97515796268837],[139.6988572315807,35.97162494648871]],[[139.6963281964934,35.97518249752309],[139.69301859502116,35.9779672012638]],[[139.69882600892527,35.97627429766813],[139.6963281964934,35.97518249752309]],[[139.71797590423634,35.94735999495073],[139.72294030644468,35.94594924195434]],[[139.72294030644468,35.94594924195434],[139.72386657855483,35.94558121943354]],[[139.72386657855483,35.94558121943354],[139.72731147820048,35.94314000337891],[139.73025681535972,35.93743565430653]],[[139.688147860779,35.969514950702795],[139.6864930600429,35.96765030326409],[139.68384954188582,35.967785244855044],[139.68334997939945,35.96885251016536],[139.68069605369058,35.96863169665288]],[[139.68069605369058,35.96863169665288],[139.67888513967748,35.97299889723302],[139.67782356939392,35.97442191764677],[139.68382872678222,35.97558732229597],[139.68690936211487,35.97557505487861],[139.6945276900321,35.974029360291254]],[[139.6961824907682,35.970177391240234],[139.69502725251846,35.969429078781275],[139.69059363545188,35.972569537625425],[139.68861620060997,35.972974362398304],[139.68728403397964,35.970091519318714],[139.688147860779,35.969514950702795]],[[139.7449626860524,35.8939231249308],[139.74839717814623,35.8906477244957],[139.74757498155407,35.88777714883347],[139.75010401664133,35.88267390321173],[139.75257060641783,35.879815594966864],[139.74837636304264,35.8815821030667],[139.7470546039641,35.88381477302621],[139.7429436210033,35.886219186828754],[139.74167389968378,35.88814517135427],[139.7386869323173,35.88915109957778],[139.73559588943286,35.89452422838144],[139.7327754428952,35.89597178362992]],[[139.71800712689173,35.92913061275385],[139.71568624284043,35.930884853436325],[139.71341739654815,35.93357141783815]],[[139.70944171176075,35.92581841006667],[139.70988923648812,35.92675073378602],[139.7150513821807,35.92437085481819],[139.71698718681537,35.92417457614043]],[[139.72386657855483,35.94558121943354],[139.72440777124842,35.94630499705778],[139.73353519417657,35.9450414530697]],[[139.68517130096436,35.96239984863403],[139.68104991045175,35.96362659037002],[139.6801236383416,35.96477972760186],[139.68069605369058,35.96863169665288]],[[139.688147860779,35.969514950702795],[139.68880353654237,35.96630088735449],[139.68751300011922,35.96324630043186]],[[139.68751300011922,35.96324630043186],[139.68533782179315,35.963528451031145],[139.68517130096436,35.96239984863403]],[[139.72294030644468,35.94594924195434],[139.7189021763465,35.948304586087446],[139.72025515808042,35.950279640282396],[139.71962029742065,35.95162905619199]],[[139.71962029742065,35.95162905619199],[139.72096287160278,35.95236510123359]],[[139.72096287160278,35.95236510123359],[139.72277378561589,35.95237736865095],[139.724844888424,35.95443829476742],[139.72794633886025,35.95367771489111],[139.729257690387,35.95519887464374],[139.73061067212092,35.95457323635838],[139.7325152541002,35.95522340947846],[139.73299400148298,35.95700218499565],[139.7349402136695,35.95740700976853],[139.73458635690832,35.95394759807302],[139.73608504436743,35.953984400325105],[139.73803125655394,35.95259818216343]],[[139.72423084286783,35.97218924768726],[139.72115020753517,35.96866849890496],[139.71381288351654,35.968533557314004],[139.7125327546452,35.970336867665914],[139.7103783914227,35.97101157562071],[139.7125119395416,35.972643142129584],[139.71561338997785,35.97326878041494],[139.71700800191897,35.97559958971333],[139.71909991983068,35.976090286407725]],[[139.71103406718606,35.97101157562071],[139.71103406718606,35.97101157562071]],[[139.68472377623698,35.957848636793486],[139.68200740521732,35.95526021173054],[139.68143498986834,35.956695499561654],[139.67781316184212,35.95378812164734],[139.6762728441758,35.95641334896237],[139.67856250557168,35.95829026381845],[139.67979059668403,35.96135711815843],[139.6857437163133,35.95901404144268],[139.68472377623698,35.957848636793486]],[[139.70781813368004,35.96657077053641],[139.70602803477053,35.966791584048885]],[[139.70602803477053,35.966791584048885],[139.70564295535394,35.96686518855305]],[[139.70564295535394,35.96686518855305],[139.7063194462209,35.970189658657596],[139.70546602697334,35.9725450027907]],[[139.70546602697334,35.9725450027907],[139.70677737850008,35.97117105204639],[139.70904622479236,35.97091343628183]],[[139.70904622479236,35.97091343628183],[139.70781813368004,35.96657077053641]],[[139.70690226912168,35.96188461710491],[139.70522665328195,35.962853743076344]],[[139.70522665328195,35.962853743076344],[139.70602803477053,35.966791584048885]],[[139.70781813368004,35.96657077053641],[139.70739142405625,35.9643994376637]],[[139.70739142405625,35.9643994376637],[139.70690226912168,35.96188461710491]],[[139.7121476752286,35.9651968197921],[139.71096121432348,35.96584699291217]],[[139.71096121432348,35.96584699291217],[139.70946252686434,35.96633768960657]],[[139.70946252686434,35.96633768960657],[139.71006616486872,35.969686694545835]],[[139.71006616486872,35.969686694545835],[139.71075306328748,35.969416811363914],[139.71126303332565,35.96627635251977],[139.7121476752286,35.9651968197921]],[[139.70522665328195,35.962853743076344],[139.70347818457964,35.963761531960984],[139.70277047105728,35.965675249069136],[139.7040922301358,35.967380420082165]],[[139.7040922301358,35.967380420082165],[139.70564295535394,35.96686518855305]],[[139.7040922301358,35.967380420082165],[139.7041546754466,35.968374080888324]],[[139.7021772406047,35.97093797111655],[139.70418589810203,35.97261860729486]],[[139.70418589810203,35.97261860729486],[139.704706275692,35.97039820475271],[139.7040922301358,35.967380420082165]],[[139.68773155870701,35.9404779738118],[139.69501684496666,35.9418273897214]],[[139.69501684496666,35.9418273897214],[139.69544355459044,35.93905495339805]],[[139.69487113924149,35.960400259604356],[139.69257107029378,35.961958221609066],[139.68969858599712,35.9593452617114]],[[139.68969858599712,35.9593452617114],[139.68742973970484,35.96163926875771]],[[139.68742973970484,35.96163926875771],[139.68751300011922,35.96324630043186]],[[139.6986907107519,35.96685292113569],[139.70079303621537,35.96504961078377],[139.69998124717503,35.961136304645954],[139.69780606884893,35.959811423571075]],[[139.70954578727876,35.96373699712626],[139.70739142405625,35.9643994376637]],[[139.70781813368004,35.96657077053641],[139.70946252686434,35.96633768960657]],[[139.71096121432348,35.96584699291217],[139.70954578727876,35.96373699712626]],[[139.6699658677853,35.965074145618495],[139.66877940688016,35.9627433363201],[139.66834228970458,35.96365112520474],[139.6660630358605,35.963209498179786],[139.66763457618222,35.96443623991578],[139.6622850945573,35.965417633304575],[139.65940220270883,35.96468158826298],[139.6580700360785,35.96355298586586],[139.65799718321588,35.965908329998975],[139.6540631286357,35.96486559952338],[139.6535323434939,35.96757669875993],[139.6542504645681,35.96980936871943],[139.65664420148195,35.9692082652688],[139.65758088114393,35.971404132976225],[139.66166064144932,35.97351412876214],[139.6642625293992,35.97242232861711],[139.66460597860856,35.97442191764677],[139.6677074290448,35.97567319421749],[139.66947671285072,35.974274708638454],[139.67235960469918,35.97373494227462],[139.67325465415394,35.97218924768726],[139.67275509166757,35.970263263161755],[139.67149577789982,35.969760299049995],[139.6699658677853,35.965074145618495]],[[139.68742973970484,35.96163926875771],[139.68662835821627,35.96094002596819],[139.68517130096436,35.96239984863403]],[[139.70418589810203,35.97261860729486],[139.70546602697334,35.9725450027907]],[[139.71356310227335,35.96365112520474],[139.70936885889816,35.96176194293131]],[[139.70936885889816,35.96176194293131],[139.70930641358737,35.96171287326187]],[[139.70930641358737,35.96171287326187],[139.7105240971479,35.96284147565898],[139.70954578727876,35.96373699712626]],[[139.7121476752286,35.9651968197921],[139.7148744538001,35.9639700780561]],[[139.7148744538001,35.9639700780561],[139.71356310227335,35.96365112520474]],[[139.70930641358737,35.96171287326187],[139.708650737824,35.960989095637636]],[[139.70767242795483,35.96144299007995],[139.70690226912168,35.96188461710491]],[[139.71798631178814,35.958756425678125],[139.71728900581758,35.958339333487885]],[[139.71728900581758,35.958339333487885],[139.71206441481422,35.96033892251756]],[[139.71206441481422,35.96033892251756],[139.71500975197347,35.96200729127851]],[[139.71500975197347,35.96200729127851],[139.71798631178814,35.958756425678125]],[[139.71206441481422,35.96033892251756],[139.70936885889816,35.96176194293131]],[[139.71356310227335,35.96365112520474],[139.71500975197347,35.96200729127851]],[[139.6960784152502,35.94338535172611],[139.69375753119894,35.94285785277963],[139.6921651757736,35.94456302379266]],[[139.6921651757736,35.94456302379266],[139.6923421041542,35.94464889571418]],[[139.6963281964934,35.97518249752309],[139.696296973838,35.97515796268837]],[[139.6945276900321,35.97417656929957],[139.69138460938865,35.97615162349453]],[[139.68160151069713,35.94331174722195],[139.68529619158593,35.944697965383625]],[[139.68529619158593,35.944697965383625],[139.6862849090069,35.94252663251091]],[[139.6862849090069,35.94252663251091],[139.68176803152593,35.941631111043634]],[[139.68176803152593,35.941631111043634],[139.68160151069713,35.94331174722195]],[[139.68773155870701,35.9404779738118],[139.6862849090069,35.94252663251091]],[[139.6862849090069,35.94252663251091],[139.6921651757736,35.94456302379266]],[[139.6962761587344,35.94203593581651],[139.69501684496666,35.9418273897214]],[[139.71728900581758,35.958339333487885],[139.71558216732245,35.957345672681726]],[[139.71558216732245,35.957345672681726],[139.7125223470934,35.956045326441576]],[[139.6823300393231,35.93995047486533],[139.68176803152593,35.941631111043634]],[[139.70904622479236,35.97091343628183],[139.71006616486872,35.969686694545835]],[[139.69955453755125,35.974446452481494],[139.70142789687515,35.9727903511379]],[[139.71809038730612,35.95030417511712],[139.7170704472298,35.95501486338334]],[[139.7170704472298,35.95501486338334],[139.71945377659185,35.95559143199926]],[[139.71945377659185,35.95559143199926],[139.71949540679907,35.95219335739055],[139.72096287160278,35.95236510123359]],[[139.71962029742065,35.95162905619199],[139.71809038730612,35.95030417511712]],[[139.71558216732245,35.957345672681726],[139.7170704472298,35.95501486338334]],[[139.71809038730612,35.95030417511712],[139.71611295246421,35.948218714165925]],[[139.6819449599065,35.94726185561185],[139.6824757450483,35.94899156145961],[139.68037341958478,35.950917545985114],[139.6821531109425,35.95237736865095]],[[139.68398484005922,35.94875848052977],[139.6819449599065,35.94726185561185]],[[139.68160151069713,35.94331174722195],[139.6822675940123,35.94455075637531],[139.6819449599065,35.94726185561185]],[[139.75260182907323,35.90151665627661],[139.75209185903503,35.8992839863171]],[[139.71953703700626,35.95966421456276],[139.71798631178814,35.958756425678125]],[[139.7148744538001,35.9639700780561],[139.71700800191897,35.96296414983259],[139.71761163992335,35.960228515761315],[139.71953703700626,35.95966421456276]],[[139.71953703700626,35.95966421456276],[139.7205777921862,35.95935752912876],[139.72585442094854,35.961209909150114],[139.72211810985252,35.95856014700036],[139.72100450180997,35.95856014700036],[139.71945377659185,35.95559143199926]]]}