{"type":"Topology","bbox":[140.14209167393204,35.49359275565001,140.30084664836372,35.58661102411779],"objects":{"town":{"type":"GeometryCollection","geometries":[{"type":"Polygon","arcs":[[0,1,2,3,4,5,6,7,8,9]],"properties":{"name":"大金沢町"}},{"type":"Polygon","arcs":[[10,11,12,13,14]],"properties":{"name":"板倉町"}},{"type":"Polygon","arcs":[[15,16,17,18,19,20]],"properties":{"name":"高津戸町"}},{"type":"Polygon","arcs":[[21,22,23,24]],"properties":{"name":"おゆみ野有吉"}},{"type":"MultiPolygon","arcs":[[[140,-23,-22,-25,162,-150,-149,-183,-174,154,-36,-71,151,-2,-1,-106,92,29,30,-90,28,25,141]]],"properties":{"name":"おゆみ野中央"}},{"type":"MultiPolygon","arcs":[[[-141,199,165,-113,-112,-74,-73,-72,37,35,-155,173,182,148,149,-163,-24]]],"properties":{"name":"おゆみ野"}},{"type":"Polygon","arcs":[[-11,38,39,40,41]],"properties":{"name":"小山町"}},{"type":"MultiPolygon","arcs":[[[175,176,44,42,177]]],"properties":{"name":"大野台"}},{"type":"Polygon","arcs":[[45,46,47]],"properties":{"name":"上大和田町"}},{"type":"Polygon","arcs":[[48,49,50,51,52]],"properties":{"name":"椎名崎町"}},{"type":"MultiPolygon","arcs":[[[67,63,97,115,116,85,117,118,-40,-39,-15,-128,-130,134,155,156,157,-20,158]]],"properties":{"name":"あすみが丘"}},{"type":"Polygon","arcs":[[58,59,60,61,62]],"properties":{"name":"高田町"}},{"type":"Polygon","arcs":[[68,-5]],"properties":{"name":"茂呂町"}},{"type":"MultiPolygon","arcs":[[[191,192,69,70,-38,71,72,73,74,75,76,-59,-63,-188,189,194],[78]]],"properties":{"name":"誉田町"}},{"type":"MultiPolygon","arcs":[[[-64,178,171,172,-180,-118,-86,-117,-116,-98]]],"properties":{"name":"あすみが丘東"}},{"type":"MultiPolygon","arcs":[[[-124,-127,-51,-50,150,-29,89,-31,-30,-93,105,-10,-9,-160,-161,-100]]],"properties":{"name":"おゆみ野南"}},{"type":"Polygon","arcs":[[91]],"properties":{"name":"東山科町"}},{"type":"Polygon","arcs":[[99,100,-7,101,102,103]],"properties":{"name":"富岡町"}},{"type":"Polygon","arcs":[[106,107,108]],"properties":{"name":"中西町"}},{"type":"Polygon","arcs":[[109,110,-75,111,112]],"properties":{"name":"鎌取町"}},{"type":"Polygon","arcs":[[119,-61,120,121,-17,122]],"properties":{"name":"平川町"}},{"type":"Polygon","arcs":[[123,-104,124,125,-52,126]],"properties":{"name":"刈田子町"}},{"type":"Polygon","arcs":[[127,-14,128,129]],"properties":{"name":"大椎町"}},{"type":"Polygon","arcs":[[-111,130,-76],[131],[132],[133]],"properties":{"name":"辺田町"}},{"type":"Polygon","arcs":[[-134]],"properties":{"name":"平山町"}},{"type":"Polygon","arcs":[[142,-108,143,-125,-103]],"properties":{"name":"落井町"}},{"type":"Polygon","arcs":[[144,145,-123,-16]],"properties":{"name":"大高町"}},{"type":"Polygon","arcs":[[159,-8,-101,160]],"properties":{"name":"小金沢町"}},{"type":"Polygon","arcs":[[-41,-119,179,-173,180,181]],"properties":{"name":"小食土町"}},{"type":"Polygon","arcs":[[183,-45,-177,184,-145,-21,-158,185,-156,-135,-129,-13]],"properties":{"name":"大木戸町"}},{"type":"Polygon","arcs":[[-176,186,187,-62,-120,-146,-185]],"properties":{"name":"越智町"}},{"type":"Polygon","arcs":[[-107,188,-53,-126,-144]],"properties":{"name":"古市場町"}},{"type":"Polygon","arcs":[[-3,-152,-70,-193,193]],"properties":{"name":"大膳野町"}},{"type":"Polygon","arcs":[[-46,196,-18,-122,197]],"properties":{"name":"下大和田町"}},{"type":"Polygon","arcs":[[-172,-179,-68,-159,-19,-197,-48,198,-181]],"properties":{"name":"土気町"}}]}},"arcs":[[[140.18703970199647,35.5414461382881],[140.18851627091556,35.54278573531374],[140.18378489954037,35.544171846124996],[140.1828163973461,35.546153333392084],[140.18386428496612,35.54647892989137]],[[140.18386428496612,35.54647892989137],[140.1865951436122,35.54753944420334]],[[140.1865951436122,35.54753944420334],[140.18529322262978,35.54564168175035],[140.18656338944191,35.54419975439636],[140.18872267302254,35.54408812131089],[140.1894212647692,35.54296248769907],[140.194422546592,35.54344623106944]],[[140.194422546592,35.54344623106944],[140.19156467126467,35.54123217487429],[140.19253317345894,35.53937162344979],[140.19164405669045,35.53663661285577],[140.1874525062104,35.53588308952885]],[[140.1874525062104,35.53588308952885],[140.1870238249113,35.537427347211185],[140.18251473272824,35.53699942038355],[140.17981562825244,35.535427254429855],[140.17954571780487,35.53288760173541]],[[140.17954571780487,35.53288760173541],[140.17870423229184,35.533920207776006],[140.17919642193152,35.53697151211219],[140.1767037195627,35.53778085198184],[140.1737823358948,35.53753898029666],[140.1722740128054,35.53903672419338],[140.17038463967233,35.5390460269505]],[[140.17038463967233,35.5390460269505],[140.1704005167575,35.54194848717272]],[[140.1704005167575,35.54194848717272],[140.17219462737964,35.54291597391346]],[[140.17219462737964,35.54291597391346],[140.1747032068336,35.54352995588354]],[[140.1747032068336,35.54352995588354],[140.17697363001028,35.54199500095833],[140.17824379682241,35.540004210934114],[140.18219719102518,35.54067400944694],[140.18283227443126,35.53914835727885],[140.18492804967127,35.53889718283654],[140.18703970199647,35.5414461382881]],[[140.26331321906514,35.5081887815752],[140.2646468942179,35.50631892739358],[140.2649961900912,35.50398393535583],[140.26691731739456,35.50192802603176]],[[140.26691731739456,35.50192802603176],[140.26498031300608,35.500327951806696],[140.26264638148876,35.50222571425969],[140.2595503498842,35.50096984204815],[140.26163024803907,35.498644152767525],[140.26363076076817,35.49821622593989],[140.2624082252115,35.495844022873655],[140.26309093987302,35.494374187248305],[140.25812141222053,35.49373229700685],[140.2555334473408,35.49436488449118],[140.25427915761384,35.496932445456984],[140.2530724991423,35.49776039084089],[140.25470783891294,35.49835576729673],[140.25394573882565,35.499397676094446],[140.25466020765748,35.502681549358684],[140.25372345963353,35.50166754883234],[140.2516276843935,35.50228153080242],[140.24911910493952,35.50182569570342],[140.24845226736318,35.50315598997193],[140.2426253771125,35.50358391679957],[140.2430540584116,35.5054165599527]],[[140.2430540584116,35.5054165599527],[140.24527685033283,35.506225899822354],[140.2487063007256,35.50912836004457],[140.24957954040894,35.51046795707021],[140.24980181960106,35.51314715112149]],[[140.24980181960106,35.51314715112149],[140.25059567385864,35.51426348197619],[140.25329477833444,35.51214245335226],[140.25559695568143,35.513863463419916],[140.25456494514657,35.510858672869354],[140.25653370370537,35.51172382928175]],[[140.25653370370537,35.51172382928175],[140.25907403732964,35.509026029716225],[140.26094753337753,35.50933302070127],[140.26331321906514,35.5081887815752]],[[140.25643844119446,35.53276666589282],[140.25756571424023,35.53377136366205],[140.25650194953508,35.53936232069267],[140.25434266595443,35.543557864154906]],[[140.25434266595443,35.543557864154906],[140.25931219360692,35.54494397496616],[140.2583595684978,35.54539050730804]],[[140.2583595684978,35.54539050730804],[140.2600107853536,35.54696267326174],[140.26285278359575,35.54677661811929],[140.26372602327908,35.54585564516417],[140.26655214443608,35.54678592087641],[140.26656802152124,35.54536259903667],[140.26458338587727,35.543213662141376],[140.26478978798426,35.542283386429126]],[[140.26478978798426,35.542283386429126],[140.266647406947,35.54120426660292],[140.26842564048397,35.5369343010837],[140.2665838986064,35.534990024845094],[140.26647275901033,35.532971326549514],[140.26518671511303,35.53361321679097],[140.26166200220936,35.531920114994676]],[[140.26166200220936,35.531920114994676],[140.2608363937815,35.53228292252245]],[[140.2608363937815,35.53228292252245],[140.25643844119446,35.53276666589282]],[[140.17016236048022,35.55631194416984],[140.1650499390614,35.556386366226825]],[[140.1650499390614,35.556386366226825],[140.16377977224923,35.55880508307867],[140.1641925764632,35.56077726758864]],[[140.1641925764632,35.56077726758864],[140.16947964581868,35.55978187257653]],[[140.16947964581868,35.55978187257653],[140.17016236048022,35.55631194416984]],[[140.15885787585222,35.5533164563764],[140.15761946321038,35.556237522112866]],[[140.15761946321038,35.556237522112866],[140.15954059051373,35.55725152263921],[140.16252548252226,35.55614449454164],[140.1650499390614,35.556386366226825]],[[140.1650499390614,35.556386366226825],[140.16511344740198,35.55366065838993]],[[140.16511344740198,35.55366065838993],[140.162604867948,35.553976952132096],[140.15885787585222,35.5533164563764]],[[140.1754970610912,35.5493441790851],[140.17136901895174,35.551083794667]],[[140.17136901895174,35.551083794667],[140.17119437101508,35.551158216723984]],[[140.17119437101508,35.551158216723984],[140.17016236048022,35.55631194416984]],[[140.17016236048022,35.55631194416984],[140.1752906589842,35.55501886092981]],[[140.1752906589842,35.55501886092981],[140.17622740700816,35.551381482894925]],[[140.17622740700816,35.551381482894925],[140.1754970610912,35.5493441790851]],[[140.19400974237806,35.54798597654521],[140.1886432875968,35.550413996154184]],[[140.1886432875968,35.550413996154184],[140.18986582315347,35.55160474906586],[140.19278720682138,35.55276759370617]],[[140.19278720682138,35.55276759370617],[140.19548631129715,35.55148381322327],[140.19397798820773,35.549827922455464],[140.19400974237806,35.54798597654521]],[[140.26331321906514,35.5081887815752],[140.26531373179427,35.51022608538503],[140.2663139881588,35.509965608185595],[140.267695294567,35.51250526088003]],[[140.267695294567,35.51250526088003],[140.26852090299488,35.51372392206308],[140.2704579073834,35.51113775558303],[140.27123588455584,35.51270992153673]],[[140.27123588455584,35.51270992153673],[140.27237903468674,35.5081887815752],[140.2742048994792,35.507528285819504]],[[140.2742048994792,35.507528285819504],[140.2747923516298,35.50441186218347],[140.27382384943556,35.50284899898689],[140.27406200571284,35.499397676094446],[140.2706484324052,35.49591844493064],[140.2723631576016,35.49421604037722],[140.27001334899916,35.49359275565001],[140.2700609802546,35.496402188301005],[140.27136290123704,35.49849530865357],[140.270521415724,35.50016980493562],[140.26691731739456,35.50192802603176]],[[140.230431775716,35.50990979164286],[140.23054291531207,35.51004003024258]],[[140.23054291531207,35.51004003024258],[140.2365762076697,35.51549144591635]],[[140.2365762076697,35.51549144591635],[140.2369731347985,35.51639381335724],[140.2402596914249,35.51834739235296],[140.24106942276762,35.51732408906948],[140.24073600397944,35.51364019724898],[140.24284765630463,35.51233781125183],[140.24464176692675,35.51020747987078],[140.2436415105622,35.50946325930098],[140.24322870634825,35.50611426673689],[140.24167275200338,35.50743525824828],[140.24210143330248,35.50910975453033],[140.2406248643834,35.51084006735511],[140.23932294340094,35.50925859864429],[140.23670322435092,35.511454049325195],[140.2341152594712,35.50927720415853],[140.23192422172025,35.51056098464144],[140.230431775716,35.50990979164286]],[[140.2714740408331,35.55161405182299],[140.27283947015616,35.550646565082246],[140.27628479763408,35.55238618066415],[140.27490349122587,35.55469326443053],[140.27747557902043,35.55681429305446],[140.27647532265587,35.55776317428095],[140.2781741707671,35.558423670036646],[140.2820799337144,35.56181917638636],[140.28236572124715,35.56314947065487],[140.2841915860396,35.56069354277454],[140.28439798814657,35.558265523165566],[140.28766866768783,35.557511999838646],[140.28616034459841,35.556544513097904],[140.28777980728387,35.55495374162996],[140.28719235513327,35.5490557936143]],[[140.28719235513327,35.5490557936143],[140.28573166329932,35.549325573570854],[140.28308019007898,35.54833948131587],[140.28071450439137,35.55068377611074]],[[140.28071450439137,35.55068377611074],[140.27961898551592,35.551362877380676],[140.2732205201998,35.54900927982869],[140.2714740408331,35.55161405182299]],[[140.1491728539097,35.550041885869284],[140.15177669587456,35.55129775808082],[140.15646043599432,35.55208849243623],[140.15750832361434,35.55304667641985]],[[140.15750832361434,35.55304667641985],[140.1589690154483,35.55075819816771],[140.16125531571012,35.55129775808082],[140.1637956493344,35.55047911545404]],[[140.1637956493344,35.55047911545404],[140.1652722182535,35.54963256455589],[140.1644148556553,35.548013884816584]],[[140.1644148556553,35.548013884816584],[140.16301767216197,35.549297665299484],[140.16049321562284,35.547846435188376],[140.158206915361,35.547995279302334],[140.15546017962976,35.547251058732535]],[[140.15546017962976,35.547251058732535],[140.15406299613642,35.54779992140276],[140.15093521036152,35.547065003590085],[140.14869654135515,35.54939999562783],[140.1491728539097,35.550041885869284]],[[140.25948684154358,35.52304528469982],[140.26212243767876,35.52768736050394]],[[140.26212243767876,35.52768736050394],[140.2693147572525,35.52397556041207]],[[140.2693147572525,35.52397556041207],[140.26909247806034,35.5217987152454]],[[140.26909247806034,35.5217987152454],[140.2646468942179,35.52176150421691]],[[140.2646468942179,35.52176150421691],[140.25948684154358,35.52304528469982]],[[140.20672728758456,35.56219128667126],[140.2063779917112,35.562684332798746]],[[140.2063779917112,35.562684332798746],[140.20742587933123,35.56314947065487],[140.20710833762817,35.56549376544974],[140.21087120680914,35.56963349236925],[140.20961691708214,35.57131729140842],[140.21015673797731,35.57449883434431],[140.2120619881955,35.57653613815414],[140.2143959197128,35.57764316625171],[140.21730142629556,35.57650822988277],[140.21917492234346,35.5790850936057],[140.22090552462498,35.577178028395586],[140.22335059573837,35.57720593666696],[140.22495418133866,35.57442441228733],[140.2282566150502,35.572563860862836],[140.2265260127687,35.57046143775315],[140.2261290856399,35.56832180361498],[140.2272722357708,35.56699150934646],[140.23093984244085,35.56447976492339],[140.2383226870364,35.56110286408793]],[[140.2383226870364,35.56110286408793],[140.2385767203988,35.55911207406371],[140.23763997237486,35.55679568754021],[140.2344169240891,35.55403276867483],[140.23486148247332,35.54907439912854],[140.23336903646907,35.54833948131587],[140.23590937009334,35.54680452639066],[140.2319400988054,35.54234850572899]],[[140.2319400988054,35.54234850572899],[140.23008247984268,35.54296248769907]],[[140.23008247984268,35.54296248769907],[140.2299395860763,35.54539050730804],[140.22601794604384,35.547678985560175],[140.22506532093473,35.550041885869284],[140.22176288722318,35.549148821185526],[140.21911141400287,35.549883738998204],[140.2184445764265,35.5509163450388],[140.21495161769312,35.55180010696544],[140.21363381962553,35.55109309742413],[140.20948990040094,35.55184662075105],[140.20691781260635,35.55760502740987],[140.20733061682031,35.56104704754519],[140.20672728758456,35.56219128667126]],[[140.27310938060373,35.52733385573328],[140.27310938060373,35.527259433676306]],[[140.27310938060373,35.527259433676306],[140.2699657177437,35.52823622317417]],[[140.2699657177437,35.52823622317417],[140.26439286085545,35.53072005932587]],[[140.26439286085545,35.53072005932587],[140.26185252723118,35.531854995694815]],[[140.26185252723118,35.531854995694815],[140.26663152986185,35.53179917915208],[140.27350630773253,35.52975257258513],[140.27310938060373,35.52733385573328]],[[140.1874525062104,35.53588308952885],[140.18519796011887,35.53460861180307],[140.18262587232428,35.53436674011789],[140.17954571780487,35.53288760173541]],[[140.19843944913538,35.544320690238955],[140.19329527354623,35.54696267326174]],[[140.19329527354623,35.54696267326174],[140.19400974237806,35.54798597654521]],[[140.19278720682138,35.55276759370617],[140.19121537539135,35.55465605340204],[140.18697619365585,35.55659102688352]],[[140.18697619365585,35.55659102688352],[140.1805142199991,35.56097262548821]],[[140.1805142199991,35.56097262548821],[140.18059360542486,35.56104704754519]],[[140.18059360542486,35.56104704754519],[140.18214955976973,35.56125170820189]],[[140.18214955976973,35.56125170820189],[140.18322920156004,35.56035864351813],[140.18977056064256,35.55717710058224],[140.19424789865533,35.559167890606446]],[[140.19424789865533,35.559167890606446],[140.19559745089322,35.56057260693194],[140.19850295747597,35.561781965357866],[140.19963023052173,35.56140985507297],[140.20196416203905,35.5629541127553],[140.2063779917112,35.562684332798746]],[[140.20672728758456,35.56219128667126],[140.20058285563084,35.55798644045189],[140.20374239557603,35.552814107491784],[140.20190065369843,35.55000467484079],[140.2054571207724,35.549883738998204],[140.20599694166756,35.54778131588852],[140.20515545615453,35.546692893305185],[140.20405993727906,35.54828366477313],[140.20196416203905,35.547278967003905],[140.200074788906,35.54738129733225],[140.19843944913538,35.544320690238955]],[[140.20350423929875,35.548962766043076],[140.20350423929875,35.548962766043076]],[[140.26212243767876,35.52768736050394],[140.26439286085545,35.53072005932587]],[[140.2699657177437,35.52823622317417],[140.2693147572525,35.52397556041207]],[[140.27345867647708,35.52207779795908],[140.2785710978959,35.52437557896833]],[[140.2785710978959,35.52437557896833],[140.27866636040682,35.52170568767418]],[[140.27866636040682,35.52170568767418],[140.2745383182674,35.521128916732586],[140.27345867647708,35.52207779795908]],[[140.27385560360585,35.517361300097974],[140.27293473266707,35.51817994272476]],[[140.27293473266707,35.51817994272476],[140.27385560360585,35.517361300097974]],[[140.17214699612418,35.54539981006516],[140.1717818231657,35.545427718336526]],[[140.1717818231657,35.545427718336526],[140.1703687625872,35.54812551790205],[140.16897157909384,35.54910230739991],[140.16436722439985,35.55073959265347]],[[140.16436722439985,35.55073959265347],[140.16511344740198,35.55366065838993]],[[140.16511344740198,35.55366065838993],[140.17119437101508,35.551158216723984]],[[140.17136901895174,35.551083794667],[140.17214699612418,35.54539981006516]],[[140.1930412401838,35.583327150853556],[140.19229501718166,35.58041538787422],[140.19121537539135,35.57949441491909],[140.18583304352492,35.58244338892692],[140.18726198118858,35.58661102411779],[140.18916723140677,35.585745867705405],[140.1935969381641,35.58521561054942],[140.1930412401838,35.583327150853556]],[[140.17978387408215,35.54644171886288],[140.1754970610912,35.5493441790851]],[[140.17622740700816,35.551381482894925],[140.18284815151642,35.551325666352184],[140.185213837204,35.550172124469]],[[140.185213837204,35.550172124469],[140.18294341402733,35.54924184875675]],[[140.18294341402733,35.54924184875675],[140.18080000753184,35.548246453744646],[140.17978387408215,35.54644171886288]],[[140.2691401093158,35.52170568767418],[140.26909247806034,35.5217987152454]],[[140.27310938060373,35.527259433676306],[140.27329990562555,35.523175523299535],[140.27148991791825,35.52169638491706]],[[140.27148991791825,35.52169638491706],[140.2691401093158,35.52170568767418]],[[140.16476415152866,35.54502769978026],[140.16414494520774,35.54326017592699],[140.16544686619017,35.54192057890135],[140.16928912079686,35.543585772426276]],[[140.16928912079686,35.543585772426276],[140.1704005167575,35.54194848717272]],[[140.17038463967233,35.5390460269505],[140.16870166864626,35.540618192904205],[140.16773316645202,35.539315806907055],[140.16304942633226,35.541715918244655]],[[140.16304942633226,35.541715918244655],[140.16098540526255,35.54422766266773]],[[140.16098540526255,35.54422766266773],[140.16147759490224,35.54490676393767],[140.16476415152866,35.54502769978026]],[[140.1747032068336,35.54352995588354],[140.17587811113484,35.54443232332442],[140.17698950709544,35.543390414526705],[140.17978387408215,35.54644171886288]],[[140.17978387408215,35.54644171886288],[140.18703970199647,35.5414461382881]],[[140.15438053783944,35.53907393522187],[140.15707964231524,35.54015305504808],[140.15611114012097,35.54092518388924]],[[140.15611114012097,35.54092518388924],[140.15806402159464,35.54010654126247],[140.16022330517526,35.54164149618767],[140.16236671167073,35.54128799141702]],[[140.16236671167073,35.54128799141702],[140.16328758260954,35.53863670563711],[140.15881024459676,35.53560400681518],[140.15561895048128,35.53752967753953],[140.15438053783944,35.53907393522187]],[[140.16922561245627,35.56443325113778],[140.16925736662657,35.56760549131655],[140.17165480648447,35.56772642715914],[140.17362356504327,35.57005211643976],[140.17111498558933,35.572321989177645],[140.17278207953024,35.57313132904731]],[[140.17278207953024,35.57313132904731],[140.1756240777724,35.57074052046683],[140.17537004440996,35.56797760160145],[140.17860896978092,35.565317013064416],[140.18129219717156,35.56530771030729],[140.18214955976973,35.56125170820189]],[[140.18059360542486,35.56104704754519],[140.17694187584,35.56404253533863]],[[140.17694187584,35.56404253533863],[140.17308374414813,35.56504723310786],[140.16922561245627,35.56443325113778]],[[140.267695294567,35.51250526088003],[140.26721898201245,35.51308203182163]],[[140.26721898201245,35.51308203182163],[140.2690766009752,35.51650544644271],[140.2691401093158,35.52170568767418]],[[140.27148991791825,35.52169638491706],[140.2714740408331,35.521677779402815]],[[140.2714740408331,35.521677779402815],[140.27293473266707,35.51817994272476]],[[140.27385560360585,35.517361300097974],[140.27399849737222,35.517175244955524]],[[140.27399849737222,35.517175244955524],[140.27209324715403,35.51482164740354],[140.27123588455584,35.51270992153673]],[[140.24184739994007,35.53884136629381],[140.23944996008217,35.54015305504808],[140.2319400988054,35.54234850572899]],[[140.2383226870364,35.56110286408793],[140.24018030599913,35.562851782426954],[140.24005328931793,35.56556818750672],[140.24233958957976,35.566814756961136],[140.2443083481386,35.56892648282794],[140.25375521380383,35.56199592877169]],[[140.25375521380383,35.56199592877169],[140.25013523838925,35.55925161542055],[140.2544538055505,35.557139889553746],[140.2572481725372,35.557511999838646],[140.25824842890177,35.555046769201184],[140.25861360186025,35.55179080420831],[140.25797851845417,35.54972559212712],[140.2544855597208,35.548395297858605],[140.25529529106353,35.544674195009605],[140.2583595684978,35.54539050730804]],[[140.25434266595443,35.543557864154906],[140.2539298617405,35.54420905715348],[140.24638824629344,35.54058098187571],[140.24184739994007,35.53884136629381]],[[140.16620896627745,35.54716733391844],[140.16476415152866,35.54502769978026]],[[140.16098540526255,35.54422766266773],[140.15874673625615,35.545967278249634],[140.15650806724977,35.54486955290918]],[[140.15650806724977,35.54486955290918],[140.15468220245734,35.544888158423426],[140.15431702949883,35.54651614091986],[140.15546017962976,35.547251058732535]],[[140.1644148556553,35.548013884816584],[140.16620896627745,35.54716733391844]],[[140.25683536832327,35.51206803129528],[140.25653370370537,35.51172382928175]],[[140.24980181960106,35.51314715112149],[140.2476901672759,35.515724014844416],[140.24927787579105,35.5164217216286],[140.25242153865108,35.516282180271766],[140.25181820941532,35.518486933709795],[140.25335828667502,35.521101008461216],[140.2545490680614,35.51933348460794]],[[140.2545490680614,35.51933348460794],[140.25512064312687,35.51952884250752],[140.26074113127058,35.517919465525324],[140.26126507508056,35.519240457036716],[140.26310681695816,35.51898928259441],[140.2625987502333,35.51644032714285],[140.26107455005877,35.51703570359869],[140.2595185957139,35.51616124442918],[140.26018543329025,35.514068124076616],[140.25843895392356,35.51448674814713],[140.25683536832327,35.51206803129528]],[[140.17278207953024,35.57313132904731],[140.17600512781604,35.572508044320095],[140.17786274677877,35.570284685367824],[140.17727529462817,35.57265688843406],[140.17868835520667,35.57378252204588],[140.18181614098154,35.574015090973944],[140.1837055141146,35.572424319506],[140.1888020584483,35.56945673998392],[140.18969117521678,35.566777545932645],[140.19132651498742,35.565475159935495],[140.19200922964893,35.56314016789775],[140.19424789865533,35.559167890606446]],[[140.18249885564308,35.57105681420899],[140.18249885564308,35.57105681420899]],[[140.18111754923487,35.570145144010986],[140.18111754923487,35.570145144010986]],[[140.17870423229184,35.572135934035195],[140.17870423229184,35.572135934035195]],[[140.2545490680614,35.51933348460794],[140.25416801801777,35.520942861590136]],[[140.25416801801777,35.520942861590136],[140.25756571424023,35.52140799944626],[140.25948684154358,35.52304528469982]],[[140.2646468942179,35.52176150421691],[140.2646468942179,35.51687755672761],[140.26353549825726,35.51483095016066]],[[140.26353549825726,35.51483095016066],[140.26067762292996,35.51076564529813],[140.25683536832327,35.51206803129528]],[[140.1637956493344,35.55047911545404],[140.16436722439985,35.55073959265347]],[[140.1717818231657,35.545427718336526],[140.16784430604807,35.54571610380733],[140.16620896627745,35.54716733391844]],[[140.15830217787192,35.56224710321399],[140.1641925764632,35.56077726758864]],[[140.15761946321038,35.556237522112866],[140.15619052554675,35.558265523165566],[140.15830217787192,35.56224710321399]],[[140.16304942633226,35.541715918244655],[140.16236671167073,35.54128799141702]],[[140.15611114012097,35.54092518388924],[140.15788937365798,35.54325087316987],[140.1558729838437,35.542832249099355],[140.15650806724977,35.54486955290918]],[[140.25643844119446,35.53276666589282],[140.25283434286501,35.533910905018885],[140.24632473795285,35.53657149355592],[140.24227608123917,35.538720430451214]],[[140.24227608123917,35.538720430451214],[140.24184739994007,35.53884136629381]],[[140.17300435872238,35.55892601892126],[140.17397286091662,35.561019139273824],[140.17694187584,35.56404253533863]],[[140.1805142199991,35.56097262548821],[140.17654494871118,35.55737245848181]],[[140.17654494871118,35.55737245848181],[140.1764814403706,35.5574096695103]],[[140.1764814403706,35.5574096695103],[140.17300435872238,35.55892601892126]],[[140.15750832361434,35.55304667641985],[140.15885787585222,35.5533164563764]],[[140.19329527354623,35.54696267326174],[140.19158054834983,35.547641774531684],[140.1865951436122,35.54753944420334]],[[140.18386428496612,35.54647892989137],[140.18294341402733,35.54924184875675]],[[140.185213837204,35.550172124469],[140.18642049567555,35.55167917112284]],[[140.18642049567555,35.55167917112284],[140.1886432875968,35.550413996154184]],[[140.25416801801777,35.520942861590136],[140.25421564927322,35.523296459142124],[140.25219925945896,35.52436627621121],[140.25292960537593,35.52511049678101]],[[140.25292960537593,35.52511049678101],[140.25567634110718,35.525166313323744],[140.26015367911995,35.52784550737502],[140.2606299916745,35.53194802326604]],[[140.2606299916745,35.53194802326604],[140.2608363937815,35.53228292252245]],[[140.26166200220936,35.531920114994676],[140.26185252723118,35.531854995694815]],[[140.17197234818752,35.54387415789707],[140.17219462737964,35.54291597391346]],[[140.16928912079686,35.543585772426276],[140.17197234818752,35.54387415789707]],[[140.26721898201245,35.51308203182163],[140.26353549825726,35.51483095016066]],[[140.16947964581868,35.55978187257653],[140.17300435872238,35.55892601892126]],[[140.1764814403706,35.5574096695103],[140.1752906589842,35.55501886092981]],[[140.16947964581868,35.55978187257653],[140.1690827186899,35.56443325113778]],[[140.1690827186899,35.56443325113778],[140.16922561245627,35.56443325113778]],[[140.27345867647708,35.52207779795908],[140.2714740408331,35.521677779402815]],[[140.27310938060373,35.527259433676306],[140.2789680250247,35.52690592890565],[140.28079388981715,35.525380276737565]],[[140.28079388981715,35.525380276737565],[140.2785710978959,35.52437557896833]],[[140.27973012511197,35.521463815988994],[140.27866636040682,35.52170568767418]],[[140.28079388981715,35.525380276737565],[140.2832389609305,35.526105891793115],[140.2851124569784,35.52562214842275]],[[140.2851124569784,35.52562214842275],[140.2828102796314,35.524087193497536],[140.2827150171205,35.52272899095765]],[[140.2827150171205,35.52272899095765],[140.27973012511197,35.521463815988994]],[[140.18642049567555,35.55167917112284],[140.1837690224552,35.553214126048054]],[[140.1837690224552,35.553214126048054],[140.18697619365585,35.55659102688352]],[[140.22527172304171,35.524980258181294],[140.22854240258295,35.52356623909868],[140.23097159661117,35.52391974386933],[140.2310827362072,35.52182662351677]],[[140.2310827362072,35.52182662351677],[140.2321465009124,35.51881253020908],[140.23343254480966,35.51729618079812],[140.2365762076697,35.51549144591635]],[[140.23054291531207,35.51004003024258],[140.228336000476,35.51137962726821],[140.228336000476,35.51431929851892],[140.22558926474474,35.516458932657095],[140.22443023752868,35.51615194167205],[140.22230270811835,35.517612474540286],[140.22436672918806,35.51859856679527],[140.224255589592,35.51990095279242],[140.22068324543287,35.5213428801464],[140.22103254130622,35.52290574334298],[140.22423971250686,35.525017469209786],[140.22527172304171,35.524980258181294]],[[140.27310938060373,35.52733385573328],[140.2756179600577,35.52711989231947],[140.2780153999156,35.52951070089995],[140.28479491527537,35.52757572741847],[140.2851124569784,35.52562214842275]],[[140.27399849737222,35.517175244955524],[140.27973012511197,35.521463815988994]],[[140.2827150171205,35.52272899095765],[140.28644613213115,35.52384532181235],[140.28828787400874,35.52304528469982]],[[140.28828787400874,35.52304528469982],[140.29041540341905,35.52201267865922],[140.2946387080694,35.520905650561645],[140.2961152769885,35.521835926273894],[140.29797289595126,35.521463815988994],[140.29987814616948,35.51895207156592],[140.29327327874637,35.515565867973336],[140.2908917159736,35.51546353764499],[140.28920874494753,35.51623566648615],[140.28844664486024,35.5193986039078],[140.28496956321203,35.5182822730531],[140.28295317339777,35.51622636372903],[140.28161949824502,35.512356416766075],[140.27696751229558,35.511807554095846],[140.2742048994792,35.507528285819504]],[[140.1837690224552,35.553214126048054],[140.17654494871118,35.55737245848181]],[[140.2430540584116,35.5054165599527],[140.23927531214548,35.50516538551039],[140.23198773006087,35.503490889228345],[140.23062230073782,35.50677476249258],[140.22870117343447,35.50786318507591],[140.230431775716,35.50990979164286]],[[140.2310827362072,35.52182662351677],[140.23324201978787,35.52099867813287],[140.23349605315028,35.51852414473829],[140.23571884507152,35.51846832819555],[140.23721129107577,35.519426512179166],[140.23830680995124,35.521501027017486],[140.23994214972186,35.5215475408031],[140.23817979327004,35.522784807500386],[140.23846558080277,35.52404067971192],[140.2421331874728,35.524989560938415],[140.2452133419922,35.524645358924886],[140.2459754420795,35.52216152277318],[140.24757902767982,35.52211500898757],[140.24783306104226,35.52584541459369],[140.24884919449195,35.52605007525038],[140.24799183189376,35.527919929432],[140.2484681444483,35.530961931011056],[140.24635649212314,35.53526910755877],[140.24227608123917,35.538720430451214]],[[140.2606299916745,35.53194802326604],[140.2595503498842,35.532599216264614],[140.25605739115082,35.53041306834083],[140.25662896621628,35.52880369135864],[140.2551841514675,35.5268035985773],[140.25213575111835,35.52549190982303],[140.25292960537593,35.52511049678101]],[[140.22527172304171,35.524980258181294],[140.22651013568353,35.52792923218912],[140.22916160890387,35.52844088383086],[140.23078107158935,35.532794574164186],[140.23201948423116,35.533538794733985],[140.23111449037754,35.53643195219908],[140.22919336307416,35.53925068760719],[140.2270499565787,35.54117635833155],[140.22408094165533,35.54272061601388]],[[140.22408094165533,35.54272061601388],[140.22706583366386,35.54214384507229],[140.22822486087992,35.5435950751834],[140.23008247984268,35.54296248769907]],[[140.15438053783944,35.53907393522187],[140.15230063968457,35.54086006458939],[140.1480138266936,35.54346483658368],[140.14209167393204,35.547874343459746],[140.14574340351692,35.55111170293837],[140.1491728539097,35.550041885869284]],[[140.22408094165533,35.54272061601388],[140.2176189679986,35.54379043308297],[140.21753958257284,35.54569749829308],[140.21607889073888,35.54526957146545]],[[140.21607889073888,35.54526957146545],[140.21109348600126,35.54511142459437],[140.20985507335942,35.544292781967584]],[[140.20985507335942,35.544292781967584],[140.20504431655846,35.54333459798397]],[[140.20504431655846,35.54333459798397],[140.20286915589267,35.5444230205673],[140.19843944913538,35.544320690238955]],[[140.20504431655846,35.54333459798397],[140.2020117932945,35.541185661088676],[140.20153548073995,35.53967861443483],[140.194422546592,35.54344623106944]],[[140.21607889073888,35.54526957146545],[140.21496749477828,35.54272991877101],[140.21552319275858,35.54147404655947],[140.21471346141584,35.539483256535256],[140.21217312779157,35.542469441571576],[140.2110776089161,35.54244153330021],[140.20985507335942,35.544292781967584]],[[140.17214699612418,35.54539981006516],[140.17197234818752,35.54387415789707]],[[140.2714740408331,35.55161405182299],[140.27075957200128,35.552293153092926],[140.26701257990547,35.54661847124821],[140.2668379319688,35.54420905715348],[140.26478978798426,35.542283386429126]],[[140.25375521380383,35.56199592877169],[140.25578748070325,35.56424719599533],[140.25948684154358,35.55992141393337],[140.26632986524396,35.558265523165566],[140.26796520501458,35.5624145528422],[140.27102948244885,35.56549376544974],[140.26952115935944,35.56576354540629],[140.26926712599703,35.567345014117116],[140.270727817831,35.56781945473036],[140.270727817831,35.56927068484147],[140.27255368262342,35.568703216657],[140.27480822871496,35.56981024475458],[140.27557032880225,35.57117775005158],[140.2779201374047,35.571791732021666],[140.27941258340894,35.57100099766625],[140.283921675592,35.57152195206511],[140.28762103643237,35.570861456309416],[140.2884625219454,35.569745125454716],[140.28852603028602,35.566396132890624],[140.29206662027482,35.56441464562353],[140.29347968085332,35.56281457139846],[140.29428941219606,35.56035864351813],[140.29109811808058,35.555632842899904],[140.29117750350633,35.552069886921984],[140.29201898901937,35.548181334444784],[140.28719235513327,35.5490557936143]],[[140.28071450439137,35.55068377611074],[140.28165125241534,35.5499674638123],[140.2814289732232,35.54753014144621],[140.28049222519925,35.54633008577741],[140.28103204609442,35.541929881658476],[140.28633499253507,35.5385901918515],[140.28919286786237,35.53298993206376],[140.29241591614817,35.53138055508157],[140.2908599618033,35.52863624173043],[140.28881181781875,35.527780388075165],[140.28930400745844,35.52690592890565],[140.28828787400874,35.52304528469982]],[[140.15830217787192,35.56224710321399],[140.1600804114089,35.5644425538949],[140.1690827186899,35.56443325113778]]]}