{"type":"Topology","bbox":[140.01827577299966,35.596040339399146,140.1052949091141,35.66941459389058],"objects":{"town":{"type":"GeometryCollection","geometries":[{"type":"MultiPolygon","arcs":[[[139,-64,-99,-81,-50,-49,123,109,110,-26,4,5,6,41,42,43]]],"properties":{"name":"磯辺"}},{"type":"MultiPolygon","arcs":[[[-70,12,-69,33,-29,-41,84,31,121,10,127,-113]]],"properties":{"name":"稲毛海岸"}},{"type":"MultiPolygon","arcs":[[[16,14,111,-71,112,113]]],"properties":{"name":"幸町"}},{"type":"MultiPolygon","arcs":[[[18,19,20,39,40,28,29,-5,25,-111,-110,-124,-121]]],"properties":{"name":"真砂"}},{"type":"MultiPolygon","arcs":[[[35,91,92,93,37,-20,-19,120,-48,-95]]],"properties":{"name":"若葉"}},{"type":"MultiPolygon","arcs":[[[79,46,47,48,49,80,98,-63,99]]],"properties":{"name":"打瀬"}},{"type":"MultiPolygon","arcs":[[[51,134,56,83,82,53,60,100,101,102]]],"properties":{"name":"幕張西"}},{"type":"Polygon","arcs":[[61,62,63,64,65,66]],"properties":{"name":"美浜"}},{"type":"MultiPolygon","arcs":[[[68,-13,69,70,132,131,-107,-120,89,-6,-30,-34]]],"properties":{"name":"高洲"}},{"type":"MultiPolygon","arcs":[[[-97,73,-67,74,75,97,-92]]],"properties":{"name":"中瀬"}},{"type":"Polygon","arcs":[[-75,-66,77,78]],"properties":{"name":"豊砂"}},{"type":"MultiPolygon","arcs":[[[-42,-7,-90,119,106,-132,133,88,129,130,-43]]],"properties":{"name":"高浜"}},{"type":"MultiPolygon","arcs":[[[96,-36,94,-47,-80,-100,-62,-74]]],"properties":{"name":"ひび野"}},{"type":"MultiPolygon","arcs":[[[-76,-79,137,-102,-101,-61,-54,-83,124,-93,-98]]],"properties":{"name":"浜田"}},{"type":"Polygon","arcs":[[-15,138,-130,-89,-134,-133,-112]],"properties":{"name":"新港"}}]}},"arcs":[[[140.06277310702836,35.626170821341525],[140.05971842988305,35.628731838925034]],[[140.05971842988305,35.628731838925034],[140.06011005515808,35.62909140872902]],[[140.06011005515808,35.62909140872902],[140.06225964277888,35.63099933013794]],[[140.06225964277888,35.63099933013794],[140.0646442055647,35.633134734484074]],[[140.0646442055647,35.633134734484074],[140.06851694439567,35.63066177481174]],[[140.06851694439567,35.63066177481174],[140.066515304101,35.62909140872902]],[[140.066515304101,35.62909140872902],[140.06277310702836,35.626170821341525]],[[140.0497537423292,35.62795399404293],[140.05405291757077,35.63182854213489]],[[140.05405291757077,35.63182854213489],[140.05682040284773,35.629428964055215],[140.05815192878288,35.63059573137836],[140.06011005515808,35.62909140872902]],[[140.05971842988305,35.628731838925034],[140.05578477156484,35.62520218431853],[140.05300858350398,35.626038734474754],[140.0497537423292,35.62795399404293]],[[140.0827721044072,35.63400797543662],[140.08683630448377,35.63033889580408]],[[140.08683630448377,35.63033889580408],[140.0837120050673,35.6279613322022]],[[140.0837120050673,35.6279613322022],[140.07957818271964,35.63151300128649]],[[140.07957818271964,35.63151300128649],[140.0827721044072,35.63400797543662]],[[140.10130903409254,35.60844182855711],[140.09517357145023,35.61448113363227]],[[140.09517357145023,35.61448113363227],[140.0993160965818,35.61757783684212]],[[140.0993160965818,35.61757783684212],[140.10329326881944,35.61382803745767],[140.1052949091141,35.611178961962985],[140.10130903409254,35.60844182855711]],[[140.06339100468455,35.63979778309676],[140.0569161334705,35.644699673485825]],[[140.0569161334705,35.644699673485825],[140.05900480160406,35.64699651733579],[140.0598489716414,35.64897782033736]],[[140.0598489716414,35.64897782033736],[140.060510383217,35.650445452190375]],[[140.060510383217,35.650445452190375],[140.06116309200874,35.65057020089788],[140.06897819194182,35.64471434980435]],[[140.06897819194182,35.64471434980435],[140.06339100468455,35.63979778309676]],[[140.05405291757077,35.63182854213489],[140.0555672019676,35.6331714252804]],[[140.0555672019676,35.6331714252804],[140.05559331031927,35.633156748961866]],[[140.05559331031927,35.633156748961866],[140.0566637527377,35.63237156592051],[140.05848263457068,35.633817183295726],[140.06225964277888,35.63099933013794]],[[140.0646442055647,35.633134734484074],[140.06466161113246,35.6331494108026]],[[140.06466161113246,35.6331494108026],[140.06809921076893,35.63631215744585]],[[140.06809921076893,35.63631215744585],[140.07093631831702,35.638843822392296]],[[140.07093631831702,35.638843822392296],[140.07479165158023,35.63557100336008]],[[140.07479165158023,35.63557100336008],[140.06851694439567,35.63066177481174]],[[140.07479165158023,35.63557100336008],[140.07778540923834,35.638110006465794]],[[140.07778540923834,35.638110006465794],[140.0802831082147,35.636172732419816]],[[140.0802831082147,35.636172732419816],[140.07699345590436,35.63369243458822]],[[140.07699345590436,35.63369243458822],[140.07479165158023,35.63557100336008]],[[140.0598489716414,35.64897782033736],[140.05432270387135,35.649939119201086],[140.04928379199913,35.651458118168954]],[[140.04928379199913,35.651458118168954],[140.0452892141937,35.65321927639257]],[[140.0452892141937,35.65321927639257],[140.04904011405023,35.6552299320312]],[[140.04904011405023,35.6552299320312],[140.05748181442334,35.65024732189022],[140.05814322599898,35.652081861706485],[140.060510383217,35.650445452190375]],[[140.06809921076893,35.63631215744585],[140.06339100468455,35.63979778309676]],[[140.06897819194182,35.64471434980435],[140.0736341813229,35.64126541494977]],[[140.0736341813229,35.64126541494977],[140.07093631831702,35.638843822392296]],[[140.06277310702836,35.626170821341525],[140.0594921575019,35.623587789280215]],[[140.0594921575019,35.623587789280215],[140.05805619816007,35.622479727231195]],[[140.05805619816007,35.622479727231195],[140.05689002511883,35.62346304057271],[140.0565767248988,35.62149641388967],[140.05497541266308,35.62212749558647],[140.04890086950797,35.627278883390545]],[[140.04890086950797,35.627278883390545],[140.0497537423292,35.62795399404293]],[[140.04979725624864,35.63746424845046],[140.04799577998344,35.638638353932876],[140.0461507897988,35.64299722053633],[140.04410563558469,35.64384110885181]],[[140.04410563558469,35.64384110885181],[140.04561121719763,35.64618198165737]],[[140.04561121719763,35.64618198165737],[140.05347853383404,35.641199371516386]],[[140.05347853383404,35.641199371516386],[140.05205998006,35.63975375414117]],[[140.05205998006,35.63975375414117],[140.04979725624864,35.63746424845046]],[[140.0339842979208,35.66391097444178],[140.0313473544022,35.66547400236524]],[[140.0313473544022,35.66547400236524],[140.03481106239033,35.66941459389058],[140.03738708642172,35.66786624228565]],[[140.03738708642172,35.66786624228565],[140.0339842979208,35.66391097444178]],[[140.03940613228417,35.66080693307265],[140.03937132114862,35.660821609391185]],[[140.03937132114862,35.660821609391185],[140.03723043631172,35.66203240566992]],[[140.03723043631172,35.66203240566992],[140.040763766571,35.66554004579862]],[[140.040763766571,35.66554004579862],[140.0429046514079,35.66335327433763]],[[140.0429046514079,35.66335327433763],[140.03940613228417,35.66080693307265]],[[140.03341861696796,35.660894990983834],[140.034915495797,35.6633385980191]],[[140.034915495797,35.6633385980191],[140.03723043631172,35.66203240566992]],[[140.03937132114862,35.660821609391185],[140.03341861696796,35.660894990983834]],[[140.03548117674987,35.64412729706315],[140.03819644532348,35.64197721639848]],[[140.03819644532348,35.64197721639848],[140.0393800239325,35.639995913396916],[140.04071154986764,35.63538754937845],[140.04446244972416,35.63209271586843]],[[140.04446244972416,35.63209271586843],[140.04439282745304,35.63201933427578]],[[140.04439282745304,35.63201933427578],[140.0374218975573,35.63644424431262],[140.0368039999011,35.63749360108753],[140.02864078861245,35.644097944426086],[140.0287713303708,35.646226010612956]],[[140.0287713303708,35.646226010612956],[140.03072075396213,35.64806788858849]],[[140.03072075396213,35.64806788858849],[140.03548117674987,35.64412729706315]],[[140.0720850857905,35.62987659177038],[140.07699345590436,35.63369243458822]],[[140.07699345590436,35.63369243458822],[140.07957818271964,35.63151300128649]],[[140.0837120050673,35.6279613322022],[140.0856875370103,35.62631024636756]],[[140.0856875370103,35.62631024636756],[140.0845126611852,35.625099450088825]],[[140.0845126611852,35.625099450088825],[140.08010905253693,35.62832824016545]],[[140.08010905253693,35.62832824016545],[140.0767758863071,35.629443640373744],[140.0720850857905,35.62987659177038]],[[140.0408159832743,35.649029187452214],[140.03548117674987,35.64412729706315]],[[140.03072075396213,35.64806788858849],[140.0351939848815,35.65239006439562]],[[140.0351939848815,35.65239006439562],[140.03533322942374,35.652514813103124]],[[140.03533322942374,35.652514813103124],[140.0408159832743,35.649029187452214]],[[140.0287713303708,35.646226010612956],[140.0276660768168,35.64585176449044],[140.02109547497997,35.650313365323605],[140.01973784069315,35.65265423812916],[140.02549908362823,35.65900908405271]],[[140.02549908362823,35.65900908405271],[140.0351939848815,35.65239006439562]],[[140.04157312547275,35.64294585342147],[140.04410563558469,35.64384110885181]],[[140.04979725624864,35.63746424845046],[140.04721252943335,35.634829849274304]],[[140.04721252943335,35.634829849274304],[140.04353125184795,35.63819806437697],[140.04157312547275,35.64294585342147]],[[140.04233897045503,35.65918519987507],[140.03940613228417,35.66080693307265]],[[140.0429046514079,35.66335327433763],[140.04556770327818,35.661533410839894],[140.04233897045503,35.65918519987507]],[[140.0736341813229,35.64126541494977],[140.07778540923834,35.638110006465794]],[[140.07047507077087,35.61167795679301],[140.06903911142905,35.61539106538113],[140.06645438461376,35.61759985131992]],[[140.06645438461376,35.61759985131992],[140.06977884805968,35.62023425049608]],[[140.06977884805968,35.62023425049608],[140.07491349055468,35.61587538389263]],[[140.07491349055468,35.61587538389263],[140.07047507077087,35.61167795679301]],[[140.06868229728957,35.627227516275696],[140.066515304101,35.62909140872902]],[[140.0720850857905,35.62987659177038],[140.06868229728957,35.627227516275696]],[[140.0452892141937,35.65321927639257],[140.03958889074585,35.65652144806185]],[[140.03958889074585,35.65652144806185],[140.0422867537517,35.65914850907875]],[[140.0422867537517,35.65914850907875],[140.04904011405023,35.6552299320312]],[[140.04928379199913,35.651458118168954],[140.04576786730763,35.64791378724392],[140.04561121719763,35.64618198165737]],[[140.04561121719763,35.64618198165737],[140.0408159832743,35.649029187452214]],[[140.0408159832743,35.649029187452214],[140.0452892141937,35.65321927639257]],[[140.03533322942374,35.652514813103124],[140.03958889074585,35.65652144806185]],[[140.04721252943335,35.634829849274304],[140.04446244972416,35.63209271586843]],[[140.03819644532348,35.64197721639848],[140.04157312547275,35.64294585342147]],[[140.03341861696796,35.660894990983834],[140.03310531674794,35.65914850907875]],[[140.03310531674794,35.65914850907875],[140.02702207080895,35.66068218436514]],[[140.02702207080895,35.66068218436514],[140.0313473544022,35.66547400236524]],[[140.0339842979208,35.66391097444178],[140.034915495797,35.6633385980191]],[[140.06977884805968,35.62024892681461],[140.06501842527194,35.62429225256967]],[[140.06501842527194,35.62429225256967],[140.06869970285734,35.627220178116424]],[[140.06869970285734,35.627220178116424],[140.07350363956454,35.62312548524652]],[[140.07350363956454,35.62312548524652],[140.06977884805968,35.62024892681461]],[[140.05559331031927,35.633156748961866],[140.05629823581432,35.63561503231567],[140.05833468724455,35.637640364272826]],[[140.05833468724455,35.637640364272826],[140.05979675493805,35.636583669338656]],[[140.05979675493805,35.636583669338656],[140.06466161113246,35.6331494108026]],[[140.09517357145023,35.61448113363227],[140.0845126611852,35.625099450088825]],[[140.0856875370103,35.62631024636756],[140.08828966939336,35.62884924947328]],[[140.08828966939336,35.62884924947328],[140.0993160965818,35.61757783684212]],[[140.06977884805968,35.62024892681461],[140.06977884805968,35.62023425049608]],[[140.06645438461376,35.61759985131992],[140.06166785347438,35.62171655866762]],[[140.06166785347438,35.62171655866762],[140.06500101970417,35.62429959072893]],[[140.06500101970417,35.62429959072893],[140.06501842527194,35.62429225256967]],[[140.06500101970417,35.62429959072893],[140.06277310702836,35.626170821341525]],[[140.06868229728957,35.627227516275696],[140.06869970285734,35.627220178116424]],[[140.0569161334705,35.644699673485825],[140.05347853383404,35.641199371516386]],[[140.0802831082147,35.636172732419816],[140.0827721044072,35.63400797543662]],[[140.0555672019676,35.6331714252804],[140.05318263918178,35.634983950618874],[140.05291285288118,35.63651762590527],[140.05440102892635,35.6380659775102],[140.05205998006,35.63975375414117]],[[140.05347853383404,35.641199371516386],[140.05833468724455,35.637640364272826]],[[140.04233897045503,35.65918519987507],[140.0422867537517,35.65914850907875]],[[140.03958889074585,35.65652144806185],[140.03310531674794,35.65914850907875]],[[140.06166785347438,35.62171655866762],[140.0594921575019,35.623587789280215]],[[140.08683630448377,35.63033889580408],[140.08828966939336,35.62884924947328]],[[140.08010905253693,35.62832824016545],[140.07350363956454,35.62312548524652]],[[140.07047507077087,35.61167795679301],[140.06962219794966,35.61078270136267]],[[140.06962219794966,35.61078270136267],[140.0671941212444,35.61178069102272],[140.06065833054313,35.61740905917903],[140.05776900629172,35.61932431874721],[140.0570118640933,35.62128360727099],[140.05805619816007,35.622479727231195]],[[140.07825535956837,35.61909683581],[140.07350363956454,35.62312548524652]],[[140.0845126611852,35.625099450088825],[140.07825535956837,35.61909683581]],[[140.07825535956837,35.61909683581],[140.07491349055468,35.61587538389263]],[[140.03738708642172,35.66786624228565],[140.040763766571,35.66554004579862]],[[140.05405291757077,35.63182854213489],[140.05095472650598,35.63414006230339],[140.04861367763962,35.63379516881793],[140.04721252943335,35.634829849274304]],[[140.06339100468455,35.63979778309676],[140.05979675493805,35.636583669338656]],[[140.02549908362823,35.65900908405271],[140.02702207080895,35.66068218436514]],[[140.10130903409254,35.60844182855711],[140.09411183181567,35.60368670135335],[140.09278030588052,35.60381878822012],[140.08788934133443,35.60908758657244],[140.08826356104169,35.60822902193843],[140.0831376213306,35.61326299919426],[140.07792465378057,35.610408455240155],[140.08660132931874,35.601896190492674],[140.08391216909678,35.59680350796271],[140.06962219794966,35.61078270136267]],[[140.04890086950797,35.627278883390545],[140.04439282745304,35.630008678637154],[140.04439282745304,35.63201933427578]]]}