{"type":"Topology","bbox":[139.92308081265764,35.442368556155785,140.17519914874438,35.64622369726941],"objects":{"town":{"type":"GeometryCollection","geometries":[{"type":"Polygon","arcs":[[0,1,2,3,4,5,6]],"properties":{"name":"青葉町"}},{"type":"Polygon","arcs":[[7,8,9,10,11]],"properties":{"name":"旭町"}},{"type":"MultiPolygon","arcs":[[[15,30,31,32,29,12,13,33,34]]],"properties":{"name":"稲荷町"}},{"type":"Polygon","arcs":[[17,18,-19,19,20,21,22,23]],"properties":{"name":"赤井町"}},{"type":"Polygon","arcs":[[24,25,26,27,28]],"properties":{"name":"市場町"}},{"type":"MultiPolygon","arcs":[[[45,42,43,-25,-29,39,40,41,35,36,314,-240]]],"properties":{"name":"亥鼻"}},{"type":"Polygon","arcs":[[46,47,48,49]],"properties":{"name":"栄町"}},{"type":"Polygon","arcs":[[50,51,52,53,54,55,56]],"properties":{"name":"神明町"}},{"type":"Polygon","arcs":[[57,58,59]],"properties":{"name":"川戸町"}},{"type":"MultiPolygon","arcs":[[[-91,-90,62,63,-34,-14,60,155,156,152,-121,153,154]]],"properties":{"name":"寒川町"}},{"type":"MultiPolygon","arcs":[[[-105,-173,-172,-265,268,256,64,65,66,132,133,134,-106]]],"properties":{"name":"蘇我"}},{"type":"MultiPolygon","arcs":[[[146,147,148,69,70,367,80,81,-311,324,325,-144]]],"properties":{"name":"椿森"}},{"type":"MultiPolygon","arcs":[[[75,-181,248,-179,249,246,247,73,138,139,140]]],"properties":{"name":"新千葉"}},{"type":"MultiPolygon","arcs":[[[-125,-159,174,85,82,83,235,236,-126]]],"properties":{"name":"白旗"}},{"type":"MultiPolygon","arcs":[[[-168,87,88,-53,-52,-162]]],"properties":{"name":"新宿"}},{"type":"MultiPolygon","arcs":[[[92,184,136,-230,250,-31,-16,-35,-64,-63,89,90,-155,-102,-191,221]]],"properties":{"name":"末広"}},{"type":"MultiPolygon","arcs":[[[299,284,94,-33,95,96,285,300,301,-66]]],"properties":{"name":"今井"}},{"type":"MultiPolygon","arcs":[[[-55,111,112,-26,-44,-43,100,101,98,113]]],"properties":{"name":"長洲"}},{"type":"Polygon","arcs":[[102,103,104,105,106,107,-19,-18,108,109],[110]],"properties":{"name":"生実町"}},{"type":"MultiPolygon","arcs":[[[-212,116,-49,114,218,219,220]]],"properties":{"name":"院内"}},{"type":"Polygon","arcs":[[117,118,-57,119,120,121]],"properties":{"name":"出洲港"}},{"type":"Polygon","arcs":[[122,123,124,125,126,127,128,129,-21]],"properties":{"name":"大森町"}},{"type":"Polygon","arcs":[[141,142,143,144,145,-115,-48]],"properties":{"name":"要町"}},{"type":"Polygon","arcs":[[-107,-135,157,158,-124,159]],"properties":{"name":"今井町"}},{"type":"Polygon","arcs":[[160,161,-51,-119,162]],"properties":{"name":"問屋町"}},{"type":"Polygon","arcs":[[163,164,165,166,-88,167]],"properties":{"name":"新田町"}},{"type":"Polygon","arcs":[[168,169,170,171,172,-104,173]],"properties":{"name":"塩田町"}},{"type":"MultiPolygon","arcs":[[[-167,320,-250,178,179,-142,-47,176,-211,321,322,-303]]],"properties":{"name":"富士見"}},{"type":"MultiPolygon","arcs":[[[-149,-148,-147,-143,-180,-249,180,-76,181,304,305,308,309,-70]]],"properties":{"name":"弁天"}},{"type":"MultiPolygon","arcs":[[[-58,189,-23,185,-129,186,187,336,337,-59]]],"properties":{"name":"仁戸名町"}},{"type":"MultiPolygon","arcs":[[[-232,-231,192,190,-101,-46,239,240,-2,-1]]],"properties":{"name":"葛城"}},{"type":"MultiPolygon","arcs":[[[-165,214,215,194,372,330,331,-255,-223,196,-139,-74,-248,-380,217]]],"properties":{"name":"登戸"}},{"type":"Polygon","arcs":[[-9,198,199,200,201,202]],"properties":{"name":"東本町"}},{"type":"MultiPolygon","arcs":[[[-305,-182,-141,-225,203,204,205,206,346,-309,-306]]],"properties":{"name":"松波"}},{"type":"MultiPolygon","arcs":[[[-113,281,-304,-323,-322,210,-177,-50,-117,211,212,343,-318,-317,283,-27]]],"properties":{"name":"中央"}},{"type":"Polygon","arcs":[[-197,222,223,-204,224,-140]],"properties":{"name":"汐見丘町"}},{"type":"MultiPolygon","arcs":[[[345,227,228,310,-82,311]]],"properties":{"name":"東千葉"}},{"type":"Polygon","arcs":[[229,-137,-185,-93,-222,-193,230,231,-7,232,233,234]],"properties":{"name":"千葉寺町"}},{"type":"Polygon","arcs":[[-134,237,238,-86,-175,-158]],"properties":{"name":"鵜の森町"}},{"type":"Polygon","arcs":[[-160,-123,-20,18,-108]],"properties":{"name":"大巌寺町"}},{"type":"MultiPolygon","arcs":[[[338,351,-271,-11,-290,242,243,341]]],"properties":{"name":"都町"}},{"type":"Polygon","arcs":[[251,-41,252,253,-199,-8]],"properties":{"name":"亀井町"}},{"type":"MultiPolygon","arcs":[[[-205,-224,254,-332,370,-206]]],"properties":{"name":"春日"}},{"type":"Polygon","arcs":[[-171,258,259,260,261,-261,262,263,264]],"properties":{"name":"蘇我町"}},{"type":"Polygon","arcs":[[265,266,267,-215,-164,-161]],"properties":{"name":"千葉港"}},{"type":"Polygon","arcs":[[-120,-56,-114,-99,-154]],"properties":{"name":"港町"}},{"type":"Polygon","arcs":[[-252,-12,270,271,-42]],"properties":{"name":"亀岡町"}},{"type":"MultiPolygon","arcs":[[[-328,273,274,-243,275,-289,-202,374]]],"properties":{"name":"道場南"}},{"type":"MultiPolygon","arcs":[[[326,277,278,279,280,-274,327,-220,328]]],"properties":{"name":"道場北"}},{"type":"Polygon","arcs":[[-170,287,-259]],"properties":{"name":"新浜町"}},{"type":"Polygon","arcs":[[-10,-203,288,-276,289]],"properties":{"name":"鶴沢町"}},{"type":"MultiPolygon","arcs":[[[294,295,296,297,298,290,291,292,-267,-266,-163,-118,319]]],"properties":{"name":"中央港"}},{"type":"Polygon","arcs":[[-112,-54,-89,302,303,-282]],"properties":{"name":"本千葉町"}},{"type":"MultiPolygon","arcs":[[[-28,-284,316,317,-344,-213,-221,-375,-201,-200,-254,-253,-40]]],"properties":{"name":"本町"}},{"type":"Polygon","arcs":[[-22,-130,-186]],"properties":{"name":"花輪町"}},{"type":"Polygon","arcs":[[-61,-13,-30,-95,-285,-300,-65,-257,-269,-264,333,334,335,-156]],"properties":{"name":"川崎町"}},{"type":"MultiPolygon","arcs":[[[348,-235,349,363,-236,-84,-357]]],"properties":{"name":"宮崎"}},{"type":"MultiPolygon","arcs":[[[-301,-286,-97,-96,-32,-251,-349,356,-83,-239,-363]]],"properties":{"name":"南町"}},{"type":"Polygon","arcs":[[352,-174,-103,353,354,355]],"properties":{"name":"浜野町"}},{"type":"MultiPolygon","arcs":[[[-219,-146,-145,-326,-325,-229,364,361,-278,-327,-329]]],"properties":{"name":"祐光"}},{"type":"Polygon","arcs":[[-67,-302,362,-238,-133]],"properties":{"name":"若草"}},{"type":"Polygon","arcs":[[368,-356,369]],"properties":{"name":"村田町"}},{"type":"Polygon","arcs":[[-350,-234,373,-127,-237,-364]],"properties":{"name":"宮崎町"}},{"type":"Polygon","arcs":[[-4,375,-36,-272,-352,-339,376,377]],"properties":{"name":"矢作町"}},{"type":"Polygon","arcs":[[-280,378]],"properties":{"name":"道場北町"}},{"type":"Polygon","arcs":[[-218,379,-247,-321,-166]],"properties":{"name":"新町"}},{"type":"Polygon","arcs":[[-128,-374,-233,-6,380,-187]],"properties":{"name":"松ケ丘町"}},{"type":"Polygon","arcs":[[-381,-5,-378,381,-337,-188]],"properties":{"name":"星久喜町"}},{"type":"Polygon","arcs":[[-354,-110,382]],"properties":{"name":"南生実町"}},{"type":"Polygon","arcs":[[-292,-291,-299,-298,-297,-296,-295,-320,-122,-153,-157,-336,-335,-334,-263,260,-262,-261,-260,-288,-169,-353,-369,383]],"properties":{"name":""}}]}},"arcs":[[[140.13425103615265,35.59635574295759],[140.13515875293422,35.59682465667352],[140.13558739696998,35.59988278960352],[140.1341753930875,35.60049441618952]],[[140.1341753930875,35.60049441618952],[140.13407453566734,35.60145263117425]],[[140.13407453566734,35.60145263117425],[140.13427625050767,35.60206425776025]],[[140.13427625050767,35.60206425776025],[140.13904176361103,35.60237007105325],[140.14143712734023,35.60073906682392],[140.14163884218058,35.598639148878654],[140.14355513316394,35.598312948032785]],[[140.14355513316394,35.598312948032785],[140.1471355715802,35.59452086319959],[140.14607656866835,35.59335877268619]],[[140.14607656866835,35.59335877268619],[140.1433029896135,35.592461720360056]],[[140.1433029896135,35.592461720360056],[140.13836097602484,35.59256365812439],[140.1349822524489,35.593766523743525],[140.13563782568008,35.59507132712699],[140.13425103615265,35.59635574295759]],[[140.13188088677848,35.60679417002531],[140.1316539575831,35.60866982488904]],[[140.1316539575831,35.60866982488904],[140.1316539575831,35.60903680084064]],[[140.1316539575831,35.60903680084064],[140.13652032810663,35.60936300168651]],[[140.13652032810663,35.60936300168651],[140.1370246152075,35.607140758424045]],[[140.1370246152075,35.607140758424045],[140.13188088677848,35.60679417002531]],[[140.12411486542487,35.58663088024019],[140.1222490031516,35.59056567794346]],[[140.1222490031516,35.59056567794346],[140.1227028615424,35.590789941024994]],[[140.1227028615424,35.590789941024994],[140.1273170885155,35.58891428616126]],[[140.1273170885155,35.58891428616126],[140.12792223303654,35.58789490851793]],[[140.12792223303654,35.58789490851793],[140.12411486542487,35.58663088024019]],[[140.1693242040191,35.56742580543981],[140.16518904979185,35.568995647010546],[140.15694395569238,35.56917913498634],[140.15467466373843,35.568587895953215],[140.15114465403224,35.568628671058946],[140.1478163591664,35.56928107275068]],[[140.1478163591664,35.56928107275068],[140.14779114481135,35.56928107275068]],[[140.1478163591664,35.56928107275068],[140.15096815354693,35.57244114344501],[140.1499847937002,35.57419447299154]],[[140.1499847937002,35.57419447299154],[140.15187587032852,35.575173075529136]],[[140.15187587032852,35.575173075529136],[140.16165904008565,35.573868272145674],[140.1652142641469,35.575866252326605]],[[140.1652142641469,35.575866252326605],[140.16879470256316,35.576274003383936]],[[140.16879470256316,35.576274003383936],[140.17214821178405,35.57099362719148],[140.17363585873164,35.57005579975961],[140.17164392468317,35.567731618732815],[140.1693242040191,35.56742580543981]],[[140.12784658997143,35.60430688857558],[140.12741794593566,35.60253317147618],[140.1254512262422,35.60273704700485]],[[140.1254512262422,35.60273704700485],[140.12171950169568,35.60446998899852]],[[140.12171950169568,35.60446998899852],[140.12517386833673,35.60622331854505]],[[140.12517386833673,35.60622331854505],[140.12575379850276,35.606366031415114]],[[140.12575379850276,35.606366031415114],[140.12603115640823,35.60430688857558],[140.12784658997143,35.60430688857558]],[[140.12494693914132,35.58475522537646],[140.12411486542487,35.58663088024019]],[[140.12792223303654,35.58789490851793],[140.1289812359484,35.585917315889866]],[[140.1289812359484,35.585917315889866],[140.1288551641732,35.58587654078413]],[[140.1288551641732,35.58587654078413],[140.12494693914132,35.58475522537646]],[[140.1227028615424,35.590789941024994],[140.1227028615424,35.591646218245394],[140.12565294108256,35.59219668217279]],[[140.12565294108256,35.59219668217279],[140.1273170885155,35.58891428616126]],[[140.13694897214236,35.60681455757818],[140.137881903279,35.605061228031644],[140.13614211278096,35.60279820966345],[140.13415017873245,35.60212542041885]],[[140.13415017873245,35.60212542041885],[140.1337719634068,35.602227358183185]],[[140.1337719634068,35.602227358183185],[140.12946030869423,35.60424572591698]],[[140.12946030869423,35.60424572591698],[140.12784658997143,35.60430688857558]],[[140.12575379850276,35.606366031415114],[140.1278970186815,35.606406806520845]],[[140.1278970186815,35.606406806520845],[140.1306958120914,35.60622331854505]],[[140.1306958120914,35.60622331854505],[140.13407453566734,35.60583595504058],[140.13694897214236,35.60681455757818]],[[140.12615722818344,35.600637129059585],[140.12565294108256,35.60208464531312]],[[140.12565294108256,35.60208464531312],[140.1254512262422,35.60273704700485]],[[140.12946030869423,35.60424572591698],[140.12948552304928,35.601534181385716]],[[140.12948552304928,35.601534181385716],[140.12615722818344,35.600637129059585]],[[140.11992928248753,35.61095323081011],[140.11866856473534,35.61399097618724]],[[140.11866856473534,35.61399097618724],[140.12088742797923,35.61521422935924],[140.12245071799197,35.61427640192737]],[[140.12245071799197,35.61427640192737],[140.12234986057177,35.61119788144451]],[[140.12234986057177,35.61119788144451],[140.11992928248753,35.61095323081011]],[[140.11513855502915,35.600718679271054],[140.11299533485038,35.60292053498065]],[[140.11299533485038,35.60292053498065],[140.11675227375198,35.60475541473865]],[[140.11675227375198,35.60475541473865],[140.11866856473534,35.60544859153612]],[[140.11866856473534,35.60544859153612],[140.11980321071232,35.60369526198958]],[[140.11980321071232,35.60369526198958],[140.118466849895,35.602390458606116]],[[140.118466849895,35.602390458606116],[140.11745827569322,35.59808868495125]],[[140.11745827569322,35.59808868495125],[140.11513855502915,35.600718679271054]],[[140.1696267762796,35.57657981667694],[140.17010584902545,35.57823120845914],[140.167559199166,35.578068108036206],[140.1653907646322,35.58055538948594],[140.16324754445344,35.5817990302108],[140.1640796181699,35.58389894815607],[140.16365097413416,35.586528942475866]],[[140.16365097413416,35.586528942475866],[140.16352490235892,35.58813955915233],[140.16486126317628,35.590993816553656],[140.16491169188635,35.593073346946056],[140.16622283834866,35.592951021628856]],[[140.16622283834866,35.592951021628856],[140.16758441352104,35.59117730452946],[140.16821477239714,35.58736483214339],[140.17519914874438,35.58092236543754],[140.1722490692042,35.57908748567954],[140.17179521081343,35.577456481450206],[140.1696267762796,35.57657981667694]],[[140.1222490031516,35.59056567794346],[140.11982842506737,35.59301218428746]],[[140.11982842506737,35.59301218428746],[140.12055964136366,35.59386846150786],[140.12444265204044,35.59464318851679]],[[140.12444265204044,35.59464318851679],[140.12517386833673,35.593154897157525]],[[140.12517386833673,35.593154897157525],[140.12565294108256,35.59219668217279]],[[140.12857780626769,35.572808119396605],[140.12804830481176,35.575295400846336]],[[140.12804830481176,35.575295400846336],[140.13339374808115,35.5766613668884]],[[140.13339374808115,35.5766613668884],[140.13397367824714,35.57360323395841]],[[140.13397367824714,35.57360323395841],[140.12857780626769,35.572808119396605]],[[140.11806342021427,35.62002569183577],[140.11771041924365,35.62020917981157]],[[140.11771041924365,35.62020917981157],[140.11639927278136,35.62298188700143]],[[140.11639927278136,35.62298188700143],[140.11914763748118,35.62449056591356],[140.1205848557187,35.624551728572165]],[[140.1205848557187,35.624551728572165],[140.1199040681325,35.62194212180523]],[[140.1199040681325,35.62194212180523],[140.11806342021427,35.62002569183577]],[[140.11135640177253,35.61191144579484],[140.10722124754528,35.61278811056811]],[[140.10722124754528,35.61278811056811],[140.10976789740474,35.61570353062804]],[[140.10976789740474,35.61570353062804],[140.11183547451836,35.61443950235031]],[[140.11183547451836,35.61443950235031],[140.11135640177253,35.61191144579484]],[[140.12454350946064,35.6199441416243],[140.12217336008646,35.61935290259117]],[[140.12217336008646,35.61935290259117],[140.12237507492682,35.62094313171477]],[[140.12237507492682,35.62094313171477],[140.12338364912858,35.62216638488677],[140.123610578324,35.62444979080783]],[[140.123610578324,35.62444979080783],[140.1239131505845,35.624755604100834]],[[140.1239131505845,35.624755604100834],[140.12479565301106,35.62261491104983],[140.12454350946064,35.6199441416243]],[[140.1383357616698,35.575580826586474],[140.1376045453735,35.5761720656196],[140.13634382762132,35.5803311264044]],[[140.13634382762132,35.5803311264044],[140.13866354828536,35.5808204276732]],[[140.13866354828536,35.5808204276732],[140.139596479422,35.5767836922056]],[[140.139596479422,35.5767836922056],[140.1383357616698,35.575580826586474]],[[140.11675227375198,35.60475541473865],[140.112768405655,35.607303858846976]],[[140.112768405655,35.607303858846976],[140.1168783455272,35.608975638182045]],[[140.1168783455272,35.608975638182045],[140.11866856473534,35.60544859153612]],[[140.12444265204044,35.59464318851679],[140.123610578324,35.59625380519326]],[[140.123610578324,35.59625380519326],[140.123610578324,35.59627419274612]],[[140.123610578324,35.59627419274612],[140.1274935890008,35.597905196975454]],[[140.1274935890008,35.597905196975454],[140.12860302062273,35.59566256616012]],[[140.12860302062273,35.59566256616012],[140.12444265204044,35.59464318851679]],[[140.1265354435091,35.580779652567465],[140.12494693914132,35.58475522537646]],[[140.1288551641732,35.58587654078413],[140.1306958120914,35.5830834460414]],[[140.1306958120914,35.5830834460414],[140.1307966695116,35.582899958065596]],[[140.1307966695116,35.582899958065596],[140.13029238241072,35.581635929787865],[140.1265354435091,35.580779652567465]],[[140.12247593234702,35.598516823561454],[140.1212656433049,35.60094294235258]],[[140.1212656433049,35.60094294235258],[140.12565294108256,35.60208464531312]],[[140.12615722818344,35.600637129059585],[140.1272162310953,35.59859837377292]],[[140.1272162310953,35.59859837377292],[140.12552686930735,35.599373100781854],[140.12247593234702,35.598516823561454]],[[140.14161362782554,35.55859799504855],[140.1413614842751,35.560004736196355],[140.1393695502266,35.55953582248042],[140.1372515444029,35.56051442501802]],[[140.1372515444029,35.56051442501802],[140.13669682859194,35.56510162441302]],[[140.13669682859194,35.56510162441302],[140.1376045453735,35.56536666260028],[140.13750368795334,35.568220920001615],[140.140176409588,35.56852673329461]],[[140.140176409588,35.56852673329461],[140.13992426603758,35.57062665123988]],[[140.13992426603758,35.57062665123988],[140.1409580545944,35.57211494259914],[140.1422187723466,35.57158486622461]],[[140.1422187723466,35.57158486622461],[140.14471499349597,35.56909758477488],[140.14779114481135,35.56928107275068]],[[140.1693242040191,35.56742580543981],[140.16922334659893,35.564428835168414],[140.16007053571786,35.564428835168414],[140.15817945908955,35.562736668280486]],[[140.15817945908955,35.562736668280486],[140.1545990206733,35.56255318030468],[140.1530105163055,35.56035132459508],[140.15018650854057,35.56014744906642],[140.15109422532214,35.55851644483709],[140.14839628933242,35.556090326045954],[140.145874853828,35.558292181755554],[140.14161362782554,35.55859799504855]],[[140.15664138343186,35.563817208582414],[140.15664138343186,35.563817208582414]],[[140.11980321071232,35.60369526198958],[140.12038314087835,35.60404185038831]],[[140.12038314087835,35.60404185038831],[140.12171950169568,35.60446998899852]],[[140.1212656433049,35.60094294235258],[140.118466849895,35.602390458606116]],[[140.12245071799197,35.61427640192737],[140.12393836493956,35.614500665008904]],[[140.12393836493956,35.614500665008904],[140.12434179462028,35.61150369473751]],[[140.12434179462028,35.61150369473751],[140.12234986057177,35.61119788144451]],[[140.1126423338798,35.594378150329526],[140.11049911370102,35.59604992966459],[140.11218847548898,35.598149847609854]],[[140.11218847548898,35.598149847609854],[140.11513855502915,35.600718679271054]],[[140.11745827569322,35.59808868495125],[140.11743306133818,35.59764015878819]],[[140.11743306133818,35.59764015878819],[140.11730698956296,35.59668194380345]],[[140.11730698956296,35.59668194380345],[140.11526462680436,35.59690620688499],[140.1126423338798,35.594378150329526]],[[140.1499847937002,35.57419447299154],[140.14395856284466,35.57649826646547],[140.1426726307374,35.57778268229607]],[[140.1426726307374,35.57778268229607],[140.142445701542,35.57817004580054]],[[140.142445701542,35.57817004580054],[140.14151277040537,35.57870012217507]],[[140.14151277040537,35.57870012217507],[140.14400899155473,35.580698102356]],[[140.14400899155473,35.580698102356],[140.14756421561597,35.5822883314796],[140.14990915063507,35.5857134403612]],[[140.14990915063507,35.5857134403612],[140.1522540856542,35.584490187189196]],[[140.1522540856542,35.584490187189196],[140.15427123405772,35.58365429752167],[140.1545485919632,35.5823494941382]],[[140.1545485919632,35.5823494941382],[140.1522036569441,35.5797194998184],[140.15137158322764,35.5775176441088],[140.15187587032852,35.575173075529136]],[[140.140176409588,35.56852673329461],[140.1342258217976,35.57003541220674]],[[140.1342258217976,35.57003541220674],[140.13397367824714,35.57360323395841]],[[140.13397367824714,35.57360323395841],[140.1374784735983,35.57474493691894]],[[140.1374784735983,35.57474493691894],[140.1381088324744,35.57425563565014]],[[140.1381088324744,35.57425563565014],[140.13992426603758,35.57062665123988]],[[140.12517386833673,35.593154897157525],[140.1309731699969,35.590912266342194]],[[140.1309731699969,35.590912266342194],[140.13185567242343,35.589240487007125]],[[140.13185567242343,35.589240487007125],[140.12792223303654,35.58789490851793]],[[140.10722124754528,35.61278811056811],[140.10480066946104,35.61488802851337]],[[140.10480066946104,35.61488802851337],[140.10850717965252,35.6170083340115]],[[140.10850717965252,35.6170083340115],[140.10976789740474,35.61570353062804]],[[140.11866856473534,35.61399097618724],[140.11781127666384,35.61448027745604]],[[140.11781127666384,35.61448027745604],[140.118466849895,35.61578508083951]],[[140.118466849895,35.61578508083951],[140.12250114670206,35.6172529846459]],[[140.12250114670206,35.6172529846459],[140.12350972090383,35.615642367969436]],[[140.12350972090383,35.615642367969436],[140.12393836493956,35.614500665008904]],[[140.118466849895,35.61578508083951],[140.1184164211849,35.616580195401305]],[[140.1184164211849,35.616580195401305],[140.11760956182349,35.62014801715297]],[[140.11760956182349,35.62014801715297],[140.11771041924365,35.62020917981157]],[[140.11806342021427,35.62002569183577],[140.12113957152965,35.618415075159305]],[[140.12113957152965,35.618415075159305],[140.12250114670206,35.6172529846459]],[[140.123610578324,35.59625380519326],[140.12101349975444,35.59619264253465],[140.11897113699587,35.59480628893972]],[[140.11897113699587,35.59480628893972],[140.11730698956296,35.59668194380345]],[[140.11743306133818,35.59764015878819],[140.11977799635727,35.59847604845572],[140.12247593234702,35.598516823561454]],[[140.12247593234702,35.598516823561454],[140.123610578324,35.59627419274612]],[[140.11982842506737,35.59301218428746],[140.1187189934454,35.592787921205925],[140.11725656085287,35.59480628893972]],[[140.11725656085287,35.59480628893972],[140.11897113699587,35.59480628893972]],[[140.1381088324744,35.57425563565014],[140.13997469474768,35.57286928205521],[140.14153798476042,35.5760497403024]],[[140.14153798476042,35.5760497403024],[140.142445701542,35.57817004580054]],[[140.1426726307374,35.57778268229607],[140.14214312928146,35.575907027432336],[140.14335341832358,35.57225765546921],[140.1422187723466,35.57158486622461]],[[140.10684303221961,35.60328751093225],[140.11047389934598,35.60561169195905]],[[140.11047389934598,35.60561169195905],[140.11299533485038,35.60292053498065]],[[140.11218847548898,35.598149847609854],[140.10684303221961,35.60328751093225]],[[140.11047389934598,35.60561169195905],[140.1084819652975,35.607670834798576]],[[140.1084819652975,35.607670834798576],[140.1112303299973,35.609138738604976]],[[140.1112303299973,35.609138738604976],[140.11647491584648,35.60979114029671]],[[140.11647491584648,35.60979114029671],[140.1168783455272,35.608975638182045]],[[140.112768405655,35.607303858846976],[140.11047389934598,35.60561169195905]],[[140.12466958123585,35.55990279843202],[140.12489651043126,35.56018822417215]],[[140.12489651043126,35.56018822417215],[140.12686323012468,35.56371527081808]],[[140.12686323012468,35.56371527081808],[140.12951073740433,35.56510162441302]],[[140.12951073740433,35.56510162441302],[140.13170438629317,35.56542782525888],[140.13457882276822,35.56489774888435]],[[140.13457882276822,35.56489774888435],[140.13669682859194,35.56510162441302]],[[140.1372515444029,35.56051442501802],[140.1369741864974,35.559433884716086],[140.13304074711053,35.55810869377975],[140.13016631063547,35.55851644483709],[140.1297880953098,35.55973969800909],[140.12676237270452,35.55935233450462],[140.12466958123585,35.55990279843202]],[[140.14153798476042,35.5760497403024],[140.139596479422,35.5767836922056]],[[140.13866354828536,35.5808204276732],[140.14151277040537,35.57870012217507]],[[140.11992928248753,35.61095323081011],[140.12000492555268,35.61046392954131]],[[140.12000492555268,35.61046392954131],[140.11569327084013,35.61254345993371]],[[140.11569327084013,35.61254345993371],[140.11657577326667,35.61366477534138]],[[140.11657577326667,35.61366477534138],[140.11781127666384,35.61448027745604]],[[140.11506291196403,35.61337934960124],[140.11183547451836,35.61443950235031]],[[140.10976789740474,35.61570353062804],[140.11183547451836,35.6182315871835]],[[140.11183547451836,35.6182315871835],[140.11370133679162,35.61745686017457]],[[140.11370133679162,35.61745686017457],[140.11506291196403,35.61337934960124]],[[140.12860302062273,35.59566256616012],[140.1309731699969,35.590912266342194]],[[140.1652142641469,35.575866252326605],[140.1641804755901,35.5778846200604],[140.15873417490053,35.57694679262854],[140.15966710603718,35.57957678694834],[140.15727174230798,35.58035151395727],[140.15795252989417,35.5815543795764],[140.1545485919632,35.5823494941382]],[[140.1522540856542,35.584490187189196],[140.1566665977869,35.586895918427466],[140.1531113737257,35.58881234839693],[140.15326265985595,35.58934242477146]],[[140.15326265985595,35.58934242477146],[140.1541451622825,35.59182970622119]],[[140.1541451622825,35.59182970622119],[140.15724652795294,35.5888938986084],[140.1606504658839,35.58807839649373],[140.1614573252453,35.58683475576886],[140.16365097413416,35.586528942475866]],[[140.1696267762796,35.57657981667694],[140.16879470256316,35.576274003383936]],[[140.12754401771087,35.597905196975454],[140.1272162310953,35.59859837377292]],[[140.12948552304928,35.601534181385716],[140.1307966695116,35.59774209655252]],[[140.1307966695116,35.59774209655252],[140.12754401771087,35.597905196975454]],[[140.1065404599591,35.61107555612731],[140.10505281301147,35.61156485739611]],[[140.10505281301147,35.61156485739611],[140.10177494685573,35.615275392017836]],[[140.10177494685573,35.615275392017836],[140.1036912378391,35.616539420295574]],[[140.1036912378391,35.616539420295574],[140.10480066946104,35.61488802851337]],[[140.10722124754528,35.61278811056811],[140.1065404599591,35.61107555612731]],[[140.1316539575831,35.60866982488904],[140.13029238241072,35.60854749957184]],[[140.13029238241072,35.60854749957184],[140.1300654532153,35.60979114029671],[140.1280735191668,35.60968920253238]],[[140.1280735191668,35.60968920253238],[140.128174376587,35.61113671878591]],[[140.128174376587,35.61113671878591],[140.13112445612717,35.611422144526045]],[[140.13112445612717,35.611422144526045],[140.1316539575831,35.60903680084064]],[[140.10691867528476,35.6187208884523],[140.10646481689395,35.6192101897211]],[[140.10646481689395,35.6192101897211],[140.10452331155554,35.62145282053643]],[[140.10452331155554,35.62145282053643],[140.10356516606387,35.62261491104983]],[[140.10356516606387,35.62261491104983],[140.10810374997183,35.62347118827023]],[[140.10810374997183,35.62347118827023],[140.1101461127304,35.62194212180523],[140.10944011078917,35.6213508827721]],[[140.10944011078917,35.6213508827721],[140.1074733910957,35.61947522790837]],[[140.1074733910957,35.61947522790837],[140.10691867528476,35.6187208884523]],[[140.12005535426277,35.609831915402445],[140.12000492555268,35.61046392954131]],[[140.12434179462028,35.61150369473751],[140.1244678663955,35.611095943680176]],[[140.1244678663955,35.611095943680176],[140.1245939381707,35.61058625485851]],[[140.1245939381707,35.61058625485851],[140.12005535426277,35.609831915402445]],[[140.1084819652975,35.607670834798576],[140.10530495656192,35.611177493891645]],[[140.10530495656192,35.611177493891645],[140.10505281301147,35.61156485739611]],[[140.1065404599591,35.61107555612731],[140.11075125725145,35.610443541988445]],[[140.11075125725145,35.610443541988445],[140.1112303299973,35.609138738604976]],[[140.12393836493956,35.614500665008904],[140.12651022915406,35.61472492809044]],[[140.12651022915406,35.61472492809044],[140.12648501479904,35.611666795160446]],[[140.12648501479904,35.611666795160446],[140.1244678663955,35.611095943680176]],[[140.12754401771087,35.597905196975454],[140.1274935890008,35.597905196975454]],[[140.1036912378391,35.616539420295574],[140.1031365220281,35.61733453485737]],[[140.1031365220281,35.61733453485737],[140.10646481689395,35.6192101897211]],[[140.10691867528476,35.6187208884523],[140.10850717965252,35.6170083340115]],[[140.12603115640823,35.61949561546123],[140.12595551334311,35.62237026041543],[140.1250982252716,35.623858551774696],[140.1256781554376,35.62573420663843]],[[140.1256781554376,35.62573420663843],[140.12711537367514,35.62583614440276]],[[140.12711537367514,35.62583614440276],[140.13024195370062,35.622227547545364]],[[140.13024195370062,35.622227547545364],[140.12603115640823,35.61949561546123]],[[140.13286424662522,35.58724250682619],[140.13185567242343,35.589240487007125]],[[140.1307966695116,35.59774209655252],[140.13218345903903,35.59711008241366]],[[140.13218345903903,35.59711008241366],[140.13425103615265,35.59635574295759]],[[140.1433029896135,35.592461720360056],[140.14196662879615,35.58995405135746]],[[140.14196662879615,35.58995405135746],[140.13957126506696,35.5888938986084],[140.1357134687452,35.58897544881986],[140.13568825439015,35.58789490851793]],[[140.13568825439015,35.58789490851793],[140.13379717776183,35.58930164966573],[140.13286424662522,35.58724250682619]],[[140.13866354828536,35.5808204276732],[140.13866354828536,35.583389259334396]],[[140.13866354828536,35.583389259334396],[140.13997469474768,35.583797010391734],[140.1406806966889,35.581962130633734],[140.14400899155473,35.580698102356]],[[140.1374784735983,35.57474493691894],[140.1375289023084,35.57480609957754]],[[140.1375289023084,35.57480609957754],[140.1383357616698,35.575580826586474]],[[140.12948552304928,35.601534181385716],[140.13382239211688,35.60208464531312]],[[140.13382239211688,35.60208464531312],[140.13407453566734,35.60145263117425]],[[140.1341753930875,35.60049441618952],[140.13218345903903,35.59711008241366]],[[140.13561261132503,35.61180950803051],[140.13351981985636,35.61476570319617]],[[140.13351981985636,35.61476570319617],[140.14035291007332,35.616824846035705],[140.1444376355905,35.61770151080897]],[[140.1444376355905,35.61770151080897],[140.1445637073657,35.61554043020511],[140.14373163364925,35.613032761202504]],[[140.14373163364925,35.613032761202504],[140.13561261132503,35.61180950803051]],[[140.1149872688989,35.611544469843246],[140.11140683048262,35.61191144579484]],[[140.11140683048262,35.61191144579484],[140.11135640177253,35.61191144579484]],[[140.11506291196403,35.61337934960124],[140.11657577326667,35.61366477534138]],[[140.11569327084013,35.61254345993371],[140.1149872688989,35.611544469843246]],[[140.13286424662522,35.58724250682619],[140.1289812359484,35.585917315889866]],[[140.13188088677848,35.60679417002531],[140.1306958120914,35.60622331854505]],[[140.1278970186815,35.606406806520845],[140.12756923206592,35.608241686278845]],[[140.12756923206592,35.608241686278845],[140.13029238241072,35.60854749957184]],[[140.1031365220281,35.61733453485737],[140.1012958741099,35.6198218163071]],[[140.1012958741099,35.6198218163071],[140.10452331155554,35.62145282053643]],[[140.12910730772361,35.57048393836981],[140.12857780626769,35.572808119396605]],[[140.1342258217976,35.57003541220674],[140.13198174419867,35.57062665123988],[140.12910730772361,35.57048393836981]],[[140.12686323012468,35.56371527081808],[140.12262721847728,35.56277744338622],[140.11634884407127,35.56216581680022],[140.11221368984403,35.56277744338622]],[[140.11221368984403,35.56277744338622],[140.12124042894985,35.56359294550088],[140.12179514476082,35.56416379698115],[140.11566805648508,35.56351139528942],[140.0911344890271,35.56255318030468],[140.09100841725189,35.56448999782702],[140.09680771891203,35.566386040243614],[140.11892070828577,35.567201542358276]],[[140.11892070828577,35.567201542358276],[140.11907199441603,35.567201542358276]],[[140.11907199441603,35.567201542358276],[140.11907199441603,35.567201542358276]],[[140.11892070828577,35.567201542358276],[140.12678758705957,35.56758890586275],[140.12782137561638,35.56928107275068]],[[140.12782137561638,35.56928107275068],[140.12928380820892,35.56956649849081]],[[140.12928380820892,35.56956649849081],[140.12951073740433,35.56510162441302]],[[140.10684303221961,35.60328751093225],[140.10646481689395,35.60365448688385]],[[140.10646481689395,35.60365448688385],[140.10144716024016,35.60854749957184]],[[140.10144716024016,35.60854749957184],[140.10530495656192,35.611177493891645]],[[140.12928380820892,35.56956649849081],[140.12910730772361,35.57048393836981]],[[140.1342258217976,35.57003541220674],[140.13457882276822,35.56489774888435]],[[140.1370246152075,35.607140758424045],[140.13773061714875,35.607263083741245]],[[140.13773061714875,35.607263083741245],[140.13694897214236,35.60681455757818]],[[140.1323347451693,35.61152408229037],[140.13077145515655,35.61423562682164]],[[140.13077145515655,35.61423562682164],[140.13341896243617,35.61490841606624]],[[140.13341896243617,35.61490841606624],[140.13351981985636,35.61476570319617]],[[140.13561261132503,35.61180950803051],[140.1323347451693,35.61152408229037]],[[140.13077145515655,35.61423562682164],[140.13024195370062,35.6172529846459]],[[140.13024195370062,35.6172529846459],[140.13225910210414,35.617599573044636]],[[140.13225910210414,35.617599573044636],[140.13235995952434,35.61721220954017]],[[140.13235995952434,35.61721220954017],[140.1330911758206,35.61541810488791]],[[140.1330911758206,35.61541810488791],[140.13341896243617,35.61490841606624]],[[140.12038314087835,35.60404185038831],[140.1203579265233,35.607507734375645]],[[140.1203579265233,35.607507734375645],[140.12527472575692,35.60789509788011]],[[140.12527472575692,35.60789509788011],[140.12517386833673,35.60622331854505]],[[140.1272666598054,35.57859818441074],[140.1265354435091,35.580779652567465]],[[140.1307966695116,35.582899958065596],[140.13230953081424,35.579046710573806]],[[140.13230953081424,35.579046710573806],[140.1272666598054,35.57859818441074]],[[140.12489651043126,35.56018822417215],[140.12411486542487,35.560290161936486],[140.11506291196403,35.55284870514016],[140.1094653251442,35.555009785744026],[140.09121013209221,35.56118721426262],[140.09115970338215,35.56198232882442],[140.11221368984403,35.56277744338622]],[[140.13112445612717,35.611422144526045],[140.1323347451693,35.61152408229037]],[[140.13561261132503,35.61180950803051],[140.13652032810663,35.60936300168651]],[[140.09854750941008,35.60355254911951],[140.09854750941008,35.60355254911951]],[[140.09854750941008,35.60355254911951],[140.10046380039344,35.60451076410425],[140.09839622327982,35.606529131838045]],[[140.09839622327982,35.606529131838045],[140.10144716024016,35.60854749957184]],[[140.10646481689395,35.60365448688385],[140.1060361728582,35.60265549679338]],[[140.1060361728582,35.60265549679338],[140.10570838624264,35.60232929594752]],[[140.10570838624264,35.60232929594752],[140.10570838624264,35.60232929594752]],[[140.10570838624264,35.60232929594752],[140.10444766849042,35.60145263117425]],[[140.10444766849042,35.60145263117425],[140.10444766849042,35.60145263117425]],[[140.10444766849042,35.60145263117425],[140.10591010108297,35.599250775464654],[140.1016488750805,35.59392962416646],[140.08896605449328,35.59454125075246],[140.09163877612798,35.598394498244254],[140.09191613403345,35.59737512060092],[140.09514357147913,35.59786442186972],[140.09680771891203,35.60020899044938],[140.09569828729008,35.60133030585705],[140.09854750941008,35.60355254911951]],[[140.12804830481176,35.575295400846336],[140.1272666598054,35.57859818441074]],[[140.13230953081424,35.579046710573806],[140.1334946055013,35.576681754441275]],[[140.1334946055013,35.576681754441275],[140.13339374808115,35.5766613668884]],[[140.1168783455272,35.608975638182045],[140.11806342021427,35.60805819830305],[140.12008056861782,35.60822129872598]],[[140.12008056861782,35.60822129872598],[140.1203579265233,35.607507734375645]],[[140.11183547451836,35.6182315871835],[140.11120511564226,35.62075964373897]],[[140.11120511564226,35.62075964373897],[140.11138161612757,35.62163630851224]],[[140.11138161612757,35.62163630851224],[140.11372655114667,35.62163630851224],[140.11586977132544,35.61984220385997],[140.11760956182349,35.62014801715297]],[[140.1184164211849,35.616580195401305],[140.11370133679162,35.61745686017457]],[[140.11138161612757,35.62163630851224],[140.11196154629357,35.624470178360696]],[[140.11196154629357,35.624470178360696],[140.11541591293462,35.625163355158165],[140.11639927278136,35.62298188700143]],[[140.12603115640823,35.61949561546123],[140.12454350946064,35.6199441416243]],[[140.1239131505845,35.624755604100834],[140.1238375075194,35.6256322688741]],[[140.1238375075194,35.6256322688741],[140.1256781554376,35.62573420663843]],[[140.1074733910957,35.61947522790837],[140.11183547451836,35.6182315871835]],[[140.1337719634068,35.602227358183185],[140.13382239211688,35.60208464531312]],[[140.12756923206592,35.608241686278845],[140.12527472575692,35.60789509788011]],[[140.12527472575692,35.60789509788011],[140.12479565301106,35.60968920253238]],[[140.12479565301106,35.60968920253238],[140.12479565301106,35.609709590085245]],[[140.12479565301106,35.609709590085245],[140.1280735191668,35.60968920253238]],[[140.1126423338798,35.594378150329526],[140.107624677226,35.59199280664413],[140.10548145704723,35.59348109800339],[140.10886018062314,35.599903177156385],[140.1060361728582,35.60265549679338]],[[140.11647491584648,35.60979114029671],[140.1149872688989,35.611544469843246]],[[140.12005535426277,35.609831915402445],[140.12010578297284,35.608812537759114]],[[140.12010578297284,35.608812537759114],[140.12008056861782,35.60822129872598]],[[140.12113957152965,35.618415075159305],[140.12217336008646,35.61935290259117]],[[140.12603115640823,35.61949561546123],[140.12605637076328,35.61947522790837]],[[140.12605637076328,35.61947522790837],[140.12250114670206,35.6172529846459]],[[140.12867866368788,35.61696755890577],[140.13024195370062,35.6172529846459]],[[140.13077145515655,35.61423562682164],[140.12827523400716,35.61335896204837],[140.12648501479904,35.611666795160446]],[[140.12651022915406,35.61472492809044],[140.1274935890008,35.614745315643304],[140.12867866368788,35.61696755890577]],[[140.10944011078917,35.6213508827721],[140.11120511564226,35.62075964373897]],[[140.09930394006142,35.61757918549177],[140.0963286461662,35.6209839068205],[140.09932915441644,35.6225741359441]],[[140.09932915441644,35.6225741359441],[140.1012958741099,35.6198218163071]],[[140.1012958741099,35.6198218163071],[140.09930394006142,35.61757918549177]],[[140.12782137561638,35.56928107275068],[140.1160714861658,35.56919952253921],[140.11370133679162,35.57052471347554],[140.0861168323733,35.56944417317361],[140.08157824846535,35.5882822720224],[140.10293480718778,35.58736483214339],[140.10510324172157,35.577639969426],[140.1094653251442,35.57662059178267],[140.11047389934598,35.57244114344501],[140.11415519518243,35.572522693656474],[140.11218847548898,35.58071848990887],[140.11246583339448,35.581024303201865],[140.11090254338174,35.58771142054213]],[[140.11090254338174,35.58771142054213],[140.11090254338174,35.58771142054213]],[[140.11090254338174,35.58771142054213],[140.11057475676614,35.58954630030013],[140.11523941244934,35.59174815600973],[140.11801299150417,35.591768543562594],[140.1168279168171,35.59362381087346],[140.11725656085287,35.59480628893972]],[[140.1541451622825,35.59182970622119],[140.15694395569238,35.59484706404545],[140.15737259972815,35.59713046996652],[140.15951581990691,35.598435273349985]],[[140.15951581990691,35.598435273349985],[140.1628189004177,35.594989776915526],[140.16622283834866,35.592951021628856]],[[140.14761464432604,35.60760967213998],[140.14668171318942,35.60813974851451]],[[140.14668171318942,35.60813974851451],[140.14491670833632,35.610239666459776]],[[140.14491670833632,35.610239666459776],[140.14373163364925,35.613032761202504]],[[140.1444376355905,35.61770151080897],[140.14748857255083,35.61745686017457],[140.1513967975827,35.618537400476505],[140.1536913038917,35.617273372198774],[140.1526070866248,35.614378339691704],[140.15109422532214,35.61260462259231],[140.15001000805526,35.609709590085245],[140.14761464432604,35.60760967213998]],[[140.14491670833632,35.610239666459776],[140.14360556187404,35.61038237932984],[140.13652032810663,35.60936300168651]],[[140.1245939381707,35.61058625485851],[140.12479565301106,35.609709590085245]],[[140.12479565301106,35.60968920253238],[140.12010578297284,35.608812537759114]],[[140.1238375075194,35.6256322688741],[140.1246443668808,35.628629239145496],[140.12633372866875,35.62903699020283],[140.12711537367514,35.62583614440276]],[[140.10810374997183,35.62347118827023],[140.11196154629357,35.624470178360696]],[[140.13717590133777,35.58475522537646],[140.1343518935728,35.584286311660534]],[[140.1343518935728,35.584286311660534],[140.13286424662522,35.58724250682619]],[[140.13568825439015,35.58789490851793],[140.13929390716146,35.58679398066313],[140.13717590133777,35.58475522537646]],[[140.1343518935728,35.584286311660534],[140.1306958120914,35.5830834460414]],[[140.14668171318942,35.60813974851451],[140.1420422718613,35.60883292531198],[140.13773061714875,35.607263083741245]],[[140.1203579265233,35.55641652689182],[140.12466958123585,35.55990279843202]],[[140.14161362782554,35.55859799504855],[140.1387391913505,35.558740707918616],[140.1349570380939,35.55819024399122],[140.13415017873245,35.557232029006485],[140.13972255119722,35.555009785744026],[140.14128584120996,35.55319529353889],[140.14342906138873,35.55358265704336],[140.14574878205278,35.55111576314649]],[[140.14574878205278,35.55111576314649],[140.14211791492642,35.5479353048993],[140.13757933101846,35.55083033740636]],[[140.13757933101846,35.55083033740636],[140.13609168407086,35.55223707855416],[140.1337719634068,35.55095266272356],[140.13210781597388,35.55193126526116],[140.12698930189993,35.55237979142422],[140.12408965106982,35.55223707855416],[140.12242550363692,35.55407195831216],[140.12267764718737,35.55541753680136],[140.1203579265233,35.55641652689182]],[[140.1343518935728,35.584286311660534],[140.13634382762132,35.5803311264044]],[[140.13634382762132,35.5803311264044],[140.13230953081424,35.579046710573806]],[[140.12867866368788,35.61696755890577],[140.12797266174664,35.618455850265036]],[[140.12797266174664,35.618455850265036],[140.12741794593566,35.6193325150383]],[[140.12741794593566,35.6193325150383],[140.13135138532255,35.62041305534024]],[[140.13135138532255,35.62041305534024],[140.13225910210414,35.617599573044636]],[[140.1334946055013,35.576681754441275],[140.13457882276822,35.57698756773427],[140.1375289023084,35.57480609957754]],[[140.13717590133777,35.58475522537646],[140.13866354828536,35.583389259334396]],[[140.13024195370062,35.622227547545364],[140.13135138532255,35.62041305534024]],[[140.12741794593566,35.6193325150383],[140.12605637076328,35.61947522790837]],[[140.12237507492682,35.62094313171477],[140.1199040681325,35.62194212180523]],[[140.1205848557187,35.624551728572165],[140.123610578324,35.62444979080783]],[[140.11564284213003,35.550524524113364],[140.11518898373924,35.552073978131226],[140.1203579265233,35.55641652689182]],[[140.13757933101846,35.55083033740636],[140.13528482470946,35.548975070095494],[140.13841140473494,35.546283913117094],[140.13543611083972,35.54269570381257],[140.1340997500224,35.5424918282839],[140.13225910210414,35.54416360761896],[140.13430146486272,35.54516259770943],[140.13077145515655,35.54522376036803],[140.1297124522447,35.54718096544323],[140.12741794593566,35.546283913117094],[140.12842652013742,35.547629491606294],[140.12656065786416,35.548893519884025],[140.1239131505845,35.5480576302165],[140.1213917150801,35.55030026103183],[140.12171950169568,35.55180893994396],[140.11564284213003,35.550524524113364]],[[140.09932915441644,35.6225741359441],[140.1021027334713,35.62412358996197],[140.10356516606387,35.62261491104983]],[[140.12350972090383,35.615642367969436],[140.12797266174664,35.618455850265036]],[[140.10177494685573,35.615275392017836],[140.09930394006142,35.61757918549177]],[[140.14196662879615,35.58995405135746],[140.14320213219332,35.58873079818546],[140.1465052127041,35.59019870199186],[140.14832064626728,35.58822110936379],[140.14728685771047,35.58650855492299],[140.14990915063507,35.5857134403612]],[[140.128174376587,35.61113671878591],[140.12648501479904,35.611666795160446]],[[140.13427625050767,35.60206425776025],[140.13415017873245,35.60212542041885]],[[140.14761464432604,35.60760967213998],[140.1480432883618,35.607099983318314]],[[140.1480432883618,35.607099983318314],[140.1427987025126,35.60094294235258],[140.14355513316394,35.598312948032785]],[[140.13235995952434,35.61721220954017],[140.1330911758206,35.61541810488791]],[[140.11075125725145,35.610443541988445],[140.11140683048262,35.61191144579484]],[[140.14607656866835,35.59335877268619],[140.15326265985595,35.58934242477146]],[[140.1480432883618,35.607099983318314],[140.1505647238662,35.60553014174758],[140.15467466373843,35.60516316579598],[140.15298530195045,35.60389913751825],[140.15560759487505,35.600677904165316],[140.15951581990691,35.598435273349985]],[[140.15817945908955,35.562736668280486],[140.15742302843825,35.55959698513902],[140.15618752504108,35.55827179420269],[140.1576247432786,35.557068928583554],[140.15886024667574,35.55331761885609],[140.1564900973016,35.55211475323696],[140.15177501290833,35.551299251122295],[140.1482702175572,35.54991289752736],[140.14574878205278,35.55111576314649]],[[140.11564284213003,35.550524524113364],[140.11067561418633,35.544469420911966],[140.11571848519517,35.54147245064057],[140.11491162583374,35.54086082405457],[140.10903668110845,35.5443267080419],[140.11279362001005,35.54858770659103],[140.11233976161924,35.549872122421625],[140.0987744386055,35.55478552266249],[140.0987744386055,35.555132111061226],[140.09231956371417,35.55447970936949],[140.08823483819702,35.55189049015542],[140.08911734062355,35.550932275170695],[140.08573861704764,35.548852744778294],[140.08805833771171,35.545937324718366],[140.09163877612798,35.5484246061681],[140.09428628340763,35.5455499612139],[140.09007548611524,35.5428588042355],[140.09179006225824,35.541492838193435],[140.09595043084053,35.540147259704234],[140.09819450843946,35.541533613299165],[140.10104373055947,35.53845509281631],[140.0970598624625,35.53604936157804],[140.09779107875875,35.53250192737924],[140.09753893520832,35.528893330521846],[140.0958747877754,35.52964766997791],[140.09670686149187,35.53121751154864],[140.0961017169708,35.535396959886306],[140.08889041142817,35.53865896834497],[140.0739130845319,35.55003522284456],[140.0722993658091,35.55015754816176],[140.06841635513229,35.54693631480883],[140.0700805025652,35.5420025270151],[140.07449301469794,35.53721145209144],[140.07250108064943,35.53602897402517],[140.06987878772486,35.53796579154751],[140.06897107094326,35.53725222719717],[140.06559234736733,35.53920943227237],[140.06720606609016,35.540432685444365],[140.0644829157454,35.54281802912977],[140.06024690409797,35.54253260338963],[140.0539181009819,35.53505037148757],[140.05853232795496,35.532420377167774],[140.05893575763568,35.53089131070278],[140.06062511942363,35.53001464592951],[140.05772546859356,35.52658953704791],[140.049984661595,35.530952473361374],[140.03768005633344,35.516354985508855],[140.04579907865767,35.51133964750366],[140.04226906895147,35.5073436871418],[140.03384747436672,35.51191049898392],[140.02517373623152,35.501594397233404],[140.03641933858123,35.49515193052754],[140.03304061500532,35.49168604654021],[140.02759431431576,35.49484611723454],[140.0257284520425,35.49470340436447],[140.02192108443083,35.4968237098626],[140.0120874859636,35.485202804728615],[140.01244048693422,35.483734900922215],[140.01763464407333,35.48030979204062],[140.01644956938622,35.47888266333995],[140.01987872167226,35.47443817681503],[140.01834064601454,35.47260329705703],[140.02267751508214,35.467424858628895],[140.02146722604002,35.4667520693843],[140.01599571099544,35.47142081899076],[140.01622264019085,35.47199167047103],[140.0137516333965,35.475355616694024],[140.00654032785388,35.47929041439728],[139.99819437633425,35.47480515276662],[139.998043090204,35.47447895192076],[140.00333810476326,35.468281135849296],[139.99927859360116,35.465956954822495],[139.9946895809831,35.472419809081224],[139.9936557924263,35.472419809081224],[139.98909199416332,35.46991214007863],[139.9912604286971,35.465467653553695],[139.99481565275832,35.459412550352305],[139.99678237245178,35.459290225035105],[139.99806830455904,35.45731263240704],[139.9944626517877,35.45592627881211],[139.992899361775,35.45415256171271],[139.99337843452082,35.45323512183371],[139.99065528417603,35.45164489271011],[139.98916763722843,35.454295274582776],[139.9922942172539,35.45735340751277],[139.98483076816083,35.47034027868883],[139.98200676039588,35.474784765213755],[139.96579393010248,35.46850539893083],[139.9663234315584,35.465304553130764],[139.9679875789913,35.461288205216036],[139.96942479722884,35.4606969661829],[139.97257659160937,35.45174683047444],[139.97446766823768,35.44846443446291],[139.9679623646363,35.44599754056605],[139.9676850067308,35.44811784606418],[139.9618604907156,35.44667032981065],[139.9622134916862,35.442694757001654],[139.96165877587524,35.442776307213116],[139.96143184667983,35.44662955470491],[139.95734712116268,35.44569172727305],[139.95573340243985,35.44369374709212],[139.9548509000133,35.445222813557116],[139.95212774966853,35.45297008364644],[139.95424575549225,35.45345938491524],[139.9559855459903,35.44844404691005],[139.95797748003878,35.44844404691005],[139.9644827836402,35.449973113375044],[139.96470971283557,35.45299047119931],[139.96216306297612,35.458678598449104],[139.95111917546677,35.45604860412931],[139.94867338302748,35.442368556155785],[139.92308081265764,35.508995078923995],[140.0267622405993,35.643838353584016],[140.02877938900284,35.64622369726941],[140.02862810287257,35.64410339177128],[140.036873196972,35.63741627443102],[140.037427912783,35.63643767189342],[140.0404536353883,35.634765892558356],[140.04526957720174,35.63076993219649],[140.0443870747752,35.63001559274043],[140.04660593801907,35.62907776530856],[140.05099323579677,35.62571381908556],[140.05497710389375,35.62212560978103],[140.05656560826154,35.621493595642164],[140.0568933948771,35.62347118827023],[140.05828018440454,35.6222683226511],[140.05681775181196,35.62131010766637],[140.05777589730366,35.6193325150383],[140.06065033377868,35.61741608506884],[140.06720606609016,35.61178912047764],[140.0696266441744,35.61079013038717],[140.08389796912942,35.59680426912065],[140.08659590511914,35.601901157337316],[140.07792216698394,35.61040276688271],[140.08299025234783,35.613889038422904],[140.0831415384781,35.61325702428404],[140.08826005255204,35.608241686278845],[140.09151270435277,35.605550529300444],[140.09277342210495,35.60381758730678],[140.09511835712408,35.60398068772972],[140.09839622327982,35.606529131838045]]]}