{"type":"Topology","bbox":[140.12379391442826,35.55731181165145,140.28876159119838,35.65748756487476],"objects":{"town":{"type":"GeometryCollection","geometries":[{"type":"Polygon","arcs":[[0,1]],"properties":{"name":"和泉町"}},{"type":"Polygon","arcs":[[2,3,4,5]],"properties":{"name":"五十土町"}},{"type":"Polygon","arcs":[[6,7]],"properties":{"name":"愛生町"}},{"type":"MultiPolygon","arcs":[[[113,62,188,-47,189,11,12,183,184,114,75]]],"properties":{"name":"大宮台"}},{"type":"Polygon","arcs":[[14,15,16,17,18,19]],"properties":{"name":"大井戸町"}},{"type":"Polygon","arcs":[[20,21,22,23]],"properties":{"name":"太田町"}},{"type":"Polygon","arcs":[[24,25,26,-5,27]],"properties":{"name":"大広町"}},{"type":"Polygon","arcs":[[28,29,30,31,32,33,34]],"properties":{"name":"大草町"}},{"type":"MultiPolygon","arcs":[[[137,138,51,52,53,54,92,93,94,-123,-122,-109,210,161,141]]],"properties":{"name":"桜木"}},{"type":"MultiPolygon","arcs":[[[45,-103,-102,59,49,50,42,39,-104]]],"properties":{"name":"小倉台"}},{"type":"Polygon","arcs":[[46,47]],"properties":{"name":"北大宮台"}},{"type":"Polygon","arcs":[[65,66,-34,67,68,69,70,71,-19,72,73,-16,74]],"properties":{"name":"金親町"}},{"type":"Polygon","arcs":[[79,80,-35,-67]],"properties":{"name":"北谷津町"}},{"type":"MultiPolygon","arcs":[[[97,98,82,179,182,181,84,99]]],"properties":{"name":"御成台"}},{"type":"MultiPolygon","arcs":[[[121,122,-95,-94,185,-159,186,86,87,187,124,-110]]],"properties":{"name":"桜木北"}},{"type":"MultiPolygon","arcs":[[[88,-53]],[[-55,207,-136,208,-156,-186,-93]]],"properties":{"name":"貝塚"}},{"type":"MultiPolygon","arcs":[[[91,89,-179,-137,-208,-54,-89,-52,-139,271]]],"properties":{"name":"貝塚町"}},{"type":"Polygon","arcs":[[100,-50,-60,101,102,-46,103,-40,104,105,106,107,108,109,110,111,112]],"properties":{"name":"小倉町"}},{"type":"MultiPolygon","arcs":[[[116,117]],[[259,236,237,260]]],"properties":{"name":"若松台"}},{"type":"Polygon","arcs":[[-80,-66,118,119,120]],"properties":{"name":"御殿町"}},{"type":"MultiPolygon","arcs":[[[211,239,240,255,152,153,154,128,129,130,131,242,213]]],"properties":{"name":"みつわ台"}},{"type":"MultiPolygon","arcs":[[[158,155,-209,135,136,132,133,252,-168,-167,-207,-150,-149,-224,-87,-187]]],"properties":{"name":"都賀"}},{"type":"MultiPolygon","arcs":[[[311,298,-98,-295,145,142,-282,256,-51,-101,257]]],"properties":{"name":"千城台北"}},{"type":"MultiPolygon","arcs":[[[147,148,149,206,166,167,163,254,-251,-245,235,-225]]],"properties":{"name":"西都賀"}},{"type":"MultiPolygon","arcs":[[[-143,232,233,170,171,-106,-105,-43,-257,281]]],"properties":{"name":"千城台西"}},{"type":"Polygon","arcs":[[-27,172,173,174,-6]],"properties":{"name":"川井町"}},{"type":"Polygon","arcs":[[175,176,177,-133,178,-90]],"properties":{"name":"高品町"}},{"type":"Polygon","arcs":[[190]],"properties":{"name":"下泉町"}},{"type":"Polygon","arcs":[[193,194,-131,195]],"properties":{"name":"源町"}},{"type":"Polygon","arcs":[[196,-24,197,-107,-172,198,-30]],"properties":{"name":"坂月町"}},{"type":"Polygon","arcs":[[199,200,201,202,203]],"properties":{"name":"古泉町"}},{"type":"Polygon","arcs":[[209,-73,-18]],"properties":{"name":"下田町"}},{"type":"Polygon","arcs":[[214,215,216,217,218,219,220],[221],[-191],[222]],"properties":{"name":"上泉町"}},{"type":"MultiPolygon","arcs":[[[-111,-125,-188,-88,223,-148,224,225,226,227,-154,228,-7,229,291,-237,-260,292,-118,293,-112]]],"properties":{"name":"若松町"}},{"type":"MultiPolygon","arcs":[[[-226,-236,244,250,251,-196,-130,-129,-155,-228,-227]]],"properties":{"name":"都賀の台"}},{"type":"Polygon","arcs":[[-218,246,-216,247,248]],"properties":{"name":"小間子町"}},{"type":"MultiPolygon","arcs":[[[-234,-233,277,278,279,264,-32,-31,-199,-171]]],"properties":{"name":"千城台南"}},{"type":"Polygon","arcs":[[265,-119,-75,-15,266,-221]],"properties":{"name":"更科町"}},{"type":"Polygon","arcs":[[-25,267,268,269,270]],"properties":{"name":"佐和町"}},{"type":"Polygon","arcs":[[272,-240,-212,273]],"properties":{"name":"殿台町"}},{"type":"Polygon","arcs":[[-74,-210,-17]],"properties":{"name":"谷当町"}},{"type":"MultiPolygon","arcs":[[[-70,-69,-68,-33,-265,-280,-279,-278,-146,294,295,-71]]],"properties":{"name":"千城台東"}},{"type":"Polygon","arcs":[[-23,283,284,-142,-162,-211,-108,-198]],"properties":{"name":"加曽利町"}},{"type":"Polygon","arcs":[[285,-174,286,-120,-266,-220,287,-201]],"properties":{"name":"中田町"}},{"type":"Polygon","arcs":[[288,-194,-252,-255,-164,-253,-134,-178]],"properties":{"name":"原町"}},{"type":"Polygon","arcs":[[289]],"properties":{"name":"旦谷町"}},{"type":"Polygon","arcs":[[290,-274,-214,-243,-132,-195,-289,-177]],"properties":{"name":"東寺山町"}},{"type":"Polygon","arcs":[[-202,-288,-219,-249,300,301]],"properties":{"name":"富田町"}},{"type":"Polygon","arcs":[[-3,-175,-286,-200,302,303,-2,304,305]],"properties":{"name":"野呂町"}},{"type":"Polygon","arcs":[[-305,-1,-304,306,-203,-302,307]],"properties":{"name":"中野町"}},{"type":"Polygon","arcs":[[-184,-13,308,-21,-197,-29,-81,309,-270,310]],"properties":{"name":"多部田町"}},{"type":"Polygon","arcs":[[-284,-22,-309,-12,-190,-48,-189,-63,-114,-76,-115,-185,-311,-269,312]],"properties":{"name":"大宮町"}},{"type":"Polygon","arcs":[[-173,-26,-271,-310,-121,-287]],"properties":{"name":"高根町"}}]}},"arcs":[[[140.25206911063665,35.56699977578456],[140.2492973764935,35.56842241374412],[140.24662463285546,35.571097373851195]],[[140.24662463285546,35.571097373851195],[140.24749904898394,35.57186880429406],[140.25206911063665,35.56699977578456]],[[140.22252044486055,35.5836005581719],[140.22271842587077,35.581055839568165],[140.22161303189702,35.57912225417242],[140.22172852081965,35.577268817394106]],[[140.22172852081965,35.577268817394106],[140.21978170755244,35.577839876293375],[140.21917126610424,35.579092198440875],[140.21730694492462,35.576507405528424],[140.2143867250238,35.57764952332695],[140.2109550541799,35.57520499049502]],[[140.2109550541799,35.57520499049502],[140.2100806380514,35.57569590077684],[140.21338032155515,35.578651381044956],[140.21019612697404,35.57785991344773],[140.212357419669,35.579853610306564]],[[140.212357419669,35.579853610306564],[140.2165975129713,35.58386104117858],[140.22252044486055,35.5836005581719]],[[140.14101826231786,35.653289781036314],[140.14002835726671,35.650845248204384]],[[140.14002835726671,35.650845248204384],[140.13686066110313,35.65051463515744],[140.12912290328683,35.650584765197706],[140.12986533207516,35.652648592096796],[140.1296343542299,35.655093124928726],[140.13187813901246,35.65454210318382],[140.1358872544695,35.65580444390851],[140.13794955665935,35.65407123005636],[140.14101826231786,35.653289781036314]],[[140.18318821749583,35.59227664600982],[140.1832542111659,35.59328852230501]],[[140.1832542111659,35.59328852230501],[140.18284175072793,35.59584325948592]],[[140.18284175072793,35.59584325948592],[140.18312222382573,35.59583324090874]],[[140.18312222382573,35.59583324090874],[140.18561348487108,35.59553268359333]],[[140.18561348487108,35.59553268359333],[140.18553099278347,35.5921864788152]],[[140.18553099278347,35.5921864788152],[140.18318821749583,35.59227664600982]],[[140.2227349242883,35.624596575992655],[140.2178348942852,35.62380510839543],[140.21602006835815,35.62127040836888]],[[140.21602006835815,35.62127040836888],[140.2131493437099,35.621380612717864],[140.21534363323988,35.6242759815229],[140.21321533737995,35.62365482973773]],[[140.21321533737995,35.62365482973773],[140.2119284608135,35.6256785823281],[140.21083956525726,35.62576874952272]],[[140.21083956525726,35.62576874952272],[140.2081503232017,35.62561847086502],[140.207523383336,35.624636650301376],[140.20503212229065,35.626129418301204]],[[140.20503212229065,35.626129418301204],[140.2056755605739,35.62762218630103],[140.21138401303537,35.629044824260596]],[[140.21138401303537,35.629044824260596],[140.2138587756632,35.6294956602337],[140.21390827091574,35.628373579589535],[140.21643252879613,35.63139918989791],[140.2152941379873,35.63194019306563],[140.21646552563115,35.6346652460586],[140.2181648626356,35.634935747642466],[140.21963322179477,35.636468589951015],[140.22189350499482,35.63104853969661],[140.2200126853977,35.628523858247235],[140.2200126853977,35.62584889814016],[140.2227349242883,35.624596575992655]],[[140.17866765109568,35.60760506909529],[140.17846967008543,35.607104140236295]],[[140.17846967008543,35.607104140236295],[140.17672083782847,35.60542101927005],[140.17294270021665,35.604950146142585],[140.17276121762396,35.60604217105521]],[[140.17276121762396,35.60604217105521],[140.17495550715395,35.61020989916211]],[[140.17495550715395,35.61020989916211],[140.17866765109568,35.60760506909529]],[[140.20326679161616,35.57667772134049],[140.20333278528622,35.578030229259795],[140.20519710646585,35.57721872450821],[140.2054280843111,35.575816123703],[140.20668196404253,35.57777976483029],[140.20580754791405,35.578561213850335],[140.21019612697404,35.58433191430604]],[[140.21019612697404,35.58433191430604],[140.21163148929816,35.582488496104915]],[[140.21163148929816,35.582488496104915],[140.21082306683974,35.58126622968895],[140.212357419669,35.579853610306564]],[[140.2109550541799,35.57520499049502],[140.21021262539153,35.574583838709856],[140.20961868236088,35.57131778254916],[140.20326679161616,35.57667772134049]],[[140.19336774110488,35.60588187382033],[140.19209736295593,35.60649300702831],[140.19234483921872,35.60386813980714],[140.18709834244777,35.60527074061235],[140.18426061463452,35.60467964455872],[140.18482156083016,35.60733456751144],[140.18175285517168,35.60799579360532]],[[140.18175285517168,35.60799579360532],[140.18318821749583,35.60794570071942],[140.18242929028995,35.610029564772866],[140.1830892269907,35.61269450630276],[140.1852010244331,35.61677206721504]],[[140.1852010244331,35.61677206721504],[140.18709834244777,35.61623106404732],[140.18874818419962,35.613716401175125]],[[140.18874818419962,35.613716401175125],[140.19120644840993,35.611031422490875],[140.19255931864646,35.61291491500072]],[[140.19255931864646,35.61291491500072],[140.19453912874872,35.613045156504064],[140.19387919204797,35.615770209497036],[140.19683240878382,35.61561993083934]],[[140.19683240878382,35.61561993083934],[140.19808628851524,35.613626233980504],[140.20115499417375,35.61150229561834]],[[140.20115499417375,35.61150229561834],[140.198746225216,35.61064069798085],[140.198300767943,35.60942845014206],[140.19336774110488,35.60588187382033]],[[140.15999144246442,35.62049897792602],[140.15743418774903,35.62129044552324]],[[140.15743418774903,35.62129044552324],[140.15791264185705,35.623865219858516],[140.159183020006,35.6263798827307]],[[140.159183020006,35.6263798827307],[140.1627796750251,35.624356130140335]],[[140.1627796750251,35.624356130140335],[140.16185576364404,35.62120027832862],[140.15999144246442,35.62049897792602]],[[140.18049897544026,35.62545817363014],[140.17696831409123,35.625838879562984]],[[140.17696831409123,35.625838879562984],[140.1760609011277,35.62888452702572]],[[140.1760609011277,35.62888452702572],[140.18049897544026,35.62796281792515]],[[140.18049897544026,35.62796281792515],[140.18049897544026,35.62545817363014]],[[140.16871910533186,35.626610310005844],[140.17137535055238,35.627562074837954]],[[140.17137535055238,35.627562074837954],[140.17322317331448,35.62471679891882]],[[140.17322317331448,35.62471679891882],[140.17002248031585,35.623484513925675],[140.16766320661065,35.62603925110658],[140.16871910533186,35.626610310005844]],[[140.1814228868213,35.60161395994162],[140.18148888049137,35.59933974292176]],[[140.18148888049137,35.59933974292176],[140.18101042638332,35.597917104962185],[140.17810670490005,35.597336027485746],[140.1745595451335,35.598628423941975],[140.17530197392185,35.59985069035794],[140.17767774604454,35.599259594304314],[140.17749626345184,35.60060208364644],[140.1814228868213,35.60161395994162]],[[140.1760609011277,35.62888452702572],[140.17617639005033,35.63212052745487]],[[140.17617639005033,35.63212052745487],[140.1792120988738,35.63166969148177],[140.18153837574394,35.6304975179517]],[[140.18153837574394,35.6304975179517],[140.18049897544026,35.62796281792515]],[[140.15264964666858,35.62199174592585],[140.1529466181839,35.62257282340229]],[[140.1529466181839,35.62257282340229],[140.1544479741781,35.62518767204628],[140.152121697308,35.62763220487821]],[[140.152121697308,35.62763220487821],[140.15208870047294,35.62771235349565]],[[140.15208870047294,35.62771235349565],[140.15225368464812,35.62800289223387]],[[140.15225368464812,35.62800289223387],[140.15395302165257,35.62900474995188],[140.15609781593,35.626500105656866]],[[140.15609781593,35.626500105656866],[140.154761444111,35.62168117003326]],[[140.154761444111,35.62168117003326],[140.15264964666858,35.62199174592585]],[[140.1738666115977,35.62840363532108],[140.17213427775823,35.63203036026025]],[[140.17213427775823,35.63203036026025],[140.17497200557148,35.63155948713279],[140.17617639005033,35.63212052745487]],[[140.1760609011277,35.62888452702572],[140.1738666115977,35.62840363532108]],[[140.18102692480085,35.59338870807681],[140.17949257197162,35.59598351956644]],[[140.17949257197162,35.59598351956644],[140.18091143587822,35.59594344525772]],[[140.18091143587822,35.59594344525772],[140.18284175072793,35.59584325948592]],[[140.1832542111659,35.59328852230501],[140.18102692480085,35.59338870807681]],[[140.20984966020615,35.616351286973476],[140.20816682161922,35.61503885336289],[140.2093712060981,35.60874718689382],[140.20869477097983,35.61044032643725]],[[140.20869477097983,35.61044032643725],[140.2083153073769,35.61249413475916],[140.20592303683668,35.61412716283951],[140.20115499417375,35.61150229561834]],[[140.19683240878382,35.61561993083934],[140.1982842695255,35.61436760869183],[140.1997856255197,35.61474831462467],[140.19965363817954,35.617022531644544],[140.20064354323065,35.61756353481226],[140.19960414292697,35.62043886646294]],[[140.19960414292697,35.62043886646294],[140.19755833915465,35.62137059414068],[140.1996206413445,35.622111968852],[140.1984822505357,35.62275315779153]],[[140.1984822505357,35.62275315779153],[140.19577651006261,35.62431605583161]],[[140.19577651006261,35.62431605583161],[140.19569401797503,35.624356130140335]],[[140.19569401797503,35.624356130140335],[140.19881221888608,35.628173208045936],[140.20150146094164,35.62800289223387],[140.20424019824975,35.6289446384888],[140.2112190288602,35.629906421898085],[140.21138401303537,35.629044824260596]],[[140.20503212229065,35.626129418301204],[140.20493313178554,35.624586557415476],[140.20699543397538,35.62361475542901],[140.20750688491847,35.6243761672947],[140.20988265704116,35.623975424207494]],[[140.20988265704116,35.623975424207494],[140.21321533737995,35.62365482973773]],[[140.21602006835815,35.62127040836888],[140.21258839751425,35.62125037121452],[140.21029511747915,35.61884591269131],[140.20984966020615,35.616351286973476]],[[140.17954206722416,35.59019278195637],[140.1788656321059,35.59076384085564]],[[140.1788656321059,35.59076384085564],[140.17863465426063,35.59157534560722],[140.18102692480085,35.59338870807681]],[[140.18318821749583,35.59227664600982],[140.1830892269907,35.59098424955359]],[[140.1830892269907,35.59098424955359],[140.17954206722416,35.59019278195637]],[[140.20869477097983,35.61044032643725],[140.2063189988571,35.60593196670623]],[[140.2063189988571,35.60593196670623],[140.20485063969795,35.60636276552497],[140.20131997834892,35.603717861149434],[140.20028057804524,35.60161395994162],[140.19783881225248,35.60286628208913],[140.19551253538233,35.602976486438116],[140.19336774110488,35.60588187382033]],[[140.19511657336187,35.62786263215335],[140.19491859235166,35.628173208045936]],[[140.19491859235166,35.628173208045936],[140.19510007494435,35.62923517722702],[140.1986472347109,35.63448491166937]],[[140.1986472347109,35.63448491166937],[140.20288732801322,35.63334279387084]],[[140.20288732801322,35.63334279387084],[140.20110549892118,35.63315244090442],[140.1986637331284,35.63160958001869],[140.19823477427292,35.632250768958215],[140.19511657336187,35.62786263215335]],[[140.15862207381036,35.634074150004984],[140.15606481909495,35.63732016901132]],[[140.15606481909495,35.63732016901132],[140.15830860387751,35.63943408879631]],[[140.15830860387751,35.63943408879631],[140.16175677313893,35.63864262119908],[140.16449551044704,35.63742035478312],[140.16043689973745,35.634705320367324],[140.15862207381036,35.634074150004984]],[[140.1529466181839,35.62257282340229],[140.1507193318189,35.62399546136186],[140.15004289670063,35.62571865663682],[140.152121697308,35.62763220487821]],[[140.1319111358475,35.618605466838986],[140.1352603146038,35.61961734313417],[140.1389394617105,35.61919656289261],[140.14118324649303,35.62163107714736],[140.14128223699817,35.62485705899934]],[[140.14128223699817,35.62485705899934],[140.1448293967647,35.62237245185869],[140.14395498063618,35.619988030489836],[140.14515936511506,35.61775388777868]],[[140.14515936511506,35.61775388777868],[140.14042431928718,35.6168421972553],[140.13352798076434,35.61476835177903],[140.1319111358475,35.618605466838986]],[[140.15225368464812,35.62800289223387],[140.15604832067746,35.63332275671648]],[[140.15604832067746,35.63332275671648],[140.159183020006,35.632020341683074]],[[140.159183020006,35.632020341683074],[140.15992544879435,35.631719784367675]],[[140.15992544879435,35.631719784367675],[140.15853958172278,35.62912497287804],[140.15679074946578,35.62754203768359]],[[140.15679074946578,35.62754203768359],[140.15609781593,35.626500105656866]],[[140.1946051224188,35.62499731907986],[140.19234483921872,35.626259659804546]],[[140.19234483921872,35.626259659804546],[140.19491859235166,35.628173208045936]],[[140.19511657336187,35.62786263215335],[140.1955785290524,35.62608934399248],[140.1946051224188,35.62499731907986]],[[140.18497004658784,35.62900474995188],[140.18153837574394,35.6304975179517]],[[140.17213427775823,35.63203036026025],[140.1689335847596,35.63051755510607]],[[140.1689335847596,35.63051755510607],[140.1680756670486,35.63007673771014],[140.16871910533186,35.626610310005844]],[[140.17322317331448,35.62471679891882],[140.17696831409123,35.625838879562984]],[[140.18049897544026,35.62545817363014],[140.179377083049,35.62364481116055]],[[140.179377083049,35.62364481116055],[140.1810599216359,35.62005816053009],[140.18007001658478,35.61747336761764]],[[140.18007001658478,35.61747336761764],[140.17713329826643,35.61541955929573],[140.17559894543717,35.61303513792688]],[[140.17559894543717,35.61303513792688],[140.17401509735538,35.613425862436905],[140.17267872553637,35.615289317792396],[140.1724477476911,35.61771381346996],[140.16819115597124,35.62242254474459]],[[140.16819115597124,35.62242254474459],[140.1666403047245,35.62414574001956],[140.16586487910112,35.62723146179101]],[[140.16586487910112,35.62723146179101],[140.16640932687923,35.629906421898085],[140.16447901202955,35.63189010017973],[140.1620537446543,35.63325262667622]],[[140.1620537446543,35.63325262667622],[140.16403355475651,35.6334129239111],[140.1653369297405,35.63159956144151],[140.1675312192705,35.63308231086416],[140.17484001823132,35.634254484394226],[140.17703430776132,35.63495578479683]],[[140.17703430776132,35.63495578479683],[140.17927809254385,35.635797345279954],[140.18315522066078,35.638181766648806],[140.18640540891198,35.64205895601748]],[[140.18640540891198,35.64205895601748],[140.18929263197776,35.643030758003945],[140.19211386137346,35.640245593547895],[140.19521556386698,35.63942407021913],[140.19176739460556,35.63949420025939],[140.1916024104304,35.63737026189722],[140.19028253702888,35.6378311164475],[140.18813774275145,35.634064131427806],[140.18604244372656,35.63309232944134],[140.1868673646025,35.63177989583075],[140.18497004658784,35.62900474995188]],[[140.1788656321059,35.59076384085564],[140.17639086947807,35.59425030571429],[140.17949257197162,35.59598351956644]],[[140.1817033599191,35.587668100506995],[140.1775622571219,35.589140831352466],[140.17954206722416,35.59019278195637]],[[140.1830892269907,35.59098424955359],[140.1817033599191,35.587668100506995]],[[140.17366863058749,35.64996361341254],[140.17381711634516,35.653810747049675],[140.17668784099342,35.65309942806989],[140.17950907038912,35.650304245036665],[140.1792120988738,35.649202201546856]],[[140.1792120988738,35.649202201546856],[140.17767774604454,35.64881147703684],[140.17366863058749,35.64996361341254]],[[140.20984966020615,35.616351286973476],[140.21270388643688,35.616301194087576],[140.2187918025013,35.618124575134345],[140.21771940536257,35.6170425687989],[140.22332886731897,35.614107125685145],[140.22418678502993,35.615980599617814],[140.2262490872198,35.61515907628905],[140.22464874072045,35.611893020128356]],[[140.22464874072045,35.611893020128356],[140.2223059654328,35.613135323698685],[140.22034265374808,35.61048040074597],[140.22232246385033,35.60957872879977],[140.22158003506198,35.60859690823612],[140.21864331674362,35.60909783709512],[140.2186928119962,35.60671341572627],[140.2137927819931,35.60585181808879],[140.212357419669,35.605150517686184]],[[140.212357419669,35.605150517686184],[140.20653347828485,35.605280759189526],[140.2063189988571,35.60593196670623]],[[140.16586487910112,35.62723146179101],[140.1640995484266,35.627942780770795],[140.16230122091704,35.63056764799197]],[[140.16230122091704,35.63056764799197],[140.15992544879435,35.631719784367675]],[[140.159183020006,35.632020341683074],[140.16108033802067,35.63309232944134]],[[140.16108033802067,35.63309232944134],[140.1620537446543,35.63325262667622]],[[140.1379000614068,35.636749110112056],[140.1326040693833,35.64037583505123]],[[140.1326040693833,35.64037583505123],[140.13646469908267,35.643892355641434]],[[140.13646469908267,35.643892355641434],[140.13794955665935,35.6452148078292],[140.14001185884922,35.644894213359436]],[[140.14001185884922,35.644894213359436],[140.14029233194702,35.64191869593696]],[[140.14029233194702,35.64191869593696],[140.14085327814266,35.64002518484993]],[[140.14085327814266,35.64002518484993],[140.13933542373093,35.63827193384343]],[[140.13933542373093,35.63827193384343],[140.1379000614068,35.636749110112056]],[[140.14400447588875,35.629094917146496],[140.1432455486829,35.63156950570997],[140.14449942841432,35.63247117765618]],[[140.14449942841432,35.63247117765618],[140.14497788252234,35.63282182785748]],[[140.14497788252234,35.63282182785748],[140.14857453754144,35.63003666340143]],[[140.14857453754144,35.63003666340143],[140.14844255020128,35.62991644047526]],[[140.14844255020128,35.62991644047526],[140.14400447588875,35.629094917146496]],[[140.15368904697226,35.61728301465122],[140.15141226535468,35.61853533679873],[140.15154425269483,35.61978765894624]],[[140.15154425269483,35.61978765894624],[140.1496799315152,35.62006817910728],[140.15022437929332,35.62163107714736],[140.15264964666858,35.62199174592585]],[[140.154761444111,35.62168117003326],[140.15743418774903,35.62129044552324]],[[140.15999144246442,35.62049897792602],[140.16056888707757,35.61971752890597],[140.1590840295009,35.617313070382764]],[[140.1590840295009,35.617313070382764],[140.15368904697226,35.61728301465122]],[[140.18957310507557,35.62145074275812],[140.1874943044682,35.62324406807335]],[[140.1874943044682,35.62324406807335],[140.19104146423473,35.62553832224758]],[[140.19104146423473,35.62553832224758],[140.19325225218225,35.62402551709339]],[[140.19325225218225,35.62402551709339],[140.18957310507557,35.62145074275812]],[[140.1496799315152,35.63949420025939],[140.15218769097805,35.64205895601748]],[[140.15218769097805,35.64205895601748],[140.1539035264,35.64115728407128]],[[140.1539035264,35.64115728407128],[140.15296311660143,35.63921368009835]],[[140.15296311660143,35.63921368009835],[140.1526661450861,35.63884299274269]],[[140.1526661450861,35.63884299274269],[140.1514452621897,35.638041506568285],[140.1496799315152,35.63949420025939]],[[140.13646469908267,35.643892355641434],[140.13278555197599,35.646817780178004]],[[140.13278555197599,35.646817780178004],[140.13511182884614,35.6497331861374],[140.1389394617105,35.64922223870121]],[[140.1389394617105,35.64922223870121],[140.14187618002882,35.64663744578876]],[[140.14187618002882,35.64663744578876],[140.14116674807553,35.64481406474199],[140.14001185884922,35.644894213359436]],[[140.155206901384,35.6336633883406],[140.15403551374015,35.63415429862243],[140.15309510394158,35.63247117765618],[140.15103280175174,35.632922013629276]],[[140.15103280175174,35.632922013629276],[140.15322709128174,35.636759128689235]],[[140.15322709128174,35.636759128689235],[140.15500892037377,35.63604780970945]],[[140.15500892037377,35.63604780970945],[140.155206901384,35.6336633883406]],[[140.1689335847596,35.63051755510607],[140.17137535055238,35.627562074837954]],[[140.1627796750251,35.624356130140335],[140.16744872718292,35.62231234039561]],[[140.16744872718292,35.62231234039561],[140.16706926357998,35.62096985105348],[140.16307664654045,35.61944702732211],[140.16282917027766,35.61763366485253],[140.1590840295009,35.617313070382764]],[[140.1738666115977,35.62840363532108],[140.17137535055238,35.627562074837954]],[[140.14494488568732,35.63295206936082],[140.1435260217807,35.63415429862243],[140.14411996481138,35.63640847848794]],[[140.14411996481138,35.63640847848794],[140.14737015306258,35.636749110112056]],[[140.14737015306258,35.636749110112056],[140.14831056286116,35.63550680654173]],[[140.14831056286116,35.63550680654173],[140.14728766097497,35.63468528321297]],[[140.14728766097497,35.63468528321297],[140.14494488568732,35.63295206936082]],[[140.179377083049,35.62364481116055],[140.18079594695558,35.62247263763049]],[[140.18079594695558,35.62247263763049],[140.18101042638332,35.62068933089244],[140.1849535481703,35.6179442407451]],[[140.1849535481703,35.6179442407451],[140.18445859564477,35.617443311886106]],[[140.18445859564477,35.617443311886106],[140.18292424281552,35.61791418501357],[140.18007001658478,35.61747336761764]],[[140.21163148929816,35.582488496104915],[140.21422174084861,35.58937125862761],[140.21270388643688,35.59119463967438],[140.21542612532747,35.59196607011724],[140.2181648626356,35.59141504837234],[140.2206396252634,35.59333861519091]],[[140.2206396252634,35.59333861519091],[140.22266893061823,35.59220651596956],[140.22219047651018,35.59083397089589],[140.22326287364888,35.58969185309737]],[[140.22326287364888,35.58969185309737],[140.22351034991166,35.58803878786266],[140.22549016001392,35.586415778359495],[140.22252044486055,35.5836005581719]],[[140.1319111358475,35.618605466838986],[140.1307727450387,35.621611039993006],[140.1292053953744,35.62323404949617]],[[140.1292053953744,35.62323404949617],[140.13577176554688,35.62744185191179]],[[140.13577176554688,35.62744185191179],[140.13813103925207,35.628754285522376],[140.14016034460687,35.62840363532108],[140.14042431928718,35.630247053522204],[140.1430805645077,35.632210694649494],[140.14449942841432,35.63247117765618]],[[140.14400447588875,35.629094917146496],[140.14128223699817,35.62485705899934]],[[140.1986472347109,35.63448491166937],[140.20074253373576,35.63715987177644]],[[140.20074253373576,35.63715987177644],[140.20579104949653,35.634024057119085]],[[140.20579104949653,35.634024057119085],[140.20288732801322,35.63334279387084]],[[140.20074253373576,35.63715987177644],[140.20389373148186,35.64050607655457],[140.20864527572726,35.63549678796455],[140.20579104949653,35.634024057119085]],[[140.18553099278347,35.5921864788152],[140.1846730750725,35.58870001395655]],[[140.1846730750725,35.58870001395655],[140.18429361146957,35.5878684720506],[140.1817033599191,35.587668100506995]],[[140.15604832067746,35.63332275671648],[140.155206901384,35.6336633883406]],[[140.15500892037377,35.63604780970945],[140.15606481909495,35.63732016901132]],[[140.15862207381036,35.634074150004984],[140.16108033802067,35.63309232944134]],[[140.18091143587822,35.59594344525772],[140.18148888049137,35.59933974292176]],[[140.1814228868213,35.60161395994162],[140.18318821749583,35.601113031082626],[140.18356768109874,35.59856831247889],[140.18312222382573,35.59583324090874]],[[140.25102971033297,35.622011783080204],[140.25102971033297,35.622011783080204]],[[140.159183020006,35.6263798827307],[140.15679074946578,35.62754203768359]],[[140.16230122091704,35.63056764799197],[140.159183020006,35.6263798827307]],[[140.14266810406974,35.6379813951052],[140.14073778922003,35.63544669507865]],[[140.14073778922003,35.63544669507865],[140.1413317322507,35.63678918442078],[140.13933542373093,35.63827193384343]],[[140.14085327814266,35.64002518484993],[140.1428330882449,35.638953197091666],[140.14266810406974,35.6379813951052]],[[140.18175285517168,35.60799579360532],[140.17866765109568,35.60760506909529]],[[140.17495550715395,35.61020989916211],[140.17559894543717,35.61303513792688]],[[140.18445859564477,35.617443311886106],[140.1852010244331,35.61677206721504]],[[140.2439353907999,35.58491299178249],[140.2363626171588,35.59028294915099],[140.23406933712369,35.59030298630535],[140.232584479547,35.591505215566954]],[[140.232584479547,35.591505215566954],[140.23388785453096,35.59328852230501],[140.23756700163764,35.593128225070124],[140.23783097631795,35.59425030571429],[140.23393734978353,35.597005414438804],[140.23463028331932,35.60128334689468],[140.23614813773105,35.601563867055724]],[[140.23614813773105,35.601563867055724],[140.23670908392668,35.599690393123055],[140.240058262683,35.59826775516349],[140.24444684174298,35.59783695634475],[140.24751554740146,35.59836794093529],[140.24898390656065,35.59713565594215]],[[140.24898390656065,35.59713565594215],[140.24914889073582,35.596865154358284]],[[140.24914889073582,35.596865154358284],[140.2495448527563,35.594901513230994],[140.24796100467447,35.593218392264745],[140.24756504265403,35.58980205744635],[140.2484394587825,35.58778832343316],[140.2439353907999,35.58491299178249]],[[140.14737015306258,35.636749110112056],[140.1470566831297,35.6377309306757],[140.14911898531957,35.63984485046069]],[[140.14911898531957,35.63984485046069],[140.1496799315152,35.63949420025939]],[[140.1526661450861,35.63884299274269],[140.14831056286116,35.63550680654173]],[[140.15208870047294,35.62771235349565],[140.14844255020128,35.62991644047526]],[[140.14857453754144,35.63003666340143],[140.15103280175174,35.632922013629276]],[[140.21083956525726,35.62576874952272],[140.20988265704116,35.623975424207494]],[[140.16819115597124,35.62242254474459],[140.16744872718292,35.62231234039561]],[[140.12867744601382,35.630818112421466],[140.12656564857141,35.63207043456897],[140.12823198874082,35.63514613776325]],[[140.12823198874082,35.63514613776325],[140.1317461516723,35.63485559902503],[140.1334124918417,35.63529641642095]],[[140.1334124918417,35.63529641642095],[140.13222460578035,35.63322257094468],[140.13149867540952,35.63008675628733],[140.12867744601382,35.630818112421466]],[[140.2265955539877,35.62274313921435],[140.22644706823002,35.624265962945714],[140.22874034826512,35.62521772777782],[140.22958176755859,35.6246266317242],[140.23458078806675,35.62877432267674],[140.2376989889778,35.62950567881088],[140.23854040827126,35.628183226623115],[140.23774848423037,35.62668044004611],[140.24131214241442,35.6256785823281],[140.24282999682615,35.62657023569713],[140.24259901898088,35.6284437096298],[140.23834242726105,35.63051755510607],[140.2362801250712,35.6304474250658],[140.2329474447324,35.6327617163944],[140.23527372160254,35.632451140501814],[140.23641211241133,35.63129900412611],[140.23893637029173,35.63083814957583],[140.2421865585429,35.63322257094468],[140.2433084509342,35.63237099188437],[140.2428959904962,35.630587685146324],[140.244892299016,35.63036727644837],[140.24873643029787,35.62858396971032],[140.25066674514756,35.62594908391196],[140.2557317593258,35.62461661314702]],[[140.2557317593258,35.62461661314702],[140.25366945713597,35.6245264459524],[140.2526300568323,35.62125037121452]],[[140.2526300568323,35.62125037121452],[140.24952835433876,35.62005816053009],[140.25055125622492,35.61848524391283]],[[140.25055125622492,35.61848524391283],[140.24916538915335,35.61673199290632]],[[140.24916538915335,35.61673199290632],[140.24720207746861,35.61523922490649],[140.24565122622184,35.61586037669166],[140.24451283541305,35.61490861185955],[140.24236804113562,35.616160934007056],[140.23995927217788,35.61546965218163]],[[140.23995927217788,35.61546965218163],[140.23878788453405,35.61728301465122]],[[140.23878788453405,35.61728301465122],[140.2354057089427,35.619697491751616],[140.23205653018638,35.61948710163083],[140.2265955539877,35.62274313921435]],[[140.24414987022763,35.627321628985634],[140.24238453955314,35.62516763489192],[140.2473670616438,35.62251271193921],[140.24414987022763,35.627321628985634]],[[140.23456428964923,35.624977281925496],[140.23456428964923,35.624977281925496]],[[140.15830860387751,35.63943408879631],[140.1539035264,35.64115728407128]],[[140.15218769097805,35.64205895601748],[140.1491519821546,35.64492426909098],[140.14816207710348,35.64324114812473]],[[140.14816207710348,35.64324114812473],[140.145984285991,35.644763971856094]],[[140.145984285991,35.644763971856094],[140.1426351072347,35.6462667584331]],[[140.1426351072347,35.6462667584331],[140.14187618002882,35.64663744578876]],[[140.1389394617105,35.64922223870121],[140.14002835726671,35.650845248204384]],[[140.14101826231786,35.653289781036314],[140.14124924016312,35.65387085851276],[140.1467762100319,35.65434173164022],[140.14991090936047,35.65659591150573],[140.15251765932842,35.65569423955953],[140.15370554538978,35.65448199172074],[140.1559163333373,35.653951007130196],[140.15533888872415,35.650544690888985],[140.15751667983662,35.64679774302365],[140.16056888707757,35.64580590388282]],[[140.16056888707757,35.64580590388282],[140.15943049626878,35.644994399131235],[140.16706926357998,35.64065635521227],[140.16825714964133,35.64238956906442],[140.16926355310997,35.64183854731952],[140.16800967337855,35.640105333467375],[140.17703430776132,35.63495578479683]],[[140.18079594695558,35.62247263763049],[140.1834191953411,35.622823287831785],[140.1857124753762,35.621711225764805],[140.1874943044682,35.62324406807335]],[[140.18957310507557,35.62145074275812],[140.1877582791485,35.620178383456256]],[[140.1877582791485,35.620178383456256],[140.1849535481703,35.6179442407451]],[[140.14911898531957,35.63984485046069],[140.14679270844942,35.64127750699744]],[[140.14679270844942,35.64127750699744],[140.14816207710348,35.64324114812473]],[[140.16799317496103,35.64660739005723],[140.1665578126369,35.64805006517115]],[[140.1665578126369,35.64805006517115],[140.1699234898107,35.65099552686208],[140.17248074452613,35.65204747746599]],[[140.17248074452613,35.65204747746599],[140.16799317496103,35.64660739005723]],[[140.12823198874082,35.63514613776325],[140.12793501722547,35.636999574541555],[140.13049227194088,35.639153568635265],[140.12970034789998,35.63979475757479]],[[140.12970034789998,35.63979475757479],[140.1312017038942,35.6410971726082]],[[140.1312017038942,35.6410971726082],[140.1326040693833,35.64037583505123]],[[140.1379000614068,35.636749110112056],[140.13717413103598,35.63587749389739],[140.13496334308846,35.63614799548125],[140.1334124918417,35.63529641642095]],[[140.14354252019822,35.642650052071104],[140.14530785087274,35.643090869467024],[140.145984285991,35.644763971856094]],[[140.14679270844942,35.64127750699744],[140.1445819205019,35.638822955588324]],[[140.1445819205019,35.638822955588324],[140.14354252019822,35.642650052071104]],[[140.25055125622492,35.61848524391283],[140.2526300568323,35.62125037121452]],[[140.2557317593258,35.62461661314702],[140.26140721495227,35.626600291428666],[140.266422733878,35.626460031348145],[140.26648872754805,35.62414574001956],[140.26459140953338,35.62072940520116],[140.2674951310167,35.61732308895994],[140.2669671816561,35.612373911833],[140.2681055724649,35.61058058651777],[140.26780860094956,35.60762510624966],[140.2638819775801,35.60603215247803],[140.26244661525595,35.60609226394111]],[[140.26244661525595,35.60609226394111],[140.25654018178423,35.612043298786055],[140.25515431471266,35.612474097604796],[140.25414791124402,35.61498876047699],[140.25239907898703,35.61603069250371],[140.24916538915335,35.61673199290632]],[[140.14029233194702,35.64191869593696],[140.14354252019822,35.642650052071104]],[[140.1445819205019,35.638822955588324],[140.14388898696612,35.63750050340056]],[[140.14388898696612,35.63750050340056],[140.14266810406974,35.6379813951052]],[[140.14497788252234,35.63282182785748],[140.14494488568732,35.63295206936082]],[[140.14728766097497,35.63468528321297],[140.15103280175174,35.632922013629276]],[[140.14411996481138,35.63640847848794],[140.14388898696612,35.63750050340056]],[[140.1312017038942,35.6410971726082],[140.13196063110004,35.64185858447388],[140.1315481706621,35.64488419478226],[140.13278555197599,35.646817780178004]],[[140.18587745955136,35.62461661314702],[140.18336970008852,35.62673053293201],[140.18049897544026,35.62796281792515]],[[140.18497004658784,35.62900474995188],[140.18622392631926,35.628563932555956]],[[140.18622392631926,35.628563932555956],[140.18587745955136,35.62461661314702]],[[140.17005547715087,35.64575581099692],[140.16799317496103,35.64660739005723]],[[140.17248074452613,35.65204747746599],[140.17310768439185,35.65034431934538],[140.17005547715087,35.64575581099692]],[[140.18874818419962,35.613716401175125],[140.18972159083324,35.615780228074215]],[[140.18972159083324,35.615780228074215],[140.18987007659092,35.615780228074215]],[[140.18987007659092,35.615780228074215],[140.1924108328888,35.615880413846014]],[[140.1924108328888,35.615880413846014],[140.19255931864646,35.61291491500072]],[[140.23878788453405,35.61728301465122],[140.23684107126684,35.61700249449018],[140.23609864247848,35.614628091698506],[140.23626362665368,35.61193309443708],[140.23256798112948,35.612053317363234],[140.22897132611038,35.61071082802111],[140.22918580553812,35.61201324305452],[140.22667804607528,35.61359617824896],[140.22613359829717,35.6119230758599],[140.22464874072045,35.611893020128356]],[[140.2227349242883,35.624596575992655],[140.2265955539877,35.62274313921435]],[[140.20326679161616,35.57667772134049],[140.20194691821465,35.57734896601155],[140.2046361602702,35.58255862614517],[140.20232638181758,35.583550465286],[140.20245836915774,35.585323753446865]],[[140.20245836915774,35.585323753446865],[140.20135297518397,35.58700687441311],[140.2022603881475,35.58804880643984]],[[140.2022603881475,35.58804880643984],[140.20448767451254,35.589110775620924],[140.20783685326884,35.59396978555325]],[[140.20783685326884,35.59396978555325],[140.21001464438132,35.59232673889572],[140.2099156538762,35.590874045204615],[140.2118459687259,35.58979203886917],[140.21293486428215,35.5874677289634],[140.21019612697404,35.58433191430604]],[[140.15154425269483,35.61978765894624],[140.15090081441159,35.618375039563844],[140.14751863882023,35.61746334904046],[140.14515936511506,35.61775388777868]],[[140.12633467072615,35.629044824260596],[140.12463533372173,35.628624044019034],[140.12387640651585,35.63349307252854],[140.1240908859436,35.63846228680985],[140.1278690235554,35.64016544493045],[140.12970034789998,35.63979475757479]],[[140.12867744601382,35.630818112421466],[140.12724208368968,35.63073796380403],[140.12633467072615,35.629044824260596]],[[140.15322709128174,35.636759128689235],[140.15296311660143,35.63921368009835]],[[140.14354252019822,35.642650052071104],[140.1426351072347,35.6462667584331]],[[140.18987007659092,35.615780228074215],[140.1877582791485,35.620178383456256]],[[140.18957310507557,35.62145074275812],[140.19165190568293,35.61923663720133]],[[140.19165190568293,35.61923663720133],[140.19221285187857,35.61785407355048]],[[140.19221285187857,35.61785407355048],[140.1924108328888,35.615880413846014]],[[140.1849535481703,35.6179442407451],[140.18972159083324,35.615780228074215]],[[140.18587745955136,35.62461661314702],[140.1874943044682,35.62324406807335]],[[140.1924108328888,35.615880413846014],[140.19641994834586,35.61605072965808],[140.198300767943,35.617493404772006],[140.19960414292697,35.62043886646294]],[[140.17276121762396,35.60604217105521],[140.16644232371428,35.60583178093443],[140.1647099898748,35.60506035049156],[140.16042040131993,35.60645293271959],[140.15746718458405,35.607975756450955],[140.15603182225993,35.607775384907356],[140.15586683808473,35.605641427968],[140.1544479741781,35.60531081492106]],[[140.1544479741781,35.60531081492106],[140.1505543476437,35.605531223619025],[140.14761762932537,35.60761508767248],[140.1500263982831,35.60971898888029],[140.1510822970043,35.61260433910814],[140.152600151416,35.614387645846186],[140.15368904697226,35.61728301465122]],[[140.232584479547,35.591505215566954],[140.22771744637896,35.59170558711056],[140.22684303025045,35.590783878009994],[140.22326287364888,35.58969185309737]],[[140.2206396252634,35.59333861519091],[140.22171202240213,35.596334169767744],[140.217636913275,35.598918962680195],[140.21611905886326,35.602886319243495],[140.212357419669,35.605150517686184]],[[140.23995927217788,35.61546965218163],[140.23990977692532,35.61444775730927],[140.23522422635,35.6084065552697],[140.23641211241133,35.60585181808879],[140.23535621369015,35.603467396719935],[140.23614813773105,35.601563867055724]],[[140.13577176554688,35.62744185191179],[140.13497984150598,35.62983629185782],[140.13529331143883,35.63247117765618],[140.13752059780387,35.632962087938],[140.14073778922003,35.63544669507865]],[[140.2193032534444,35.65239812766729],[140.21600356994063,35.64989348337228],[140.21466719812162,35.64788976793627],[140.2085792820572,35.64588605250026],[140.20712742131553,35.64612649835258],[140.20509811596074,35.64870127268785],[140.204471176095,35.651035601170804],[140.21027861906163,35.65406121147918],[140.21494767121942,35.65477253045896],[140.2182638531407,35.653480134002734],[140.2193032534444,35.65239812766729]],[[140.1292053953744,35.62323404949617],[140.1269946074269,35.626019213952226],[140.12633467072615,35.629044824260596]],[[140.16056888707757,35.64580590388282],[140.1632086338806,35.6451146220574],[140.1665578126369,35.64805006517115]],[[140.17005547715087,35.64575581099692],[140.17220027142832,35.647338746191366],[140.17366863058749,35.64996361341254]],[[140.1792120988738,35.649202201546856],[140.18261077288267,35.648911662808636],[140.1830067349031,35.64811017663423],[140.18025149917747,35.645094584903035],[140.18051547385778,35.64356174259449],[140.18247878554251,35.645475290835876],[140.18525051968567,35.646998114567246],[140.1861909294842,35.646096442621044],[140.18521752285062,35.643982522836055],[140.18640540891198,35.64205895601748]],[[140.19325225218225,35.62402551709339],[140.1946051224188,35.62499731907986]],[[140.1946051224188,35.62499731907986],[140.19569401797503,35.624356130140335]],[[140.19577651006261,35.62431605583161],[140.1942421572334,35.62345445819413],[140.19292228383188,35.620088216261635],[140.19165190568293,35.61923663720133]],[[140.19104146423473,35.62553832224758],[140.19085998164203,35.62565854517374]],[[140.19085998164203,35.62565854517374],[140.19234483921872,35.626259659804546]],[[140.1984822505357,35.62275315779153],[140.19561152588744,35.61829489094641],[140.19221285187857,35.61785407355048]],[[140.26244661525595,35.60609226394111],[140.26069778299896,35.60263585481399],[140.26130822444716,35.59958018877408],[140.26325503771437,35.597446231834724]],[[140.26325503771437,35.597446231834724],[140.2613412212822,35.59407998990223],[140.25904794124708,35.59169556853338],[140.25578125457838,35.59176569857364],[140.25201961538409,35.597105600210604],[140.24898390656065,35.59713565594215]],[[140.2439353907999,35.58491299178249],[140.2465586391854,35.58011409331324],[140.2473505632263,35.57727883597129],[140.24528826103645,35.576367145447904],[140.24660813443793,35.57399274265623],[140.2498253258541,35.57021573905936],[140.2534384792907,35.56669921846916]],[[140.2534384792907,35.56669921846916],[140.25206911063665,35.56699977578456]],[[140.24662463285546,35.571097373851195],[140.24563472780434,35.570185683327814]],[[140.24563472780434,35.570185683327814],[140.2423515427181,35.56681944139532],[140.240058262683,35.565577137824995],[140.23994277376036,35.562291044509934],[140.2372535317048,35.561369335409374],[140.2331289273251,35.56372370104668],[140.23093463779512,35.564485112912365],[140.22727198910596,35.56698975720738],[140.226001610957,35.56863280386491],[140.2265295603176,35.57045618491168],[140.22826189415707,35.57256008611949],[140.2249457122358,35.57442354147498],[140.22374132775693,35.577028371541786],[140.22172852081965,35.577268817394106]],[[140.2534384792907,35.56669921846916],[140.26102775134933,35.57121759677736],[140.26193516431286,35.5722996031128],[140.2634695171421,35.57744915178335],[140.26058229407633,35.580915579487645],[140.25591324191853,35.58348033524574],[140.25330649195055,35.58363061390344],[140.2495778495913,35.587337487460054],[140.2485879445402,35.59038313492279],[140.24890141447304,35.59295790925806],[140.2503532752147,35.59492155038535],[140.24914889073582,35.596865154358284]],[[140.26325503771437,35.597446231834724],[140.2645089174458,35.59584325948592],[140.2687325123306,35.59372933970093],[140.270844309773,35.59197608869442],[140.2726096404475,35.589060682735024],[140.2746389458023,35.588569772453205],[140.27544736826073,35.586986837258756],[140.27445746320961,35.58357050244036],[140.2748039299775,35.58211780874925],[140.27993493782583,35.58070518936687],[140.28021541092366,35.578651381044956],[140.2815682811602,35.57800017352825],[140.28369657702012,35.57331147940799],[140.28689727001876,35.57297084778387],[140.2876232003896,35.570856927998875],[140.28397705011793,35.57153819124712],[140.27940698846524,35.570997188079396],[140.27792213088856,35.57178865567662],[140.2755958540184,35.571187541045816],[140.27475443472494,35.569744865931895],[140.27254364677742,35.568702933905165],[140.27072882085037,35.56927399280443],[140.2696069284591,35.567731131918706],[140.2695244363715,35.56575747221423],[140.27099279553067,35.56578752794577],[140.26797358512474,35.5624112674361],[140.266422733878,35.55731181165145],[140.26615875919768,35.558644282416395],[140.25965838269528,35.55977638163775],[140.25578125457838,35.564244667060045],[140.25375194922356,35.562000505771714],[140.24502428635614,35.56842241374412],[140.24685561070072,35.56928401138161],[140.24563472780434,35.570185683327814]],[[140.18561348487108,35.59553268359333],[140.1853660086083,35.59845810812991],[140.18285824914543,35.60425886431716],[140.17846967008543,35.607104140236295]],[[140.2063189988571,35.60593196670623],[140.20395972515195,35.60227518603551],[140.20204590871975,35.601463681283924],[140.20404221723953,35.599399854384835],[140.2042072014147,35.59664474566032],[140.20767186909364,35.59517201481486],[140.20783685326884,35.59396978555325]],[[140.2022603881475,35.58804880643984],[140.19701389137654,35.590433227808695],[140.19295528066692,35.5889705155404],[140.1857454722112,35.59142506694952],[140.1846730750725,35.58870001395655]],[[140.18622392631926,35.628563932555956],[140.18922663830767,35.62571865663682],[140.19085998164203,35.62565854517374]],[[140.20245836915774,35.585323753446865],[140.19600748790788,35.584782750279146],[140.19473710975893,35.58283914630621],[140.1930377727545,35.58333005658804],[140.19359871895014,35.58521354909789],[140.1891606446376,35.58574453368843],[140.18726332662294,35.586606131325915],[140.18681786934994,35.584742675970425],[140.18315522066078,35.58516345621199],[140.17908011153364,35.58367068821216],[140.17688582200364,35.580915579487645],[140.17520298341674,35.58092559806482],[140.16792718129096,35.588169029366],[140.16758071452307,35.5911846210972],[140.16652481580186,35.592987964989604],[140.16512245031277,35.593178317956024],[140.1588035564031,35.59888890694865],[140.15560286340443,35.6006722136867],[140.15297961501895,35.603898195538676],[140.1544479741781,35.60531081492106]]]}