{"type":"Topology","bbox":[140.07380470607922,35.620078348632624,140.1568372859325,35.67924334057926],"objects":{"town":{"type":"GeometryCollection","geometries":[{"type":"MultiPolygon","arcs":[[[18,19,20,21,-148,163,162,3,4,0,51,52,53,54,55,-38]]],"properties":{"name":"穴川"}},{"type":"MultiPolygon","arcs":[[[-42,-65,-37,155,-120,14,15,157,158,-62,27,23,24,25,5,6,7,-43]]],"properties":{"name":"稲毛東"}},{"type":"MultiPolygon","arcs":[[[104,29,30,40,41,42,-8,-7,-50]]],"properties":{"name":"稲毛"}},{"type":"MultiPolygon","arcs":[[[33,34,35,36,64,-41,-31,65]]],"properties":{"name":"稲毛町"}},{"type":"Polygon","arcs":[[37,38,39,-19]],"properties":{"name":"穴川町"}},{"type":"MultiPolygon","arcs":[[[-98,-97,-76,169,-60,44,-24,45,-64,178,-53,-86]]],"properties":{"name":"黒砂台"}},{"type":"Polygon","arcs":[[48,49,-6,-26,50]],"properties":{"name":"稲丘町"}},{"type":"MultiPolygon","arcs":[[[-45,59,-170,75,76,77,73,196,57,103,-51,-25]]],"properties":{"name":"黒砂"}},{"type":"Polygon","arcs":[[-28,61,62,63,-46]],"properties":{"name":"稲毛台町"}},{"type":"Polygon","arcs":[[66,67,68]],"properties":{"name":"柏台"}},{"type":"Polygon","arcs":[[69,70,71,72]],"properties":{"name":"あやめ台"}},{"type":"MultiPolygon","arcs":[[[-21,-20,-40,88,-142,190,-186,-167,191,-165,90,91,-145,-124,-123,-144,-131,-117,81,78,146,147,-22]]],"properties":{"name":"天台"}},{"type":"Polygon","arcs":[[83,84,85,-52,-1,86,87]],"properties":{"name":"弥生町"}},{"type":"MultiPolygon","arcs":[[[-88,-87,-5,-4,-163,-164,-147,-79,-116,-115,153,154,193]]],"properties":{"name":"轟町"}},{"type":"MultiPolygon","arcs":[[[-78,-77,96,97,-85,98,174]]],"properties":{"name":"緑町"}},{"type":"Polygon","arcs":[[99,100,101,102]],"properties":{"name":"六方町"}},{"type":"MultiPolygon","arcs":[[[-55,-54,-179,-63,-159,-158,-16,-15,119,-156,-36,-129,160,194,-137,109,-143,-56]]],"properties":{"name":"小仲台"}},{"type":"Polygon","arcs":[[110,111,112,-102,113]],"properties":{"name":"長沼原町"}},{"type":"MultiPolygon","arcs":[[[-154,114,115,-82,116,117,-130]]],"properties":{"name":"作草部"}},{"type":"MultiPolygon","arcs":[[[143,122,123,144,-92,145,-132]]],"properties":{"name":"千草台"}},{"type":"Polygon","arcs":[[-113,125,126,-103]],"properties":{"name":"山王町"}},{"type":"Polygon","arcs":[[-35,127,128]],"properties":{"name":"小中台町"}},{"type":"Polygon","arcs":[[129,-118,130,131,132,133]],"properties":{"name":"作草部町"}},{"type":"MultiPolygon","arcs":[[[136,137,138,139,-67,-69,135,-71,-70,140,141,-89,-39,142,-110]]],"properties":{"name":"園生町"}},{"type":"Polygon","arcs":[[-133,-146,-91,164,165,166,167,168]],"properties":{"name":"萩台町"}},{"type":"MultiPolygon","arcs":[[[181,-139,179,188,-183]]],"properties":{"name":"宮野木町"}},{"type":"Polygon","arcs":[[-140,-182,182,183,-111,184,-72,-136,-68]],"properties":{"name":"長沼町"}},{"type":"Polygon","arcs":[[-168,185,186]],"properties":{"name":"天台町"}},{"type":"Polygon","arcs":[[-100,-127,195]],"properties":{"name":"小深町"}}]}},"arcs":[[[140.1044550963421,35.630794200259324],[140.10224620882926,35.63308411443908]],[[140.10224620882926,35.63308411443908],[140.10433883910457,35.634527884619594]],[[140.10433883910457,35.634527884619594],[140.1081587197659,35.63252790789412],[140.10794281346764,35.6320190380764]],[[140.10794281346764,35.6320190380764],[140.1069712351255,35.631806022803865]],[[140.1069712351255,35.631806022803865],[140.1044550963421,35.630794200259324]],[[140.0869168616536,35.63407226862],[140.08630235911244,35.63502492025551]],[[140.08630235911244,35.63502492025551],[140.0859203710463,35.636155084618125]],[[140.0859203710463,35.636155084618125],[140.08554668706856,35.638155061343596]],[[140.08554668706856,35.638155061343596],[140.08816247491274,35.639101795888195]],[[140.08816247491274,35.639101795888195],[140.08885171424944,35.63767577698039]],[[140.08885171424944,35.63767577698039],[140.08928352684595,35.635539707164135]],[[140.08928352684595,35.635539707164135],[140.0869168616536,35.63407226862]],[[140.08816247491274,35.639101795888195],[140.08828703623865,35.64130295370439]],[[140.08828703623865,35.64130295370439],[140.08844481391813,35.64312541770275]],[[140.08844481391813,35.64312541770275],[140.09045440330954,35.6402142089781]],[[140.09045440330954,35.6402142089781],[140.092065396458,35.638095890434556]],[[140.092065396458,35.638095890434556],[140.08885171424944,35.63767577698039]],[[140.10864035689275,35.63634443152704],[140.10750269678275,35.63732666861707]],[[140.10750269678275,35.63732666861707],[140.1121529862835,35.6394331529788]],[[140.1121529862835,35.6394331529788],[140.1121280740183,35.63849825261601]],[[140.1121280740183,35.63849825261601],[140.11201181678078,35.63717282425357]],[[140.11201181678078,35.63717282425357],[140.11230245987457,35.63333263225704],[140.1117045655102,35.63313145116631]],[[140.1117045655102,35.63313145116631],[140.10864035689275,35.63634443152704]],[[140.0929124134742,35.63140957771331],[140.09255533767325,35.63104271807728]],[[140.09255533767325,35.63104271807728],[140.0904876196631,35.63210779443995]],[[140.0904876196631,35.63210779443995],[140.0869168616536,35.63407226862]],[[140.08928352684595,35.635539707164135],[140.09012223977376,35.63441545989242]],[[140.09012223977376,35.63441545989242],[140.0929124134742,35.63140957771331]],[[140.082374525302,35.63714323879905],[140.0802486786731,35.63619650425445]],[[140.0802486786731,35.63619650425445],[140.07789031756914,35.6381609784345]],[[140.07789031756914,35.6381609784345],[140.08127008154557,35.63975859297851]],[[140.08127008154557,35.63975859297851],[140.082374525302,35.63714323879905]],[[140.08441733104695,35.644622441701394],[140.08406025524602,35.64702478060832],[140.08269008066097,35.648722985697695]],[[140.08269008066097,35.648722985697695],[140.08342084043966,35.649480373333375]],[[140.08342084043966,35.649480373333375],[140.0850816581185,35.64788867588027]],[[140.0850816581185,35.64788867588027],[140.08612797325617,35.646367983518005]],[[140.08612797325617,35.646367983518005],[140.08441733104695,35.644622441701394]],[[140.10750269678275,35.63732666861707],[140.10640655711472,35.638758604615774]],[[140.10640655711472,35.638758604615774],[140.1100271396546,35.638598843161375],[140.11221941899063,35.63952190934236]],[[140.11221941899063,35.63952190934236],[140.1121529862835,35.6394331529788]],[[140.08127008154557,35.63975859297851],[140.08263195204222,35.63977042716032],[140.08489066408544,35.64203667297646]],[[140.08489066408544,35.64203667297646],[140.08489066408544,35.64201300461284]],[[140.08489066408544,35.64201300461284],[140.08554668706856,35.638155061343596]],[[140.0859203710463,35.636155084618125],[140.082374525302,35.63714323879905]],[[140.09442375756194,35.62924392244254],[140.09255533767325,35.63104271807728]],[[140.0929124134742,35.63140957771331],[140.09591018938448,35.632249804621644],[140.09665755733997,35.63119656244078]],[[140.09665755733997,35.63119656244078],[140.09693989634536,35.63081195153203]],[[140.09693989634536,35.63081195153203],[140.09657451645603,35.6296522017149],[140.09442375756194,35.62924392244254]],[[140.08814586673594,35.6290190729882],[140.08371148353345,35.63309003152998]],[[140.08371148353345,35.63309003152998],[140.08630235911244,35.63502492025551]],[[140.0904876196631,35.63210779443995],[140.08814586673594,35.6290190729882]],[[140.10224620882926,35.63308411443908],[140.10222129656407,35.633066363166364]],[[140.10222129656407,35.633066363166364],[140.09838480772595,35.63488291007382]],[[140.09838480772595,35.63488291007382],[140.09802773192501,35.6351728475281]],[[140.09802773192501,35.6351728475281],[140.09909065523945,35.63648644170873],[140.10080960153707,35.636468690436025]],[[140.10080960153707,35.636468690436025],[140.10306000949188,35.638285237343474],[140.10640655711472,35.638758604615774]],[[140.10864035689275,35.63634443152704],[140.10433883910457,35.634527884619594]],[[140.09002259071303,35.62694217408098],[140.0895243454094,35.62747471226232]],[[140.0895243454094,35.62747471226232],[140.09255533767325,35.63104271807728]],[[140.09442375756194,35.62924392244254],[140.09527907866655,35.628101923898114]],[[140.09527907866655,35.628101923898114],[140.09002259071303,35.62694217408098]],[[140.09012223977376,35.63441545989242],[140.0920321801044,35.63535627734612],[140.0941912430869,35.63507817407364]],[[140.0941912430869,35.63507817407364],[140.09696480861055,35.63132082134976]],[[140.09696480861055,35.63132082134976],[140.09665755733997,35.63119656244078]],[[140.08441733104695,35.644622441701394],[140.08489066408544,35.64203667297646]],[[140.07789031756914,35.6381609784345],[140.07380470607922,35.64142129552246],[140.07644540618855,35.64532657551894],[140.08269008066097,35.648722985697695]],[[140.10862374871596,35.64945078787886],[140.1076853867274,35.65137975951348]],[[140.1076853867274,35.65137975951348],[140.1071622291586,35.65265193405779],[140.11132257744407,35.65401286496566],[140.1122858516978,35.65292412023936]],[[140.1122858516978,35.65292412023936],[140.1105669054002,35.65000699442381],[140.10862374871596,35.64945078787886]],[[140.11012678871532,35.64641532024523],[140.10921333899196,35.64800701769835]],[[140.10921333899196,35.64800701769835],[140.11175439004057,35.65104840242287],[140.11448643512225,35.65133833987716]],[[140.11448643512225,35.65133833987716],[140.11608912418234,35.65050994715063]],[[140.11608912418234,35.65050994715063],[140.11775824594955,35.6485632242433],[140.11693614119852,35.647580987153276],[140.11520889081254,35.64880582497035],[140.1129833951229,35.64898925478837],[140.11012678871532,35.64641532024523]],[[140.09403346540742,35.6228771326301],[140.09258855402683,35.62437415662875]],[[140.09258855402683,35.62437415662875],[140.09582714850055,35.62735045335334]],[[140.09582714850055,35.62735045335334],[140.09670738187035,35.62612561553626]],[[140.09670738187035,35.62612561553626],[140.09712258629006,35.62541556462781]],[[140.09712258629006,35.62541556462781],[140.09403346540742,35.6228771326301]],[[140.11309965236043,35.63008414935087],[140.11194538407364,35.63289476753015]],[[140.11194538407364,35.63289476753015],[140.1149846804259,35.63333263225704]],[[140.1149846804259,35.63333263225704],[140.11607251600554,35.63311369989359],[140.11674514716546,35.63027349625979]],[[140.11674514716546,35.63027349625979],[140.11309965236043,35.63008414935087]],[[140.08489066408544,35.64201300461284],[140.08828703623865,35.64130295370439]],[[140.10751930495954,35.623332748629686],[140.10356655888393,35.62261678063034],[140.10211334341494,35.624119721719886]],[[140.10211334341494,35.624119721719886],[140.10055217479683,35.626001356627285]],[[140.10055217479683,35.626001356627285],[140.10098398739333,35.626196620627105],[140.09847615269828,35.62983563153291],[140.10222129656407,35.633066363166364]],[[140.1044550963421,35.630794200259324],[140.1071622291586,35.627202526080744]],[[140.1071622291586,35.627202526080744],[140.10751930495954,35.623332748629686]],[[140.11221941899063,35.63952190934236],[140.113954973465,35.64158697406777]],[[140.113954973465,35.64158697406777],[140.1179658481594,35.63836807661613]],[[140.1179658481594,35.63836807661613],[140.11792432771745,35.63830890570709]],[[140.11792432771745,35.63830890570709],[140.11705239843604,35.636610700617716]],[[140.11705239843604,35.636610700617716],[140.1121280740183,35.63849825261601]],[[140.10831649744537,35.62741554135328],[140.1071622291586,35.627202526080744]],[[140.1069712351255,35.631806022803865],[140.10831649744537,35.62741554135328]],[[140.09921521656537,35.62251619008497],[140.09712258629006,35.62541556462781]],[[140.09670738187035,35.62612561553626],[140.0993065615377,35.62738595589876]],[[140.0993065615377,35.62738595589876],[140.10055217479683,35.626001356627285]],[[140.10211334341494,35.624119721719886],[140.09921521656537,35.62251619008497]],[[140.1473291047212,35.658882630779445],[140.15035179289666,35.65748619732616]],[[140.15035179289666,35.65748619732616],[140.14677273079877,35.65434422205627],[140.14125051201665,35.65386493769306],[140.13795378892416,35.65406611878379],[140.13587776682562,35.65579982641859],[140.13327858715826,35.65643295514529],[140.1319001084848,35.65504243878291],[140.1286781221879,35.65536787878261]],[[140.1286781221879,35.65536787878261],[140.13283847047336,35.66080568532316]],[[140.13283847047336,35.66080568532316],[140.14272033566243,35.65873470350685],[140.1473291047212,35.658882630779445]],[[140.0895243454094,35.62747471226232],[140.08814586673594,35.6290190729882]],[[140.08371148353345,35.63309003152998],[140.0802486786731,35.63619650425445]],[[140.10250363556946,35.639581080251396],[140.1006103034156,35.63936214788796]],[[140.1006103034156,35.63936214788796],[140.09684855137303,35.63882960970662]],[[140.09684855137303,35.63882960970662],[140.0960430547988,35.64266980170316]],[[140.0960430547988,35.64266980170316],[140.0972139312624,35.64256329406689]],[[140.0972139312624,35.64256329406689],[140.09782012971516,35.64188282861296],[140.10212995159173,35.641989336249225],[140.10250363556946,35.639581080251396]],[[140.12391157544963,35.657397440962605],[140.12630315290716,35.66048616241436],[140.12514058053196,35.66122579877733],[140.12813835644226,35.6646458773197],[140.1179907604246,35.66868725040697]],[[140.1179907604246,35.66868725040697],[140.11647111224846,35.67029078204188],[140.11915333279978,35.67210732894934],[140.120232864291,35.6748824445832],[140.1231060788754,35.673977129674924],[140.12560560948205,35.67911908167029],[140.13723133323387,35.675432734037244],[140.13693238605168,35.672071826403915],[140.13595250362118,35.670551134041645],[140.14096817301126,35.668764172588716]],[[140.14096817301126,35.668764172588716],[140.1370320351124,35.66560444604611],[140.13430829411914,35.6677996867714],[140.13199975754554,35.664776053319585],[140.13396782649497,35.66315477041196],[140.13142677544636,35.66108970568654],[140.13283847047336,35.66080568532316]],[[140.1286781221879,35.65536787878261],[140.12882759577897,35.653432990057084],[140.12487484970336,35.65556905987334],[140.12597098937138,35.656722892599575],[140.12391157544963,35.657397440962605]],[[140.1149763763375,35.62617295226349],[140.11382210805073,35.6282380169889]],[[140.11382210805073,35.6282380169889],[140.11309965236043,35.63008414935087]],[[140.11674514716546,35.63027349625979],[140.1168115798726,35.63018473989624]],[[140.1168115798726,35.63018473989624],[140.11963496992664,35.628232099898],[140.11850561390503,35.62794807953462]],[[140.11850561390503,35.62794807953462],[140.1149763763375,35.62617295226349]],[[140.08844481391813,35.64312541770275],[140.08750645192958,35.64448634861061]],[[140.08750645192958,35.64448634861061],[140.08873545701192,35.645362078064366],[140.09199065966246,35.64362837042957],[140.0951877336942,35.642634299157734]],[[140.0951877336942,35.642634299157734],[140.09357674054573,35.6411550264318],[140.09045440330954,35.6402142089781]],[[140.1195602331311,35.63237406353063],[140.117409474237,35.633409554438785],[140.11689462075657,35.63479415371026]],[[140.11689462075657,35.63479415371026],[140.11720187202715,35.63648052461783]],[[140.11720187202715,35.63648052461783],[140.11969309854538,35.635090008255446],[140.1195602331311,35.63237406353063]],[[140.14096817301126,35.668764172588716],[140.14096817301126,35.667468329680794],[140.15006945389126,35.66798903368032]],[[140.15006945389126,35.66798903368032],[140.15021892748237,35.66414884168378],[140.14861623842228,35.66304826277569],[140.1468557716827,35.66044474277803],[140.1473291047212,35.658882630779445]],[[140.08342084043966,35.649480373333375],[140.08398551845048,35.65126733478631],[140.08724902518938,35.64953362715151]],[[140.08724902518938,35.64953362715151],[140.0850816581185,35.64788867588027]],[[140.115408188934,35.62516112971895],[140.1201166070535,35.6253978133551],[140.11850561390503,35.62794807953462]],[[140.1168115798726,35.63018473989624],[140.11948549633553,35.63226755589436]],[[140.11948549633553,35.63226755589436],[140.12173590429035,35.63221430207622],[140.1228403480468,35.634332620619766]],[[140.1228403480468,35.634332620619766],[140.12388666318444,35.63496574934647]],[[140.12388666318444,35.63496574934647],[140.12471707202386,35.62817292898896],[140.12367906097458,35.62653389480862],[140.12392818362642,35.6249244460828],[140.12044877058926,35.62481202135563],[140.11638807136453,35.62297772317547],[140.115408188934,35.62516112971895]],[[140.10921333899196,35.64800701769835],[140.10862374871596,35.64945078787886]],[[140.1122858516978,35.65292412023936],[140.11448643512225,35.65133833987716]],[[140.0972139312624,35.64256329406689],[140.10012866628873,35.64332659879347],[140.1000207131396,35.644403509337955],[140.10227942518281,35.644876876610255],[140.09881662032245,35.64797743224383]],[[140.09881662032245,35.64797743224383],[140.09796960330624,35.648610560970525]],[[140.09796960330624,35.648610560970525],[140.10164001037646,35.65199513696747],[140.10474573943588,35.65159869187692]],[[140.10474573943588,35.65159869187692],[140.1076853867274,35.65137975951348]],[[140.11012678871532,35.64641532024523],[140.11404631843735,35.641687564613136]],[[140.11404631843735,35.641687564613136],[140.113954973465,35.64158697406777]],[[140.10640655711472,35.638758604615774],[140.10609100175574,35.63937989916067],[140.10250363556946,35.639581080251396]],[[140.11948549633553,35.63226755589436],[140.1195602331311,35.63237406353063]],[[140.11720187202715,35.63648052461783],[140.11705239843604,35.636610700617716]],[[140.11792432771745,35.63830890570709],[140.1228403480468,35.634332620619766]],[[140.11194538407364,35.63289476753015],[140.11190386363165,35.63292435298467]],[[140.11190386363165,35.63292435298467],[140.1117045655102,35.63313145116631]],[[140.11201181678078,35.63717282425357],[140.11544970937598,35.635652131891305]],[[140.11544970937598,35.635652131891305],[140.1149846804259,35.63333263225704]],[[140.11288374606218,35.62469959662845],[140.11251006208443,35.62604869335451],[140.10992749059386,35.62756346862587]],[[140.10992749059386,35.62756346862587],[140.1115717000959,35.627882991534676]],[[140.1115717000959,35.627882991534676],[140.11382210805073,35.6282380169889]],[[140.1149763763375,35.62617295226349],[140.115408188934,35.62516112971895]],[[140.115408188934,35.62516112971895],[140.11288374606218,35.62469959662845]],[[140.08612797325617,35.646367983518005],[140.08750645192958,35.64448634861061]],[[140.11689462075657,35.63479415371026],[140.11544970937598,35.635652131891305]],[[140.092065396458,35.638095890434556],[140.0939255122583,35.63544503370967]],[[140.0939255122583,35.63544503370967],[140.0941912430869,35.63507817407364]],[[140.09546176861122,35.642723055521294],[140.0951877336942,35.642634299157734]],[[140.08724902518938,35.64953362715151],[140.0883202525922,35.65039160533256],[140.0893499595531,35.649255523879035],[140.08995615800586,35.646592832972345],[140.09553650540676,35.64442717770157]],[[140.09553650540676,35.64442717770157],[140.09546176861122,35.642723055521294]],[[140.10988597015188,35.632279390076164],[140.10794281346764,35.6320190380764]],[[140.11190386363165,35.63292435298467],[140.10988597015188,35.632279390076164]],[[140.1179658481594,35.63836807661613],[140.11848900572824,35.63920238643356]],[[140.11848900572824,35.63920238643356],[140.11806549722013,35.640675742068595]],[[140.11806549722013,35.640675742068595],[140.11809871357372,35.6427289726122]],[[140.11809871357372,35.6427289726122],[140.12331368108525,35.64941528533344],[140.12519870915074,35.650012911514715],[140.12647753876342,35.6485750584251],[140.1282546136798,35.65096556315022]],[[140.1282546136798,35.65096556315022],[140.1282546136798,35.64853363878878],[140.1242105226318,35.646734843154036],[140.12404444086394,35.64505438933737],[140.12506584373642,35.643048495521],[140.12691765544832,35.64200117043104],[140.12617028749284,35.63962841697863],[140.1240859613059,35.63846275007059],[140.12388666318444,35.63496574934647]],[[140.09582714850055,35.62735045335334],[140.09527907866655,35.628101923898114]],[[140.09693989634536,35.63081195153203],[140.0993065615377,35.62738595589876]],[[140.092065396458,35.638095890434556],[140.09666586142836,35.638794107161196]],[[140.09666586142836,35.638794107161196],[140.09723053943915,35.63617875298174]],[[140.09723053943915,35.63617875298174],[140.0946396638602,35.63730300025345],[140.0939255122583,35.63544503370967]],[[140.09921521656537,35.62251619008497],[140.09639182651136,35.62110792244988],[140.09403346540742,35.6228771326301]],[[140.09802773192501,35.6351728475281],[140.09723053943915,35.63617875298174]],[[140.09666586142836,35.638794107161196],[140.09684855137303,35.63882960970662]],[[140.1006103034156,35.63936214788796],[140.10080960153707,35.636468690436025]],[[140.09696480861055,35.63132082134976],[140.0978948665107,35.63176460316754],[140.09838480772595,35.63488291007382]],[[140.09796960330624,35.648610560970525],[140.09642504286492,35.64921410424271],[140.0950465641915,35.65202472242199],[140.09266329082237,35.65368150787504],[140.09664094916317,35.65589449987305],[140.09895778982516,35.658290921689066],[140.09855088949385,35.66061042132334],[140.09379264684398,35.661213964595525],[140.09723053943915,35.6618056736859],[140.0997217659574,35.662953589321226],[140.10501977435288,35.66348021041166],[140.10869848551152,35.66340920532082]],[[140.10869848551152,35.66340920532082],[140.10796772573283,35.66108378859564],[140.10505299070647,35.66130272095908],[140.1081753279427,35.66036190350538],[140.1044301840769,35.65768737841689],[140.10696293103715,35.65316672096642]],[[140.10696293103715,35.65316672096642],[140.10474573943588,35.65159869187692]],[[140.10696293103715,35.65316672096642],[140.11086585258238,35.65584124605491],[140.1099856192126,35.657924062053034],[140.11198690451562,35.65954534496066],[140.11132257744407,35.663148853321054]],[[140.11132257744407,35.663148853321054],[140.11488503136516,35.66323760968461],[140.11679497169584,35.66566953404605],[140.1179907604246,35.66868725040697]],[[140.12391157544963,35.657397440962605],[140.12074771777145,35.658545356597934],[140.11827309942998,35.65479983805585],[140.11790771954065,35.65206614205832],[140.11608912418234,35.65050994715063]],[[140.11809871357372,35.6427289726122],[140.11590643423764,35.64385913697481]],[[140.11590643423764,35.64385913697481],[140.117725029596,35.64545675151883],[140.1186550874961,35.64883541042487],[140.12242514362708,35.652935954421174],[140.12477520064263,35.65265193405779],[140.1282546136798,35.65096556315022]],[[140.1115717000959,35.627882991534676],[140.10988597015188,35.632279390076164]],[[140.10869848551152,35.66340920532082],[140.11132257744407,35.663148853321054]],[[140.09546176861122,35.642723055521294],[140.0960430547988,35.64266980170316]],[[140.11404631843735,35.641687564613136],[140.11590643423764,35.64385913697481]],[[140.11806549722013,35.640675742068595],[140.11848900572824,35.63920238643356]],[[140.10831649744537,35.62741554135328],[140.10992749059386,35.62756346862587]],[[140.11288374606218,35.62469959662845],[140.10751930495954,35.623332748629686]],[[140.09553650540676,35.64442717770157],[140.09696480861055,35.64744489406249],[140.09881662032245,35.64797743224383]],[[140.15006945389126,35.66798903368032],[140.1513233712388,35.66966948749699],[140.1524278149952,35.674870610401385],[140.1520292187523,35.6704742118599],[140.15039331333864,35.66600089113666],[140.15119880991287,35.6638648213204],[140.1508500382003,35.66214886495832],[140.1530091011828,35.66016072241465],[140.15233647002287,35.65917848532463],[140.1568372859325,35.65734418714447],[140.15592383620915,35.65395369405662],[140.15369834051953,35.65448031514705],[140.15252746405594,35.65569331878232],[140.1499033721234,35.65659863369059],[140.15035179289666,35.65748619732616]],[[140.09258855402683,35.62437415662875],[140.09002259071303,35.62694217408098]]]}