{"type":"Topology","bbox":[140.03481504517163,35.64126335664864,140.15424057592463,35.71411538467456],"objects":{"town":{"type":"GeometryCollection","geometries":[{"type":"MultiPolygon","arcs":[[[0,1,2,3,4,5]],[[12,13,14,15]]],"properties":{"name":"朝日ヶ丘"}},{"type":"MultiPolygon","arcs":[[[121,100,101,6,7,8,9,-81,122,74,75]]],"properties":{"name":"検見川町"}},{"type":"MultiPolygon","arcs":[[[-16,60,-2,-1,18,19,20,55,-35,-13]]],"properties":{"name":"朝日ケ丘"}},{"type":"Polygon","arcs":[[21,22,23,24,25,26,27,28,29,30,31,32,33]],"properties":{"name":"柏井町"}},{"type":"Polygon","arcs":[[-14,34,35,36,37,38]],"properties":{"name":"朝日ケ丘町"}},{"type":"MultiPolygon","arcs":[[[39,40,41,-26,42,43]],[[94,95,-28]]],"properties":{"name":"柏井"}},{"type":"Polygon","arcs":[[44,45,46,47,48]],"properties":{"name":"内山町"}},{"type":"Polygon","arcs":[[49,50,51,52,53,54]],"properties":{"name":"天戸町"}},{"type":"MultiPolygon","arcs":[[[-48,-47,58,85,150]]],"properties":{"name":"み春野"}},{"type":"MultiPolygon","arcs":[[[76,77,169,120,69,70,87,90,93,-41,92,67,68,61,79]]],"properties":{"name":"作新台"}},{"type":"MultiPolygon","arcs":[[[156,-75,-123,80,-10,81,82,157,158]]],"properties":{"name":"南花園"}},{"type":"MultiPolygon","arcs":[[[-32,-31,-125,168,98,141,142,143,-212,267,-217,-258,125,126,151,152,-33]]],"properties":{"name":"こてはし台"}},{"type":"MultiPolygon","arcs":[[[185,108,105,103,-19,-6,-5,-4,153,154]]],"properties":{"name":"宮野木台"}},{"type":"MultiPolygon","arcs":[[[190,268,253,149,111,112,186,187]]],"properties":{"name":"幕張本郷"}},{"type":"MultiPolygon","arcs":[[[117,264,-261,-197,-260,265,-247,229,230,182,-7,-102,183,263,113,244,-187,-113,245]]],"properties":{"name":"幕張町"}},{"type":"Polygon","arcs":[[-30,123,124]],"properties":{"name":"横戸台"}},{"type":"MultiPolygon","arcs":[[[178,-51,-50,-55,-54,-53,232,233,164,-69,-68,-93,-40,-44,-43,-25,-24,130,172]]],"properties":{"name":"花見川"}},{"type":"MultiPolygon","arcs":[[[174,250,249,-158,-83,-82,-9,135,-244,256]]],"properties":{"name":"花園"}},{"type":"MultiPolygon","arcs":[[[193,194,191,-227,-235]]],"properties":{"name":"さつきが丘"}},{"type":"MultiPolygon","arcs":[[[195,196]],[[-230,246,247,-203,-242]]],"properties":{"name":"武石町"}},{"type":"Polygon","arcs":[[-45,197,-142,-99,-169,-124,-29,-96,198,199]],"properties":{"name":"横戸町"}},{"type":"MultiPolygon","arcs":[[[-221,-38,-37,200,201,202,203,239,-222]]],"properties":{"name":"瑞穂"}},{"type":"MultiPolygon","arcs":[[[208,-77,209,206,251]]],"properties":{"name":"長作台"}},{"type":"Polygon","arcs":[[210,211,-144,212]],"properties":{"name":"大日町"}},{"type":"Polygon","arcs":[[213,214,-152,-127,215,216,217]],"properties":{"name":"千種町"}},{"type":"Polygon","arcs":[[218,-20,-104,219]],"properties":{"name":"西小中台"}},{"type":"Polygon","arcs":[[-39,220,221,222,223,224,225,226,-192,227,-154,-3,-61,-15]],"properties":{"name":"畑町"}},{"type":"Polygon","arcs":[[-194,234,-226,235,236,-22,237,-214,238]],"properties":{"name":"犢橋町"}},{"type":"Polygon","arcs":[[-8,-183,-231,241,-202,242,243,-136]],"properties":{"name":"浪花町"}},{"type":"Polygon","arcs":[[-213,-143,-198,-49,-151,-86,-59,-46,-200,254]],"properties":{"name":"宇那谷町"}},{"type":"Polygon","arcs":[[-237,255,-233,-52,-179,-173,-131,-23]],"properties":{"name":"花島町"}},{"type":"Polygon","arcs":[[257,-216,-126]],"properties":{"name":"三角町"}},{"type":"Polygon","arcs":[[-224,258,259,-196,260,261,-70,-121,-170,-78,-209,-252,-207,262]],"properties":{"name":"長作町"}},{"type":"Polygon","arcs":[[-159,-250,-251,-175,-257,-243,-201,-36,-56,-21,-219,266]],"properties":{"name":"花園町"}}]}},"arcs":[[[140.08926658979638,35.65469132821097],[140.08764224014317,35.65562392742963]],[[140.08764224014317,35.65562392742963],[140.08979211468417,35.657234118268086],[140.08741530894162,35.660046487786836]],[[140.08741530894162,35.660046487786836],[140.0925630640926,35.65880787944956]],[[140.0925630640926,35.65880787944956],[140.0927302765569,35.65871316234142]],[[140.0927302765569,35.65871316234142],[140.09209725794204,35.656396236157576]],[[140.09209725794204,35.656396236157576],[140.08926658979638,35.65469132821097]],[[140.06245287677103,35.651128507758465],[140.06377863273798,35.655427207281946]],[[140.06377863273798,35.655427207281946],[140.0670751070342,35.65365672595278]],[[140.0670751070342,35.65365672595278],[140.06852030047565,35.65292084688181]],[[140.06852030047565,35.65292084688181],[140.067839506871,35.65203924918293]],[[140.067839506871,35.65203924918293],[140.0677678443863,35.65187167276083]],[[140.0677678443863,35.65187167276083],[140.0665495821464,35.65099736099334],[140.06245287677103,35.651128507758465]],[[140.08269752869887,35.65949275700076],[140.07997435428024,35.65852372812513],[140.07829028588978,35.658968169940266]],[[140.07829028588978,35.658968169940266],[140.0788158107776,35.6594271836182]],[[140.0788158107776,35.6594271836182],[140.0828527974157,35.6630118618649],[140.08687784030639,35.66017034862057]],[[140.08687784030639,35.66017034862057],[140.08663896535737,35.65966761935426],[140.08284085366827,35.660381640631044],[140.08269752869887,35.65949275700076]],[[140.07961604185675,35.65509205443774],[140.08267364120397,35.65691353728668]],[[140.08267364120397,35.65691353728668],[140.08322305358666,35.65629423311804],[140.08600594674252,35.656957252875046],[140.08764224014317,35.65562392742963]],[[140.08926658979638,35.65469132821097],[140.08780945260747,35.65416674115048]],[[140.08780945260747,35.65416674115048],[140.08447714706892,35.65273869859692]],[[140.08447714706892,35.65273869859692],[140.07961604185675,35.65509205443774]],[[140.10209417455772,35.679820505594854],[140.10086396857037,35.68035237858674]],[[140.10086396857037,35.68035237858674],[140.10207028706284,35.68292431236943],[140.10232110575927,35.68523395262188],[140.1051876051473,35.68782045826736],[140.10144921219543,35.688090037729005]],[[140.10144921219543,35.688090037729005],[140.10340798677723,35.68923392895814],[140.10103118103467,35.68991152057794],[140.09854688156506,35.691980725094325]],[[140.09854688156506,35.691980725094325],[140.09907240645288,35.69575483755732]],[[140.09907240645288,35.69575483755732],[140.09591925712607,35.69763460785742]],[[140.09591925712607,35.69763460785742],[140.09901268771563,35.70152529522274],[140.10085202482293,35.70280761914838]],[[140.10085202482293,35.70280761914838],[140.10300189936393,35.702202886842535],[140.10524732388456,35.70314277199259],[140.1055698050657,35.704716533174064],[140.10777939834395,35.70889137186382]],[[140.10777939834395,35.70889137186382],[140.10996510412733,35.697175594179484],[140.1108728289335,35.6964615729027]],[[140.1108728289335,35.6964615729027],[140.11096837891313,35.69539782691892],[140.1140618095027,35.695055388143324]],[[140.1140618095027,35.695055388143324],[140.11338101589803,35.69263645891994],[140.11548311544922,35.6939042109828],[140.11629529027584,35.69297889769554]],[[140.11629529027584,35.69297889769554],[140.12004562697516,35.68876762934881]],[[140.12004562697516,35.68876762934881],[140.11772853996985,35.68742701797199]],[[140.11772853996985,35.68742701797199],[140.11482620933947,35.68874577155462],[140.11219858490048,35.687193868167334],[140.11038313528806,35.68728129934408],[140.1048292927238,35.68409734732415],[140.10240471199143,35.682224862955444],[140.10209417455772,35.679820505594854]],[[140.07829028588978,35.658968169940266],[140.07531629277474,35.65636709243199]],[[140.07531629277474,35.65636709243199],[140.07228258092243,35.660345210974064]],[[140.07228258092243,35.660345210974064],[140.0727364433255,35.66068764974966]],[[140.0727364433255,35.66068764974966],[140.0735127869098,35.66124866646713]],[[140.0735127869098,35.66124866646713],[140.07514908031044,35.66170039421367],[140.0788158107776,35.6594271836182]],[[140.09200170796245,35.690494395089594],[140.09098648942918,35.68936507572326]],[[140.09098648942918,35.68936507572326],[140.09305275773804,35.69232316386992]],[[140.09305275773804,35.69232316386992],[140.09591925712607,35.69763460785742]],[[140.09907240645288,35.69575483755732],[140.0937813263325,35.69180586274083]],[[140.0937813263325,35.69180586274083],[140.09200170796245,35.690494395089594]],[[140.12760601911103,35.69166743004431],[140.12729548167732,35.691864150191996]],[[140.12729548167732,35.691864150191996],[140.12686550676912,35.692949753969955],[140.12796433153454,35.69565283451777],[140.12699688799108,35.69841420251676],[140.1338764865223,35.699069936342376],[140.13522612998415,35.69651986035387]],[[140.13522612998415,35.69651986035387],[140.1353575112061,35.69520839270263]],[[140.1353575112061,35.69520839270263],[140.1351664112469,35.69376577828628]],[[140.1351664112469,35.69376577828628],[140.13440201141012,35.692527169949],[140.13259850554516,35.69280403534204],[140.131320524568,35.69057454033495],[140.13235963059614,35.68910278219301],[140.12939758122855,35.689335931997675],[140.12760601911103,35.69166743004431]],[[140.0926347265773,35.68608640659518],[140.094139638756,35.68389334124507]],[[140.094139638756,35.68389334124507],[140.09393659504934,35.683842339725295]],[[140.09393659504934,35.683842339725295],[140.0936857763529,35.684439786099745]],[[140.0936857763529,35.684439786099745],[140.09212114543695,35.68470936556139]],[[140.09212114543695,35.68470936556139],[140.0918703267405,35.686370557919616]],[[140.0918703267405,35.686370557919616],[140.0926347265773,35.68608640659518]],[[140.07961604185675,35.65509205443774],[140.07531629277474,35.65636709243199]],[[140.08269752869887,35.65949275700076],[140.08267364120397,35.65691353728668]],[[140.13797319189766,35.69328490681416],[140.1353575112061,35.69520839270263]],[[140.13522612998415,35.69651986035387],[140.13613385479036,35.69760546413183],[140.13964531654068,35.694625518190975]],[[140.13964531654068,35.694625518190975],[140.13797319189766,35.69328490681416]],[[140.08687784030639,35.66017034862057],[140.08741530894162,35.660046487786836]],[[140.08784528384982,35.68589697237889],[140.08757057765848,35.68559096326027]],[[140.08757057765848,35.68559096326027],[140.08698533403341,35.68620298149751]],[[140.08698533403341,35.68620298149751],[140.0843815970893,35.69021752969656]],[[140.0843815970893,35.69021752969656],[140.08613732796448,35.69055996847216]],[[140.08613732796448,35.69055996847216],[140.08864551492897,35.688811344937186]],[[140.08864551492897,35.688811344937186],[140.08975628344183,35.68802446434644]],[[140.08975628344183,35.68802446434644],[140.08970850845205,35.68796617689528]],[[140.08970850845205,35.68796617689528],[140.08784528384982,35.68589697237889]],[[140.0787680357878,35.68949622248838],[140.07792002971885,35.68984594719538]],[[140.07792002971885,35.68984594719538],[140.0813001102472,35.6947639508875],[140.08331860356625,35.694508943288646]],[[140.08331860356625,35.694508943288646],[140.0822794975381,35.69340876764789]],[[140.0822794975381,35.69340876764789],[140.0787680357878,35.68949622248838]],[[140.0674811944475,35.645970068330286],[140.068317256769,35.646603944361715],[140.07045518756257,35.6456057717605],[140.07332168695058,35.6481631336804],[140.07426524299913,35.64999190246073]],[[140.07426524299913,35.64999190246073],[140.0824944849922,35.64856385990716]],[[140.0824944849922,35.64856385990716],[140.07643900503504,35.64532890636746],[140.07363222438428,35.64126335664864],[140.07180483102442,35.642319816701026],[140.0674811944475,35.645970068330286]],[[140.08545653435982,35.68392248497065],[140.08441742833168,35.68562010698585]],[[140.08441742833168,35.68562010698585],[140.0839516221811,35.687492591354555]],[[140.0839516221811,35.687492591354555],[140.08698533403341,35.68620298149751]],[[140.08757057765848,35.68559096326027],[140.08637620291347,35.683674763303195],[140.08545653435982,35.68392248497065]],[[140.07360833688938,35.650137621088646],[140.067839506871,35.65203924918293]],[[140.06852030047565,35.65292084688181],[140.07198398723617,35.65204653511432]],[[140.07198398723617,35.65204653511432],[140.07407414303992,35.65179152751548]],[[140.07407414303992,35.65179152751548],[140.07360833688938,35.650137621088646]],[[140.13747155450477,35.68930678827209],[140.13908396041052,35.69230859200714],[140.13797319189766,35.69328490681416]],[[140.13964531654068,35.694625518190975],[140.13950199157128,35.69260002926296],[140.14132938493114,35.69183500646641],[140.13874953548194,35.68898620729068],[140.13747155450477,35.68930678827209]],[[140.08571929680372,35.690844119796594],[140.0822794975381,35.69340876764789]],[[140.08331860356625,35.694508943288646],[140.08657924662012,35.69426122162119]],[[140.08657924662012,35.69426122162119],[140.08571929680372,35.690844119796594]],[[140.08613732796448,35.69055996847216],[140.08571929680372,35.690844119796594]],[[140.08657924662012,35.69426122162119],[140.08994738340104,35.69375849235488]],[[140.08994738340104,35.69375849235488],[140.08864551492897,35.688811344937186]],[[140.09098648942918,35.68936507572326],[140.08975628344183,35.68802446434644]],[[140.08994738340104,35.69375849235488],[140.09305275773804,35.69232316386992]],[[140.10085202482293,35.70280761914838],[140.1054025926014,35.70932852774756],[140.107886892071,35.709496104169666]],[[140.107886892071,35.709496104169666],[140.10777939834395,35.70889137186382]],[[140.1207503080747,35.68782045826736],[140.12004562697516,35.68876762934881]],[[140.11629529027584,35.69297889769554],[140.1193170583807,35.69477852275028]],[[140.1193170583807,35.69477852275028],[140.11949621459246,35.69255631367459],[140.1224940952024,35.68902263694766],[140.12204023279932,35.68858548106392]],[[140.12204023279932,35.68858548106392],[140.1207503080747,35.68782045826736]],[[140.06363530776858,35.648520144318795],[140.06153320821738,35.65026876785377]],[[140.06153320821738,35.65026876785377],[140.06245287677103,35.651128507758465]],[[140.0677678443863,35.65187167276083],[140.06766035065925,35.64942359981186],[140.06536715114885,35.6495328887828],[140.06363530776858,35.648520144318795]],[[140.08994738340104,35.651725954132914],[140.08780945260747,35.65416674115048]],[[140.09209725794204,35.656396236157576],[140.09661199447817,35.65587893502848]],[[140.09661199447817,35.65587893502848],[140.08994738340104,35.651725954132914]],[[140.0927302765569,35.65871316234142],[140.09497570107752,35.65767856008323]],[[140.09497570107752,35.65767856008323],[140.09686281317462,35.65605379738198]],[[140.09686281317462,35.65605379738198],[140.09661199447817,35.65587893502848]],[[140.04116911881505,35.66538707549991],[140.04628104272368,35.669394337767564]],[[140.04628104272368,35.669394337767564],[140.05010304190768,35.666254101336]],[[140.05010304190768,35.666254101336],[140.04743958622632,35.66512478196966]],[[140.04743958622632,35.66512478196966],[140.04594661779507,35.66541621922549],[140.0446686368179,35.66397360480914],[140.04116911881505,35.66538707549991]],[[140.04803677359882,35.65582793350871],[140.0461257740068,35.65697182473784]],[[140.0461257740068,35.65697182473784],[140.04662741139973,35.6575401273867]],[[140.04662741139973,35.6575401273867],[140.04699766757068,35.657940853613475]],[[140.04699766757068,35.657940853613475],[140.04746347372122,35.65847272660536]],[[140.04746347372122,35.65847272660536],[140.05281427257884,35.66545993481387],[140.0526112288722,35.66729598952559],[140.0550716408469,35.67031965105482],[140.0551910783214,35.67232328218864],[140.05670793424756,35.6763232585249],[140.05903696500033,35.67826860220756],[140.05897724626305,35.676621981712124],[140.06092407709744,35.675820529258594],[140.06362336402114,35.67845075049245]],[[140.06362336402114,35.67845075049245],[140.06257231424553,35.67524494067833],[140.05845172137526,35.67058923051646],[140.06057770842136,35.67031236512342],[140.05644517180366,35.66729598952559],[140.0545461159591,35.66288800103117],[140.04803677359882,35.65582793350871]],[[140.0843815970893,35.69021752969656],[140.07992657929046,35.68988966278375]],[[140.07992657929046,35.68988966278375],[140.0787680357878,35.68949622248838]],[[140.0674811944475,35.645970068330286],[140.06363530776858,35.648520144318795]],[[140.07360833688938,35.650137621088646],[140.07426524299913,35.64999190246073]],[[140.1108728289335,35.6964615729027],[140.1120194286887,35.70118285644713],[140.11397820327053,35.70073841463199],[140.11565032791353,35.69839963065397]],[[140.11565032791353,35.69839963065397],[140.1140618095027,35.695055388143324]],[[140.11942455210774,35.68301902947758],[140.11904235218935,35.683157462174094]],[[140.11904235218935,35.683157462174094],[140.11975897703635,35.68390791310786],[140.1175493837581,35.68467293590441]],[[140.1175493837581,35.68467293590441],[140.12138332668957,35.68686600125452]],[[140.12138332668957,35.68686600125452],[140.1226851951616,35.68491337164047]],[[140.1226851951616,35.68491337164047],[140.11942455210774,35.68301902947758]],[[140.10144921219543,35.688090037729005],[140.10032649993514,35.687696597433636]],[[140.10032649993514,35.687696597433636],[140.10037427492492,35.68888420425114],[140.09697030690165,35.68949622248838]],[[140.09697030690165,35.68949622248838],[140.0966239382256,35.690173814108185]],[[140.0966239382256,35.690173814108185],[140.09841550034312,35.69192972357455]],[[140.09841550034312,35.69192972357455],[140.09854688156506,35.691980725094325]],[[140.0670751070342,35.65365672595278],[140.06804255057764,35.65497547953541]],[[140.06804255057764,35.65497547953541],[140.07120764365192,35.654385319092356]],[[140.07120764365192,35.654385319092356],[140.07242590589183,35.6541375974249]],[[140.07242590589183,35.6541375974249],[140.07198398723617,35.65204653511432]],[[140.1288840000882,35.68608640659518],[140.12579056949863,35.686487132821945],[140.1226851951616,35.68491337164047]],[[140.12138332668957,35.68686600125452],[140.1207503080747,35.68782045826736]],[[140.12204023279932,35.68858548106392],[140.12436926355207,35.68851262174996],[140.1225179826973,35.68603540507541],[140.12435731980463,35.686414273507985],[140.12576668200373,35.68947436469419],[140.12641164436602,35.689095496261615]],[[140.12641164436602,35.689095496261615],[140.1291467625321,35.687325014932455]],[[140.1291467625321,35.687325014932455],[140.1288840000882,35.68608640659518]],[[140.0966239382256,35.690173814108185],[140.09646866950877,35.69037053425587]],[[140.09646866950877,35.69037053425587],[140.09841550034312,35.69192972357455]],[[140.04628104272368,35.669394337767564],[140.04534943042256,35.67016664649551]],[[140.04534943042256,35.67016664649551],[140.05009109816024,35.670326936986214]],[[140.05009109816024,35.670326936986214],[140.05114214793585,35.670254077672254]],[[140.05114214793585,35.670254077672254],[140.05243207266045,35.66806829825354],[140.05010304190768,35.666254101336]],[[140.13747155450477,35.68930678827209],[140.1351664112469,35.69376577828628]],[[140.1175493837581,35.68467293590441],[140.11679692766873,35.68495708722884]],[[140.11679692766873,35.68495708722884],[140.11770465247494,35.68612283625216],[140.11370349707917,35.68731772900106],[140.11542339671198,35.688090037729005],[140.116617771457,35.686763998214985],[140.11772853996985,35.68742701797199]],[[140.0925630640926,35.65880787944956],[140.0928974890212,35.66120495087876],[140.09379327007994,35.66121223681016]],[[140.09379327007994,35.66121223681016],[140.09649255700367,35.660993658868286]],[[140.09649255700367,35.660993658868286],[140.09497570107752,35.65767856008323]],[[140.0834260972933,35.64948188726303],[140.0824944849922,35.64856385990716]],[[140.07407414303992,35.65179152751548],[140.0774781110632,35.65137622942592]],[[140.0774781110632,35.65137622942592],[140.0808223603492,35.65078606898286],[140.0834260972933,35.64948188726303]],[[140.04534943042256,35.67016664649551],[140.04269791848867,35.67249085861074]],[[140.04269791848867,35.67249085861074],[140.04607799901703,35.67520122508996]],[[140.04607799901703,35.67520122508996],[140.05009109816024,35.670326936986214]],[[140.08970850845205,35.68796617689528],[140.0918703267405,35.686370557919616]],[[140.09212114543695,35.68470936556139],[140.0923480766385,35.68460007659045]],[[140.0923480766385,35.68460007659045],[140.09040124580414,35.68376219447994],[140.08784528384982,35.68589697237889]],[[140.0926347265773,35.68608640659518],[140.09585953838882,35.688447048367394]],[[140.09585953838882,35.688447048367394],[140.0963611757817,35.6881046095918]],[[140.0963611757817,35.6881046095918],[140.09540567598572,35.686450703164965],[140.0954534509755,35.684250351883456],[140.094139638756,35.68389334124507]],[[140.11565032791353,35.69839963065397],[140.11796741491884,35.69839963065397],[140.1193170583807,35.69477852275028]],[[140.0839516221811,35.687492591354555],[140.07992657929046,35.68988966278375]],[[140.09815273789923,35.68663285144986],[140.09724501309302,35.688738485623226]],[[140.09724501309302,35.688738485623226],[140.09697030690165,35.68949622248838]],[[140.10032649993514,35.687696597433636],[140.09815273789923,35.68663285144986]],[[140.07120764365192,35.654385319092356],[140.07248562462908,35.65791899581929]],[[140.07248562462908,35.65791899581929],[140.07511324906807,35.65614851449012]],[[140.07511324906807,35.65614851449012],[140.07439662422107,35.65375872899232]],[[140.07439662422107,35.65375872899232],[140.07242590589183,35.6541375974249]],[[140.0963611757817,35.6881046095918],[140.09724501309302,35.688738485623226]],[[140.09815273789923,35.68663285144986],[140.09683892567972,35.68498623095442],[140.09761526926397,35.68392977090205],[140.09565649468215,35.682632875113605],[140.09393659504934,35.683842339725295]],[[140.04662741139973,35.6575401273867],[140.04699766757068,35.657940853613475]],[[140.04904004838463,35.65523048713426],[140.052181253964,35.658501870330944],[140.0551433033316,35.6589171684205],[140.05668404675265,35.660804224652],[140.05741261534712,35.66021406420894]],[[140.05741261534712,35.66021406420894],[140.06318144536547,35.65573321640056]],[[140.06318144536547,35.65573321640056],[140.06377863273798,35.655427207281946]],[[140.06153320821738,35.65026876785377],[140.05814118394156,35.6520829647713],[140.0574842778318,35.65024691005958],[140.04904004838463,35.65523048713426]],[[140.09200170796245,35.690494395089594],[140.09585953838882,35.688447048367394]],[[140.09649255700367,35.660993658868286],[140.09854688156506,35.6606147904357],[140.09896491272582,35.658312436114656],[140.09686281317462,35.65605379738198]],[[140.04116911881505,35.66538707549991],[140.04076303140175,35.665540080059216]],[[140.04076303140175,35.665540080059216],[140.03780098203413,35.667609284575605]],[[140.03780098203413,35.667609284575605],[140.0388400880623,35.66940890963035],[140.04269791848867,35.67249085861074]],[[140.03954476916184,35.67514293763879],[140.04269791848867,35.67249085861074]],[[140.03780098203413,35.667609284575605],[140.03481504517163,35.669416195561745],[140.03954476916184,35.67514293763879]],[[140.09460544490656,35.661795111321815],[140.09305275773804,35.66188254249856]],[[140.09305275773804,35.66188254249856],[140.0934469014039,35.66398817667193],[140.0952145760265,35.66706283972093],[140.09634923203427,35.66756556898723],[140.10066092486372,35.6676238564384]],[[140.10066092486372,35.6676238564384],[140.10064898111628,35.6630118618649]],[[140.10064898111628,35.6630118618649],[140.09723306934558,35.66180239725321],[140.09460544490656,35.661795111321815]],[[140.06605988850094,35.6758132433272],[140.0664301446719,35.674778641069004]],[[140.0664301446719,35.674778641069004],[140.06546270112844,35.67516479543298],[140.06300228915373,35.67139796890139],[140.06100768332956,35.67080052252694],[140.05926389620188,35.67142711262697],[140.06247676426594,35.675091936119024],[140.06605988850094,35.6758132433272]],[[140.12760601911103,35.69166743004431],[140.12641164436602,35.689095496261615]],[[140.107886892071,35.709496104169666],[140.10911709805836,35.709496104169666],[140.11037119154062,35.712221042511665],[140.11280771602043,35.714006095703624],[140.11672526518404,35.71154345089187],[140.1179076961816,35.70947424637548],[140.12262547642436,35.70695331411255],[140.12261353267692,35.701569010811106],[140.12429760106735,35.69896793330283],[140.12636386937623,35.699018934822604]],[[140.12636386937623,35.699018934822604],[140.12741491915182,35.69591512804802],[140.1265908005778,35.69228673421295],[140.12729548167732,35.691864150191996]],[[140.07228258092243,35.660345210974064],[140.0721870309428,35.660272351660105]],[[140.0721870309428,35.660272351660105],[140.0718764935091,35.66077508092641],[140.06678845709538,35.65968219121705],[140.06541492613863,35.66025049386592]],[[140.06541492613863,35.66025049386592],[140.0663823696821,35.66239984362766]],[[140.0663823696821,35.66239984362766],[140.06660930088364,35.6630191477963]],[[140.06660930088364,35.6630191477963],[140.0691055441007,35.662356128039285]],[[140.0691055441007,35.662356128039285],[140.0727364433255,35.66068764974966]],[[140.08494295321947,35.682931598300826],[140.08364108474743,35.68288788271246]],[[140.08364108474743,35.68288788271246],[140.078720260798,35.683325038596195]],[[140.078720260798,35.683325038596195],[140.0795085481297,35.68535781345561],[140.08255420372947,35.68480408266953],[140.08441742833168,35.68562010698585]],[[140.08545653435982,35.68392248497065],[140.08494295321947,35.682931598300826]],[[140.1371729608185,35.67544894675741],[140.12559946953942,35.679113770249465],[140.12754630037378,35.682115573984504],[140.12588611947822,35.683448899429926]],[[140.12588611947822,35.683448899429926],[140.1288840000882,35.68608640659518]],[[140.1291467625321,35.687325014932455],[140.13026947479239,35.688053608072025],[140.13225213686908,35.6865745639987],[140.1344497863999,35.68802446434644],[140.13643244847663,35.6834999009497],[140.13658771719346,35.681889710111236],[140.1352380737316,35.68046895348907],[140.13522612998415,35.67865475657153],[140.1371729608185,35.67544894675741]],[[140.11560255292375,35.67332874072125],[140.11412152823993,35.67195169968746],[140.1139423720282,35.673248595475904],[140.1087468418874,35.67635240225049],[140.1051398301575,35.676862417448184],[140.1045665302799,35.6778605900494]],[[140.1045665302799,35.6778605900494],[140.105975892479,35.68033052079255],[140.1049965051881,35.68064381584257],[140.106692517326,35.684104633255544],[140.11047868526765,35.685838684927724],[140.11612807781154,35.68401720207879],[140.11679692766873,35.68495708722884]],[[140.11904235218935,35.683157462174094],[140.1196753708042,35.68290974050664]],[[140.1196753708042,35.68290974050664],[140.12293601385807,35.684439786099745]],[[140.12293601385807,35.684439786099745],[140.12298378884788,35.68183870859147],[140.12385568241172,35.68156184319843],[140.1217774703554,35.677387004508674],[140.1169760838805,35.67893162196457],[140.11608030282173,35.67694256269354],[140.11716718383968,35.67409376351781],[140.11560255292375,35.67332874072125]],[[140.08398745342348,35.65126694045498],[140.08447714706892,35.65273869859692]],[[140.08994738340104,35.651725954132914],[140.08724809647734,35.6495328887828],[140.08398745342348,35.65126694045498]],[[140.0735127869098,35.66124866646713],[140.071900381004,35.66462205270336]],[[140.071900381004,35.66462205270336],[140.07112403741976,35.667959009282605],[140.06899805037366,35.66862931497101]],[[140.06899805037366,35.66862931497101],[140.07071795000647,35.67058194458507]],[[140.07071795000647,35.67058194458507],[140.0736561118792,35.67176226547117],[140.0812045602676,35.67283329738635]],[[140.0812045602676,35.67283329738635],[140.0902220895924,35.67252728826772]],[[140.0902220895924,35.67252728826772],[140.09021014584494,35.67117210502812]],[[140.09021014584494,35.67117210502812],[140.09080733321744,35.66958377198385],[140.0904370770465,35.66553279412782],[140.08939797101834,35.66258199191255],[140.09305275773804,35.66188254249856]],[[140.09460544490656,35.661795111321815],[140.09379327007994,35.66121223681016]],[[140.05741261534712,35.66021406420894],[140.06018356475553,35.66358016451377]],[[140.06018356475553,35.66358016451377],[140.06087630210763,35.6616421067625],[140.06332477033487,35.65872773420421]],[[140.06332477033487,35.65872773420421],[140.06318144536547,35.65573321640056]],[[140.0937813263325,35.69180586274083],[140.09646866950877,35.69037053425587]],[[140.0936857763529,35.684439786099745],[140.09367383260545,35.684286781540436]],[[140.09367383260545,35.684286781540436],[140.0923480766385,35.68460007659045]],[[140.10066092486372,35.6676238564384],[140.09781831297062,35.6688041773245],[140.09541761973315,35.66859288531403],[140.09386493256466,35.6701885042897],[140.09021014584494,35.67117210502812]],[[140.0902220895924,35.67252728826772],[140.091512014317,35.67303730346543],[140.0963134007919,35.67788244784359],[140.0977705379808,35.67856003946339]],[[140.0977705379808,35.67856003946339],[140.10086396857037,35.68035237858674]],[[140.10209417455772,35.679820505594854],[140.1045665302799,35.6778605900494]],[[140.11560255292375,35.67332874072125],[140.11602058408448,35.671405254832784],[140.1187437585031,35.671813266990945],[140.11646250274015,35.670290507329234],[140.11827795235254,35.669321478453604],[140.11679692766873,35.665671226824344],[140.11488592807675,35.66323772573817],[140.10782717333376,35.663551020788184],[140.10064898111628,35.6630118618649]],[[140.06660930088364,35.6630191477963],[140.06899805037366,35.66862931497101]],[[140.071900381004,35.66462205270336],[140.0697027314732,35.66451276373242],[140.0691055441007,35.662356128039285]],[[140.06332477033487,35.65872773420421],[140.06541492613863,35.66025049386592]],[[140.0721870309428,35.660272351660105],[140.07067017501666,35.659135746362374]],[[140.07067017501666,35.659135746362374],[140.0695832939987,35.65818128934953],[140.06804255057764,35.65497547953541]],[[140.0461257740068,35.65697182473784],[140.0423993248024,35.6590847448426],[140.04557636162411,35.66153281779157],[140.04076303140175,35.665540080059216]],[[140.04743958622632,35.66512478196966],[140.04892061091013,35.66406103598589],[140.04892061091013,35.66154738965436],[140.04617354899662,35.65885888096933],[140.04746347372122,35.65847272660536]],[[140.06018356475553,35.66358016451377],[140.06051798968412,35.66411203750565]],[[140.06051798968412,35.66411203750565],[140.06207067685264,35.66434518731032],[140.06410111391915,35.662895286962566],[140.0663823696821,35.66239984362766]],[[140.07439662422107,35.65375872899232],[140.077764761002,35.652818843842276]],[[140.077764761002,35.652818843842276],[140.0774781110632,35.65137622942592]],[[140.07511324906807,35.65614851449012],[140.077525886053,35.654552895514456],[140.077764761002,35.652818843842276]],[[140.08364108474743,35.68288788271246],[140.08316333484942,35.68173670555193],[140.079436885645,35.68083325005886],[140.078720260798,35.683325038596195]],[[140.04607799901703,35.67520122508996],[140.04460891808066,35.677029993870285]],[[140.04460891808066,35.677029993870285],[140.04808454858863,35.67638883190746],[140.04981639196887,35.679040910935505],[140.05169156031855,35.675907960435346],[140.05061662304803,35.67283329738635],[140.05114214793585,35.670254077672254]],[[140.12636386937623,35.699018934822604],[140.1339959239968,35.6997038123738],[140.13993196647948,35.69482223833866],[140.14149659739545,35.692629172988546],[140.14347925947214,35.69187872205479],[140.1472893149087,35.69204629847689],[140.14985722061047,35.69128127568034],[140.15292676370512,35.688665626309266],[140.15381060101643,35.68229043633801],[140.15200709515148,35.68782045826736],[140.1492958644803,35.686487132821945],[140.15185182643464,35.68882591679998],[140.15009609555946,35.69043610763843],[140.14703849621225,35.69171114563268],[140.14536637156925,35.691048125875675],[140.14283429710983,35.691252131954755],[140.13964531654068,35.68814832518017],[140.13931089161207,35.68575125375098],[140.13822401059412,35.68490608570907],[140.13798513564512,35.6812704059426],[140.13668326717305,35.68016294437045],[140.13841511055332,35.6746110646469],[140.13661160468837,35.671215820616496],[140.1371729608185,35.67544894675741]],[[140.0977705379808,35.67856003946339],[140.0950234760673,35.68290974050664],[140.09367383260545,35.684286781540436]],[[140.07067017501666,35.659135746362374],[140.07248562462908,35.65791899581929]],[[140.11942455210774,35.68301902947758],[140.1196753708042,35.68290974050664]],[[140.07071795000647,35.67058194458507],[140.06978633770535,35.670771378801355],[140.0669078945699,35.67420305248874]],[[140.0669078945699,35.67420305248874],[140.0664301446719,35.674778641069004]],[[140.06605988850094,35.6758132433272],[140.0659046197841,35.67643983342723]],[[140.0659046197841,35.67643983342723],[140.0680306068302,35.677955307157546],[140.06911748784816,35.68111740138329],[140.07620013008602,35.68747801949176],[140.07792002971885,35.68984594719538]],[[140.08494295321947,35.682931598300826],[140.08377246596936,35.67825403034477],[140.0809895728135,35.67480778479459],[140.0812045602676,35.67283329738635]],[[140.04904004838463,35.65523048713426],[140.04803677359882,35.65582793350871]],[[140.06362336402114,35.67845075049245],[140.0659046197841,35.67643983342723]],[[140.0669078945699,35.67420305248874],[140.06252453925572,35.670290507329234],[140.0593713899289,35.66616667015925],[140.06051798968412,35.66411203750565]],[[140.08398745342348,35.65126694045498],[140.0834260972933,35.64948188726303]],[[140.12588611947822,35.683448899429926],[140.12293601385807,35.684439786099745]],[[140.03954476916184,35.67514293763879],[140.04176630618755,35.677773158872654],[140.04460891808066,35.677029993870285]]]}