{"type":"Topology","bbox":[139.76220994204547,35.69477868117,139.80976036351686,35.73163140033035],"objects":{"town":{"type":"GeometryCollection","geometries":[{"type":"MultiPolygon","arcs":[[[6,7,8,11,3,0,1,10,4,-49,-98,111,-101]]],"properties":{"name":"台東"}},{"type":"MultiPolygon","arcs":[[[93,-29,-34,-41,-227,-161,27,15,16,-58,-112,-100,12,13,25,19,20]]],"properties":{"name":"東上野"}},{"type":"MultiPolygon","arcs":[[[63,-133,-142,291,-67,-96,-20,-26,-14,-13,99,97,48,-5,-11,44,71,72,24,191,192,-134]]],"properties":{"name":"上野"}},{"type":"MultiPolygon","arcs":[[[30,31,32,33,28,-94,-21,95,-70,96]]],"properties":{"name":"北上野"}},{"type":"MultiPolygon","arcs":[[[-78,-273,246,247,248,-181,-180,-251,-254,298,-286,-285,267,-258,39,34,35,36,37,264,265,123,-79]]],"properties":{"name":"浅草"}},{"type":"MultiPolygon","arcs":[[[263,42,227,225,-162,226,40,-33,-32,-113,-90,255],[256]]],"properties":{"name":"松が谷"}},{"type":"MultiPolygon","arcs":[[[85,103,49,50,51,52,53,54,104,87,-131,-193,202]]],"properties":{"name":"池之端"}},{"type":"MultiPolygon","arcs":[[[-226,268,136,134,56,57,-17,-16,-28,160,161]]],"properties":{"name":"元浅草"}},{"type":"MultiPolygon","arcs":[[[-52,60]],[[243,238,211,-208,212,213,-82,-81,-147,242,219,220,-189,221]]],"properties":{"name":"根岸"}},{"type":"MultiPolygon","arcs":[[[147,-114,69,66,67,146,80,81,82,83],[70]]],"properties":{"name":"下谷"}},{"type":"MultiPolygon","arcs":[[[-234,274,294,-235,295,-248,-247,272,77,78,73,74,-93,-231]]],"properties":{"name":"千束"}},{"type":"MultiPolygon","arcs":[[[91,92,-75,88,89,112,-31,-97,113,114]],[[-257]]],"properties":{"name":"入谷"}},{"type":"MultiPolygon","arcs":[[[-139,-8,-7,100,-57,101,172]]],"properties":{"name":"小島"}},{"type":"MultiPolygon","arcs":[[[-269,-270,218,-150,109,105,177,-137]]],"properties":{"name":"寿"}},{"type":"Polygon","arcs":[[-72,-45,-2,110]],"properties":{"name":"秋葉原"}},{"type":"MultiPolygon","arcs":[[[118,115,116,163,164,165,-120]]],"properties":{"name":"清川"}},{"type":"MultiPolygon","arcs":[[[-119,119,120,289,-288]]],"properties":{"name":"橋場"}},{"type":"MultiPolygon","arcs":[[[129,126,127,-230,-153,-204,286]]],"properties":{"name":"柳橋"}},{"type":"Polygon","arcs":[[130,-88,-105,-55,131,132,-64,133]],"properties":{"name":"上野公園"}},{"type":"MultiPolygon","arcs":[[[137,-12,-9,138,139,-225,277,-156]]],"properties":{"name":"鳥越"}},{"type":"MultiPolygon","arcs":[[[145,141,-132,-54,142,143,-202,-190,-221,244]]],"properties":{"name":"上野桜木"}},{"type":"MultiPolygon","arcs":[[[148,-110,149,150,240,241,-176]]],"properties":{"name":"駒形"}},{"type":"MultiPolygon","arcs":[[[-128,-127,292,196,193,-4,-138,155,156,157,152,229]]],"properties":{"name":"浅草橋"}},{"type":"MultiPolygon","arcs":[[[-140,-173,-102,-135,159,223,224]]],"properties":{"name":"三筋"}},{"type":"MultiPolygon","arcs":[[[282,187,188,189,201,-144,-143,-53,-61,-51,297,166,184]]],"properties":{"name":"谷中"}},{"type":"MultiPolygon","arcs":[[[-106,-149,175,176,205,203,-158,-157,-278,-224,-160,-178]]],"properties":{"name":"蔵前"}},{"type":"MultiPolygon","arcs":[[[182,183,179,180,-249,-296,-238,-117]]],"properties":{"name":"東浅草"}},{"type":"MultiPolygon","arcs":[[[214,-213,207,208,209,215,216]]],"properties":{"name":"三ノ輪"}},{"type":"MultiPolygon","arcs":[[[-217,-280,-236,-295,-275,233,230,-92,-115,-148,-84,-83,-214,-215]]],"properties":{"name":"竜泉"}},{"type":"MultiPolygon","arcs":[[[-164,237,234,235,279,-216,-210,280,-165]]],"properties":{"name":"日本堤"}},{"type":"MultiPolygon","arcs":[[[252,253,250,-184,-183,-116,287,288]]],"properties":{"name":"今戸"}},{"type":"MultiPolygon","arcs":[[[283,259,260,-40,257,-268,284,285]]],"properties":{"name":"花川戸"}},{"type":"MultiPolygon","arcs":[[[-272,-36,-35,-261,261,-241,-151,-219]]],"properties":{"name":"雷門"}},{"type":"MultiPolygon","arcs":[[[-265,-38,-37,271,269,-228,-43,-264,-256,-89,-74,-124,-266]]],"properties":{"name":"西浅草"}}]}},"arcs":[[[139.78053770725705,35.70019288703524],[139.77549210297852,35.70057250800469],[139.7755919688502,35.701586059136716]],[[139.7755919688502,35.701586059136716],[139.77568707920418,35.702625409752095]],[[139.77568707920418,35.702625409752095],[139.78092765970837,35.702231046220724]],[[139.78092765970837,35.702231046220724],[139.78053770725705,35.70019288703524]],[[139.77585827784134,35.70421760643949],[139.7760247209608,35.70586508773409]],[[139.7760247209608,35.70586508773409],[139.781660009434,35.7053822688312]],[[139.781660009434,35.7053822688312],[139.78160769873932,35.705131645278556]],[[139.78160769873932,35.705131645278556],[139.78131761215968,35.703834299829566]],[[139.78131761215968,35.703834299829566],[139.781312856642,35.703834299829566]],[[139.781312856642,35.703834299829566],[139.77585827784134,35.70421760643949]],[[139.77568707920418,35.702625409752095],[139.77585827784134,35.70421760643949]],[[139.781312856642,35.703834299829566],[139.78092765970837,35.702231046220724]],[[139.77638614030593,35.7088799416468],[139.77663342722627,35.71068959112252]],[[139.77663342722627,35.71068959112252],[139.77665244929705,35.711117125418205]],[[139.77665244929705,35.711117125418205],[139.7786164781067,35.710166230174345],[139.78243515881894,35.70946227284265]],[[139.78243515881894,35.70946227284265],[139.78243040330122,35.70944015899977]],[[139.78243040330122,35.70944015899977],[139.7821308056862,35.70855560528455]],[[139.7821308056862,35.70855560528455],[139.77638614030593,35.7088799416468]],[[139.78065659519953,35.711618372523496],[139.77784608423948,35.712119619628794]],[[139.77784608423948,35.712119619628794],[139.78095619281456,35.71616276723544]],[[139.78095619281456,35.71616276723544],[139.78260160193838,35.715720490377834]],[[139.78260160193838,35.715720490377834],[139.78065659519953,35.711618372523496]],[[139.77243906061582,35.708046986898296],[139.7730715444698,35.707995387931575]],[[139.7730715444698,35.707995387931575],[139.77199679746982,35.705083731952314]],[[139.77199679746982,35.705083731952314],[139.7699376583062,35.705216415009595],[139.77008983487255,35.707357772128525],[139.77243906061582,35.708046986898296]],[[139.77665244929705,35.711117125418205],[139.77784608423948,35.712119619628794]],[[139.78065659519953,35.711618372523496],[139.783034354049,35.71120189514925]],[[139.783034354049,35.71120189514925],[139.78243515881894,35.70946227284265]],[[139.78297728783662,35.71563572064679],[139.7829630212835,35.71564677756823]],[[139.7829630212835,35.71564677756823],[139.78403301276578,35.71980418002976]],[[139.78403301276578,35.71980418002976],[139.78592095329222,35.71919236371007]],[[139.78592095329222,35.71919236371007],[139.7855262453232,35.71745642704395]],[[139.7855262453232,35.71745642704395],[139.78544064600464,35.71518238686774]],[[139.78544064600464,35.71518238686774],[139.78297728783662,35.71563572064679]],[[139.79769085959703,35.71071539060588],[139.79464732826972,35.71110975413725]],[[139.79464732826972,35.71110975413725],[139.79202228249994,35.711459889982855]],[[139.79202228249994,35.711459889982855],[139.79204606008844,35.71164785764734]],[[139.79204606008844,35.71164785764734],[139.79244076805745,35.71376710092339]],[[139.79244076805745,35.71376710092339],[139.79468537241132,35.712842005162884],[139.79784779168108,35.71268720826272]],[[139.79784779168108,35.71268720826272],[139.79769085959703,35.71071539060588]],[[139.7852028701197,35.71266509441984],[139.78544064600464,35.71518238686774]],[[139.78544064600464,35.71518238686774],[139.78894070703103,35.714485800817]],[[139.78894070703103,35.714485800817],[139.78851746595583,35.712337072417114]],[[139.78851746595583,35.712337072417114],[139.7852028701197,35.71266509441984]],[[139.77568707920418,35.702625409752095],[139.77374207246532,35.70277652101178]],[[139.77374207246532,35.70277652101178],[139.77463135427502,35.70780004898614]],[[139.77463135427502,35.70780004898614],[139.7746361097927,35.70782216282901]],[[139.7746361097927,35.70782216282901],[139.77618640856255,35.70765630900741]],[[139.77618640856255,35.70765630900741],[139.7760247209608,35.70586508773409]],[[139.76828749366467,35.71657555896921],[139.766860838355,35.71839995100685]],[[139.766860838355,35.71839995100685],[139.7690198433903,35.72007323178481]],[[139.7690198433903,35.72007323178481],[139.76917677547436,35.720191172280174]],[[139.76917677547436,35.720191172280174],[139.7694953951602,35.720268570730255]],[[139.7694953951602,35.720268570730255],[139.7699091252,35.71948352930799]],[[139.7699091252,35.71948352930799],[139.76980450381063,35.717172632726985]],[[139.76980450381063,35.717172632726985],[139.76828749366467,35.71657555896921]],[[139.78497936078784,35.70670172812307],[139.78195960704903,35.70702606448532]],[[139.78195960704903,35.70702606448532],[139.7821308056862,35.70855560528455]],[[139.78243040330122,35.70944015899977],[139.78502691596483,35.70903105290648]],[[139.78502691596483,35.70903105290648],[139.78497936078784,35.70670172812307]],[[139.7690198433903,35.72007323178481],[139.76917677547436,35.720191172280174]],[[139.77463135427502,35.70780004898614],[139.7730715444698,35.707995387931575]],[[139.7730715444698,35.707995387931575],[139.77356611831047,35.710000376352745]],[[139.77356611831047,35.710000376352745],[139.7743507787308,35.7115262315115]],[[139.7743507787308,35.7115262315115],[139.7746361097927,35.71152254587102]],[[139.7746361097927,35.71152254587102],[139.7746361097927,35.70782216282901]],[[139.7815934321862,35.7169662368601],[139.7804901520801,35.718919626314545]],[[139.7804901520801,35.718919626314545],[139.78137467837206,35.720718218868825]],[[139.78137467837206,35.720718218868825],[139.7838665696463,35.71985946463697]],[[139.7838665696463,35.71985946463697],[139.7815934321862,35.7169662368601]],[[139.78133663423048,35.72043811019234],[139.78133663423048,35.72043811019234]],[[139.77374207246532,35.70277652101178],[139.77371353935914,35.70278020665226]],[[139.77371353935914,35.70278020665226],[139.77325225414234,35.70498790529983],[139.77199679746982,35.705083731952314]],[[139.79271183256628,35.71730163014379],[139.78937821465934,35.71816038437564]],[[139.78937821465934,35.71816038437564],[139.7895351467434,35.71914076474335]],[[139.7895351467434,35.71914076474335],[139.7912423775973,35.71923290575535],[139.79113775620795,35.72134846339092]],[[139.79113775620795,35.72134846339092],[139.79205557112383,35.71978575182737]],[[139.79205557112383,35.71978575182737],[139.7926880549778,35.71870217352622]],[[139.7926880549778,35.71870217352622],[139.79271183256628,35.71730163014379]],[[139.7859970415754,35.722623694997026],[139.78421847795602,35.72363724612905]],[[139.78421847795602,35.72363724612905],[139.78622530642497,35.725185215130686]],[[139.78622530642497,35.725185215130686],[139.79005349817257,35.72840646491028]],[[139.79005349817257,35.72840646491028],[139.78754734034527,35.72464342598011]],[[139.78754734034527,35.72464342598011],[139.7859970415754,35.722623694997026]],[[139.76849198092575,35.71254715392448],[139.7677738977532,35.712701950824645]],[[139.7677738977532,35.712701950824645],[139.765629159271,35.71353490557314],[139.7660333782754,35.714975991000856],[139.76490156506304,35.71750434037019],[139.7677358536116,35.715613606803906]],[[139.7677358536116,35.715613606803906],[139.7677738977532,35.715510408870465]],[[139.7677738977532,35.715510408870465],[139.76849198092575,35.71254715392448]],[[139.78937821465934,35.71816038437564],[139.78936394810623,35.718101414127965]],[[139.78936394810623,35.718101414127965],[139.78783742692488,35.718576861749895]],[[139.78783742692488,35.718576861749895],[139.78714787685854,35.722653180120865]],[[139.78714787685854,35.722653180120865],[139.78937345914164,35.722704779087586]],[[139.78937345914164,35.722704779087586],[139.7895351467434,35.71914076474335]],[[139.78260160193838,35.715720490377834],[139.7829630212835,35.71564677756823]],[[139.78297728783662,35.71563572064679],[139.783034354049,35.71120189514925]],[[139.78095619281456,35.71616276723544],[139.7815934321862,35.7169662368601]],[[139.7838665696463,35.71985946463697],[139.78403301276578,35.71980418002976]],[[139.77627676339884,35.70764525208597],[139.77618640856255,35.70765630900741]],[[139.7746361097927,35.71152254587102],[139.77663342722627,35.71068959112252]],[[139.77638614030593,35.7088799416468],[139.77627676339884,35.70764525208597]],[[139.781660009434,35.7053822688312],[139.78195960704903,35.70702606448532]],[[139.78497936078784,35.70670172812307],[139.7847368293852,35.704740967387664]],[[139.7847368293852,35.704740967387664],[139.78160769873932,35.705131645278556]],[[139.7677358536116,35.715613606803906],[139.76828749366467,35.71657555896921]],[[139.76980450381063,35.717172632726985],[139.7698425479522,35.714397345445484],[139.7677738977532,35.715510408870465]],[[139.79272609911936,35.70541175395504],[139.79075255927432,35.706093597443854]],[[139.79075255927432,35.706093597443854],[139.79115202276103,35.70830129609143]],[[139.79115202276103,35.70830129609143],[139.79117580034952,35.708419236586785]],[[139.79117580034952,35.708419236586785],[139.7939292450972,35.70771527925509]],[[139.7939292450972,35.70771527925509],[139.79272609911936,35.70541175395504]],[[139.7755919688502,35.701586059136716],[139.77338540863792,35.70174085603688],[139.77371353935914,35.70278020665226]],[[139.77627676339884,35.70764525208597],[139.78195960704903,35.70702606448532]],[[139.78783742692488,35.718576861749895],[139.78592095329222,35.71919236371007]],[[139.7838665696463,35.71985946463697],[139.78602557468162,35.72262000935655]],[[139.78602557468162,35.72262000935655],[139.78714787685854,35.722653180120865]],[[139.80450076094186,35.722837462144874],[139.80154282893315,35.72292591751639]],[[139.80154282893315,35.72292591751639],[139.8008580343845,35.726195080622226]],[[139.8008580343845,35.726195080622226],[139.80496680167636,35.72626510779135]],[[139.80496680167636,35.72626510779135],[139.80450076094186,35.722837462144874]],[[139.80496680167636,35.72626510779135],[139.80538053171617,35.72848386336036]],[[139.80538053171617,35.72848386336036],[139.80976036351686,35.72794944549075],[139.80964147557438,35.725480066369094]],[[139.80964147557438,35.725480066369094],[139.80496680167636,35.72626510779135]],[[139.79864196313682,35.71581631703032],[139.79271183256628,35.71729057322235]],[[139.79271183256628,35.71729057322235],[139.79271183256628,35.71730163014379]],[[139.7926880549778,35.71870217352622],[139.79908422628282,35.71734585782955]],[[139.79908422628282,35.71734585782955],[139.79864196313682,35.71581631703032]],[[139.78542162393384,35.695851202549704],[139.78695290063288,35.69843115088576]],[[139.78695290063288,35.69843115088576],[139.7870099668453,35.698515920616806]],[[139.7870099668453,35.698515920616806],[139.7903388292345,35.69700112237949]],[[139.7903388292345,35.69700112237949],[139.78894546254872,35.69477868117],[139.78542162393384,35.695851202549704]],[[139.76978072622214,35.70924482005432],[139.76849198092575,35.71254715392448]],[[139.7699091252,35.71948352930799],[139.77366122866445,35.72131160698612],[139.77449819977946,35.719951605648966],[139.77540650365995,35.721193666490755],[139.77852612327044,35.719107593979025],[139.77922518437217,35.72001057589665]],[[139.77922518437217,35.72001057589665],[139.7791681181598,35.71750065472971],[139.77576792300505,35.71375235836147],[139.7743507787308,35.7115262315115]],[[139.77356611831047,35.710000376352745],[139.76978072622214,35.70924482005432]],[[139.78802289211515,35.706377391760824],[139.78497936078784,35.70670172812307]],[[139.78502691596483,35.70903105290648],[139.78816555764612,35.70865880321799]],[[139.78816555764612,35.70865880321799],[139.78802289211515,35.706377391760824]],[[139.78401874621267,35.70189196729656],[139.78092765970837,35.702231046220724]],[[139.78131761215968,35.703834299829566],[139.78438967659318,35.703410451174356]],[[139.78438967659318,35.703410451174356],[139.7843516324516,35.70323722607179]],[[139.7843516324516,35.70323722607179],[139.78401874621267,35.70189196729656]],[[139.77932505024384,35.72014325895393],[139.77922518437217,35.72001057589665]],[[139.7694953951602,35.720268570730255],[139.76939077377082,35.720662934261625]],[[139.76939077377082,35.720662934261625],[139.7708364511513,35.721112582400195]],[[139.7708364511513,35.721112582400195],[139.77331883139013,35.72193816586773],[139.77568232368648,35.723552476398005]],[[139.77568232368648,35.723552476398005],[139.77932505024384,35.72014325895393]],[[139.78137467837206,35.720718218868825],[139.78421847795602,35.72363724612905]],[[139.7859970415754,35.722623694997026],[139.78602557468162,35.72262000935655]],[[139.79333480538483,35.70519798680719],[139.79272609911936,35.70541175395504]],[[139.7939292450972,35.70771527925509],[139.7943239530662,35.709075280592245]],[[139.7943239530662,35.709075280592245],[139.79617384945107,35.708809914477676]],[[139.79617384945107,35.708809914477676],[139.79333480538483,35.70519798680719]],[[139.7882178683408,35.70029977060916],[139.78786596003107,35.69980589478483]],[[139.78786596003107,35.69980589478483],[139.78374768170383,35.70080838899541]],[[139.78374768170383,35.70080838899541],[139.78401874621267,35.70189196729656]],[[139.78401874621267,35.70189196729656],[139.78800862556204,35.70176296987976]],[[139.78800862556204,35.70176296987976],[139.7891214167036,35.70157500221527]],[[139.7891214167036,35.70157500221527],[139.7882178683408,35.70029977060916]],[[139.78801338107974,35.704763081230546],[139.7847368293852,35.704740967387664]],[[139.78802289211515,35.706377391760824],[139.78801338107974,35.704763081230546]],[[139.783034354049,35.71120189514925],[139.78501264941173,35.71085544494412]],[[139.78501264941173,35.71085544494412],[139.78508873769493,35.71084438802268]],[[139.78508873769493,35.71084438802268],[139.78502691596483,35.70903105290648]],[[139.8008580343845,35.726195080622226],[139.79998777464561,35.72793838856931]],[[139.79998777464561,35.72793838856931],[139.7994932008049,35.72892614021797]],[[139.7994932008049,35.72892614021797],[139.80538053171617,35.72848386336036]],[[139.76536285027984,35.720006890256165],[139.763417843541,35.72191973766533],[139.7642690812091,35.72459182701339]],[[139.7642690812091,35.72459182701339],[139.76572426962497,35.72406109478426]],[[139.76572426962497,35.72406109478426],[139.76664208454085,35.721164181366916]],[[139.76664208454085,35.721164181366916],[139.76536285027984,35.720006890256165]],[[139.78960172399118,35.702116791365846],[139.79075255927432,35.706093597443854]],[[139.79333480538483,35.70519798680719],[139.78960172399118,35.702116791365846]],[[139.7847368293852,35.704740967387664],[139.78438967659318,35.703410451174356]],[[139.79340613815032,35.70095212897414],[139.7891547053275,35.70157131657479]],[[139.7891547053275,35.70157131657479],[139.78960172399118,35.702116791365846]],[[139.79333480538483,35.70519798680719],[139.7951371465927,35.70436134641822]],[[139.7951371465927,35.70436134641822],[139.79340613815032,35.70095212897414]],[[139.79075255927432,35.706093597443854],[139.78802289211515,35.706377391760824]],[[139.78816555764612,35.70865880321799],[139.79115202276103,35.70830129609143]],[[139.80192327034905,35.71919604935055],[139.80022555053054,35.72079193167843]],[[139.80022555053054,35.72079193167843],[139.79877511763237,35.72287063290919]],[[139.79877511763237,35.72287063290919],[139.80154282893315,35.72292591751639]],[[139.80154282893315,35.72292591751639],[139.80182815999507,35.720799302959385]],[[139.80182815999507,35.720799302959385],[139.80192327034905,35.71919604935055]],[[139.7642690812091,35.72459182701339],[139.76482547677986,35.72762142348802],[139.76220994204547,35.73162034340891],[139.765091785771,35.73026034207176],[139.76581462446126,35.7276988219381],[139.76674670593025,35.727462940947376]],[[139.76674670593025,35.727462940947376],[139.76572426962497,35.72406109478426]],[[139.76920055306286,35.72354510511705],[139.76833980435936,35.72765459425234]],[[139.76833980435936,35.72765459425234],[139.77008507935486,35.72806001470515],[139.7729764341158,35.72597394219342]],[[139.7729764341158,35.72597394219342],[139.7743460232131,35.724790851599316]],[[139.7743460232131,35.724790851599316],[139.77242479406272,35.72270109344711],[139.770351388346,35.72239887092774]],[[139.770351388346,35.72239887092774],[139.76920055306286,35.72354510511705]],[[139.77243906061582,35.708046986898296],[139.77145466845215,35.709134250839924],[139.76980925932833,35.70879517191575]],[[139.76980925932833,35.70879517191575],[139.76978072622214,35.70924482005432]],[[139.780380775173,35.69914985077938],[139.78053770725705,35.70019288703524]],[[139.78374768170383,35.70080838899541],[139.7829677768012,35.6989618831149]],[[139.7829677768012,35.6989618831149],[139.780380775173,35.69914985077938]],[[139.78282511127023,35.69763505254206],[139.78017153239426,35.69788936173519],[139.780380775173,35.69914985077938]],[[139.7829677768012,35.6989618831149],[139.78282511127023,35.69763505254206]],[[139.76939077377082,35.720662934261625],[139.76893424407172,35.72179811152949]],[[139.76893424407172,35.72179811152949],[139.76836358194785,35.72359670408377]],[[139.76836358194785,35.72359670408377],[139.76920055306286,35.72354510511705]],[[139.770351388346,35.72239887092774],[139.7708364511513,35.721112582400195]],[[139.76980925932833,35.70879517191575],[139.7669036380143,35.708651431937035],[139.76804971777975,35.71025099990539],[139.7677738977532,35.712701950824645]],[[139.79180828420348,35.69861543290977],[139.7882178683408,35.70029977060916]],[[139.7891214167036,35.70157500221527],[139.7891547053275,35.70157131657479]],[[139.79340613815032,35.70095212897414],[139.79180828420348,35.69861543290977]],[[139.79367244714146,35.72870131614869],[139.79177024006188,35.730028146721516]],[[139.79177024006188,35.730028146721516],[139.7921269038893,35.73106012605594]],[[139.7921269038893,35.73106012605594],[139.79426213133613,35.73033036924088],[139.7951894572874,35.7287713433178]],[[139.7951894572874,35.7287713433178],[139.79367244714146,35.72870131614869]],[[139.78622530642497,35.725185215130686],[139.78360977169055,35.727470312228334]],[[139.78360977169055,35.727470312228334],[139.78796107038505,35.72782781935491],[139.7921269038893,35.73106012605594]],[[139.79177024006188,35.730028146721516],[139.79072402616814,35.72893719713941]],[[139.79072402616814,35.72893719713941],[139.79005349817257,35.72840646491028]],[[139.7908762027345,35.72672212721088],[139.79072402616814,35.72893719713941]],[[139.79367244714146,35.72870131614869],[139.79468537241132,35.7275698245213]],[[139.79468537241132,35.7275698245213],[139.7908762027345,35.72672212721088]],[[139.79117580034952,35.708419236586785],[139.79140406519906,35.709628126664256]],[[139.79140406519906,35.709628126664256],[139.7943239530662,35.709075280592245]],[[139.77817897047842,35.72311757082136],[139.7756775681688,35.72355984767897]],[[139.7756775681688,35.72355984767897],[139.7743460232131,35.724790851599316]],[[139.7729764341158,35.72597394219342],[139.77410349181045,35.726618929277436],[139.77677609275722,35.72525524229981],[139.77894936434564,35.72491247773516]],[[139.77894936434564,35.72491247773516],[139.77817897047842,35.72311757082136]],[[139.78801338107974,35.704763081230546],[139.78795631486736,35.70285391946186]],[[139.78795631486736,35.70285391946186],[139.7843516324516,35.70323722607179]],[[139.7882701790355,35.710269428107786],[139.78508873769493,35.71084438802268]],[[139.78501264941173,35.71085544494412],[139.7852028701197,35.71266509441984]],[[139.78851746595583,35.712337072417114],[139.7882701790355,35.710269428107786]],[[139.78695290063288,35.69843115088576],[139.7829677768012,35.6989618831149]],[[139.78786596003107,35.69980589478483],[139.7870099668453,35.698515920616806]],[[139.79110446758403,35.72274900677335],[139.78937345914164,35.722704779087586]],[[139.78754734034527,35.72464342598011],[139.79100935723005,35.724742938273074]],[[139.79100935723005,35.724742938273074],[139.79109020103095,35.723309224126325]],[[139.79109020103095,35.723309224126325],[139.79110446758403,35.72274900677335]],[[139.7973294402519,35.724554970608594],[139.79593607356614,35.726143481655505]],[[139.79593607356614,35.726143481655505],[139.79592656253072,35.72615453857695]],[[139.79592656253072,35.72615453857695],[139.79998777464561,35.72793838856931]],[[139.8008580343845,35.726195080622226],[139.7973294402519,35.724554970608594]],[[139.78127481250038,35.724790851599316],[139.78360977169055,35.727470312228334]],[[139.78421847795602,35.72363724612905],[139.78127481250038,35.724790851599316]],[[139.79617384945107,35.708809914477676],[139.7974150395705,35.708231268922304]],[[139.7974150395705,35.708231268922304],[139.7951371465927,35.70436134641822]],[[139.78137467837206,35.720718218868825],[139.77817897047842,35.72311757082136]],[[139.77894936434564,35.72491247773516],[139.78127481250038,35.724790851599316]],[[139.7756775681688,35.72355984767897],[139.77568232368648,35.723552476398005]],[[139.79950271184032,35.71882748530254],[139.79320640640697,35.72020222920161]],[[139.79320640640697,35.72020222920161],[139.79540345558385,35.7215732874602]],[[139.79540345558385,35.7215732874602],[139.79838516518106,35.72335345181208]],[[139.79838516518106,35.72335345181208],[139.79877511763237,35.72287063290919]],[[139.80022555053054,35.72079193167843],[139.79950271184032,35.71882748530254]],[[139.80192327034905,35.719030195528944],[139.80192327034905,35.71919604935055]],[[139.80182815999507,35.720799302959385],[139.80647905630462,35.72058922145202],[139.80806264369835,35.719608841084316]],[[139.80806264369835,35.719608841084316],[139.80544235344624,35.716170138516404]],[[139.80544235344624,35.716170138516404],[139.80192327034905,35.719030195528944]],[[139.78916897188057,35.71671561330746],[139.7855262453232,35.71745642704395]],[[139.78936394810623,35.718101414127965],[139.78916897188057,35.71671561330746]],[[139.78744271895587,35.71828938179245],[139.78744271895587,35.71828938179245]],[[139.79784779168108,35.71268720826272],[139.7982710327563,35.71427940495012]],[[139.7982710327563,35.71427940495012],[139.80200886966765,35.712838319522405]],[[139.80200886966765,35.712838319522405],[139.79897009385803,35.710055660959945]],[[139.79897009385803,35.710055660959945],[139.79769085959703,35.71071539060588]],[[139.79897009385803,35.710055660959945],[139.7974150395705,35.708231268922304]],[[139.7943239530662,35.709075280592245],[139.79464732826972,35.71110975413725]],[[139.78916897188057,35.71671561330746],[139.78894070703103,35.714485800817]],[[139.79244076805745,35.71376710092339],[139.79244552357514,35.713789214766265]],[[139.79244552357514,35.713789214766265],[139.79271183256628,35.71729057322235]],[[139.79864196313682,35.71581631703032],[139.798670496243,35.715801574468394]],[[139.798670496243,35.715801574468394],[139.7982710327563,35.71427940495012]],[[139.7882701790355,35.710269428107786],[139.78816555764612,35.70865880321799]],[[139.79140406519906,35.709628126664256],[139.7882701790355,35.710269428107786]],[[139.78851746595583,35.712337072417114],[139.79204606008844,35.71164785764734]],[[139.79202228249994,35.711459889982855],[139.79140406519906,35.709628126664256]],[[139.79320640640697,35.72020222920161],[139.79205557112383,35.71978575182737]],[[139.79113775620795,35.72134846339092],[139.79110446758403,35.72274900677335]],[[139.79109020103095,35.723309224126325],[139.79296387500432,35.724396488067946]],[[139.79296387500432,35.724396488067946],[139.79540345558385,35.7215732874602]],[[139.79244552357514,35.713789214766265],[139.78894070703103,35.714485800817]],[[139.78795631486736,35.70285391946186],[139.78800862556204,35.70176296987976]],[[139.79950271184032,35.71882748530254],[139.79908422628282,35.71734585782955]],[[139.79592656253072,35.72615453857695],[139.79468537241132,35.7275698245213]],[[139.7951894572874,35.7287713433178],[139.7994932008049,35.72892614021797]],[[139.76836358194785,35.72359670408377],[139.76572426962497,35.72406109478426]],[[139.76674670593025,35.727462940947376],[139.76833980435936,35.72765459425234]],[[139.8034212584242,35.714161464454754],[139.80200886966765,35.712838319522405]],[[139.798670496243,35.715801574468394],[139.801813893442,35.71507550329382]],[[139.801813893442,35.71507550329382],[139.8034212584242,35.714161464454754]],[[139.79180828420348,35.69861543290977],[139.7903388292345,35.69700112237949]],[[139.80450076094186,35.722837462144874],[139.80895192550804,35.72232884375862]],[[139.80895192550804,35.72232884375862],[139.80806264369835,35.719608841084316]],[[139.80964147557438,35.725480066369094],[139.80895192550804,35.72232884375862]],[[139.76893424407172,35.72179811152949],[139.76664208454085,35.721164181366916]],[[139.77932505024384,35.72014325895393],[139.7804901520801,35.718919626314545]],[[139.78542162393384,35.695851202549704],[139.78273475643397,35.69663624397196],[139.78282511127023,35.69763505254206]],[[139.80192327034905,35.719030195528944],[139.801813893442,35.71507550329382]],[[139.79296387500432,35.724396488067946],[139.79593607356614,35.726143481655505]],[[139.7973294402519,35.724554970608594],[139.79838516518106,35.72335345181208]],[[139.7908762027345,35.72672212721088],[139.79100935723005,35.724742938273074]],[[139.766860838355,35.71839995100685],[139.76536285027984,35.720006890256165]],[[139.80544235344624,35.716170138516404],[139.8034212584242,35.714161464454754]]]}