{"type":"Topology","bbox":[139.72988567488804,35.66856532694823,139.7828787909516,35.7052158132485],"objects":{"town":{"type":"GeometryCollection","geometries":[{"type":"MultiPolygon","arcs":[[[-19,24,7,0,1,2,3,4,25,26]]],"properties":{"name":"丸の内"}},{"type":"MultiPolygon","arcs":[[[-91,95,175,-128,-153,11,12,13,14,97]]],"properties":{"name":"霞が関"}},{"type":"MultiPolygon","arcs":[[[-23,15,16,17,18,-27,204]]],"properties":{"name":"有楽町"}},{"type":"MultiPolygon","arcs":[[[21,-16,22,23,48,-14,49]]],"properties":{"name":"内幸町"}},{"type":"MultiPolygon","arcs":[[[-4,-3,27,28,29,30,31,32,33,135,136]]],"properties":{"name":"大手町"}},{"type":"MultiPolygon","arcs":[[[74,215,123,124,36,103,104,102,38,125,-85,72,-84,212,213,214]]],"properties":{"name":"麹町"}},{"type":"MultiPolygon","arcs":[[[-107,-106,-53,328,200,-160,41,42,43,-179]]],"properties":{"name":"飯田橋"}},{"type":"MultiPolygon","arcs":[[[275,-147,45,148,-133,-180,-114,321,-95,-159,150,147,47,276,277]]],"properties":{"name":"九段南"}},{"type":"MultiPolygon","arcs":[[[54,55,50,51,52,105,106,107,108]]],"properties":{"name":"富士見"}},{"type":"MultiPolygon","arcs":[[[-204,-170,-141,244,-163,58,-162,185,186,187,188,60,61,56,-175]]],"properties":{"name":"神田小川町"}},{"type":"MultiPolygon","arcs":[[[140,141,62,63,64,65,66,142]]],"properties":{"name":"猿楽町"}},{"type":"MultiPolygon","arcs":[[[-42,159,160,69,194,-100,-65,-181,71,-118]]],"properties":{"name":"三崎町"}},{"type":"MultiPolygon","arcs":[[[77,78,-112,168,-63,-142,169,170,167,80,112,113,114,115]]],"properties":{"name":"神田神保町"}},{"type":"Polygon","arcs":[[81,82,83,-73,84,85,86]],"properties":{"name":"紀尾井町"}},{"type":"MultiPolygon","arcs":[[[90,87,-82,88,-178,-154,-129,-176,-96]]],"properties":{"name":"永田町"}},{"type":"MultiPolygon","arcs":[[[-30,-29,92,93,94,-322,-113,-81,-168,-203]]],"properties":{"name":"一ツ橋"}},{"type":"MultiPolygon","arcs":[[[-66,99,100,206,207,208,165,166,161,-59,162,-245,-143,-67]]],"properties":{"name":"神田駿河台"}},{"type":"MultiPolygon","arcs":[[[-72,180,-64,-169,111,-79,-78,-116,116,-43,117]]],"properties":{"name":"西神田"}},{"type":"MultiPolygon","arcs":[[[195,137,-136,-34,118,119,120,138,-190,196,197,198]]],"properties":{"name":"内神田"}},{"type":"Polygon","arcs":[[-28,-2,126,127,128,129,-105,130,131,-93]],"properties":{"name":"千代田"}},{"type":"MultiPolygon","arcs":[[[143,144,-51,-56,-55,-109,-108,178,-44,-117,-115,179,132,-149,-46,146]]],"properties":{"name":"九段北"}},{"type":"Polygon","arcs":[[-8,-25,-18,151,-12,152,-127,-1]],"properties":{"name":"皇居外苑"}},{"type":"Polygon","arcs":[[153,154,155,-103,-130]],"properties":{"name":"隼町"}},{"type":"Polygon","arcs":[[-132,156,157,-151,158,-94]],"properties":{"name":"北の丸公園"}},{"type":"MultiPolygon","arcs":[[[174,-57,-62,172,-119,-33,-32,-31,202,-171,203]]],"properties":{"name":"神田錦町"}},{"type":"MultiPolygon","arcs":[[[-155,177,-89,-87,-86,-126,-39,-156]]],"properties":{"name":"平河町"}},{"type":"MultiPolygon","arcs":[[[182,322,297,298,-243,294,284,-274,-234,280,-315,-211,-208,330]]],"properties":{"name":"外神田"}},{"type":"Polygon","arcs":[[189,190,191,192]],"properties":{"name":"神田多町"}},{"type":"Polygon","arcs":[[-120,-173,-61,-189,201]],"properties":{"name":"神田美土代町"}},{"type":"MultiPolygon","arcs":[[[-167,-166,-209,210,211,279,-186]]],"properties":{"name":"神田淡路町"}},{"type":"Polygon","arcs":[[216,217,218,219,220]],"properties":{"name":"神田東紺屋町"}},{"type":"MultiPolygon","arcs":[[[222,223,224,-199,-198,323,-316,-232,-294,324,-255,325,326]]],"properties":{"name":"鍛冶町"}},{"type":"MultiPolygon","arcs":[[[310,229,225,226,227,-266,308,-314,-304,329]]],"properties":{"name":"東神田"}},{"type":"MultiPolygon","arcs":[[[-279,-187,-280,-212,314,-281,233,234,235,230,231,315,316,-192]]],"properties":{"name":"神田須田町"}},{"type":"MultiPolygon","arcs":[[[-227,-226,239,236,237,304,305,-217,-292,262,263,264,265,-228]]],"properties":{"name":"岩本町"}},{"type":"Polygon","arcs":[[240,241,242,243]],"properties":{"name":"神田相生町"}},{"type":"Polygon","arcs":[[245,246,247,248,-214]],"properties":{"name":"六番町"}},{"type":"MultiPolygon","arcs":[[[267,290,251,-300,302,303,301,249,288,271,272,-235,273,274,-259],[289,269]]],"properties":{"name":"神田佐久間町"}},{"type":"Polygon","arcs":[[-220,253,254,255,256]],"properties":{"name":"神田紺屋町"}},{"type":"Polygon","arcs":[[257,258,259,-241,260,261]],"properties":{"name":"神田松永町"}},{"type":"Polygon","arcs":[[-121,-202,-188,278,-191,-139]],"properties":{"name":"神田司町"}},{"type":"Polygon","arcs":[[-17,-22,-50,-13,-152]],"properties":{"name":"日比谷公園"}},{"type":"Polygon","arcs":[[285,-277,-48,-148,-158,286]],"properties":{"name":"三番町"}},{"type":"Polygon","arcs":[[287,-236,-273,-264]],"properties":{"name":"神田岩本町"}},{"type":"Polygon","arcs":[[291,-221,-257,292,293,-231,-288,-263]],"properties":{"name":"神田東松下町"}},{"type":"Polygon","arcs":[[299,-252,-291,-268,-258,300]],"properties":{"name":"神田和泉町"}},{"type":"Polygon","arcs":[[306,-224,307,-237]],"properties":{"name":"神田美倉町"}},{"type":"Polygon","arcs":[[-261,-244,-299,311]],"properties":{"name":"神田練塀町"}},{"type":"Polygon","arcs":[[313,-309,-265,-272,-289,-250,-302]],"properties":{"name":"神田佐久間河岸"}},{"type":"Polygon","arcs":[[-248,317,-278,-286,318,319]],"properties":{"name":"四番町"}},{"type":"Polygon","arcs":[[-37,-125,320,-319,-287,-157,-131,-104]],"properties":{"name":"一番町"}},{"type":"Polygon","arcs":[[327,-144,-276,-318,-247]],"properties":{"name":"五番町"}},{"type":"Polygon","arcs":[[-256,-325,-293]],"properties":{"name":"神田富山町"}},{"type":"Polygon","arcs":[[-260,-275,-285,-295,-242]],"properties":{"name":"神田花岡町"}},{"type":"Polygon","arcs":[[-193,-317,-324,-197]],"properties":{"name":"神田鍛冶町"}},{"type":"Polygon","arcs":[[-270,-290]],"properties":{"name":"神田平河町"}},{"type":"Polygon","arcs":[[-238,-308,-223,331,-305]],"properties":{"name":"神田西福田町"}},{"type":"Polygon","arcs":[[-75,-215,-249,-320,-321,-124,-216]],"properties":{"name":"二番町"}},{"type":"Polygon","arcs":[[332,-326,-254,-219]],"properties":{"name":"神田北乗物町"}}]}},"arcs":[[[139.76213521096633,35.68220433680155],[139.76269699417492,35.68413234518178],[139.7602537672017,35.68445856713205]],[[139.7602537672017,35.68445856713205],[139.76100104486596,35.68571580453589]],[[139.76100104486596,35.68571580453589],[139.76573380340628,35.68467849204234]],[[139.76573380340628,35.68467849204234],[139.77059905798637,35.683670502870164]],[[139.77059905798637,35.683670502870164],[139.77017507065912,35.68246091586356],[139.76664537615986,35.67722670299859]],[[139.76664537615986,35.67722670299859],[139.76492292764294,35.67760424076126]],[[139.76492292764294,35.67760424076126],[139.76560130736652,35.679392963364975],[139.76453073936523,35.68163986286513],[139.76213521096633,35.68220433680155]],[[139.7608632489846,35.67852059455414],[139.76213521096633,35.68220433680155]],[[139.76492292764294,35.67760424076126],[139.7608632489846,35.67852059455414]],[[139.7496275848127,35.670874538506304],[139.7505285578831,35.67315076132783]],[[139.7505285578831,35.67315076132783],[139.75350706885698,35.677886477729466]],[[139.75350706885698,35.677886477729466],[139.7558866977311,35.67686749231178]],[[139.7558866977311,35.67686749231178],[139.75289758707405,35.67206579843706]],[[139.75289758707405,35.67206579843706],[139.752044312578,35.67062529027464]],[[139.752044312578,35.67062529027464],[139.7496275848127,35.670874538506304]],[[139.76004177353806,35.67219042255289],[139.75763564545596,35.673081118439576]],[[139.75763564545596,35.673081118439576],[139.7596336857356,35.67503845014118]],[[139.7596336857356,35.67503845014118],[139.760094771954,35.676412980830506]],[[139.760094771954,35.676412980830506],[139.7636562655028,35.675602924077594]],[[139.7636562655028,35.675602924077594],[139.76004177353806,35.67219042255289]],[[139.7554574105623,35.66956231987489],[139.7561622894938,35.6707205910691]],[[139.7561622894938,35.6707205910691],[139.75763564545596,35.673081118439576]],[[139.76004177353806,35.67219042255289],[139.76039686292464,35.672076794682575]],[[139.76039686292464,35.672076794682575],[139.75853131868476,35.66856532694823],[139.7554574105623,35.66956231987489]],[[139.760094771954,35.676412980830506],[139.7608632489846,35.67852059455414]],[[139.76664537615986,35.67722670299859],[139.76524621797995,35.67522538631493]],[[139.76524621797995,35.67522538631493],[139.7636562655028,35.675602924077594]],[[139.76100104486596,35.68571580453589],[139.76066185500417,35.68921994143988],[139.75882810981383,35.690154622308626]],[[139.75882810981383,35.690154622308626],[139.75892880680405,35.691243250614576]],[[139.75892880680405,35.691243250614576],[139.75892880680405,35.691268908520776]],[[139.75892880680405,35.691268908520776],[139.76205041350087,35.690378212634094]],[[139.76205041350087,35.690378212634094],[139.76317927975964,35.690040994438306]],[[139.76317927975964,35.690040994438306],[139.76420214918662,35.689267591837115]],[[139.76420214918662,35.689267591837115],[139.76669837457575,35.68885339992273]],[[139.76669837457575,35.68885339992273],[139.76573380340628,35.68467849204234]],[[139.74028396408863,35.683259976370955],[139.73919749656258,35.685734131611746]],[[139.73919749656258,35.685734131611746],[139.7416407235358,35.685682815799346]],[[139.7416407235358,35.685682815799346],[139.74167252258533,35.68340659297782]],[[139.74167252258533,35.68340659297782],[139.74028396408863,35.683259976370955]],[[139.7500197730904,35.69824052817705],[139.74829732457349,35.70006957034765]],[[139.74829732457349,35.70006957034765],[139.7514136314287,35.700205190709]],[[139.7514136314287,35.700205190709],[139.75220860766728,35.69876468254658]],[[139.75220860766728,35.69876468254658],[139.75234640354864,35.69790330998127]],[[139.75234640354864,35.69790330998127],[139.7500197730904,35.69824052817705]],[[139.7413174331988,35.69144851386418],[139.74088284618836,35.69250048801842]],[[139.74088284618836,35.69250048801842],[139.74389845605336,35.693435168887156]],[[139.74389845605336,35.693435168887156],[139.74368116254814,35.69213761191643]],[[139.74368116254814,35.69213761191643],[139.7413174331988,35.69144851386418]],[[139.7554574105623,35.66956231987489],[139.752044312578,35.67062529027464]],[[139.75289758707405,35.67206579843706],[139.7561622894938,35.6707205910691]],[[139.73999247280116,35.69467041379997],[139.73921339608734,35.69523488773638]],[[139.73921339608734,35.69523488773638],[139.7434320699934,35.70013554782074]],[[139.7434320699934,35.70013554782074],[139.7449955232626,35.70149175143421],[139.74696706433426,35.69949410016572]],[[139.74696706433426,35.69949410016572],[139.74406275114268,35.697551430124804],[139.74496372421305,35.69611825279273]],[[139.74496372421305,35.69611825279273],[139.74381365858792,35.695825019579004]],[[139.74381365858792,35.695825019579004],[139.73999247280116,35.69467041379997]],[[139.76391065789915,35.693944661596],[139.76278179164038,35.694076616542176]],[[139.76278179164038,35.694076616542176],[139.763433672156,35.69557210593217]],[[139.763433672156,35.69557210593217],[139.7650607235243,35.69560142925354]],[[139.7650607235243,35.69560142925354],[139.7652674173463,35.69383469914086]],[[139.7652674173463,35.69383469914086],[139.76512962146495,35.69383836455603]],[[139.76512962146495,35.69383836455603],[139.76391065789915,35.693944661596]],[[139.75872211298204,35.69843479518114],[139.7581232308823,35.69907257742099]],[[139.7581232308823,35.69907257742099],[139.75713746034646,35.70008789742351]],[[139.75713746034646,35.70008789742351],[139.75673997222717,35.70132314233632]],[[139.75673997222717,35.70132314233632],[139.75987217860717,35.6997543446429]],[[139.75987217860717,35.6997543446429],[139.7597343827258,35.69961139345121]],[[139.7597343827258,35.69961139345121],[139.75872211298204,35.69843479518114]],[[139.7535918663224,35.69914588572443],[139.75184291859753,35.70255472183396]],[[139.75184291859753,35.70255472183396],[139.75523481721547,35.702114872013375]],[[139.75523481721547,35.702114872013375],[139.7560668923452,35.69982032211599]],[[139.7560668923452,35.69982032211599],[139.7535918663224,35.69914588572443]],[[139.73523851489446,35.68231796467187],[139.73305498015915,35.684341273846556]],[[139.73305498015915,35.684341273846556],[139.73390825465523,35.68513300352361]],[[139.73390825465523,35.68513300352361],[139.73513251806264,35.68458319124788]],[[139.73513251806264,35.68458319124788],[139.73523851489446,35.68231796467187]],[[139.75575420169133,35.69483535748269],[139.75441334176895,35.69755876095515]],[[139.75441334176895,35.69755876095515],[139.75445044066007,35.697577088031004]],[[139.75445044066007,35.697577088031004],[139.75670817317763,35.69850810348458]],[[139.75670817317763,35.69850810348458],[139.75831402517957,35.69492699286198]],[[139.75831402517957,35.69492699286198],[139.75575420169133,35.69483535748269]],[[139.738519116839,35.678612229933435],[139.73699806230252,35.67849127123277]],[[139.73699806230252,35.67849127123277],[139.73363796273412,35.67898610228093],[139.73035736078958,35.68343958171436]],[[139.73035736078958,35.68343958171436],[139.73305498015915,35.684341273846556]],[[139.73523851489446,35.68231796467187],[139.73819582650196,35.68295941232689]],[[139.73819582650196,35.68295941232689],[139.7382276255515,35.68225565261395]],[[139.7382276255515,35.68225565261395],[139.738519116839,35.678612229933435]],[[139.74306638092364,35.67136936955446],[139.7388371073344,35.673858186455945],[139.73726835422363,35.67670254862906],[139.73699806230252,35.67849127123277]],[[139.738519116839,35.678612229933435],[139.7401302686825,35.678802831522354]],[[139.7401302686825,35.678802831522354],[139.7431564782307,35.67760057534609],[139.74473053118308,35.67208779092809]],[[139.74473053118308,35.67208779092809],[139.74306638092364,35.67136936955446]],[[139.75623118743448,35.69274973625008],[139.75892880680405,35.691243250614576]],[[139.75882810981383,35.690154622308626],[139.75624178711766,35.69056514880784]],[[139.75624178711766,35.69056514880784],[139.75573830216658,35.6920129878006]],[[139.75573830216658,35.6920129878006],[139.75623118743448,35.69274973625008]],[[139.74473053118308,35.67208779092809],[139.74780973914716,35.6743017016917]],[[139.74780973914716,35.6743017016917],[139.7505285578831,35.67315076132783]],[[139.7496275848127,35.670874538506304],[139.74753414738444,35.66953299655352],[139.74306638092364,35.67136936955446]],[[139.76417035013708,35.69826252066808],[139.75987217860717,35.6997543446429]],[[139.75673997222717,35.70132314233632],[139.75660217634584,35.70179964630862]],[[139.75660217634584,35.70179964630862],[139.76110174185618,35.70156872515282],[139.7650024252668,35.699886299589075]],[[139.7650024252668,35.699886299589075],[139.76417035013708,35.69826252066808]],[[139.7443860414797,35.683117025179264],[139.74167252258533,35.68340659297782]],[[139.7416407235358,35.685682815799346],[139.74484712769805,35.685202646411874]],[[139.74484712769805,35.685202646411874],[139.7443860414797,35.683117025179264]],[[139.74696706433426,35.69949410016572],[139.7474599496022,35.69934015272852]],[[139.7474599496022,35.69934015272852],[139.7498660776843,35.69689165539393]],[[139.7498660776843,35.69689165539393],[139.7475765461172,35.69628686189062]],[[139.7475765461172,35.69628686189062],[139.74496372421305,35.69611825279273]],[[139.75445044066007,35.697577088031004],[139.7535918663224,35.69914588572443]],[[139.7560668923452,35.69982032211599],[139.75675587175195,35.698530095975606]],[[139.75675587175195,35.698530095975606],[139.75670817317763,35.69850810348458]],[[139.75575420169133,35.69483535748269],[139.7558389991568,35.69322257480721]],[[139.7558389991568,35.69322257480721],[139.7527703908759,35.695660075896285]],[[139.7527703908759,35.695660075896285],[139.75256899689543,35.696803685429806]],[[139.75256899689543,35.696803685429806],[139.75441334176895,35.69755876095515]],[[139.75256899689543,35.696803685429806],[139.75234640354864,35.69790330998127]],[[139.75220860766728,35.69876468254658],[139.7535918663224,35.69914588572443]],[[139.76420214918662,35.689267591837115],[139.76481163096955,35.69244550679084]],[[139.76481163096955,35.69244550679084],[139.766125991684,35.692328213505355]],[[139.766125991684,35.692328213505355],[139.76742975271526,35.692185262313664]],[[139.76742975271526,35.692185262313664],[139.76669837457575,35.68885339992273]],[[139.73819582650196,35.68295941232689],[139.73726305438203,35.684949732765034]],[[139.73726305438203,35.684949732765034],[139.7389113051167,35.68604569190133]],[[139.7389113051167,35.68604569190133],[139.73919749656258,35.685734131611746]],[[139.74028396408863,35.683259976370955],[139.73819582650196,35.68295941232689]],[[139.7602537672017,35.68445856713205],[139.75978738114173,35.68318300265235],[139.755266616265,35.68194042690919],[139.75478433068028,35.67840330126866],[139.75323677693584,35.67804042516667]],[[139.75323677693584,35.67804042516667],[139.7496805832286,35.67747595123026]],[[139.7496805832286,35.67747595123026],[139.74614028904614,35.679895125243476]],[[139.74614028904614,35.679895125243476],[139.7443860414797,35.683117025179264]],[[139.74484712769805,35.685202646411874],[139.74541421074824,35.68790772280847]],[[139.74541421074824,35.68790772280847],[139.74802173281077,35.68795170779053],[139.75209201115229,35.68949484757775],[139.752600795945,35.68887905782893],[139.75624178711766,35.69056514880784]],[[139.74886970746527,35.69501496282609],[139.74526051534212,35.69398498116289]],[[139.74526051534212,35.69398498116289],[139.74381365858792,35.695825019579004]],[[139.7475765461172,35.69628686189062],[139.74886970746527,35.69501496282609]],[[139.76669837457575,35.68885339992273],[139.76813993148838,35.688596820860724]],[[139.76813993148838,35.688596820860724],[139.77043476289708,35.686144658110955],[139.77059905798637,35.683670502870164]],[[139.7687971118456,35.68883873826204],[139.76813993148838,35.688596820860724]],[[139.76742975271526,35.692185262313664],[139.76899850582603,35.69253347675496]],[[139.76899850582603,35.69253347675496],[139.7687971118456,35.68883873826204]],[[139.76072015326164,35.69703460658562],[139.75997287559738,35.696690057559486]],[[139.75997287559738,35.696690057559486],[139.75872211298204,35.69843479518114]],[[139.7597343827258,35.69961139345121],[139.76087914850936,35.69878667503761],[139.76072015326164,35.69703460658562]],[[139.7363938803612,35.691180938556656],[139.73545050855807,35.69177107039928]],[[139.73545050855807,35.69177107039928],[139.73921339608734,35.69523488773638]],[[139.73999247280116,35.69467041379997],[139.74088284618836,35.69250048801842]],[[139.74088284618836,35.69250048801842],[139.7363938803612,35.691180938556656]],[[139.74713665926515,35.69127990476629],[139.74619328746206,35.69287069495074],[139.74368116254814,35.69213761191643]],[[139.74389845605336,35.693435168887156],[139.74526051534212,35.69398498116289]],[[139.74886970746527,35.69501496282609],[139.7490181030298,35.69468141004548]],[[139.7490181030298,35.69468141004548],[139.74758184595876,35.6943185339435],[139.74713665926515,35.69127990476629]],[[139.7596336857356,35.67503845014118],[139.7558866977311,35.67686749231178]],[[139.75350706885698,35.677886477729466],[139.75323677693584,35.67804042516667]],[[139.74614028904614,35.679895125243476],[139.74312467918114,35.67934531296774]],[[139.74312467918114,35.67934531296774],[139.74184741735783,35.681786479471995]],[[139.74184741735783,35.681786479471995],[139.74167252258533,35.68340659297782]],[[139.74541421074824,35.68790772280847],[139.7453824116987,35.68902200902062]],[[139.7453824116987,35.68902200902062],[139.7477355413649,35.68954982880532],[139.74713665926515,35.69127990476629]],[[139.7490181030298,35.69468141004548],[139.75026886564515,35.695132256111584],[139.75156732683485,35.69364409755194],[139.7534964691738,35.69347548845405],[139.75573830216658,35.6920129878006]],[[139.7514136314287,35.700205190709],[139.75084654837852,35.70262803013739]],[[139.75084654837852,35.70262803013739],[139.75184291859753,35.70255472183396]],[[139.76549001069313,35.695491466798394],[139.7650607235243,35.69560142925354]],[[139.763433672156,35.69557210593217],[139.76319517928442,35.69626120398442]],[[139.76319517928442,35.69626120398442],[139.76403255425572,35.69797295286953]],[[139.76403255425572,35.69797295286953],[139.76631148613964,35.697195884853166]],[[139.76631148613964,35.697195884853166],[139.76603589437696,35.69656543344366]],[[139.76603589437696,35.69656543344366],[139.76549001069313,35.695491466798394]],[[139.75854191836797,35.69383469914086],[139.75831402517957,35.69492699286198]],[[139.75675587175195,35.698530095975606],[139.7581232308823,35.69907257742099]],[[139.75997287559738,35.696690057559486],[139.76128723631183,35.695517124704594],[139.7611282410641,35.6938420299712]],[[139.7611282410641,35.6938420299712],[139.75854191836797,35.69383469914086]],[[139.76317927975964,35.690040994438306],[139.76391065789915,35.693944661596]],[[139.76512962146495,35.69383836455603],[139.76481163096955,35.69244550679084]],[[139.76205041350087,35.690378212634094],[139.76273409306606,35.693823702895344]],[[139.76273409306606,35.693823702895344],[139.76278179164038,35.694076616542176]],[[139.74780973914716,35.6743017016917],[139.7496805832286,35.67747595123026]],[[139.7382276255515,35.68225565261395],[139.74184741735783,35.681786479471995]],[[139.74312467918114,35.67934531296774],[139.7401302686825,35.678802831522354]],[[139.7498660776843,35.69689165539393],[139.7500197730904,35.69824052817705]],[[139.7527703908759,35.695660075896285],[139.74886970746527,35.69501496282609]],[[139.7560668923452,35.69982032211599],[139.75713746034646,35.70008789742351]],[[139.76959208808418,35.70295791750283],[139.76814523132998,35.702858951293194]],[[139.76814523132998,35.702858951293194],[139.7698093815894,35.703701996782655],[139.76993657778758,35.7052158132485],[139.77188161965128,35.705091189132666]],[[139.77188161965128,35.705091189132666],[139.7716590263045,35.702946921257315]],[[139.7716590263045,35.702946921257315],[139.76959208808418,35.70295791750283]],[[139.76549001069313,35.695491466798394],[139.76745095208162,35.69539616600393]],[[139.76745095208162,35.69539616600393],[139.76745095208162,35.694439492644165]],[[139.76745095208162,35.694439492644165],[139.76642808265464,35.69412793235458]],[[139.76642808265464,35.69412793235458],[139.7652674173463,35.69383469914086]],[[139.7702439685998,35.69287436036591],[139.76899850582603,35.69253347675496]],[[139.76899850582603,35.69253347675496],[139.76836252483517,35.694798703330974]],[[139.76836252483517,35.694798703330974],[139.76977228269826,35.69403263156012]],[[139.76977228269826,35.69403263156012],[139.7702439685998,35.69287436036591]],[[139.7474599496022,35.69934015272852],[139.74829732457349,35.70006957034765]],[[139.75523481721547,35.702114872013375],[139.75660217634584,35.70179964630862]],[[139.76965568618326,35.689153963966795],[139.7687971118456,35.68883873826204]],[[139.7702439685998,35.69287436036591],[139.77133043612588,35.693156597334124]],[[139.77133043612588,35.693156597334124],[139.77016977081755,35.69038554346444]],[[139.77016977081755,35.69038554346444],[139.76965568618326,35.689153963966795]],[[139.74829732457349,35.70006957034765],[139.7449849235794,35.70244109396364]],[[139.7449849235794,35.70244109396364],[139.74635758255135,35.70289927086009],[139.75084654837852,35.70262803013739]],[[139.76642808265464,35.69412793235458],[139.766125991684,35.692328213505355]],[[139.75892880680405,35.691268908520776],[139.75854191836797,35.69383469914086]],[[139.7611282410641,35.6938420299712],[139.76273409306606,35.693823702895344]],[[139.76524621797995,35.67522538631493],[139.76353966898782,35.673216738800924],[139.76039686292464,35.672076794682575]],[[139.76403255425572,35.69797295286953],[139.76417035013708,35.69826252066808]],[[139.7650024252668,35.699886299589075],[139.76640158344668,35.69951975807192]],[[139.76640158344668,35.69951975807192],[139.76748805097273,35.69910190074236]],[[139.76748805097273,35.69910190074236],[139.76631148613964,35.697195884853166]],[[139.76792263798316,35.696158572359614],[139.76603589437696,35.69656543344366]],[[139.76748805097273,35.69910190074236],[139.76883421073674,35.6983761485384]],[[139.76883421073674,35.6983761485384],[139.76792263798316,35.696158572359614]],[[139.73035736078958,35.68343958171436],[139.730468657463,35.686349921360566]],[[139.730468657463,35.686349921360566],[139.7334259690705,35.68626561681162]],[[139.7334259690705,35.68626561681162],[139.73390825465523,35.68513300352361]],[[139.73513251806264,35.68458319124788],[139.73726305438203,35.684949732765034]],[[139.77491842888264,35.693468157623705],[139.77474353411017,35.6923355443357]],[[139.77474353411017,35.6923355443357],[139.77469053569425,35.692460168451525]],[[139.77469053569425,35.692460168451525],[139.77453684028814,35.6928633641204]],[[139.77453684028814,35.6928633641204],[139.77436194551564,35.69330687935616]],[[139.77436194551564,35.69330687935616],[139.77491842888264,35.693468157623705]],[[139.77016977081755,35.69038554346444],[139.77349807133638,35.691316558918004]],[[139.77349807133638,35.691316558918004],[139.77363056737616,35.69099400238291]],[[139.77363056737616,35.69099400238291],[139.7738319613566,35.69049184050441]],[[139.7738319613566,35.69049184050441],[139.76965568618326,35.689153963966795]],[[139.77995327839363,35.693189586070666],[139.77925899914527,35.69386035704706]],[[139.77925899914527,35.69386035704706],[139.77856471989693,35.695161579432956]],[[139.77856471989693,35.695161579432956],[139.7786230181544,35.695410827664624]],[[139.7786230181544,35.695410827664624],[139.7816545275442,35.69523488773638]],[[139.7816545275442,35.69523488773638],[139.78280989301092,35.694692406291],[139.77995327839363,35.693189586070666]],[[139.7746534368031,35.695352181021875],[139.77208831347332,35.694659417554455]],[[139.77208831347332,35.694659417554455],[139.77156892899745,35.69453479343862]],[[139.77156892899745,35.69453479343862],[139.77096474705613,35.69707126073733]],[[139.77096474705613,35.69707126073733],[139.77268719557304,35.696968629112526]],[[139.77268719557304,35.696968629112526],[139.77481243205082,35.696913647884955]],[[139.77481243205082,35.696913647884955],[139.7746534368031,35.695352181021875]],[[139.77521522001172,35.69097200989188],[139.77501382603128,35.691488833431066]],[[139.77501382603128,35.691488833431066],[139.77491842888264,35.69170509292619]],[[139.77491842888264,35.69170509292619],[139.77925899914527,35.69386035704706]],[[139.77995327839363,35.693189586070666],[139.77521522001172,35.69097200989188]],[[139.77428244789178,35.699717690491184],[139.77422414963428,35.699164212800284]],[[139.77422414963428,35.699164212800284],[139.7729309882862,35.69920453236717]],[[139.7729309882862,35.69920453236717],[139.77307938385073,35.69987896875873]],[[139.77307938385073,35.69987896875873],[139.77428244789178,35.699717690491184]],[[139.76072015326164,35.69703460658562],[139.76319517928442,35.69626120398442]],[[139.730468657463,35.686349921360566],[139.73072304985934,35.68751918880029]],[[139.73072304985934,35.68751918880029],[139.735386910459,35.68936655804674]],[[139.735386910459,35.68936655804674],[139.73627198400462,35.68727360598379]],[[139.73627198400462,35.68727360598379],[139.7334259690705,35.68626561681162]],[[139.77890390975872,35.6971262419649],[139.77671507518184,35.69722520817454]],[[139.77671507518184,35.69722520817454],[139.777192060925,35.698746355470725]],[[139.777192060925,35.698746355470725],[139.77960878869024,35.69868770882798]],[[139.77960878869024,35.69868770882798],[139.77890390975872,35.6971262419649]],[[139.77453684028814,35.6928633641204],[139.77301578575165,35.692434510545326]],[[139.77301578575165,35.692434510545326],[139.77278259272165,35.69298065740589]],[[139.77278259272165,35.69298065740589],[139.77430364725814,35.6933911839051]],[[139.77430364725814,35.6933911839051],[139.77436194551564,35.69330687935616]],[[139.77549081177443,35.70057539764132],[139.77539011478422,35.698911299153444]],[[139.77539011478422,35.698911299153444],[139.77500852618968,35.69891862998379]],[[139.77500852618968,35.69891862998379],[139.77422414963428,35.699164212800284]],[[139.77428244789178,35.699717690491184],[139.77506682444718,35.7016347026259]],[[139.77506682444718,35.7016347026259],[139.77549081177443,35.70057539764132]],[[139.77506682444718,35.694190244412496],[139.775056224764,35.69419757524284]],[[139.775056224764,35.69419757524284],[139.77535301589307,35.69690998246978]],[[139.77535301589307,35.69690998246978],[139.77831032750058,35.696855001242206]],[[139.77831032750058,35.696855001242206],[139.7786230181544,35.695410827664624]],[[139.77856471989693,35.695161579432956],[139.77506682444718,35.694190244412496]],[[139.77539011478422,35.698911299153444],[139.7753954146258,35.69878667503761]],[[139.7753954146258,35.69878667503761],[139.7753848149426,35.69851909973009]],[[139.7753848149426,35.69851909973009],[139.77536891541783,35.69759174969169]],[[139.77536891541783,35.69759174969169],[139.77536891541783,35.69726186232625]],[[139.77536891541783,35.69726186232625],[139.77535301589307,35.69690998246978]],[[139.77535301589307,35.69690998246978],[139.77481243205082,35.696913647884955]],[[139.77268719557304,35.696968629112526],[139.7727666931969,35.698104907815704]],[[139.7727666931969,35.698104907815704],[139.77500852618968,35.69891862998379]],[[139.73705106071841,35.689982347795564],[139.7363938803612,35.691180938556656]],[[139.7413174331988,35.69144851386418],[139.73949428769166,35.69088770534294]],[[139.73949428769166,35.69088770534294],[139.73705106071841,35.689982347795564]],[[139.76745095208162,35.694439492644165],[139.76836252483517,35.694798703330974]],[[139.76792263798316,35.696158572359614],[139.76745095208162,35.69539616600393]],[[139.77096474705613,35.69707126073733],[139.76888720915264,35.69834315980186]],[[139.76888720915264,35.69834315980186],[139.76914690139057,35.699860641682875]],[[139.76914690139057,35.699860641682875],[139.77130393691792,35.69966270926361]],[[139.77130393691792,35.69966270926361],[139.77286739018712,35.69894428788999]],[[139.77286739018712,35.69894428788999],[139.7727666931969,35.698104907815704]],[[139.74037406139567,35.68878742244964],[139.73949428769166,35.69088770534294]],[[139.7453824116987,35.68902200902062],[139.7422608050019,35.68823761017391],[139.7427695897946,35.68950584382326],[139.74037406139567,35.68878742244964]],[[139.775056224764,35.69419757524284],[139.7746534368031,35.695352181021875]],[[139.77671507518184,35.69722520817454],[139.77536891541783,35.69726186232625]],[[139.77536891541783,35.69759174969169],[139.7753848149426,35.69851909973009]],[[139.7753954146258,35.69878667503761],[139.777192060925,35.698746355470725]],[[139.77506682444718,35.694190244412496],[139.77491842888264,35.693468157623705]],[[139.77430364725814,35.6933911839051],[139.77246460222625,35.69377238708294]],[[139.77246460222625,35.69377238708294],[139.77208831347332,35.694659417554455]],[[139.7729309882862,35.69920453236717],[139.77286739018712,35.69894428788999]],[[139.77130393691792,35.69966270926361],[139.7716590263045,35.702946921257315]],[[139.7716590263045,35.702946921257315],[139.77302108559323,35.70285528587802]],[[139.77302108559323,35.70285528587802],[139.7733814748214,35.70174099966588]],[[139.7733814748214,35.70174099966588],[139.77307938385073,35.69987896875873]],[[139.7803083677802,35.6986730471673],[139.77960878869024,35.69868770882798]],[[139.77549081177443,35.70057539764132],[139.78054156081018,35.700190529048314],[139.7803083677802,35.6986730471673]],[[139.78005927522545,35.697129907380074],[139.77890390975872,35.6971262419649]],[[139.7803083677802,35.6986730471673],[139.78017057189885,35.697888648320586]],[[139.78017057189885,35.697888648320586],[139.78005927522545,35.697129907380074]],[[139.77491842888264,35.69170509292619],[139.77490782919946,35.69173441624756]],[[139.77490782919946,35.69173441624756],[139.77474353411017,35.6923355443357]],[[139.77521522001172,35.69097200989188],[139.7738319613566,35.69049184050441]],[[139.77363056737616,35.69099400238291],[139.77501382603128,35.691488833431066]],[[139.77831032750058,35.696855001242206],[139.78004867554228,35.69684400499669]],[[139.78004867554228,35.69684400499669],[139.78273569522867,35.69663874174709]],[[139.78273569522867,35.69663874174709],[139.7816545275442,35.69523488773638]],[[139.7733814748214,35.70174099966588],[139.77506682444718,35.7016347026259]],[[139.76914690139057,35.699860641682875],[139.76959208808418,35.70295791750283]],[[139.78005927522545,35.697129907380074],[139.78004867554228,35.69684400499669]],[[139.76883421073674,35.6983761485384],[139.76888720915264,35.69834315980186]],[[139.77156892899745,35.69453479343862],[139.77156892899745,35.694516466362764]],[[139.77156892899745,35.694516466362764],[139.76977228269826,35.69403263156012]],[[139.735386910459,35.68936655804674],[139.73705106071841,35.689982347795564]],[[139.74037406139567,35.68878742244964],[139.73786723632335,35.68788206490227]],[[139.73786723632335,35.68788206490227],[139.73627198400462,35.68727360598379]],[[139.7389113051167,35.68604569190133],[139.73786723632335,35.68788206490227]],[[139.7558389991568,35.69322257480721],[139.75623118743448,35.69274973625008]],[[139.77188161965128,35.705091189132666],[139.77325427862323,35.70498855750787],[139.77302108559323,35.70285528587802]],[[139.77133043612588,35.693156597334124],[139.77156892899745,35.694516466362764]],[[139.77246460222625,35.69377238708294],[139.77278259272165,35.69298065740589]],[[139.77301578575165,35.692434510545326],[139.77317478099937,35.69203498029163]],[[139.77317478099937,35.69203498029163],[139.77349807133638,35.691316558918004]],[[139.73072304985934,35.68751918880029],[139.73129543275112,35.689322573064686],[139.73545050855807,35.69177107039928]],[[139.7434320699934,35.70013554782074],[139.7449849235794,35.70244109396364]],[[139.78017057189885,35.697888648320586],[139.7828257925357,35.697635734673746],[139.78273569522867,35.69663874174709]],[[139.76640158344668,35.69951975807192],[139.76830952641927,35.699497765580894],[139.76815053117156,35.70079532255162],[139.76614189120875,35.70179598089345],[139.76814523132998,35.702858951293194]],[[139.77349807133638,35.691316558918004],[139.77490782919946,35.69173441624756]],[[139.77469053569425,35.692460168451525],[139.77317478099937,35.69203498029163]]]}