{"type":"Topology","bbox":[139.71727226817276,35.69949795993031,139.77247053414476,35.73592283762],"objects":{"town":{"type":"GeometryCollection","geometries":[{"type":"MultiPolygon","arcs":[[[1,2,3,39,40,-11]]],"properties":{"name":"後楽"}},{"type":"MultiPolygon","arcs":[[[-2,10,11,4,5,6,7,8,12,13,14,15]]],"properties":{"name":"春日"}},{"type":"MultiPolygon","arcs":[[[-26,-110,-106,-105,189,33,-29,34,19,20,21,-71]]],"properties":{"name":"千石"}},{"type":"MultiPolygon","arcs":[[[-21,43,44,45,58,59,60,92,-74,-49,-88,22,23,24,25,70,-22]]],"properties":{"name":"白山"}},{"type":"MultiPolygon","arcs":[[[174,-163,-156,55,56,139,-136,-45,-44,-20,-35,28,29,122]]],"properties":{"name":"本駒込"}},{"type":"MultiPolygon","arcs":[[[194,103,104,105,109,-25,110,113,-67,-90,111,112,35,-134,-188,192,193,183]]],"properties":{"name":"大塚"}},{"type":"MultiPolygon","arcs":[[[-23,87,48,73,74,75,-14,-13,-9,-8,-69,-68,-114,-111,-24]]],"properties":{"name":"小石川"}},{"type":"MultiPolygon","arcs":[[[97,82,83,154,-56,155,162,163,64,99,100,101]]],"properties":{"name":"千駄木"}},{"type":"MultiPolygon","arcs":[[[66,67,68,-7,-6,-79,-181,114,115,88,89]]],"properties":{"name":"小日向"}},{"type":"MultiPolygon","arcs":[[[78,-5,-12,-41,76,179,-178,-148,-115,180]]],"properties":{"name":"水道"}},{"type":"MultiPolygon","arcs":[[[117,159,-96,160,169,-125,170,167,152,-142,153,148,157,81,-3,-16,-15,-76,181]]],"properties":{"name":"本郷"}},{"type":"MultiPolygon","arcs":[[[-182,-75,-93,-61,-60,93,94,95,-160,-118]]],"properties":{"name":"西片"}},{"type":"MultiPolygon","arcs":[[[126,127,124,-170,-161,-95,-138,190,-83,-98,191]]],"properties":{"name":"弥生"}},{"type":"MultiPolygon","arcs":[[[-154,141,-153,-168,173,131,198]]],"properties":{"name":"湯島"}},{"type":"MultiPolygon","arcs":[[[143,144,145,146,132,133,-36,-113,-112,-89,-116,147]]],"properties":{"name":"音羽"}},{"type":"MultiPolygon","arcs":[[[137,-94,-59,-46,135,-140,-57,-155,-84,-191]]],"properties":{"name":"向丘"}},{"type":"MultiPolygon","arcs":[[[175,182,164,165,-146,-145,-144,177,178]]],"properties":{"name":"関口"}},{"type":"MultiPolygon","arcs":[[[-192,-102,-101,172,195,-127]]],"properties":{"name":"根津"}},{"type":"MultiPolygon","arcs":[[[197,-193,187,-133,-147,-166,-165,-183,-176,199]]],"properties":{"name":"目白台"}}]}},"arcs":[[[139.74635362282228,35.70290038374891],[139.7466572436472,35.706769092630445]],[[139.7466572436472,35.706769092630445],[139.75190712372915,35.707009520866016],[139.75454034433807,35.70526823758412]],[[139.75454034433807,35.70526823758412],[139.75548984946332,35.70206252777645]],[[139.75548984946332,35.70206252777645],[139.74635362282228,35.70290038374891]],[[139.74512257838666,35.70805501940557],[139.74225198149642,35.710437444648996],[139.74029776745962,35.71089644400782]],[[139.74029776745962,35.71089644400782],[139.74014319685784,35.71320965506222]],[[139.74014319685784,35.71320965506222],[139.74110374274034,35.71385079702376]],[[139.74110374274034,35.71385079702376],[139.7451004968721,35.71115508650367]],[[139.7451004968721,35.71115508650367],[139.7463922654727,35.71051758739419]],[[139.7463922654727,35.71051758739419],[139.74512257838666,35.70805501940557]],[[139.7466572436472,35.706769092630445],[139.74507841535757,35.70804773370146]],[[139.74507841535757,35.70804773370146],[139.74512257838666,35.70805501940557]],[[139.7463922654727,35.71051758739419],[139.74968241113922,35.708499447356175],[139.75182431804961,35.70848851880002]],[[139.75182431804961,35.70848851880002],[139.75333138141698,35.70848487594796]],[[139.75333138141698,35.70848487594796],[139.7536626041351,35.708368304682224]],[[139.7536626041351,35.708368304682224],[139.75454034433807,35.70526823758412]],[[139.74484103907628,35.72323478391531],[139.74112030387624,35.72613085129838]],[[139.74112030387624,35.72613085129838],[139.7412251910703,35.72622920830384]],[[139.7412251910703,35.72622920830384],[139.74395777849466,35.728713633404794]],[[139.74395777849466,35.728713633404794],[139.74596167593918,35.72728927825161]],[[139.74596167593918,35.72728927825161],[139.74625977638547,35.72457535347125]],[[139.74625977638547,35.72457535347125],[139.74484103907628,35.72323478391531]],[[139.74480239642583,35.71727143510263],[139.744482214465,35.717398934924525]],[[139.744482214465,35.717398934924525],[139.74027568594508,35.72078678733491]],[[139.74027568594508,35.72078678733491],[139.7403308897314,35.72084143011572]],[[139.7403308897314,35.72084143011572],[139.74189315688514,35.72313642690985],[139.7432732515439,35.722579070545564]],[[139.7432732515439,35.722579070545564],[139.74307451791304,35.7223058566415],[139.74794349186917,35.71858650469419]],[[139.74794349186917,35.71858650469419],[139.7467842123558,35.71722772087798],[139.74480239642583,35.71727143510263]],[[139.74391361546557,35.72875006192533],[139.74164473984658,35.73070263062637]],[[139.74164473984658,35.73070263062637],[139.74341126100978,35.732724413516436],[139.74235686869048,35.73379905487242],[139.74528266936707,35.73592283762],[139.74705471090894,35.735114124463976],[139.74922421971252,35.73289927041504]],[[139.74922421971252,35.73289927041504],[139.74937326993566,35.73229455697405]],[[139.74937326993566,35.73229455697405],[139.74391361546557,35.72875006192533]],[[139.7412251910703,35.72622920830384],[139.73674816399728,35.73019263133879]],[[139.73674816399728,35.73019263133879],[139.7388183059854,35.73197762884533],[139.7406234697991,35.73037477394149],[139.74164473984658,35.73070263062637]],[[139.74391361546557,35.72875006192533],[139.74395777849466,35.728713633404794]],[[139.7291190007236,35.71725686369441],[139.72822469938473,35.7205172162829]],[[139.72822469938473,35.7205172162829],[139.7317190990607,35.72149714348547]],[[139.7317190990607,35.72149714348547],[139.73482155185363,35.719012718384526]],[[139.73482155185363,35.719012718384526],[139.73342489605895,35.71767214882859],[139.7291190007236,35.71725686369441]],[[139.74635362282228,35.70290038374891],[139.74511705800802,35.70255066995171],[139.74335605722342,35.70780366261383]],[[139.74335605722342,35.70780366261383],[139.74507841535757,35.70804773370146]],[[139.75159246214696,35.719919788546015],[139.75105698541935,35.71969757457071]],[[139.75105698541935,35.71969757457071],[139.74625977638547,35.72457535347125]],[[139.74596167593918,35.72728927825161],[139.74922421971252,35.725263852509485]],[[139.74922421971252,35.725263852509485],[139.7518519199428,35.723854068764524],[139.7526578952235,35.7226154990661]],[[139.7526578952235,35.7226154990661],[139.75266893598078,35.722571784841456]],[[139.75266893598078,35.722571784841456],[139.75159246214696,35.719919788546015]],[[139.7451004968721,35.71115508650367],[139.74430004197004,35.7137123686457],[139.7471761592389,35.71574508009193]],[[139.7471761592389,35.71574508009193],[139.74825815345136,35.71495822404823]],[[139.74825815345136,35.71495822404823],[139.7512060356425,35.71271787003491]],[[139.7512060356425,35.71271787003491],[139.7463922654727,35.71051758739419]],[[139.7537730117078,35.72447699646579],[139.75204513319503,35.72845499090894]],[[139.75204513319503,35.72845499090894],[139.75099074087572,35.730524130875715]],[[139.75099074087572,35.730524130875715],[139.753739889436,35.730917558897566]],[[139.753739889436,35.730917558897566],[139.7575986341019,35.73083377330032]],[[139.7575986341019,35.73083377330032],[139.75555609400692,35.72635670812574]],[[139.75555609400692,35.72635670812574],[139.7537730117078,35.72447699646579]],[[139.75207825546684,35.71501286682904],[139.75159246214696,35.719919788546015]],[[139.75266893598078,35.722571784841456],[139.7546893945612,35.71896536130782]],[[139.7546893945612,35.71896536130782],[139.75357979845558,35.71847721913256],[139.75431952919268,35.71651007902331],[139.75318785157248,35.71506750960985]],[[139.75318785157248,35.71506750960985],[139.75207825546684,35.71501286682904]],[[139.76426725149307,35.72459356773152],[139.7613304100592,35.725103567019104]],[[139.7613304100592,35.725103567019104],[139.7595859704105,35.72949684659644]],[[139.7595859704105,35.72949684659644],[139.7625559341162,35.73125634413861]],[[139.7625559341162,35.73125634413861],[139.7648248097352,35.727624420640595],[139.76426725149307,35.72459356773152]],[[139.7373388445112,35.71546458048376],[139.73679232702634,35.716062008220646]],[[139.73679232702634,35.716062008220646],[139.7367040009682,35.71786157713541]],[[139.7367040009682,35.71786157713541],[139.7398561371688,35.7153662234783]],[[139.7398561371688,35.7153662234783],[139.74110374274034,35.71385079702376]],[[139.74014319685784,35.71320965506222],[139.73884590787858,35.71507843816602],[139.7373388445112,35.71546458048376]],[[139.7432732515439,35.722579070545564],[139.74484103907628,35.72323478391531]],[[139.75105698541935,35.71969757457071],[139.74794349186917,35.71858650469419]],[[139.75182431804961,35.70848851880002],[139.7512060356425,35.71271787003491]],[[139.74825815345136,35.71495822404823],[139.7520396128164,35.715005581124935]],[[139.7520396128164,35.715005581124935],[139.75280142506804,35.71117330076394]],[[139.75280142506804,35.71117330076394],[139.75333138141698,35.70848487594796]],[[139.74335605722342,35.70780366261383],[139.73970708694566,35.708652447142455]],[[139.73970708694566,35.708652447142455],[139.74022600253736,35.710863658339335]],[[139.74022600253736,35.710863658339335],[139.74029776745962,35.71089644400782]],[[139.7536626041351,35.708368304682224],[139.7570962796461,35.70737016321938]],[[139.7570962796461,35.70737016321938],[139.75863094490666,35.70157802845325]],[[139.75863094490666,35.70157802845325],[139.75548984946332,35.70206252777645]],[[139.7597239798764,35.72059735902809],[139.75842117051852,35.72053543054317]],[[139.75842117051852,35.72053543054317],[139.75816723310132,35.72245521357572],[139.75685338298618,35.72443692509319]],[[139.75685338298618,35.72443692509319],[139.7611868802147,35.72509263846294]],[[139.7611868802147,35.72509263846294],[139.7597239798764,35.72254264202502],[139.7597239798764,35.72059735902809]],[[139.7398561371688,35.7153662234783],[139.744482214465,35.717398934924525]],[[139.74480239642583,35.71727143510263],[139.7471761592389,35.71574508009193]],[[139.73131611142037,35.71488172415509],[139.73081927734322,35.7153261521057]],[[139.73081927734322,35.7153261521057],[139.73256371699188,35.716021936848044],[139.73679232702634,35.716062008220646]],[[139.7373388445112,35.71546458048376],[139.73582074038657,35.71409122525934]],[[139.73582074038657,35.71409122525934],[139.7335573851462,35.71501650968109],[139.73131611142037,35.71488172415509]],[[139.75207825546684,35.71501286682904],[139.7520396128164,35.715005581124935]],[[139.7546893945612,35.71896536130782],[139.7576924805387,35.71602922255216],[139.7585757411203,35.716018293995994]],[[139.7585757411203,35.716018293995994],[139.75872479134344,35.71536986633035]],[[139.75872479134344,35.71536986633035],[139.7569361886657,35.71350108322656]],[[139.7569361886657,35.71350108322656],[139.7533810648247,35.714291582122314],[139.75318785157248,35.71506750960985]],[[139.75997239691497,35.72064835895685],[139.7597239798764,35.72059735902809]],[[139.7611868802147,35.72509263846294],[139.7613304100592,35.725103567019104]],[[139.76426725149307,35.72459356773152],[139.76357168378505,35.72150807204164]],[[139.76357168378505,35.72150807204164],[139.76200941663132,35.721169286800595]],[[139.76200941663132,35.721169286800595],[139.75997239691497,35.72064835895685]],[[139.7317467009539,35.72150078633753],[139.7296655182085,35.72598513721621]],[[139.7296655182085,35.72598513721621],[139.73118362233313,35.724251139638426],[139.73392725051474,35.725526137857386],[139.7358262607652,35.72508899561089]],[[139.7358262607652,35.72508899561089],[139.73718427390943,35.72351892637554]],[[139.73718427390943,35.72351892637554],[139.73728364072485,35.7233950694057]],[[139.73728364072485,35.7233950694057],[139.73479394996045,35.72195249999224],[139.7317467009539,35.72150078633753]],[[139.73641694127917,35.718061933998385],[139.73482155185363,35.719012718384526]],[[139.7317190990607,35.72149714348547],[139.7317467009539,35.72150078633753]],[[139.73728364072485,35.7233950694057],[139.7403308897314,35.72084143011572]],[[139.74027568594508,35.72078678733491],[139.73641694127917,35.718061933998385]],[[139.73081927734322,35.7153261521057],[139.7291190007236,35.71723500658209]],[[139.7291190007236,35.71723500658209],[139.7291190007236,35.71725686369441]],[[139.73641694127917,35.718061933998385],[139.7367040009682,35.71786157713541]],[[139.735163815329,35.71010230226001],[139.73221041275926,35.7110093724215]],[[139.73221041275926,35.7110093724215],[139.73131611142037,35.71488172415509]],[[139.73582074038657,35.71409122525934],[139.735163815329,35.71010230226001]],[[139.75511998409476,35.711450157520055],[139.75551745135647,35.711898228322724]],[[139.75551745135647,35.711898228322724],[139.75971845949778,35.71201479958845]],[[139.75971845949778,35.71201479958845],[139.7609219020402,35.70861237576985]],[[139.7609219020402,35.70861237576985],[139.7603698641767,35.70811694789049],[139.75634550815175,35.70984001691211],[139.75511998409476,35.711450157520055]],[[139.75099074087572,35.730524130875715],[139.74937326993566,35.73229455697405]],[[139.74922421971252,35.73289927041504],[139.75017924521637,35.734239839970975],[139.7526854971167,35.73525619569409],[139.75495989311435,35.73425805423125]],[[139.75495989311435,35.73425805423125],[139.753739889436,35.730917558897566]],[[139.76563078501593,35.71353386889505],[139.76163403088412,35.71566129449469]],[[139.76163403088412,35.71566129449469],[139.76288163645566,35.716386222053465],[139.7616616327773,35.71870307595992]],[[139.7616616327773,35.71870307595992],[139.7649020950361,35.717504577634095]],[[139.7649020950361,35.717504577634095],[139.76603377265627,35.7149764383085],[139.76563078501593,35.71353386889505]],[[139.76805975161534,35.702885812340696],[139.76660789203433,35.70282388385577]],[[139.76660789203433,35.70282388385577],[139.7680542312367,35.70726452050981],[139.7669335943738,35.7076069486029]],[[139.7669335943738,35.7076069486029],[139.76916382734237,35.70870344707121]],[[139.76916382734237,35.70870344707121],[139.7714547844759,35.709133303613605],[139.77233804505752,35.70720623487694],[139.7700857305744,35.70735923466322],[139.7698317931572,35.703822025318615],[139.76805975161534,35.702885812340696]],[[139.72769474303576,35.716812435743805],[139.7255914787758,35.71936607503378]],[[139.7255914787758,35.71936607503378],[139.72822469938473,35.7205172162829]],[[139.7291190007236,35.71723500658209],[139.72769474303576,35.716812435743805]],[[139.7526578952235,35.7226154990661],[139.75406559177546,35.72306721272082]],[[139.75406559177546,35.72306721272082],[139.75778080659686,35.718357005014774],[139.758338364839,35.716837935708185]],[[139.758338364839,35.716837935708185],[139.7585757411203,35.716018293995994]],[[139.74922421971252,35.725263852509485],[139.7508140887594,35.72819270556104],[139.75204513319503,35.72845499090894]],[[139.7537730117078,35.72447699646579],[139.75406559177546,35.72306721272082]],[[139.76660789203433,35.70282388385577],[139.76362688757138,35.70325738325022]],[[139.76362688757138,35.70325738325022],[139.7650456248806,35.707406591739925]],[[139.7650456248806,35.707406591739925],[139.7669335943738,35.7076069486029]],[[139.73150380429396,35.710754372777714],[139.7311339389254,35.71072158710923]],[[139.7311339389254,35.71072158710923],[139.73010162812065,35.7120985851857]],[[139.73010162812065,35.7120985851857],[139.72840687187968,35.71536258062624]],[[139.72840687187968,35.71536258062624],[139.72769474303576,35.716812435743805]],[[139.73221041275926,35.7110093724215],[139.73150380429396,35.710754372777714]],[[139.76228543556306,35.70122467180399],[139.7618493256509,35.70143595722313]],[[139.7618493256509,35.70143595722313],[139.76174995883548,35.70412438203911],[139.76058515894346,35.70749037733717]],[[139.76058515894346,35.70749037733717],[139.76111511529243,35.70754502011798]],[[139.76111511529243,35.70754502011798],[139.76372625438682,35.707512234449496]],[[139.76372625438682,35.707512234449496],[139.7650456248806,35.707406591739925]],[[139.76362688757138,35.70325738325022],[139.76228543556306,35.70122467180399]],[[139.75685338298618,35.72443692509319],[139.75555609400692,35.72635670812574]],[[139.7575986341019,35.73083377330032],[139.75772008243186,35.730888416081136]],[[139.75772008243186,35.730888416081136],[139.7595859704105,35.72949684659644]],[[139.7618493256509,35.70143595722313],[139.75863094490666,35.70157802845325]],[[139.7570962796461,35.70737016321938],[139.76058515894346,35.70749037733717]],[[139.75551745135647,35.711898228322724],[139.7569361886657,35.71350108322656]],[[139.75872479134344,35.71536986633035],[139.75885176005207,35.715384437738564]],[[139.75885176005207,35.715384437738564],[139.75971845949778,35.71201479958845]],[[139.75772008243186,35.730888416081136],[139.75868062831438,35.732680699291784]],[[139.75868062831438,35.732680699291784],[139.7601048860022,35.73171534349743],[139.76132488968057,35.73237469971924],[139.7625559341162,35.73125634413861]],[[139.7251664096209,35.71461943880719],[139.72473582008737,35.715085723870125]],[[139.72473582008737,35.715085723870125],[139.72840687187968,35.71536258062624]],[[139.73010162812065,35.7120985851857],[139.7275125705408,35.71236451338566],[139.7251664096209,35.71461943880719]],[[139.76732554125687,35.71105308664615],[139.76420100694943,35.7098728025806],[139.76372625438682,35.707512234449496]],[[139.76111511529243,35.70754502011798],[139.7609219020402,35.70861237576985]],[[139.75885176005207,35.715384437738564],[139.76163403088412,35.71566129449469]],[[139.76563078501593,35.71353386889505],[139.76777821230496,35.712670512958205],[139.76732554125687,35.71105308664615]],[[139.76642571953937,35.71665943595753],[139.76200941663132,35.721169286800595]],[[139.76357168378505,35.72150807204164],[139.76613313947172,35.71927864658448],[139.76873875818745,35.71571958012755],[139.76642571953937,35.71665943595753]],[[139.76732554125687,35.71105308664615],[139.76690047210198,35.708652447142455],[139.76916382734237,35.70870344707121]],[[139.75495989311435,35.73425805423125],[139.75868062831438,35.732680699291784]],[[139.7223454961384,35.7123608705336],[139.72325635861318,35.712033013848725]],[[139.72325635861318,35.712033013848725],[139.72561356029036,35.71046658746543],[139.72831854582154,35.71019337356137],[139.7311339389254,35.71072158710923]],[[139.73150380429396,35.710754372777714],[139.73551711956165,35.70910416079717]],[[139.73551711956165,35.70910416079717],[139.732547155856,35.70749402018922],[139.73160869148802,35.709242589175226],[139.7261766389111,35.70927173199166],[139.7235599794381,35.710197016413424],[139.7223454961384,35.7123608705336]],[[139.73970708694566,35.708652447142455],[139.73551711956165,35.70910416079717]],[[139.735163815329,35.71010230226001],[139.74022600253736,35.710863658339335]],[[139.75280142506804,35.71117330076394],[139.75511998409476,35.711450157520055]],[[139.72325635861318,35.712033013848725],[139.7251664096209,35.71461943880719]],[[139.72315699179774,35.72304171275644],[139.72266567809922,35.72503799568213],[139.72635881140607,35.72707799283247],[139.72874913535506,35.725770208945015]],[[139.72874913535506,35.725770208945015],[139.72712614403636,35.72429485386308],[139.72315699179774,35.72304171275644]],[[139.72473582008737,35.715085723870125],[139.72301898233187,35.715431794815274]],[[139.72301898233187,35.715431794815274],[139.723168032555,35.71876136159278],[139.72505048166957,35.71959557471319]],[[139.72505048166957,35.71959557471319],[139.7255914787758,35.71936607503378]],[[139.73718427390943,35.72351892637554],[139.74112030387624,35.72613085129838]],[[139.7358262607652,35.72508899561089],[139.73535702858123,35.72604706570114],[139.73747133359845,35.726859421709214],[139.73551711956165,35.7292454898047],[139.73674816399728,35.73019263133879]],[[139.758338364839,35.716837935708185],[139.75927682920695,35.71706014968349],[139.75842117051852,35.72053543054317]],[[139.75997239691497,35.72064835895685],[139.7616616327773,35.71870307595992]],[[139.72505048166957,35.71959557471319],[139.72461989213602,35.71979593157617]],[[139.72461989213602,35.71979593157617],[139.72315699179774,35.72304171275644]],[[139.72874913535506,35.725770208945015],[139.7296655182085,35.72598513721621]],[[139.76642571953937,35.71665943595753],[139.7649020950361,35.717504577634095]],[[139.72301898233187,35.715431794815274],[139.7179236728517,35.716892578488995]],[[139.7179236728517,35.716892578488995],[139.71826593632707,35.71794900558471],[139.72278712642918,35.718932575639336],[139.72461989213602,35.71979593157617]],[[139.76805975161534,35.702885812340696],[139.76614418022896,35.7017965995765],[139.76814807767352,35.700794815261595],[139.76830816865393,35.69949795993031],[139.76294236062063,35.700499744245214],[139.76228543556306,35.70122467180399]],[[139.7223454961384,35.7123608705336],[139.71727226817276,35.71467043873595],[139.7179236728517,35.716892578488995]]]}