{"type":"Topology","bbox":[139.75849563115403,35.642457434132695,139.79320224671272,35.69663796463476],"objects":{"town":{"type":"GeometryCollection","geometries":[{"type":"MultiPolygon","arcs":[[[6,7,1,2,3,4,5,8,9,10]]],"properties":{"name":"八重洲"}},{"type":"MultiPolygon","arcs":[[[-10,-9,11,12,13,14,24,16,17,18,-11]]],"properties":{"name":"京橋"}},{"type":"MultiPolygon","arcs":[[[72,73,74,75,31,106,27,91,89,21,38,-7,-19,39,-34,40,41,23,87,90,-84,25,-83,-51,29,-50]]],"properties":{"name":"銀座"}},{"type":"MultiPolygon","arcs":[[[204,-41,33,34,35,36,205,-148,-173,-103]]],"properties":{"name":"新富"}},{"type":"MultiPolygon","arcs":[[[-135,128,-65,43,-3,44,129,232,105,-96]]],"properties":{"name":"日本橋本石町"}},{"type":"MultiPolygon","arcs":[[[46,47,48,49,-30,50,82,-26,83,-91,-88,-24,-42,-205,102,172,-147,63,60,165]]],"properties":{"name":"築地"}},{"type":"MultiPolygon","arcs":[[[59,52,53,54,55,56,57,120,121,122,123,124]]],"properties":{"name":"新川"}},{"type":"MultiPolygon","arcs":[[[135,66,-79,164,-44,64,-129,134,95,96,97]]],"properties":{"name":"日本橋室町"}},{"type":"MultiPolygon","arcs":[[[125,110,68,69,70,111,126,127]]],"properties":{"name":"湊"}},{"type":"MultiPolygon","arcs":[[[-195,-182,-181,-141,-137,80,76,77,78,-67,-136,-98,131,132]]],"properties":{"name":"日本橋本町"}},{"type":"Polygon","arcs":[[92,-74]],"properties":{"name":"浜離宮庭園"}},{"type":"MultiPolygon","arcs":[[[-149,-206,-37,-36,94,-69,-111,-126]]],"properties":{"name":"入船"}},{"type":"MultiPolygon","arcs":[[[-56,-55,-54,-53,244,-70,-95,-35,-40,-18,-17,-25,-15,-14,-13,107,108,109]]],"properties":{"name":"八丁堀"}},{"type":"Polygon","arcs":[[113,114,115,116,117,118,119]],"properties":{"name":"日本橋富沢町"}},{"type":"Polygon","arcs":[[-81,136,137,138,139]],"properties":{"name":"日本橋小舟町"}},{"type":"MultiPolygon","arcs":[[[-162,143,-138,140,141,-180,-115]]],"properties":{"name":"日本橋堀留町"}},{"type":"MultiPolygon","arcs":[[[259,145,-108,-12,-6,-5,-4,-165,-78,215,216]]],"properties":{"name":"日本橋"}},{"type":"Polygon","arcs":[[146,147,148,-128,149,-64]],"properties":{"name":"明石町"}},{"type":"MultiPolygon","arcs":[[[169,226,227,-187,-186,-275,234,152,153,245,246]]],"properties":{"name":"勝どき"}},{"type":"MultiPolygon","arcs":[[[200,158,159,154,155,156,197,-119,198,206,207,208]]],"properties":{"name":"日本橋浜町"}},{"type":"MultiPolygon","arcs":[[[-203,-220,160,-139,-144,161,-114,-120,-198,-157,221]]],"properties":{"name":"日本橋人形町"}},{"type":"Polygon","arcs":[[173,174,175,-155,176,177,178,-124]],"properties":{"name":"日本橋箱崎町"}},{"type":"Polygon","arcs":[[179,-142,180,181,182,183,184,-116]],"properties":{"name":"日本橋大伝馬町"}},{"type":"MultiPolygon","arcs":[[[250,-230,251,-242,223,224,189,185,186,-228,269]]],"properties":{"name":"月島"}},{"type":"Polygon","arcs":[[-184,190,191,192,193]],"properties":{"name":"日本橋横山町"}},{"type":"Polygon","arcs":[[194,-133,195,196,-191,-183]],"properties":{"name":"日本橋小伝馬町"}},{"type":"MultiPolygon","arcs":[[[-175,201,202,-222,-156,-176]]],"properties":{"name":"日本橋蛎殻町"}},{"type":"MultiPolygon","arcs":[[[262,270,211,248,268]]],"properties":{"name":"晴海"}},{"type":"Polygon","arcs":[[-123,217,218,-216,-77,-140,-161,219,-202,-174]],"properties":{"name":"日本橋小網町"}},{"type":"MultiPolygon","arcs":[[[-224,241,-252,229,230,-276,243]]],"properties":{"name":"佃"}},{"type":"MultiPolygon","arcs":[[[-192,-197,235,237,238]]],"properties":{"name":"日本橋馬喰町"}},{"type":"MultiPolygon","arcs":[[[264,-267,239,-218,-122,-121,-58,-57,-110]]],"properties":{"name":"日本橋茅場町"}},{"type":"MultiPolygon","arcs":[[[-117,-185,-194,-193,-239,271,255,-208,252,257]]],"properties":{"name":"東日本橋"}},{"type":"Polygon","arcs":[[-177,-160,258]],"properties":{"name":"日本橋中洲"}},{"type":"Polygon","arcs":[[-246,-154,263]],"properties":{"name":"豊海町"}},{"type":"Polygon","arcs":[[-109,-146,-260,-217,-219,-240,266,-265]],"properties":{"name":"日本橋兜町"}},{"type":"Polygon","arcs":[[-118,-258,-253,-207,-199]],"properties":{"name":"日本橋久松町"}},{"type":"Polygon","arcs":[[272,-75,-93,-73,-49,273,-47,-166,-61,-150,-127,-112,-71,-245,-60,-125,-179],[-231,-251,-270,-227,-170,-247,-264,-153,-235,274,-190,-225,-244,275],[-271,-263,-269,-249,-212]],"properties":{"name":"水面調査区"}}]}},"arcs":[[[139.77039424882932,35.67981322744015],[139.76878022980395,35.680485133208954]],[[139.76878022980395,35.680485133208954],[139.77091142911917,35.68463577690978]],[[139.77091142911917,35.68463577690978],[139.77301486036515,35.68427814964574]],[[139.77301486036515,35.68427814964574],[139.77240396284157,35.683048128601236]],[[139.77240396284157,35.683048128601236],[139.77131406612335,35.68128166666068]],[[139.77131406612335,35.68128166666068],[139.77039424882932,35.67981322744015]],[[139.7677007461117,35.67546751432257],[139.7657500392466,35.675960606459356]],[[139.7657500392466,35.675960606459356],[139.76878022980395,35.680485133208954]],[[139.77039424882932,35.67981322744015],[139.76946054750067,35.67832311383998]],[[139.76946054750067,35.67832311383998],[139.76848866507677,35.67674088412635]],[[139.76848866507677,35.67674088412635],[139.7677007461117,35.67546751432257]],[[139.77039424882932,35.67981322744015],[139.7747260676329,35.6780521840945]],[[139.7747260676329,35.6780521840945],[139.77473995166756,35.67803050971486]],[[139.77473995166756,35.67803050971486],[139.7738548444601,35.67658916346888]],[[139.7738548444601,35.67658916346888],[139.7738374894168,35.67658916346888]],[[139.7738374894168,35.67658916346888],[139.76946054750067,35.67832311383998]],[[139.7728031288371,35.67498525937561],[139.7728170128717,35.67496900359088]],[[139.7728170128717,35.67496900359088],[139.77248726704934,35.67404784245623]],[[139.77248726704934,35.67404784245623],[139.7677007461117,35.67546751432257]],[[139.76848866507677,35.67674088412635],[139.7728031288371,35.67498525937561]],[[139.77063027741798,35.67035236072782],[139.76471914967556,35.67445965566937]],[[139.76471914967556,35.67445965566937],[139.76527104005197,35.675261607716]],[[139.76527104005197,35.675261607716],[139.77168546404963,35.67134396359629]],[[139.77168546404963,35.67134396359629],[139.77063027741798,35.67035236072782]],[[139.7738374894168,35.67658916346888],[139.7728031288371,35.67498525937561]],[[139.76837759279977,35.668472108294154],[139.76747165954035,35.66746424964095]],[[139.76747165954035,35.66746424964095],[139.7617549082827,35.671912916061814],[139.76039774389793,35.6720754739091]],[[139.76039774389793,35.6720754739091],[139.76266084154213,35.672964123474294]],[[139.76266084154213,35.672964123474294],[139.76837759279977,35.668472108294154]],[[139.76698918933707,35.66640762363356],[139.76595482875734,35.66561650877674]],[[139.76595482875734,35.66561650877674],[139.75947445559524,35.670422802461644]],[[139.75947445559524,35.670422802461644],[139.76009229513613,35.67152819582322]],[[139.76009229513613,35.67152819582322],[139.76698918933707,35.66640762363356]],[[139.77215057920964,35.67249812431206],[139.7725046220926,35.67405326105114]],[[139.7725046220926,35.67405326105114],[139.77653793415175,35.67389070320385]],[[139.77653793415175,35.67389070320385],[139.77601381184456,35.67263900777971]],[[139.77601381184456,35.67263900777971],[139.7755556387019,35.671468591279215]],[[139.7755556387019,35.671468591279215],[139.77215057920964,35.67249812431206]],[[139.76527104005197,35.675261607716],[139.7657500392466,35.675960606459356]],[[139.77248726704934,35.67404784245623],[139.7725046220926,35.67405326105114]],[[139.77215057920964,35.67249812431206],[139.77176876825737,35.67141982392503]],[[139.77176876825737,35.67141982392503],[139.77168546404963,35.67134396359629]],[[139.77081076986812,35.685296845488764],[139.77259139730904,35.68585496076446]],[[139.77259139730904,35.68585496076446],[139.77301486036515,35.68427814964574]],[[139.77091142911917,35.68463577690978],[139.77081076986812,35.685296845488764]],[[139.7704359009332,35.664256441454405],[139.77263304941292,35.66220279398363]],[[139.77263304941292,35.66220279398363],[139.7708697770153,35.66027919279069],[139.7688461789684,35.65936886884586]],[[139.7688461789684,35.65936886884586],[139.7687281646741,35.659455566364414]],[[139.7687281646741,35.659455566364414],[139.76369520212182,35.66339488486376]],[[139.76369520212182,35.66339488486376],[139.76595482875734,35.66561650877674]],[[139.76698918933707,35.66640762363356],[139.7674508334884,35.66730169179366]],[[139.7674508334884,35.66730169179366],[139.7704359009332,35.664256441454405]],[[139.78074479664372,35.67382026147003],[139.78016513819802,35.67460053913702]],[[139.78016513819802,35.67460053913702],[139.77944316839742,35.67547835151239]],[[139.77944316839742,35.67547835151239],[139.7790197053413,35.67640493124195]],[[139.7790197053413,35.67640493124195],[139.77939110326759,35.676849256024546]],[[139.77939110326759,35.676849256024546],[139.78008530499892,35.67765662666609]],[[139.78008530499892,35.67765662666609],[139.78008877600757,35.67763495228645]],[[139.78008877600757,35.67763495228645],[139.78553825959867,35.67395030774786]],[[139.78553825959867,35.67395030774786],[139.78301136529655,35.67194542763127],[139.78074479664372,35.67382026147003]],[[139.77688156400876,35.66458155714899],[139.7754896895374,35.663925907164916]],[[139.7754896895374,35.663925907164916],[139.77308775154694,35.666315507520096]],[[139.77308775154694,35.666315507520096],[139.77415335120457,35.66706327361763]],[[139.77415335120457,35.66706327361763],[139.77762088885265,35.666320926115006],[139.77688156400876,35.66458155714899]],[[139.77259139730904,35.68585496076446],[139.77206727500186,35.687106656188604]],[[139.77206727500186,35.687106656188604],[139.77405616296218,35.68776230617267]],[[139.77405616296218,35.68776230617267],[139.77538903028636,35.68673277313983]],[[139.77538903028636,35.68673277313983],[139.77259139730904,35.68585496076446]],[[139.77819707628967,35.672053799529465],[139.7785788872419,35.673831098659846]],[[139.7785788872419,35.673831098659846],[139.78030050753563,35.67382026147003]],[[139.78030050753563,35.67382026147003],[139.78143205635774,35.67167991648069]],[[139.78143205635774,35.67167991648069],[139.77819707628967,35.672053799529465]],[[139.76369520212182,35.66339488486376],[139.76345917353316,35.6632485828012]],[[139.76345917353316,35.6632485828012],[139.76336545629943,35.66331360594012]],[[139.76336545629943,35.66331360594012],[139.76294546425197,35.66360079147034]],[[139.76294546425197,35.66360079147034],[139.76317802183198,35.665329323246524],[139.76224084949465,35.667160808326],[139.75849563115403,35.66837457358578],[139.75947445559524,35.670422802461644]],[[139.77822831536756,35.68493379962981],[139.77825261242816,35.68429440543047]],[[139.77825261242816,35.68429440543047],[139.77691280308667,35.68430524262029]],[[139.77691280308667,35.68430524262029],[139.77538903028636,35.68673277313983]],[[139.77538903028636,35.68673277313983],[139.77720436781382,35.68731256279517]],[[139.77720436781382,35.68731256279517],[139.77822831536756,35.68493379962981]],[[139.7718312464132,35.66535641622108],[139.7704359009332,35.664256441454405]],[[139.7674508334884,35.66730169179366],[139.76747165954035,35.66746424964095]],[[139.76837759279977,35.668472108294154],[139.76839494784303,35.668461271104334]],[[139.76839494784303,35.668461271104334],[139.76966880802007,35.667377552122396]],[[139.76966880802007,35.667377552122396],[139.7706441614526,35.66655392569612]],[[139.7706441614526,35.66655392569612],[139.7718312464132,35.66535641622108]],[[139.77063027741798,35.67035236072782],[139.76957509078633,35.66945829256772]],[[139.76957509078633,35.66945829256772],[139.76418808535107,35.67322421602996],[139.7641637882905,35.673641447838]],[[139.7641637882905,35.673641447838],[139.76471914967556,35.67445965566937]],[[139.76957509078633,35.66945829256772],[139.76839494784303,35.668461271104334]],[[139.76266084154213,35.672964123474294],[139.7641637882905,35.673641447838]],[[139.76345917353316,35.6632485828012],[139.7677007461117,35.65980235643864],[139.7630391814857,35.657179756502345],[139.75972783922717,35.65909793910038],[139.76336545629943,35.66331360594012]],[[139.77819707628967,35.672053799529465],[139.77601381184456,35.67263900777971]],[[139.77653793415175,35.67389070320385],[139.7785788872419,35.673831098659846]],[[139.7716299279111,35.68820121236036],[139.7710537404741,35.68957211687251]],[[139.7710537404741,35.68957211687251],[139.77238313678964,35.69001644165511]],[[139.77238313678964,35.69001644165511],[139.77359451881082,35.68882976936989]],[[139.77359451881082,35.68882976936989],[139.7716299279111,35.68820121236036]],[[139.77473995166756,35.67803050971486],[139.7790197053413,35.67640493124195]],[[139.77944316839742,35.67547835151239],[139.77849558303413,35.67513156143817],[139.7738548444601,35.67658916346888]],[[139.76966880802007,35.667377552122396],[139.77310510659024,35.67076417394095]],[[139.77310510659024,35.67076417394095],[139.7748093718407,35.670086849577245]],[[139.7748093718407,35.670086849577245],[139.7706441614526,35.66655392569612]],[[139.7716299279111,35.68820121236036],[139.76957509078633,35.687225865276616]],[[139.76957509078633,35.687225865276616],[139.76813115118512,35.688602188383676],[139.7710537404741,35.68957211687251]],[[139.76009229513613,35.67152819582322],[139.76039774389793,35.6720754739091]],[[139.7747260676329,35.6780521840945],[139.7751217626198,35.678680741104024]],[[139.7751217626198,35.678680741104024],[139.77654487616905,35.678079277069045]],[[139.77654487616905,35.678079277069045],[139.77939110326759,35.676849256024546]],[[139.7778256783634,35.67107845244572],[139.77819707628967,35.672053799529465]],[[139.78143205635774,35.67167991648069],[139.7810814844834,35.67015729131107]],[[139.7810814844834,35.67015729131107],[139.7778256783634,35.67107845244572]],[[139.78336540817955,35.68703079585987],[139.78252889509326,35.687995305753795]],[[139.78252889509326,35.687995305753795],[139.78081421681685,35.689956837111104]],[[139.78081421681685,35.689956837111104],[139.7824143518076,35.69047160362752]],[[139.7824143518076,35.69047160362752],[139.78295582915806,35.68984846521291]],[[139.78295582915806,35.68984846521291],[139.7846531523912,35.68789777104542]],[[139.7846531523912,35.68789777104542],[139.78465662339985,35.68787067807087]],[[139.78465662339985,35.68787067807087],[139.78336540817955,35.68703079585987]],[[139.78008877600757,35.67763495228645],[139.78160213578192,35.6791738332408]],[[139.78160213578192,35.6791738332408],[139.7824039387816,35.67993785512307]],[[139.7824039387816,35.67993785512307],[139.7825184820673,35.67984573900961]],[[139.7825184820673,35.67984573900961],[139.78663856934284,35.67748865022389]],[[139.78663856934284,35.67748865022389],[139.78553825959867,35.67395030774786]],[[139.77724601991773,35.66961001322519],[139.7778256783634,35.67107845244572]],[[139.7810814844834,35.67015729131107],[139.780408108804,35.66881347977346]],[[139.780408108804,35.66881347977346],[139.77724601991773,35.66961001322519]],[[139.77191455062098,35.68751846940174],[139.77206727500186,35.687106656188604]],[[139.77081076986812,35.685296845488764],[139.7704532559765,35.6860987975354]],[[139.7704532559765,35.6860987975354],[139.77191455062098,35.68751846940174]],[[139.77238313678964,35.69001644165511],[139.7766142963422,35.69145236930618]],[[139.7766142963422,35.69145236930618],[139.77720089680517,35.69003269743984]],[[139.77720089680517,35.69003269743984],[139.77359451881082,35.68882976936989]],[[139.77191455062098,35.68751846940174],[139.7716299279111,35.68820121236036]],[[139.77359451881082,35.68882976936989],[139.77405616296218,35.68776230617267]],[[139.77720436781382,35.68731256279517],[139.77787774349324,35.68838002599238]],[[139.77787774349324,35.68838002599238],[139.77945011041473,35.686353471496155]],[[139.77945011041473,35.686353471496155],[139.7799186965834,35.685275171109126]],[[139.7799186965834,35.685275171109126],[139.77822831536756,35.68493379962981]],[[139.77787774349324,35.68838002599238],[139.77775972919892,35.68865637433277]],[[139.77775972919892,35.68865637433277],[139.779477878484,35.68957211687251]],[[139.779477878484,35.68957211687251],[139.781449411401,35.68729088841553]],[[139.781449411401,35.68729088841553],[139.77945011041473,35.686353471496155]],[[139.77131406612335,35.68128166666068],[139.77560423282307,35.67948811174557]],[[139.77560423282307,35.67948811174557],[139.7751217626198,35.678680741104024]],[[139.77415335120457,35.66706327361763],[139.77539944331232,35.669675036364104],[139.7748232558753,35.670097686767065]],[[139.7748232558753,35.670097686767065],[139.77508705253322,35.67030359337363]],[[139.77508705253322,35.67030359337363],[139.77724601991773,35.66961001322519]],[[139.780408108804,35.66881347977346],[139.77907177047115,35.666320926115006],[139.77688156400876,35.66458155714899]],[[139.77093225517112,35.65473597019807],[139.77413946716993,35.656919663946674]],[[139.77413946716993,35.656919663946674],[139.77580902233382,35.655201969360306]],[[139.77580902233382,35.655201969360306],[139.77303221540845,35.65332171692664]],[[139.77303221540845,35.65332171692664],[139.77093225517112,35.65473597019807]],[[139.78869687747627,35.682907245133585],[139.78861704427717,35.6828584777794]],[[139.78861704427717,35.6828584777794],[139.78703079332104,35.68506926450256]],[[139.78703079332104,35.68506926450256],[139.78702038029508,35.68508552028729]],[[139.78702038029508,35.68508552028729],[139.79207763990794,35.68745886485773]],[[139.79207763990794,35.68745886485773],[139.79311200048764,35.68607170456085]],[[139.79311200048764,35.68607170456085],[139.78869687747627,35.682907245133585]],[[139.78026579744906,35.6853727058175],[139.7799186965834,35.685275171109126]],[[139.781449411401,35.68729088841553],[139.78252889509326,35.687995305753795]],[[139.78336540817955,35.68703079585987],[139.78228939549595,35.686326378521606]],[[139.78228939549595,35.686326378521606],[139.78026579744906,35.6853727058175]],[[139.77691280308667,35.68430524262029],[139.77301486036515,35.68427814964574]],[[139.7754896895374,35.663925907164916],[139.77263304941292,35.66220279398363]],[[139.7718312464132,35.66535641622108],[139.77308775154694,35.666315507520096]],[[139.77658305726428,35.65858859117886],[139.77413946716993,35.656919663946674]],[[139.77413946716993,35.656919663946674],[139.77213322416634,35.658940799848]],[[139.77213322416634,35.658940799848],[139.77455251720008,35.66059347129545]],[[139.77455251720008,35.66059347129545],[139.77658305726428,35.65858859117886]],[[139.78016513819802,35.67460053913702],[139.7728170128717,35.67496900359088]],[[139.7748093718407,35.670086849577245],[139.7748232558753,35.670097686767065]],[[139.7825184820673,35.67984573900961],[139.78346953843925,35.68053390056314]],[[139.78346953843925,35.68053390056314],[139.78634006259836,35.68171515425345]],[[139.78634006259836,35.68171515425345],[139.78861704427717,35.6828584777794]],[[139.78869687747627,35.682907245133585],[139.79067188140198,35.68104866707956]],[[139.79067188140198,35.68104866707956],[139.78778400219957,35.67692511635328]],[[139.78778400219957,35.67692511635328],[139.78663856934284,35.67748865022389]],[[139.78081421681685,35.689956837111104],[139.779477878484,35.68957211687251]],[[139.77775972919892,35.68865637433277],[139.77764518591323,35.68893272267317]],[[139.77764518591323,35.68893272267317],[139.7773605632034,35.689637140011435]],[[139.7773605632034,35.689637140011435],[139.78127586096818,35.691766647810944]],[[139.78127586096818,35.691766647810944],[139.78182428033594,35.691165183775965]],[[139.78182428033594,35.691165183775965],[139.7824143518076,35.69047160362752]],[[139.78072744160042,35.658545242419585],[139.77897458222876,35.66024668122123]],[[139.77897458222876,35.66024668122123],[139.77896764021145,35.66025751841105]],[[139.77896764021145,35.66025751841105],[139.78241088079895,35.66269046752551]],[[139.78241088079895,35.66269046752551],[139.78431993556015,35.66088607542058]],[[139.78431993556015,35.66088607542058],[139.78072744160042,35.658545242419585]],[[139.78127586096818,35.691766647810944],[139.78120644079505,35.69184792673459]],[[139.78120644079505,35.69184792673459],[139.78502455031744,35.69481189815019]],[[139.78502455031744,35.69481189815019],[139.78500719527418,35.69315922670273]],[[139.78500719527418,35.69315922670273],[139.78182428033594,35.691165183775965]],[[139.7773605632034,35.689637140011435],[139.77720089680517,35.69003269743984]],[[139.7766142963422,35.69145236930618],[139.78029356551832,35.6928612039827]],[[139.78029356551832,35.6928612039827],[139.78120644079505,35.69184792673459]],[[139.78702038029508,35.68508552028729],[139.78465662339985,35.68787067807087]],[[139.7846531523912,35.68789777104542],[139.7858159402912,35.68866721152259]],[[139.7858159402912,35.68866721152259],[139.7891689346536,35.690840068081386]],[[139.7891689346536,35.690840068081386],[139.79207763990794,35.68745886485773]],[[139.78346953843925,35.68053390056314],[139.78062331134072,35.68356289511766],[139.78137304921057,35.683953033951155]],[[139.78137304921057,35.683953033951155],[139.78319879976402,35.683183593473984],[139.7845073700276,35.68382840626823]],[[139.7845073700276,35.68382840626823],[139.78634006259836,35.68171515425345]],[[139.77310510659024,35.67076417394095],[139.77176876825737,35.67141982392503]],[[139.7755556387019,35.671468591279215],[139.77508705253322,35.67030359337363]],[[139.7858159402912,35.68866721152259],[139.78513215158583,35.68971841893508]],[[139.78513215158583,35.68971841893508],[139.78881836277927,35.6920213217717]],[[139.78881836277927,35.6920213217717],[139.7891689346536,35.690840068081386]],[[139.7817548601628,35.65529408547377],[139.7817409761282,35.65529408547377]],[[139.7817409761282,35.65529408547377],[139.78003671087774,35.65696843130087]],[[139.78003671087774,35.65696843130087],[139.78808945096137,35.66219737538872],[139.78839489972316,35.65873489324142]],[[139.78839489972316,35.65873489324142],[139.78663162732553,35.65859400977377],[139.7817548601628,35.65529408547377]],[[139.77405616296218,35.68776230617267],[139.77764518591323,35.68893272267317]],[[139.77670454256727,35.68134127120469],[139.77240396284157,35.683048128601236]],[[139.77825261242816,35.68429440543047],[139.7786517784237,35.6840288942799]],[[139.7786517784237,35.6840288942799],[139.77670454256727,35.68134127120469]],[[139.7824039387816,35.67993785512307],[139.77993952263535,35.682251595149516]],[[139.77993952263535,35.682251595149516],[139.7786517784237,35.6840288942799]],[[139.78026579744906,35.6853727058175],[139.78137304921057,35.683953033951155]],[[139.7845073700276,35.68382840626823],[139.78228939549595,35.686326378521606]],[[139.78703079332104,35.68506926450256],[139.7845073700276,35.68382840626823]],[[139.78241088079895,35.66269046752551],[139.78480934778074,35.664402743516966]],[[139.78480934778074,35.664402743516966],[139.7863122945291,35.663042676194635]],[[139.7863122945291,35.663042676194635],[139.78431993556015,35.66088607542058]],[[139.7778256783634,35.67107845244572],[139.7755556387019,35.671468591279215]],[[139.77455251720008,35.66059347129545],[139.77691974510398,35.66221904976836]],[[139.77691974510398,35.66221904976836],[139.77896764021145,35.66025751841105]],[[139.77897458222876,35.66024668122123],[139.77658305726428,35.65858859117886]],[[139.7829593001667,35.66608792653388],[139.78184163537924,35.667122878161635]],[[139.78184163537924,35.667122878161635],[139.78302177832254,35.670092268172155],[139.78459761625268,35.670986336332255]],[[139.78459761625268,35.670986336332255],[139.7851564486464,35.66886224712765],[139.7829593001667,35.66608792653388]],[[139.7704532559765,35.6860987975354],[139.76957509078633,35.687225865276616]],[[139.77658305726428,35.65858859117886],[139.77828732251473,35.656897989567035]],[[139.77828732251473,35.656897989567035],[139.77580902233382,35.655201969360306]],[[139.78029356551832,35.6928612039827],[139.78287252495028,35.69510450227531]],[[139.78287252495028,35.69510450227531],[139.78502455031744,35.69481189815019]],[[139.78287252495028,35.69510450227531],[139.7817479181455,35.69629659315545],[139.78540289026105,35.69585768696776]],[[139.78540289026105,35.69585768696776],[139.78502455031744,35.69481189815019]],[[139.77795410568368,35.680295482387116],[139.77993952263535,35.682251595149516]],[[139.78160213578192,35.6791738332408],[139.77795410568368,35.680295482387116]],[[139.78480934778074,35.664402743516966],[139.78480240576343,35.66441358070679]],[[139.78480240576343,35.66441358070679],[139.7874993794897,35.66640762363356]],[[139.7874993794897,35.66640762363356],[139.78752714755896,35.662869281157526],[139.7863122945291,35.663042676194635]],[[139.78074479664372,35.67382026147003],[139.78030050753563,35.67382026147003]],[[139.77093225517112,35.65473597019807],[139.77064069044394,35.654947295399545]],[[139.77064069044394,35.654947295399545],[139.768880889055,35.6567083387452],[139.77213322416634,35.658940799848]],[[139.78364655988074,35.65338674006556],[139.7817548601628,35.65529408547377]],[[139.78839489972316,35.65873489324142],[139.78858927620792,35.656567455277546],[139.78364655988074,35.65338674006556]],[[139.78241088079895,35.66269046752551],[139.78013389912013,35.66479288235047]],[[139.78013389912013,35.66479288235047],[139.78184163537924,35.667122878161635]],[[139.7829593001667,35.66608792653388],[139.78480240576343,35.66441358070679]],[[139.78513215158583,35.68971841893508],[139.78443794985446,35.69078588213229]],[[139.78443794985446,35.69078588213229],[139.78469133348642,35.69095385857449]],[[139.78469133348642,35.69095385857449],[139.78873852958017,35.69379320230717]],[[139.78873852958017,35.69379320230717],[139.78881836277927,35.6920213217717]],[[139.78500719527418,35.69315922670273],[139.78469133348642,35.69095385857449]],[[139.78443794985446,35.69078588213229],[139.78295582915806,35.68984846521291]],[[139.79311200048764,35.68607170456085],[139.79278225466527,35.68357915090239],[139.79067188140198,35.68104866707956]],[[139.77670454256727,35.68134127120469],[139.77560423282307,35.67948811174557]],[[139.7761248841216,35.65434041276966],[139.77783956239801,35.65264439256293]],[[139.77783956239801,35.65264439256293],[139.77977985623713,35.65076414012926]],[[139.77977985623713,35.65076414012926],[139.77275800572457,35.646033706773096],[139.76947790254394,35.64925777074436],[139.77241090485887,35.65182618473156],[139.7761248841216,35.65434041276966]],[[139.77303221540845,35.65332171692664],[139.76836370876512,35.65035232691612],[139.76734323222004,35.65105132565947],[139.76722521792573,35.655218225145035],[139.76809644109855,35.65579801480037],[139.76963756894216,35.65426997103584],[139.77064069044394,35.654947295399545]],[[139.77654487616905,35.678079277069045],[139.7770689984762,35.67891915928005]],[[139.7770689984762,35.67891915928005],[139.78008530499892,35.67765662666609]],[[139.77795410568368,35.680295482387116],[139.7770689984762,35.67891915928005]],[[139.77783956239801,35.65264439256293],[139.7817409761282,35.65529408547377]],[[139.78364655988074,35.65338674006556],[139.77977985623713,35.65076414012926]],[[139.77691974510398,35.66221904976836],[139.78013389912013,35.66479288235047]],[[139.7761248841216,35.65434041276966],[139.78003671087774,35.65696843130087]],[[139.78540289026105,35.69585768696776],[139.78894679009957,35.694779386580734],[139.78873852958017,35.69379320230717]],[[139.78778400219957,35.67692511635328],[139.7874195462906,35.671295196242106],[139.78865869638105,35.66758345872896],[139.79027965742375,35.65487685366572],[139.7858714764297,35.65169071985882],[139.77237272376365,35.642457434132695],[139.77207768802785,35.64325938617933],[139.76424015048093,35.655201969360306],[139.7651009606278,35.65739650029873],[139.76382710045078,35.65647533916408],[139.75947098458659,35.65901124158182],[139.76294546425197,35.66360079147034]],[[139.7687281646741,35.659455566364414],[139.7688461789684,35.65936886884586]],[[139.77828732251473,35.656897989567035],[139.78072744160042,35.658545242419585]],[[139.7874993794897,35.66640762363356],[139.78605543988851,35.67169075367051],[139.78459761625268,35.670986336332255]]]}