{"type":"Topology","bbox":[139.77108464180697,35.602246287890615,139.84898455290542,35.70787952104092],"objects":{"town":{"type":"GeometryCollection","geometries":[{"type":"MultiPolygon","arcs":[[[3,4,-25,217,218,219,-144,216,0,1,6,7,8]]],"properties":{"name":"清澄"}},{"type":"MultiPolygon","arcs":[[[24,-5,-4,-9,9,10,11,12,-21,25]]],"properties":{"name":"常盤"}},{"type":"MultiPolygon","arcs":[[[15,400,-18,-13,-12,-11,26]]],"properties":{"name":"新大橋"}},{"type":"MultiPolygon","arcs":[[[35,36,37,30,42,40,23,20,17,18,21,41,28,38,39]]],"properties":{"name":"森下"}},{"type":"MultiPolygon","arcs":[[[131,132,-48,33,-66,-196,225,224,31,127,128,129,-145,-220,250]]],"properties":{"name":"平野"}},{"type":"MultiPolygon","arcs":[[[45,46,43,330,-7,-2,-103]]],"properties":{"name":"佐賀"}},{"type":"MultiPolygon","arcs":[[[168,49,62,63,64,65,-34,47,-133,-132,-251,-219,347]]],"properties":{"name":"三好"}},{"type":"MultiPolygon","arcs":[[[53,54,-71,107,108,109,104,105,106,51,367,-92,368,-227,-184,-124]]],"properties":{"name":"越中島"}},{"type":"MultiPolygon","arcs":[[[-304,56,57,58,59,60,-170,-156]]],"properties":{"name":"富岡"}},{"type":"MultiPolygon","arcs":[[[68,-150,342,264,340,-89,341,66,146,147,148]],[[-391,-454]]],"properties":{"name":"有明"}},{"type":"MultiPolygon","arcs":[[[72,73,114,115,113,-108,70,-55,-54,123,124,-96]]],"properties":{"name":"古石場"}},{"type":"MultiPolygon","arcs":[[[248,-106,249,165,455,-296,456,-201,-200,274,77,190]]],"properties":{"name":"豊洲"}},{"type":"MultiPolygon","arcs":[[[81,-59,78,79,-185,226,227,-102,228,-142]]],"properties":{"name":"門前仲町"}},{"type":"MultiPolygon","arcs":[[[194,195,-65,196,83,213,214,215,85,86,197]]],"properties":{"name":"千石"}},{"type":"MultiPolygon","arcs":[[[178,87,88,89,179,359,243]]],"properties":{"name":"青海"}},{"type":"MultiPolygon","arcs":[[[-369,91,92,-47,93,-99,-228]]],"properties":{"name":"永代"}},{"type":"MultiPolygon","arcs":[[[183,184,-80,-79,-58,-57,303,-155,304,-115,-74,-73,95,-125]]],"properties":{"name":"牡丹"}},{"type":"MultiPolygon","arcs":[[[100,101,98,-94,-46,102,-1,103]]],"properties":{"name":"福住"}},{"type":"MultiPolygon","arcs":[[[295,296,-176,297,459,-140,111,112,457,-254,458,299]]],"properties":{"name":"枝川"}},{"type":"MultiPolygon","arcs":[[[-153,255,460,-205,461,-203,462,119,120,121,122,116,257]]],"properties":{"name":"辰巳"}},{"type":"Polygon","arcs":[[-26,-24,-41,125,126]],"properties":{"name":"高橋"}},{"type":"MultiPolygon","arcs":[[[-110,171,138,-112,139,140,174,175,176],[134,173],[136,172]]],"properties":{"name":"塩浜"}},{"type":"MultiPolygon","arcs":[[[143,144,-130,145,-60,-82,141,-229,-101,-104,-217]]],"properties":{"name":"深川"}},{"type":"MultiPolygon","arcs":[[[199,200,201,202,203,204,205,151,152,153,149,-69,-149,-148,206]]],"properties":{"name":"東雲"}},{"type":"MultiPolygon","arcs":[[[-226,-195,-266,305,-361,-329,-328,-221,333,417,-116,-305,154,155,-171,-128,-32,-225]]],"properties":{"name":"木場"}},{"type":"MultiPolygon","arcs":[[[160,161,162,251,-121,252,253,254]]],"properties":{"name":"潮見"}},{"type":"Polygon","arcs":[[169,-61,-146,-129,170]],"properties":{"name":"冬木"}},{"type":"MultiPolygon","arcs":[[[-218,-127,-126,-43,-31,-38,-37,273,-63,-50,-169,-348]]],"properties":{"name":"白河"}},{"type":"MultiPolygon","arcs":[[[401,402,346,-271,343,397,432,467,278,188,189,185,310,311]]],"properties":{"name":"亀戸"}},{"type":"MultiPolygon","arcs":[[[-403,-402,-312,-311,-186,-190,409,-261,-260,290,291,391,392,334,-326,335,211,212,207,208,-272,-347]]],"properties":{"name":"大島"}},{"type":"MultiPolygon","arcs":[[[360,-306,265,-198,-87,-86,-216,-349,361,242,236,301,302,223,220,327,328]]],"properties":{"name":"東陽"}},{"type":"MultiPolygon","arcs":[[[-274,-36,370,230,-432,466,-350,-235,-248,232,-246]]],"properties":{"name":"扇橋"}},{"type":"Polygon","arcs":[[-214,233,234,235]],"properties":{"name":"海辺"}},{"type":"Polygon","arcs":[[-64,245,246,-197]],"properties":{"name":"石島"}},{"type":"Polygon","arcs":[[-247,-233,247,-234,-84]],"properties":{"name":"千田"}},{"type":"MultiPolygon","arcs":[[[-291,259,260,261,283,444,437,321,322,318,-358,-367,-366,-414,-413,435]]],"properties":{"name":"東砂"}},{"type":"MultiPolygon","arcs":[[[312,269,270,271,272,313,314]]],"properties":{"name":"毛利"}},{"type":"MultiPolygon","arcs":[[[-243,-362,348,-215,-236,349,350,351,363,364,365,366,357,-319,424,289,284,372,373]]],"properties":{"name":"南砂"}},{"type":"MultiPolygon","arcs":[[[317,315,-315,-314,-273,-209,-430]]],"properties":{"name":"住吉"}},{"type":"MultiPolygon","arcs":[[[-352,-351,-467,-431,-213,-212,-336,325,-335,-393,-392,-292,-436,412,413,-365,-364]]],"properties":{"name":"北砂"}},{"type":"MultiPolygon","arcs":[[[385,405,-380,406,407,378,374,375,-451,-447,452],[404,387],[390,453]]],"properties":{"name":"新木場"}},{"type":"MultiPolygon","arcs":[[[463,-379,-408,-407,379,380,-123,381,382,415,416,464,465]]],"properties":{"name":"夢の島"}},{"type":"MultiPolygon","arcs":[[[429,-208,430,431,-231,-371,-40,468,-318]]],"properties":{"name":"猿江"}},{"type":"MultiPolygon","arcs":[[[-466,470,443,-416,-383,438,-162,439,-302,-237,-374,-373,-285,-290,-425,-323,471]]],"properties":{"name":"新砂"}},{"type":"MultiPolygon","arcs":[[[469,445,446,450,-376,451]]],"properties":{"name":"若洲"}}]}},"arcs":[[[139.7957346386782,35.67898594241645],[139.79410636770916,35.67965149834089]],[[139.79410636770916,35.67965149834089],[139.79392717999485,35.679725448999164]],[[139.79392717999485,35.679725448999164],[139.79464393085203,35.683475803811476]],[[139.79464393085203,35.683475803811476],[139.79594498947324,35.68357088322926]],[[139.79594498947324,35.68357088322926],[139.7968720911255,35.68362370512802]],[[139.7968720911255,35.68362370512802],[139.7970980234609,35.68124671968359],[139.7957346386782,35.67898594241645]],[[139.79392717999485,35.679725448999164],[139.79068621959712,35.68102486770878]],[[139.79068621959712,35.68102486770878],[139.79268065676496,35.68337016001395]],[[139.79268065676496,35.68337016001395],[139.79464393085203,35.683475803811476]],[[139.79268065676496,35.68337016001395],[139.7930779860445,35.68611689874973]],[[139.7930779860445,35.68611689874973],[139.7943634631253,35.68620141378776]],[[139.7943634631253,35.68620141378776],[139.79516591245456,35.68597956181294]],[[139.79516591245456,35.68597956181294],[139.79635010952296,35.6860112549522]],[[139.79635010952296,35.6860112549522],[139.79594498947324,35.68357088322926]],[[139.7943634631253,35.68620141378776],[139.79418427541103,35.68786002140897],[139.792641702914,35.69033208627118]],[[139.792641702914,35.69033208627118],[139.79497893397007,35.68980386728353]],[[139.79497893397007,35.68980386728353],[139.79516591245456,35.68597956181294]],[[139.79635010952296,35.6860112549522],[139.79670069418137,35.68856783485243]],[[139.79670069418137,35.68856783485243],[139.79814198666594,35.689275648295876]],[[139.79814198666594,35.689275648295876],[139.79837570977156,35.68611689874973]],[[139.79837570977156,35.68611689874973],[139.79635010952296,35.6860112549522]],[[139.79814198666594,35.689275648295876],[139.79956769761014,35.68993063984057],[139.8005960792748,35.68819808156107]],[[139.8005960792748,35.68819808156107],[139.80044805464127,35.68624367130677]],[[139.80044805464127,35.68624367130677],[139.79837570977156,35.68611689874973]],[[139.79853931594548,35.68372934892555],[139.7968720911255,35.68362370512802]],[[139.79837570977156,35.68611689874973],[139.79853931594548,35.68372934892555]],[[139.7930779860445,35.68611689874973],[139.79042133341076,35.68920169763761],[139.792641702914,35.69033208627118]],[[139.80363447964768,35.684035715938386],[139.8033773842315,35.6883037253586]],[[139.8033773842315,35.6883037253586],[139.8046862336229,35.688345982877614],[139.80482646748627,35.68668737525639],[139.80615868918824,35.68675076153491]],[[139.80615868918824,35.68675076153491],[139.80638462152365,35.684173052875174]],[[139.80638462152365,35.684173052875174],[139.80363447964768,35.684035715938386]],[[139.80697672005786,35.675975094186846],[139.8045771628403,35.675869450389314]],[[139.8045771628403,35.675869450389314],[139.804397975126,35.678922556137934]],[[139.804397975126,35.678922556137934],[139.806774160033,35.67925005191027]],[[139.806774160033,35.67925005191027],[139.80697672005786,35.675975094186846]],[[139.80982814194624,35.68437377609048],[139.80982814194624,35.68436321171073]],[[139.80982814194624,35.68436321171073],[139.80639241229383,35.684173052875174]],[[139.80639241229383,35.684173052875174],[139.80638462152365,35.684173052875174]],[[139.80615868918824,35.68675076153491],[139.80954767421952,35.686909227231205]],[[139.80954767421952,35.686909227231205],[139.80982814194624,35.68437377609048]],[[139.8007830577593,35.68387725024209],[139.80044805464127,35.68624367130677]],[[139.8005960792748,35.68819808156107],[139.8033773842315,35.6883037253586]],[[139.80363447964768,35.684035715938386],[139.8007830577593,35.68387725024209]],[[139.78756212075217,35.676302589959185],[139.78905794862806,35.67883804109991]],[[139.78905794862806,35.67883804109991],[139.79268065676496,35.67733789917498]],[[139.79268065676496,35.67733789917498],[139.7918158812742,35.675869450389314]],[[139.7918158812742,35.675869450389314],[139.79060052112507,35.676482184414986],[139.78982923487655,35.67519333008512],[139.78756212075217,35.676302589959185]],[[139.804397975126,35.678922556137934],[139.80364227041787,35.67921835877102]],[[139.80364227041787,35.67921835877102],[139.8037435504303,35.681162204645574]],[[139.8037435504303,35.681162204645574],[139.80661055385906,35.68133123472162]],[[139.80661055385906,35.68133123472162],[139.806774160033,35.67925005191027]],[[139.79434788158494,35.66366759177459],[139.78946306867778,35.66777713549851],[139.78886317937338,35.66747076848567]],[[139.78886317937338,35.66747076848567],[139.7919405335972,35.66981606079084]],[[139.7919405335972,35.66981606079084],[139.7966227864795,35.6675552835237]],[[139.7966227864795,35.6675552835237],[139.79653708800745,35.66744963972617]],[[139.79653708800745,35.66744963972617],[139.79487765395766,35.666129092257044],[139.79613975872792,35.665072654281744],[139.79434788158494,35.66366759177459]],[[139.8007207315978,35.66928784180319],[139.7979316358709,35.67004847714541]],[[139.7979316358709,35.67004847714541],[139.79547754326202,35.671062657601695]],[[139.79547754326202,35.671062657601695],[139.79694220805717,35.67365093064118]],[[139.79694220805717,35.67365093064118],[139.79927164834305,35.67313327603328]],[[139.79927164834305,35.67313327603328],[139.80087654700154,35.67291142405847]],[[139.80087654700154,35.67291142405847],[139.8007207315978,35.66928784180319]],[[139.80661055385906,35.68133123472162],[139.81017872660465,35.68151082917742]],[[139.81017872660465,35.68151082917742],[139.81031116969783,35.68042269806286]],[[139.81031116969783,35.68042269806286],[139.81042803125064,35.67947190388509]],[[139.81042803125064,35.67947190388509],[139.806774160033,35.67925005191027]],[[139.7835187110252,35.63134058973039],[139.78189044005615,35.63333725750371]],[[139.78189044005615,35.63333725750371],[139.79489323549802,35.64052103573576],[139.7973395373367,35.64325721009178]],[[139.7973395373367,35.64325721009178],[139.79759663275286,35.64146126553377],[139.7965215064671,35.64095417530563],[139.79796279895166,35.639115973228606]],[[139.79796279895166,35.639115973228606],[139.7835187110252,35.63134058973039]],[[139.80052596234313,35.66524168435779],[139.79653708800745,35.66744963972617]],[[139.7966227864795,35.6675552835237],[139.79715255885222,35.66854833522048]],[[139.79715255885222,35.66854833522048],[139.7971603496224,35.66854833522048]],[[139.7971603496224,35.66854833522048],[139.80044026387108,35.66763979856172]],[[139.80044026387108,35.66763979856172],[139.80052596234313,35.66524168435779]],[[139.7911147119574,35.651909437109495],[139.79305461373391,35.65217354660332]],[[139.79305461373391,35.65217354660332],[139.79298449680223,35.64992333371593]],[[139.79298449680223,35.64992333371593],[139.7946673031626,35.64826472609471],[139.79426997388308,35.6473456250562],[139.7799583290498,35.63976040039354],[139.77904680893795,35.639675885355516],[139.77653039016758,35.64214795021772],[139.78281754170837,35.646415959637935],[139.78264614476427,35.646658940372255],[139.7900317949014,35.65163476323592],[139.7911147119574,35.651909437109495]],[[139.79547754326202,35.671062657601695],[139.79518928476512,35.67116830139923]],[[139.79518928476512,35.67116830139923],[139.79405962308803,35.67153805469058]],[[139.79405962308803,35.67153805469058],[139.79583591869064,35.6738939113755]],[[139.79583591869064,35.6738939113755],[139.79694220805717,35.67365093064118]],[[139.81462725638136,35.67626033244017],[139.8142455086422,35.679915607834715]],[[139.8142455086422,35.679915607834715],[139.8172683274747,35.67978883527768]],[[139.8172683274747,35.67978883527768],[139.81742414287842,35.67637654061746]],[[139.81742414287842,35.67637654061746],[139.81592831500257,35.676302589959185]],[[139.81592831500257,35.676302589959185],[139.81462725638136,35.67626033244017]],[[139.7734374544034,35.620533229243065],[139.77108464180697,35.62351238433342],[139.77428664835378,35.62578372598031],[139.7816177630996,35.629755932767445],[139.7820384646897,35.62921714940004]],[[139.7820384646897,35.62921714940004],[139.7825059109009,35.628636108513625]],[[139.7825059109009,35.628636108513625],[139.7845393019197,35.626068964233646],[139.78070624298775,35.624019474561564]],[[139.78070624298775,35.624019474561564],[139.78033228601876,35.624220197776864],[139.7734374544034,35.620533229243065]],[[139.78917481018087,35.67284803777996],[139.78881643475228,35.67314384041304]],[[139.78881643475228,35.67314384041304],[139.78848922240442,35.675985658566596],[139.78756212075217,35.676302589959185]],[[139.7918158812742,35.675869450389314],[139.7917146012618,35.67570042031327]],[[139.7917146012618,35.67570042031327],[139.78917481018087,35.67284803777996]],[[139.79715255885222,35.66854833522048],[139.79445695236757,35.66956251567677]],[[139.79445695236757,35.66956251567677],[139.79518928476512,35.67116830139923]],[[139.7979316358709,35.67004847714541],[139.7971603496224,35.66854833522048]],[[139.79356880456626,35.67446438788217],[139.7917146012618,35.67570042031327]],[[139.79268065676496,35.67733789917498],[139.7943167185042,35.67665121449104]],[[139.7943167185042,35.67665121449104],[139.79526719246698,35.67493978497105]],[[139.79526719246698,35.67493978497105],[139.79356880456626,35.67446438788217]],[[139.79268065676496,35.67733789917498],[139.79410636770916,35.67965149834089]],[[139.7957346386782,35.67898594241645],[139.7943167185042,35.67665121449104]],[[139.79866396826847,35.66262171817905],[139.7969967434485,35.66149132954547],[139.7944257892868,35.66355138359731]],[[139.7944257892868,35.66355138359731],[139.7943245092744,35.663646463015084]],[[139.7943245092744,35.663646463015084],[139.79434788158494,35.66366759177459]],[[139.80052596234313,35.66524168435779],[139.80163225170966,35.664628950332116]],[[139.80163225170966,35.664628950332116],[139.79878862059147,35.66270623321707]],[[139.79878862059147,35.66270623321707],[139.79866396826847,35.66262171817905]],[[139.8099683758096,35.65712824070748],[139.8070078831386,35.66029755463338]],[[139.8070078831386,35.66029755463338],[139.8071247446914,35.66030811901314]],[[139.8071247446914,35.66030811901314],[139.81390271475397,35.660751822962766],[139.81397283168565,35.659779900025484],[139.8099683758096,35.65712824070748]],[[139.80243470103892,35.66499870362347],[139.80163225170966,35.664628950332116]],[[139.80044026387108,35.66763979856172],[139.80188155635565,35.6677348779795]],[[139.80188155635565,35.6677348779795],[139.80243470103892,35.66499870362347]],[[139.82163894954954,35.64696530738509],[139.82109359563646,35.646489910296204]],[[139.82109359563646,35.646489910296204],[139.81716704746228,35.64608846386559],[139.81271851768557,35.64474678763696]],[[139.81271851768557,35.64474678763696],[139.81138629598362,35.65362086662948]],[[139.81138629598362,35.65362086662948],[139.81118373595876,35.6545610964275]],[[139.81118373595876,35.6545610964275],[139.81153432061717,35.65459278956676]],[[139.81153432061717,35.65459278956676],[139.81170571756127,35.65364199538899],[139.8166840197107,35.65412795685763],[139.81754879520142,35.64799005222113],[139.82086766330102,35.64830698361372],[139.82162336800914,35.64709207994213]],[[139.82162336800914,35.64709207994213],[139.82163894954954,35.64696530738509]],[[139.7919405335972,35.66981606079084],[139.79267286599477,35.67040766605701]],[[139.79267286599477,35.67040766605701],[139.79445695236757,35.66956251567677]],[[139.8007830577593,35.68387725024209],[139.8007674762189,35.68386668586234]],[[139.8007674762189,35.68386668586234],[139.79853931594548,35.68372934892555]],[[139.8045771628403,35.675869450389314],[139.803689015039,35.67583775725006]],[[139.803689015039,35.67583775725006],[139.8003156115481,35.6768836308456]],[[139.8003156115481,35.6768836308456],[139.8003078207779,35.6768836308456]],[[139.8003078207779,35.6768836308456],[139.80109468856676,35.67865844664411]],[[139.80109468856676,35.67865844664411],[139.80112585164753,35.67918666563176]],[[139.80112585164753,35.67918666563176],[139.80364227041787,35.67921835877102]],[[139.80316703343647,35.66037150529166],[139.8031514518961,35.66043489157017]],[[139.8031514518961,35.66043489157017],[139.80298005495197,35.66168148838103]],[[139.80298005495197,35.66168148838103],[139.80294110110106,35.66187164721658]],[[139.80294110110106,35.66187164721658],[139.80256714413207,35.664206375141994]],[[139.80256714413207,35.664206375141994],[139.80253598105134,35.664385969597795]],[[139.80253598105134,35.664385969597795],[139.8083712679213,35.66457612843335],[139.81996393395934,35.66551635823137],[139.82025998322646,35.6622942224067],[139.8193406723444,35.6619350334951],[139.8093840680456,35.66098423931733],[139.8071247446914,35.66030811901314]],[[139.8070078831386,35.66029755463338],[139.80690660312618,35.66028699025363]],[[139.80690660312618,35.66028699025363],[139.80316703343647,35.66037150529166]],[[139.79583591869064,35.6738939113755],[139.7957969648397,35.67390447575526]],[[139.7957969648397,35.67390447575526],[139.7962644110509,35.67607017360462],[139.79787710047958,35.678109098896954]],[[139.79787710047958,35.678109098896954],[139.79788489124977,35.6781196632767]],[[139.79788489124977,35.6781196632767],[139.8003078207779,35.6768836308456]],[[139.8003156115481,35.6768836308456],[139.79927164834305,35.67313327603328]],[[139.78189044005615,35.63333725750371],[139.77868843350933,35.63727777115158],[139.78130613229214,35.638809606215766],[139.78271626169595,35.63763696006318],[139.78377580644135,35.63908428008935],[139.79464393085203,35.64496863961177],[139.7959605710136,35.643352289509565],[139.79766674968454,35.644239697408814]],[[139.79766674968454,35.644239697408814],[139.79762000506344,35.64375373594017]],[[139.79762000506344,35.64375373594017],[139.7973395373367,35.64325721009178]],[[139.80013642383378,35.63621076879653],[139.79915478679024,35.63641149201184],[139.79937292835547,35.638756784317],[139.79796279895166,35.639115973228606]],[[139.79762000506344,35.64375373594017],[139.79837570977156,35.64429251930758],[139.8061197353373,35.644979203991525]],[[139.8061197353373,35.644979203991525],[139.80681311388392,35.64282407052191]],[[139.80681311388392,35.64282407052191],[139.80696113851747,35.64196835576192]],[[139.80696113851747,35.64196835576192],[139.8062833415112,35.64175706816686],[139.8070000923684,35.636855195961466],[139.80013642383378,35.63621076879653]],[[139.8016010886289,35.66883357347381],[139.801312830132,35.66916106924616]],[[139.801312830132,35.66916106924616],[139.80281644877806,35.67258392828613]],[[139.80281644877806,35.67258392828613],[139.80625996920065,35.671802164184406]],[[139.80625996920065,35.671802164184406],[139.80554321834347,35.66878075157505]],[[139.80554321834347,35.66878075157505],[139.8016010886289,35.66883357347381]],[[139.81615424733798,35.65505762227589],[139.8158971519218,35.65709654756822],[139.81384817936265,35.659082650961786]],[[139.81384817936265,35.659082650961786],[139.8167307643318,35.66098423931733],[139.8201041678227,35.661332863849175],[139.8202911463072,35.657519122758345],[139.82109359563646,35.65756138027736]],[[139.82109359563646,35.65756138027736],[139.82110917717682,35.65718106260625]],[[139.82110917717682,35.65718106260625],[139.82039242631964,35.655437939947],[139.81615424733798,35.65505762227589]],[[139.79652929723727,35.654582225187006],[139.79204181360964,35.65906152220228]],[[139.79204181360964,35.65906152220228],[139.79511916783343,35.66178713217856]],[[139.79511916783343,35.66178713217856],[139.8002454946164,35.657033161289704]],[[139.8002454946164,35.657033161289704],[139.79652929723727,35.654582225187006]],[[139.80112585164753,35.67918666563176],[139.8011803870388,35.68089809515175]],[[139.8011803870388,35.68089809515175],[139.8037435504303,35.681162204645574]],[[139.80281644877806,35.67258392828613],[139.80087654700154,35.67291142405847]],[[139.803689015039,35.67583775725006],[139.80281644877806,35.67258392828613]],[[139.79878862059147,35.66270623321707],[139.80253598105134,35.664385969597795]],[[139.80256714413207,35.664206375141994],[139.80294110110106,35.66187164721658]],[[139.80298005495197,35.66168148838103],[139.8031514518961,35.66043489157017]],[[139.80316703343647,35.66037150529166],[139.8017257409519,35.658955878404754]],[[139.8017257409519,35.658955878404754],[139.8016088793991,35.65887136336673]],[[139.8016088793991,35.65887136336673],[139.80020654076546,35.658269193720805],[139.79719151270314,35.66126947757066],[139.79866396826847,35.66262171817905]],[[139.78248253859036,35.61651876493693],[139.77703679022972,35.61356073860608]],[[139.77703679022972,35.61356073860608],[139.7729544266518,35.61855769022926],[139.77443467298733,35.619276068052464],[139.7734374544034,35.620533229243065]],[[139.78070624298775,35.624019474561564],[139.78130613229214,35.6231109379028]],[[139.78130613229214,35.6231109379028],[139.77899227354663,35.62182208357294],[139.78248253859036,35.61651876493693]],[[139.8011803870388,35.68089809515175],[139.8007674762189,35.68386668586234]],[[139.80363447964768,35.684035715938386],[139.8037435504303,35.681162204645574]],[[139.79267286599477,35.67040766605701],[139.7924157705786,35.671442975272804]],[[139.7924157705786,35.671442975272804],[139.79405962308803,35.67153805469058]],[[139.843297290669,35.69443106561535],[139.84012644720295,35.694314857438066]],[[139.84012644720295,35.694314857438066],[139.84055493956325,35.69702990303458],[139.83673746217167,35.69979777052987]],[[139.83673746217167,35.69979777052987],[139.8380307300227,35.701868388961465]],[[139.8380307300227,35.701868388961465],[139.84202739512855,35.700368247036536],[139.8455566140232,35.69811803414915],[139.8478081466072,35.694716303868674]],[[139.8478081466072,35.694716303868674],[139.843297290669,35.69443106561535]],[[139.7911147119574,35.651909437109495],[139.79254821367178,35.65291305318603],[139.7909277334729,35.654476581389474],[139.79032005339835,35.658903056505984]],[[139.79032005339835,35.658903056505984],[139.79204181360964,35.65906152220228]],[[139.79652929723727,35.654582225187006],[139.7965137156969,35.65457166080726]],[[139.7965137156969,35.65457166080726],[139.79305461373391,35.65217354660332]],[[139.81084873284073,35.67610186674388],[139.81084873284073,35.676122995503384]],[[139.81084873284073,35.676122995503384],[139.81042803125064,35.67947190388509]],[[139.81031116969783,35.68042269806286],[139.81120710826931,35.67975714213842],[139.8142455086422,35.679915607834715]],[[139.81462725638136,35.67626033244017],[139.81084873284073,35.67610186674388]],[[139.80639241229383,35.684173052875174],[139.80661055385906,35.68133123472162]],[[139.80021433153564,35.650662840298644],[139.80033898385864,35.65074735533667]],[[139.80033898385864,35.65074735533667],[139.80043247310087,35.65081074161518]],[[139.80043247310087,35.65081074161518],[139.8011336424177,35.65005010627297],[139.80425774126263,35.652152417843816],[139.80509135367262,35.650282522627535],[139.80626775997084,35.65032478014655]],[[139.80626775997084,35.65032478014655],[139.80630671382178,35.649976155614695]],[[139.80630671382178,35.649976155614695],[139.80514588906394,35.649902204956426],[139.80572240605775,35.64583491875152],[139.80633008613233,35.64590886940979]],[[139.80633008613233,35.64590886940979],[139.80643915691496,35.645222184725846]],[[139.80643915691496,35.645222184725846],[139.8061197353373,35.644979203991525]],[[139.79766674968454,35.644239697408814],[139.79768233122493,35.64775763586657],[139.80093108239285,35.649912769336176],[139.80021433153564,35.650662840298644]],[[139.82059498634447,35.685039332014924],[139.8203534724687,35.68754309001638]],[[139.8203534724687,35.68754309001638],[139.8201664939842,35.68917000449835]],[[139.8201664939842,35.68917000449835],[139.8263367839722,35.6893601633339]],[[139.8263367839722,35.6893601633339],[139.82666399632006,35.68538795654677]],[[139.82666399632006,35.68538795654677],[139.82413199600933,35.68524005523023]],[[139.82413199600933,35.68524005523023],[139.82059498634447,35.685039332014924]],[[139.8172683274747,35.67978883527768],[139.8203534724687,35.67938738884707]],[[139.8203534724687,35.67938738884707],[139.8200574232016,35.67649274879474]],[[139.8200574232016,35.67649274879474],[139.81742414287842,35.67637654061746]],[[139.79787710047958,35.678109098896954],[139.7957346386782,35.67898594241645]],[[139.79853931594548,35.68372934892555],[139.798936645225,35.68064455003767]],[[139.798936645225,35.68064455003767],[139.79903013446724,35.67953529016361]],[[139.79903013446724,35.67953529016361],[139.79788489124977,35.6781196632767]],[[139.80857382794616,35.66515716931977],[139.80813754481568,35.66840043390394]],[[139.80813754481568,35.66840043390394],[139.8132249177477,35.668886395372574]],[[139.8132249177477,35.668886395372574],[139.81371573626947,35.665505793851615]],[[139.81371573626947,35.665505793851615],[139.80857382794616,35.66515716931977]],[[139.8070000923684,35.675975094186846],[139.80697672005786,35.675975094186846]],[[139.81084873284073,35.676122995503384],[139.8070000923684,35.675975094186846]],[[139.7924157705786,35.671442975272804],[139.79240797980842,35.671442975272804]],[[139.79240797980842,35.671442975272804],[139.79356880456626,35.67446438788217]],[[139.79526719246698,35.67493978497105],[139.7957969648397,35.67390447575526]],[[139.81396504091546,35.68235597955766],[139.81372352703968,35.684595628065296]],[[139.81372352703968,35.684595628065296],[139.8171592566921,35.6847752225211]],[[139.8171592566921,35.6847752225211],[139.8173306536362,35.68252500963371]],[[139.8173306536362,35.68252500963371],[139.81396504091546,35.68235597955766]],[[139.8172683274747,35.67978883527768],[139.81734623517656,35.68252500963371]],[[139.81734623517656,35.68252500963371],[139.8207040571271,35.68152139355717]],[[139.8207040571271,35.68152139355717],[139.8203534724687,35.67938738884707]],[[139.81963672161152,35.66924558428418],[139.8196289308413,35.66924558428418]],[[139.8196289308413,35.66924558428418],[139.81642692429452,35.66913994048665]],[[139.81642692429452,35.66913994048665],[139.8163178535119,35.67085137000664]],[[139.8163178535119,35.67085137000664],[139.81613087502743,35.6740735058313]],[[139.81613087502743,35.6740735058313],[139.8161386657976,35.6740735058313]],[[139.8161386657976,35.6740735058313],[139.81962114007112,35.67451720978093]],[[139.81962114007112,35.67451720978093],[139.81963672161152,35.66924558428418]],[[139.79008633029272,35.60693687250095],[139.78686095143536,35.602246287890615],[139.7852482620067,35.603503449081224],[139.77703679022972,35.61356073860608]],[[139.78248253859036,35.61651876493693],[139.79008633029272,35.60693687250095]],[[139.81017872660465,35.68151082917742],[139.81396504091546,35.68235597955766]],[[139.81396504091546,35.68235597955766],[139.8142455086422,35.679915607834715]],[[139.8173306536362,35.68252500963371],[139.81734623517656,35.68252500963371]],[[139.79032005339835,35.658903056505984],[139.79006295798217,35.66079408048177],[139.7943245092744,35.663646463015084]],[[139.7944257892868,35.66355138359731],[139.79511916783343,35.66178713217856]],[[139.79903013446724,35.67953529016361],[139.80109468856676,35.67865844664411]],[[139.81615424733798,35.65505762227589],[139.81153432061717,35.65459278956676]],[[139.81118373595876,35.6545610964275],[139.8087841787412,35.654328680072936],[139.80792719402064,35.65518439483293],[139.8097813973251,35.6570120325302]],[[139.8097813973251,35.6570120325302],[139.8099060496481,35.65709654756822]],[[139.8099060496481,35.65709654756822],[139.8102800066171,35.65673735865662],[139.81384817936265,35.659082650961786]],[[139.80681311388392,35.64282407052191],[139.80774021553617,35.64315156629426]],[[139.80774021553617,35.64315156629426],[139.81271851768557,35.64474678763696]],[[139.82109359563646,35.646489910296204],[139.82157662338804,35.64270786234463],[139.8201197493631,35.641186591660194],[139.80800510172253,35.640235797482426],[139.80696113851747,35.64196835576192]],[[139.84118599194838,35.68257783153247],[139.84135738889248,35.68624367130677]],[[139.84135738889248,35.68624367130677],[139.8452060293648,35.68647608766133]],[[139.8452060293648,35.68647608766133],[139.84705244189908,35.68656060269936]],[[139.84705244189908,35.68656060269936],[139.84596173407292,35.68172211677248]],[[139.84596173407292,35.68172211677248],[139.84118599194838,35.68257783153247]],[[139.78852817625534,35.628012810108196],[139.78882422552246,35.62817127580449]],[[139.78882422552246,35.62817127580449],[139.78965783793245,35.6274951555003],[139.79753430659136,35.61768084670976],[139.79426997388308,35.613676946783364],[139.78510023737314,35.625075912536865],[139.7888553886032,35.62707258031018],[139.78852817625534,35.628012810108196]],[[139.81005407428165,35.673312870489085],[139.81084873284073,35.67610186674388]],[[139.81592831500257,35.676302589959185],[139.8161386657976,35.6740735058313]],[[139.81613087502743,35.6740735058313],[139.81005407428165,35.673312870489085]],[[139.81556214880376,35.69055393824599],[139.81532063492799,35.693078825006964]],[[139.81532063492799,35.693078825006964],[139.81973800162393,35.69332180574128]],[[139.81973800162393,35.69332180574128],[139.81973800162393,35.69330067698177]],[[139.81973800162393,35.69330067698177],[139.8201664939842,35.68917000449835]],[[139.8201664939842,35.68917000449835],[139.81638797044357,35.68903266756156],[139.81556214880376,35.69055393824599]],[[139.80982814194624,35.68436321171073],[139.81017872660465,35.68151082917742]],[[139.80021433153564,35.650662840298644],[139.79673185726213,35.648423191791004],[139.79399729692653,35.6512121880458],[139.79298449680223,35.64992333371593]],[[139.7965137156969,35.65457166080726],[139.80033898385864,35.65074735533667]],[[139.8328031232273,35.69777997399705],[139.83259277243226,35.70055840587209]],[[139.83259277243226,35.70055840587209],[139.8330446371031,35.70288256941775]],[[139.8330446371031,35.70288256941775],[139.83563117280514,35.703072728253304],[139.8380307300227,35.701868388961465]],[[139.83673746217167,35.69979777052987],[139.8328031232273,35.69777997399705]],[[139.84780035583702,35.67696814588363],[139.840336797998,35.677665394947326]],[[139.840336797998,35.677665394947326],[139.84085098883034,35.680538906240145]],[[139.84085098883034,35.680538906240145],[139.84118599194838,35.68257783153247]],[[139.84596173407292,35.68172211677248],[139.84898455290542,35.679978994113235],[139.84780035583702,35.67696814588363]],[[139.82773912260583,35.669678723854055],[139.8257368946678,35.66959420881603]],[[139.8257368946678,35.66959420881603],[139.82655492553744,35.673619237501924]],[[139.82655492553744,35.673619237501924],[139.83242137548814,35.67165426286787]],[[139.83242137548814,35.67165426286787],[139.83424441571188,35.67100983570293]],[[139.83424441571188,35.67100983570293],[139.83299789248198,35.66815745316962]],[[139.83299789248198,35.66815745316962],[139.82773912260583,35.669678723854055]],[[139.84135738889248,35.68624367130677],[139.83932399787372,35.68612746312948]],[[139.83932399787372,35.68612746312948],[139.8387396901097,35.68607464123072]],[[139.8387396901097,35.68607464123072],[139.83789049615933,35.6900574123976]],[[139.83789049615933,35.6900574123976],[139.8442477646318,35.69064901766377]],[[139.8442477646318,35.69064901766377],[139.8452060293648,35.68647608766133]],[[139.80106352548603,35.65740291458106],[139.80096224547358,35.65750855837859]],[[139.80096224547358,35.65750855837859],[139.8016088793991,35.65887136336673]],[[139.8017257409519,35.658955878404754],[139.80343191962282,35.65943127549364]],[[139.80343191962282,35.65943127549364],[139.80743637549887,35.655448504326756]],[[139.80743637549887,35.655448504326756],[139.80477972286516,35.653684252908],[139.80106352548603,35.65740291458106]],[[139.8132249177477,35.668886395372574],[139.81642692429452,35.66913994048665]],[[139.8196289308413,35.66924558428418],[139.81972242008356,35.665822725244205]],[[139.81972242008356,35.665822725244205],[139.81371573626947,35.665505793851615]],[[139.8007207315978,35.66928784180319],[139.801312830132,35.66916106924616]],[[139.8016010886289,35.66883357347381],[139.80188155635565,35.6677348779795]],[[139.81005407428165,35.673312870489085],[139.8097891880953,35.67258392828613]],[[139.8097891880953,35.67258392828613],[139.80638462152365,35.67250997762786]],[[139.80638462152365,35.67250997762786],[139.8070000923684,35.675975094186846]],[[139.83313033557516,35.69398736166572],[139.8328031232273,35.697706023338775]],[[139.8328031232273,35.697706023338775],[139.8328031232273,35.69777997399705]],[[139.84012644720295,35.694314857438066],[139.83734514224625,35.69419864926078]],[[139.83734514224625,35.69419864926078],[139.83313033557516,35.69398736166572]],[[139.8115654836979,35.69031095751167],[139.81136292367304,35.692085773310176],[139.81532063492799,35.693078825006964]],[[139.81556214880376,35.69055393824599],[139.81345864085333,35.6904166013092]],[[139.81345864085333,35.6904166013092],[139.8115654836979,35.69031095751167]],[[139.80952430190897,35.68717333672503],[139.8093840680456,35.68861009237144],[139.81172129910166,35.688768558067736],[139.8115654836979,35.69031095751167]],[[139.81345864085333,35.6904166013092],[139.81371573626947,35.687405753079595]],[[139.81371573626947,35.687405753079595],[139.80952430190897,35.68717333672503]],[[139.8380229392525,35.66666787562445],[139.83785933307857,35.66978436765158]],[[139.83785933307857,35.66978436765158],[139.84113924732725,35.669435743119735]],[[139.84113924732725,35.669435743119735],[139.8466239495388,35.66916106924616]],[[139.8466239495388,35.66916106924616],[139.8462733648804,35.66573821020618]],[[139.8462733648804,35.66573821020618],[139.8380229392525,35.66666787562445]],[[139.83129950458124,35.6796937558599],[139.82743528256856,35.67923948753052]],[[139.82743528256856,35.67923948753052],[139.82766900567415,35.68118333340507],[139.82667957786043,35.685398520926526]],[[139.82667957786043,35.685398520926526],[139.8304892644818,35.685599244141834]],[[139.8304892644818,35.685599244141834],[139.83066066142592,35.68161647297495],[139.83129950458124,35.6796937558599]],[[139.80813754481568,35.66840043390394],[139.808067427884,35.66890752413208]],[[139.808067427884,35.66890752413208],[139.80918929879093,35.6709041919054]],[[139.80918929879093,35.6709041919054],[139.8163178535119,35.67085137000664]],[[139.78905794862806,35.67883804109991],[139.79068621959712,35.68102486770878]],[[139.80525495984656,35.66496701048421],[139.80554321834347,35.66878075157505]],[[139.80554321834347,35.66878075157505],[139.808067427884,35.66890752413208]],[[139.80857382794616,35.66515716931977],[139.80525495984656,35.66496701048421]],[[139.8329901017118,35.68573658107862],[139.8304892644818,35.685599244141834]],[[139.82667957786043,35.685398520926526],[139.82666399632006,35.68538795654677]],[[139.8263367839722,35.6893601633339],[139.8263367839722,35.68938129209341]],[[139.8263367839722,35.68938129209341],[139.83217207084218,35.6895186290302]],[[139.83217207084218,35.6895186290302],[139.83219544315273,35.6895186290302]],[[139.83219544315273,35.6895186290302],[139.8329901017118,35.68573658107862]],[[139.78852817625534,35.628012810108196],[139.78714141916208,35.627273303525484],[139.78474186194452,35.62985101218522],[139.7825059109009,35.628636108513625]],[[139.7820384646897,35.62921714940004],[139.7842899972737,35.630389795552624],[139.7835187110252,35.63134058973039]],[[139.80013642383378,35.63621076879653],[139.80016758691454,35.63086519264151],[139.8019672548277,35.62626968744895],[139.79851594363492,35.62163192473738],[139.79190937051646,35.62984044780547],[139.78882422552246,35.62817127580449]],[[139.81973800162393,35.69332180574128],[139.81944974312702,35.69690313047755]],[[139.81944974312702,35.69690313047755],[139.8256979408169,35.69735739880693]],[[139.8256979408169,35.69735739880693],[139.82600178085417,35.69361760837437]],[[139.82600178085417,35.69361760837437],[139.81973800162393,35.69330067698177]],[[139.798936645225,35.68064455003767],[139.8011803870388,35.68089809515175]],[[139.8201041678227,35.67619694616166],[139.8200574232016,35.67649274879474]],[[139.8207040571271,35.68152139355717],[139.82080533713955,35.68201791940557]],[[139.82080533713955,35.68201791940557],[139.82550317156222,35.67761257304856]],[[139.82550317156222,35.67761257304856],[139.8271158609909,35.67707378968116]],[[139.8271158609909,35.67707378968116],[139.82684318403435,35.67535179578142]],[[139.82684318403435,35.67535179578142],[139.82682760249398,35.67533066702191]],[[139.82682760249398,35.67533066702191],[139.8215298787669,35.67640823375672],[139.8201041678227,35.67619694616166]],[[139.83242137548814,35.67165426286787],[139.83311475403477,35.673988990793276]],[[139.83311475403477,35.673988990793276],[139.83597396669336,35.67334456362835]],[[139.83597396669336,35.67334456362835],[139.8376567730537,35.67246772010885],[139.83785933307857,35.66978436765158]],[[139.83785933307857,35.66978436765158],[139.83424441571188,35.67100983570293]],[[139.78130613229214,35.6231109379028],[139.7925404229016,35.60951458116068],[139.79008633029272,35.60693687250095]],[[139.80918929879093,35.6709041919054],[139.8097891880953,35.67258392828613]],[[139.8201041678227,35.67619694616166],[139.81962114007112,35.67451720978093]],[[139.83311475403477,35.673988990793276],[139.82684318403435,35.67535179578142]],[[139.8271158609909,35.67707378968116],[139.83378476027085,35.67624976806042]],[[139.83378476027085,35.67624976806042],[139.83661280984867,35.67593283666783]],[[139.83661280984867,35.67593283666783],[139.83664397292944,35.675922272288076]],[[139.83664397292944,35.675922272288076],[139.83597396669336,35.67334456362835]],[[139.78886317937338,35.66747076848567],[139.78940853328646,35.66803068061258],[139.78816980082675,35.672805780260944],[139.78881643475228,35.67314384041304]],[[139.78917481018087,35.67284803777996],[139.79240797980842,35.671442975272804]],[[139.82600178085417,35.69361760837437],[139.8263367839722,35.68938129209341]],[[139.80982814194624,35.68437377609048],[139.81372352703968,35.684595628065296]],[[139.82682760249398,35.67533066702191],[139.82655492553744,35.673619237501924]],[[139.8257368946678,35.66959420881603],[139.8257368946678,35.6694885650185]],[[139.8257368946678,35.6694885650185],[139.81963672161152,35.66924558428418]],[[139.84143529659434,35.64765199206904],[139.8402199364452,35.63375983269383],[139.83668292678036,35.63348515882026],[139.8364102498238,35.63160469922422]],[[139.8364102498238,35.63160469922422],[139.83610640978654,35.63157300608496]],[[139.83610640978654,35.63157300608496],[139.83675304371204,35.63951741965922]],[[139.83675304371204,35.63951741965922],[139.8374931668798,35.64800061660088]],[[139.8374931668798,35.64800061660088],[139.84143529659434,35.64765199206904]],[[139.82548759002185,35.64680684168879],[139.8221920942328,35.646479345916454]],[[139.8221920942328,35.646479345916454],[139.82163894954954,35.64696530738509]],[[139.82162336800914,35.64709207994213],[139.82210639576073,35.64712377308138],[139.8213039464315,35.6533250639964],[139.8239605990652,35.65424416503491],[139.82377362058074,35.65575487133959]],[[139.82377362058074,35.65575487133959],[139.8242644391025,35.65580769323836]],[[139.8242644391025,35.65580769323836],[139.82548759002185,35.64680684168879]],[[139.82344640823288,35.63398168466865],[139.8228465189285,35.633939427149635]],[[139.8228465189285,35.633939427149635],[139.82114813102774,35.634129585985185],[139.82055603249356,35.638862428114535],[139.82422548525156,35.64264447606611]],[[139.82422548525156,35.64264447606611],[139.82483316532614,35.64269729796487]],[[139.82483316532614,35.64269729796487],[139.82620434087903,35.64239093095204],[139.8249188637982,35.639675885355516],[139.8332238248174,35.64044708507748],[139.83314591711553,35.63953854841873]],[[139.83314591711553,35.63953854841873],[139.83312254480498,35.63916879512737]],[[139.83312254480498,35.63916879512737],[139.83311475403477,35.63895750753231]],[[139.83311475403477,35.63895750753231],[139.83309138172422,35.63794332707602],[139.82523828537586,35.63719325611356],[139.82567456850632,35.634626111833576],[139.82344640823288,35.63398168466865]],[[139.8387396901097,35.68607464123072],[139.83640245905363,35.68592673991417]],[[139.83640245905363,35.68592673991417],[139.8329901017118,35.68573658107862]],[[139.83219544315273,35.6895186290302],[139.83789049615933,35.6900574123976]],[[139.8328031232273,35.697706023338775],[139.8256979408169,35.69735739880693]],[[139.8256979408169,35.69735739880693],[139.8254486361709,35.700621792150606]],[[139.8254486361709,35.700621792150606],[139.83133845843219,35.70102323858122],[139.83259277243226,35.70055840587209]],[[139.81944974312702,35.69690313047755],[139.81913032154935,35.70142468501184]],[[139.81913032154935,35.70142468501184],[139.82535514692867,35.70173105202467]],[[139.82535514692867,35.70173105202467],[139.8254486361709,35.700621792150606]],[[139.79497893397007,35.68980386728353],[139.79670069418137,35.68856783485243]],[[139.83313033557516,35.69398736166572],[139.83159555384833,35.693902846627694]],[[139.83159555384833,35.693902846627694],[139.82600178085417,35.69361760837437]],[[139.83675304371204,35.63951741965922],[139.83312254480498,35.63916879512737]],[[139.83314591711553,35.63953854841873],[139.83412755415907,35.63960193469725],[139.8345326742088,35.644102360472026],[139.82496560841932,35.6431410019145],[139.82483316532614,35.64269729796487]],[[139.82422548525156,35.64264447606611],[139.82270628506512,35.64290858555994],[139.8221920942328,35.646479345916454]],[[139.82548759002185,35.64680684168879],[139.83394057567457,35.64765199206904]],[[139.83394057567457,35.64765199206904],[139.8374931668798,35.64800061660088]],[[139.8442477646318,35.69064901766377],[139.843297290669,35.69443106561535]],[[139.8478081466072,35.694716303868674],[139.84771465736497,35.68867347864996],[139.84705244189908,35.68656060269936]],[[139.83378476027085,35.67624976806042],[139.83495337579888,35.68010576667027]],[[139.83495337579888,35.68010576667027],[139.83888771474324,35.680306489885574]],[[139.83888771474324,35.680306489885574],[139.83895004090473,35.68032761864508]],[[139.83895004090473,35.68032761864508],[139.83661280984867,35.67593283666783]],[[139.83064507988556,35.65206790280579],[139.83113589840733,35.64823303295545],[139.83394057567457,35.64765199206904]],[[139.8242644391025,35.65580769323836],[139.8244436268168,35.655828821997865]],[[139.8244436268168,35.655828821997865],[139.8255732884939,35.654339244452686],[139.82607968855604,35.65163476323592],[139.83064507988556,35.65206790280579]],[[139.80525495984656,35.66496701048421],[139.80243470103892,35.66499870362347]],[[139.82550317156222,35.67761257304856],[139.82413199600933,35.68524005523023]],[[139.82743528256856,35.67923948753052],[139.8271158609909,35.67707378968116]],[[139.83129950458124,35.6796937558599],[139.83495337579888,35.68010576667027]],[[139.83664397292944,35.675922272288076],[139.83995505025885,35.675489132718205]],[[139.83995505025885,35.675489132718205],[139.8404536595508,35.675425746439686]],[[139.8404536595508,35.675425746439686],[139.84113924732725,35.669435743119735]],[[139.8380229392525,35.66666787562445],[139.83299789248198,35.66815745316962]],[[139.83217207084218,35.6895186290302],[139.83159555384833,35.693902846627694]],[[139.83734514224625,35.69419864926078],[139.83789049615933,35.6900574123976]],[[139.83640245905363,35.68592673991417],[139.83495337579888,35.68010576667027]],[[139.81372352703968,35.684595628065296],[139.81371573626947,35.687405753079595]],[[139.81371573626947,35.687405753079595],[139.8203534724687,35.68754309001638]],[[139.82059498634447,35.685039332014924],[139.8206027771147,35.684965381356655]],[[139.8206027771147,35.684965381356655],[139.8171592566921,35.6847752225211]],[[139.81913032154935,35.70142468501184],[139.81872520149963,35.707858392281416],[139.82589271007154,35.705175039824155]],[[139.82589271007154,35.705175039824155],[139.82535514692867,35.70173105202467]],[[139.84085098883034,35.680538906240145],[139.83895004090473,35.68032761864508]],[[139.83888771474324,35.680306489885574],[139.83932399787372,35.68612746312948]],[[139.8404536595508,35.675425746439686],[139.8421754197621,35.674612289198706],[139.84711476806058,35.67413689210982]],[[139.84711476806058,35.67413689210982],[139.8466239495388,35.66916106924616]],[[139.82377362058074,35.65575487133959],[139.8211792941085,35.65567035630157],[139.82110917717682,35.65718106260625]],[[139.82109359563646,35.65756138027736],[139.8206495217358,35.665812160864455],[139.81972242008356,35.665822725244205]],[[139.8257368946678,35.6694885650185],[139.82561224234482,35.66618191415581],[139.8237346667298,35.66407960258496],[139.8242644391025,35.65580769323836]],[[139.840336797998,35.677665394947326],[139.83995505025885,35.675489132718205]],[[139.82773912260583,35.669678723854055],[139.82869738733882,35.66808350251135]],[[139.82869738733882,35.66808350251135],[139.82815203342574,35.66236817306497],[139.8244981622081,35.6621146279509],[139.8280663349537,35.661639230862015],[139.82826889497855,35.65634647660576],[139.8244436268168,35.655828821997865]],[[139.84780035583702,35.67696814588363],[139.84711476806058,35.67413689210982]],[[139.8269912086679,35.62222353000355],[139.82567456850632,35.63055882562867],[139.8355298927927,35.63152018418619]],[[139.8355298927927,35.63152018418619],[139.83596617592318,35.631562441705206]],[[139.83596617592318,35.631562441705206],[139.83574803435795,35.62903755494424]],[[139.83574803435795,35.62903755494424],[139.83076973220852,35.62858328661486],[139.83158776307815,35.62267779833293],[139.8269912086679,35.62222353000355]],[[139.8312605507303,35.6178287480263],[139.83346533869317,35.61905421607765],[139.83317708019626,35.62281513526972],[139.83525721583618,35.62299472972552],[139.83574803435795,35.62903755494424]],[[139.83596617592318,35.631562441705206],[139.83610640978654,35.63157300608496]],[[139.8364102498238,35.63160469922422],[139.8401030748924,35.63196388813582],[139.83863841009727,35.61433193832806],[139.83556105587346,35.612599380048565],[139.8312605507303,35.6178287480263]],[[139.8355298927927,35.63152018418619],[139.83567791742627,35.63340064378223],[139.8213039464315,35.631752600540764],[139.82107022332588,35.633390079402474],[139.8228465189285,35.633939427149635]],[[139.82344640823288,35.63398168466865],[139.82353989747511,35.63359080261778],[139.83377696950066,35.63455216117531],[139.83408080953794,35.63898920067157],[139.83311475403477,35.63895750753231]],[[139.80638462152365,35.67250997762786],[139.80625996920065,35.671802164184406]],[[139.8002454946164,35.657033161289704],[139.80096224547358,35.65750855837859]],[[139.80106352548603,35.65740291458106],[139.8003623561692,35.656895824352915],[139.8040473904676,35.653219420198866],[139.80043247310087,35.65081074161518]],[[139.8099683758096,35.65712824070748],[139.8099060496481,35.65709654756822]],[[139.8097813973251,35.6570120325302],[139.80743637549887,35.655448504326756]],[[139.80343191962282,35.65943127549364],[139.80690660312618,35.66028699025363]],[[139.80774021553617,35.64315156629426],[139.80876859720084,35.64369034966166],[139.8084959202443,35.64564475991597],[139.80643915691496,35.645222184725846]],[[139.80633008613233,35.64590886940979],[139.80846475716353,35.64587717627053],[139.80656380923796,35.648222468575696],[139.80630671382178,35.649976155614695]],[[139.80626775997084,35.65032478014655],[139.8059483383932,35.65243765609715],[139.80717928008272,35.65324054895837],[139.81138629598362,35.65362086662948]],[[139.83793724078043,35.65088469227346],[139.83745421302885,35.6503353445263],[139.84143529659434,35.64765199206904]],[[139.83064507988556,35.65206790280579],[139.83475081577402,35.652152417843816],[139.8371815360723,35.650536067741605],[139.83768793613447,35.65106428672926]],[[139.83768793613447,35.65106428672926],[139.83793724078043,35.65088469227346]],[[139.8206027771147,35.684965381356655],[139.82080533713955,35.68201791940557]],[[139.82589271007154,35.705175039824155],[139.8308554306806,35.702924826936766],[139.8330446371031,35.70288256941775]],[[139.80954767421952,35.686909227231205],[139.80952430190897,35.68717333672503]],[[139.8312605507303,35.6178287480263],[139.83229672316517,35.619540177546284],[139.83105799070546,35.62094524005344],[139.8275209810406,35.61963525696407],[139.8269912086679,35.62222353000355]],[[139.83768793613447,35.65106428672926],[139.83958109328987,35.653652559768744],[139.83972911792344,35.65572317820033],[139.83269405244468,35.6552583454912],[139.8317279969415,35.656473249162794],[139.82890773813386,35.65636760536527],[139.82868959656864,35.661892775976085],[139.8303801936992,35.66204067729263],[139.82997507364948,35.66529450625656],[139.8286662242581,35.66572764582643],[139.82869738733882,35.66808350251135]],[[139.8462733648804,35.66573821020618],[139.84569684788656,35.658955878404754],[139.84535405399834,35.64932116407001],[139.8408042442092,35.6494585010068],[139.83793724078043,35.65088469227346]]]}