{"type":"Topology","bbox":[139.78871651104447,35.686685319602724,139.84232870821097,35.743576325234926],"objects":{"town":{"type":"GeometryCollection","geometries":[{"type":"MultiPolygon","arcs":[[[-11,4,13,0,1,2,14,6,62,63]]],"properties":{"name":"両国"}},{"type":"MultiPolygon","arcs":[[[-1,-14,-5,10,11,12,8,144,25]]],"properties":{"name":"千歳"}},{"type":"MultiPolygon","arcs":[[[-13,101,41,42,-76,16,17,18,19,-22,187,44,102,103]]],"properties":{"name":"立川"}},{"type":"MultiPolygon","arcs":[[[-103,-45,-188,21,-20,-37,110,23,273]]],"properties":{"name":"菊川"}},{"type":"MultiPolygon","arcs":[[[114,-129,74,69,30,26,27,28,70,71,72,-127,116,-62,117,118,119]]],"properties":{"name":"石原"}},{"type":"MultiPolygon","arcs":[[[257,258,-168,-167,178,139,-90,31,-89,288]]],"properties":{"name":"墨田"}},{"type":"MultiPolygon","arcs":[[[55,105,120,121,104,39,36,-19,169,170]]],"properties":{"name":"江東橋"}},{"type":"MultiPolygon","arcs":[[[65,66,67,68,53,45,46,47,48,49,50,96,97,98,99,100]]],"properties":{"name":"押上"}},{"type":"MultiPolygon","arcs":[[[163,164,123,124,125,58,59,60,61,-117,126,-73,-72,-71,-29,-148,255,-216]]],"properties":{"name":"本所"}},{"type":"MultiPolygon","arcs":[[[137,-83,-128,77,78,176,177,-170,-18,-17,75,-43,-42,-102,-12,-64,111,112]]],"properties":{"name":"緑"}},{"type":"MultiPolygon","arcs":[[[-284,-31,-70,-75,128,-115,-120,281,-177,-79,-78,127,82,-138,-113]]],"properties":{"name":"亀沢"}},{"type":"MultiPolygon","arcs":[[[-231,246,247,248,249,84,202,203,-93,-134,-99,-98,-97,-51]]],"properties":{"name":"向島"}},{"type":"MultiPolygon","arcs":[[[-204,284,87,88,-32,89,90,-221,-108,-94]]],"properties":{"name":"堤通"}},{"type":"MultiPolygon","arcs":[[[220,-91,-140,-179,166,167,173,174,175,171,136,-100,133,92,93,107]]],"properties":{"name":"東向島"}},{"type":"MultiPolygon","arcs":[[[-49,-48,-47,-46,260,261,-195,-194,278,286,-232,143,140,-182,228,229,230,-50]]],"properties":{"name":"業平"}},{"type":"MultiPolygon","arcs":[[[-112,-63,-7,-15,-3,282,146,147,-28,-27,283]]],"properties":{"name":"横網"}},{"type":"MultiPolygon","arcs":[[[-175,-174,-259,275,-237,-236,-235,-251,153,154,148,149,150,279,-176]]],"properties":{"name":"八広"}},{"type":"MultiPolygon","arcs":[[[-202,-201,-155,-253,272,186,274,158,155,-192]]],"properties":{"name":"立花"}},{"type":"MultiPolygon","arcs":[[[224,-219,211,161,-118,-61,159,208,209,221,222,240,-197,241,242]]],"properties":{"name":"太平"}},{"type":"MultiPolygon","arcs":[[[-241,-223,-222,-210,-209,-160,-60,180,181,-141,-144,231,-287,-279,193,194,195,196]]],"properties":{"name":"横川"}},{"type":"MultiPolygon","arcs":[[[-68,198,199,-149,200,201,191,-156,188,271,-261,-54,-69]]],"properties":{"name":"文花"}},{"type":"MultiPolygon","arcs":[[[-126,-125,-124,-165,-164,215,212,213,270,263,265,-229,-181,-59]]],"properties":{"name":"東駒形"}},{"type":"MultiPolygon","arcs":[[[-178,-282,-119,-162,-212,218,-225,-243,291,-121,-106,-56,-171]]],"properties":{"name":"錦糸"}},{"type":"MultiPolygon","arcs":[[[-154,250,234,235,236,237,227,251,252]]],"properties":{"name":"東墨田"}},{"type":"MultiPolygon","arcs":[[[-66,-101,-137,-172,-280,-151,-150,-200,-199,-67]]],"properties":{"name":"京島"}},{"type":"MultiPolygon","arcs":[[[-214,287,-249,-248,-247,-230,-266,-264,-271]]],"properties":{"name":"吾妻橋"}}]}},"arcs":[[[139.79156896517915,35.69182309118847],[139.78889344898892,35.69168653911974]],[[139.78889344898892,35.69168653911974],[139.78880766089463,35.69430378710363],[139.7898639268054,35.69642603383838]],[[139.7898639268054,35.69642603383838],[139.7914617300613,35.69585137721583]],[[139.7914617300613,35.69585137721583],[139.79100061905456,35.69448016685906],[139.79156896517915,35.69182309118847]],[[139.79577258179864,35.69203360896109],[139.79336515340304,35.69191412590095]],[[139.79336515340304,35.69191412590095],[139.79316676843501,35.69566361812134]],[[139.79316676843501,35.69566361812134],[139.7948342745175,35.69543603134013]],[[139.7948342745175,35.69543603134013],[139.79486108329698,35.692858611042965],[139.79577258179864,35.69203360896109]],[[139.798142477903,35.68927980890848],[139.796700165568,35.68857428988674],[139.79613181944345,35.68989429321774]],[[139.79613181944345,35.68989429321774],[139.79577258179864,35.69203360896109]],[[139.79577258179864,35.69203360896109],[139.79785294308485,35.69214740235169]],[[139.79785294308485,35.69214740235169],[139.79785830484073,35.692124643673566]],[[139.79785830484073,35.692124643673566],[139.798142477903,35.68927980890848]],[[139.79336515340304,35.69191412590095],[139.79156896517915,35.69182309118847]],[[139.7914617300613,35.69585137721583],[139.79316676843501,35.69566361812134]],[[139.80589021516732,35.690082052312235],[139.80567038317574,35.69257412756645]],[[139.80567038317574,35.69257412756645],[139.80567574493162,35.69257981723598]],[[139.80567574493162,35.69257981723598],[139.8090053953407,35.6927334383133]],[[139.8090053953407,35.6927334383133],[139.80921986557638,35.69017877669425]],[[139.80921986557638,35.69017877669425],[139.80589021516732,35.690082052312235]],[[139.80337555165386,35.688301185749296],[139.80325759302423,35.689934120904454]],[[139.80325759302423,35.689934120904454],[139.80589021516732,35.690082052312235]],[[139.80589021516732,35.690082052312235],[139.80615830296193,35.68674790596756]],[[139.80615830296193,35.68674790596756],[139.80482858750065,35.686685319602724],[139.80468918184746,35.68834670310554],[139.80337555165386,35.688301185749296]],[[139.79336515340304,35.69191412590095],[139.79343485622965,35.69070791596056]],[[139.79343485622965,35.69070791596056],[139.7904215494182,35.68920584320459],[139.78889344898892,35.69168653911974]],[[139.79727923520437,35.69859379792938],[139.79728459696028,35.6986165566075]],[[139.79728459696028,35.6986165566075],[139.79696289160674,35.7018596682397]],[[139.79696289160674,35.7018596682397],[139.79985287803265,35.70200759964748]],[[139.79985287803265,35.70200759964748],[139.79997083666228,35.698770177684814]],[[139.79997083666228,35.698770177684814],[139.79727923520437,35.69859379792938]],[[139.8140454458794,35.730063360100765],[139.81810965684573,35.73465492341161]],[[139.81810965684573,35.73465492341161],[139.81990048331375,35.73310164362988]],[[139.81990048331375,35.73310164362988],[139.81988439804607,35.733090264290816]],[[139.81988439804607,35.733090264290816],[139.81904260237098,35.7316166398825],[139.81938575474808,35.72923266834936]],[[139.81938575474808,35.72923266834936],[139.81771824866559,35.72877749478695],[139.8140454458794,35.730063360100765]],[[139.80938071825315,35.68860842790392],[139.80921986557638,35.69017877669425]],[[139.8090053953407,35.6927334383133],[139.8112895033508,35.69286430071249]],[[139.8112895033508,35.69286430071249],[139.81325726776325,35.69297240443357]],[[139.81325726776325,35.69297240443357],[139.8113592061774,35.69208481598686],[139.81172380557805,35.68876773865077],[139.80938071825315,35.68860842790392]],[[139.80060888561346,35.690224294050495],[139.80048020347203,35.692289644089946]],[[139.80048020347203,35.692289644089946],[139.80048556522794,35.692289644089946]],[[139.80048556522794,35.692289644089946],[139.80310210210334,35.69243757549773]],[[139.80310210210334,35.69243757549773],[139.80322542248888,35.690372225458276]],[[139.80322542248888,35.690372225458276],[139.80060888561346,35.690224294050495]],[[139.8180667627986,35.708323132825974],[139.81608827487435,35.708789685727446]],[[139.81608827487435,35.708789685727446],[139.81384169915552,35.709648825826505]],[[139.81384169915552,35.709648825826505],[139.81246372789118,35.709654515496034]],[[139.81246372789118,35.709654515496034],[139.81091418043835,35.70951227375778]],[[139.81091418043835,35.70951227375778],[139.80856573135753,35.70943830805388]],[[139.80856573135753,35.70943830805388],[139.80856036960165,35.71032589650059]],[[139.80856036960165,35.71032589650059],[139.81255487774138,35.71117365726059],[139.81574512249725,35.71281228208528]],[[139.81574512249725,35.71281228208528],[139.8186190236555,35.70899451383053]],[[139.8186190236555,35.70899451383053],[139.8180667627986,35.708323132825974]],[[139.8112895033508,35.69286430071249],[139.8110696713592,35.6960334466408],[139.8099705114013,35.69637482681261]],[[139.8099705114013,35.69637482681261],[139.81296773294505,35.69648862020321]],[[139.81296773294505,35.69648862020321],[139.81325726776325,35.69297240443357]],[[139.80482858750065,35.7022750141154],[139.80459803199727,35.7052165732625]],[[139.80459803199727,35.7052165732625],[139.80807244981546,35.705415711696055]],[[139.80807244981546,35.705415711696055],[139.80827619653937,35.70245708354037]],[[139.80827619653937,35.70245708354037],[139.80825474951578,35.70245139387083]],[[139.80825474951578,35.70245139387083],[139.80482858750065,35.7022750141154]],[[139.7948342745175,35.69543603134013],[139.79756877002256,35.69568637679946]],[[139.79756877002256,35.69568637679946],[139.79785294308485,35.69214740235169]],[[139.81574512249725,35.71281228208528],[139.81718207307637,35.714917459811446]],[[139.81718207307637,35.714917459811446],[139.8181311038693,35.713933146982725]],[[139.8181311038693,35.713933146982725],[139.82331592181708,35.71190193496045]],[[139.82331592181708,35.71190193496045],[139.8233802628878,35.7118734866128]],[[139.8233802628878,35.7118734866128],[139.82082806708308,35.711008656844214],[139.8186190236555,35.70899451383053]],[[139.79999228368584,35.698770177684814],[139.79997083666228,35.698770177684814]],[[139.79985287803265,35.70200759964748],[139.79986896330033,35.70200759964748]],[[139.79986896330033,35.70200759964748],[139.80235145627844,35.70214984138573]],[[139.80235145627844,35.70214984138573],[139.8023621797902,35.70214984138573]],[[139.8023621797902,35.70214984138573],[139.80259809704947,35.698923798762124]],[[139.80259809704947,35.698923798762124],[139.79999228368584,35.698770177684814]],[[139.80567038317574,35.69257412756645],[139.80310210210334,35.69243757549773]],[[139.80310210210334,35.69243757549773],[139.80282865255285,35.69599930862362]],[[139.80282865255285,35.69599930862362],[139.80536476308987,35.696135860692344]],[[139.80536476308987,35.696135860692344],[139.80539157186934,35.696135860692344]],[[139.80539157186934,35.696135860692344],[139.80567574493162,35.69257981723598]],[[139.80021211567743,35.695862756554895],[139.79999228368584,35.698770177684814]],[[139.80259809704947,35.698923798762124],[139.80281256728517,35.69599930862362]],[[139.80281256728517,35.69599930862362],[139.80021211567743,35.695862756554895]],[[139.80584732112018,35.71289762712823],[139.80346133974814,35.71421763045923]],[[139.80346133974814,35.71421763045923],[139.80663013748045,35.71743798341331]],[[139.80663013748045,35.71743798341331],[139.8101152788104,35.71575384123238]],[[139.8101152788104,35.71575384123238],[139.80584732112018,35.71289762712823]],[[139.8097667646774,35.72807766543473],[139.81119835350063,35.73286836717914],[139.81414195748548,35.736191134184764],[139.81457625971274,35.739047348288906],[139.8161794247245,35.7404413173238]],[[139.8161794247245,35.7404413173238],[139.81823833898713,35.736663376755764],[139.81810965684573,35.73465492341161]],[[139.8140454458794,35.730063360100765],[139.81340203517234,35.72811180345192]],[[139.81340203517234,35.72811180345192],[139.81323045898378,35.7275997331942]],[[139.81323045898378,35.7275997331942],[139.8097667646774,35.72807766543473]],[[139.81339131166055,35.71798419168821],[139.81147716480703,35.7213581657196]],[[139.81147716480703,35.7213581657196],[139.81281760378008,35.72366248187932]],[[139.81281760378008,35.72366248187932],[139.81629202159826,35.720555922315846]],[[139.81629202159826,35.720555922315846],[139.81339131166055,35.71798419168821]],[[139.80856036960165,35.71032589650059],[139.80855500784577,35.71071848369817]],[[139.80855500784577,35.71071848369817],[139.8128068802683,35.71373400854917]],[[139.8128068802683,35.71373400854917],[139.81470494185416,35.71531004700903]],[[139.81470494185416,35.71531004700903],[139.81678530314034,35.717039706546196]],[[139.81678530314034,35.717039706546196],[139.81718207307637,35.714917459811446]],[[139.79785830484073,35.692124643673566],[139.80048020347203,35.692289644089946]],[[139.80060888561346,35.690224294050495],[139.79931134068752,35.68983170685291]],[[139.79931134068752,35.68983170685291],[139.798142477903,35.68927980890848]],[[139.81527328797873,35.69307481848511],[139.81325726776325,35.69297240443357]],[[139.81296773294505,35.69648862020321],[139.8150159236959,35.69661379293288]],[[139.8150159236959,35.69661379293288],[139.81527328797873,35.69307481848511]],[[139.81281760378008,35.72366248187932],[139.8132250972279,35.7275428364989]],[[139.8132250972279,35.7275428364989],[139.8184045534198,35.7224335132608]],[[139.8184045534198,35.7224335132608],[139.81629202159826,35.720555922315846]],[[139.80938071825315,35.68860842790392],[139.80955229444172,35.68691290638393],[139.80615830296193,35.68674790596756]],[[139.79756877002256,35.69568637679946],[139.79756877002256,35.69573758382523]],[[139.79756877002256,35.69573758382523],[139.80020675392154,35.695862756554895]],[[139.80020675392154,35.695862756554895],[139.80048556522794,35.692289644089946]],[[139.80510203705114,35.699066040500384],[139.80509131353938,35.69906035083085]],[[139.80509131353938,35.69906035083085],[139.80480714047707,35.7022750141154]],[[139.80480714047707,35.7022750141154],[139.80482858750065,35.7022750141154]],[[139.80825474951578,35.70245139387083],[139.80850675204272,35.699259489264406]],[[139.80850675204272,35.699259489264406],[139.80850675204272,35.69924810992535]],[[139.80850675204272,35.69924810992535],[139.80510203705114,35.699066040500384]],[[139.8150159236959,35.69661379293288],[139.8194554575747,35.69683569004455]],[[139.8194554575747,35.69683569004455],[139.81973963063697,35.69331378460537],[139.81527328797873,35.69307481848511]],[[139.80235145627844,35.70214984138573],[139.802174518334,35.705097090202365]],[[139.802174518334,35.705097090202365],[139.80218524184576,35.705097090202365]],[[139.80218524184576,35.705097090202365],[139.8045873084855,35.7052165732625]],[[139.8045873084855,35.7052165732625],[139.80459803199727,35.7052165732625]],[[139.80480714047707,35.7022750141154],[139.8023621797902,35.70214984138573]],[[139.80282865255285,35.69599930862362],[139.80281256728517,35.69599930862362]],[[139.80259809704947,35.698923798762124],[139.80509131353938,35.69906035083085]],[[139.80510203705114,35.699066040500384],[139.80536476308987,35.696135860692344]],[[139.80855500784577,35.71071848369817],[139.80584732112018,35.71289762712823]],[[139.8101152788104,35.71575384123238],[139.8101260023222,35.71574815156285]],[[139.8101260023222,35.71574815156285],[139.8128068802683,35.71373400854917]],[[139.81470494185416,35.71531004700903],[139.81339131166055,35.71798419168821]],[[139.8184045534198,35.7224335132608],[139.81841527693157,35.722450582269396]],[[139.81841527693157,35.722450582269396],[139.82051172348545,35.72027143883933]],[[139.82051172348545,35.72027143883933],[139.81678530314034,35.717039706546196]],[[139.80020675392154,35.695862756554895],[139.80021211567743,35.695862756554895]],[[139.81938575474808,35.72923266834936],[139.8198629510225,35.727229904674736]],[[139.8198629510225,35.727229904674736],[139.81340203517234,35.72811180345192]],[[139.8113592061774,35.705444160043704],[139.81127341808312,35.70589364393659]],[[139.81127341808312,35.70589364393659],[139.81091418043835,35.70951227375778]],[[139.81246372789118,35.709654515496034],[139.81278543324473,35.705518125747595]],[[139.81278543324473,35.705518125747595],[139.8113592061774,35.705444160043704]],[[139.79613181944345,35.68989429321774],[139.79343485622965,35.69070791596056]],[[139.79728459696028,35.6986165566075],[139.79253408123975,35.699532593401855]],[[139.79253408123975,35.699532593401855],[139.79403537288957,35.70214984138573]],[[139.79403537288957,35.70214984138573],[139.79696289160674,35.7018596682397]],[[139.8279323936403,35.71264159199937],[139.8273157917127,35.71320486928286]],[[139.8273157917127,35.71320486928286],[139.8232462189905,35.71742660407425]],[[139.8232462189905,35.71742660407425],[139.8232462189905,35.71743229374378]],[[139.8232462189905,35.71743229374378],[139.82446869933392,35.718564537980285]],[[139.82446869933392,35.718564537980285],[139.82947121758139,35.71732419002271]],[[139.82947121758139,35.71732419002271],[139.82895648901572,35.71574246189332]],[[139.82895648901572,35.71574246189332],[139.8279323936403,35.71264159199937]],[[139.82596999098374,35.70514260755861],[139.8272407271302,35.70779399355967]],[[139.8272407271302,35.70779399355967],[139.83186792246522,35.70695761213873]],[[139.83186792246522,35.70695761213873],[139.83323517021773,35.702883808755125]],[[139.83323517021773,35.702883808755125],[139.83094570045174,35.70291794677231],[139.82596999098374,35.70514260755861]],[[139.80827619653937,35.70245708354037],[139.81148788831882,35.70260501494815]],[[139.81148788831882,35.70260501494815],[139.81175061435752,35.69945293802843]],[[139.81175061435752,35.69945293802843],[139.80850675204272,35.699259489264406]],[[139.79986896330033,35.70200759964748],[139.79987968681212,35.704829675734445]],[[139.79987968681212,35.704829675734445],[139.79992794261514,35.70499467615082]],[[139.79992794261514,35.70499467615082],[139.802174518334,35.705097090202365]],[[139.81919809329185,35.723139032282546],[139.81988439804607,35.72723559434427]],[[139.81988439804607,35.72723559434427],[139.8230960898255,35.7293350824009],[139.8242059732952,35.72938628942667]],[[139.8242059732952,35.72938628942667],[139.82515500408812,35.72862956337916]],[[139.82515500408812,35.72862956337916],[139.81919809329185,35.723139032282546]],[[139.8090053953407,35.6927334383133],[139.80876947808144,35.69632361978684]],[[139.80876947808144,35.69632361978684],[139.8099705114013,35.69637482681261]],[[139.82051708524133,35.720265749169805],[139.82051172348545,35.72027143883933]],[[139.81841527693157,35.722450582269396],[139.81919809329185,35.723139032282546]],[[139.82515500408812,35.72862956337916],[139.82611475839283,35.727776112949634]],[[139.82611475839283,35.727776112949634],[139.8228280020309,35.72251885830376]],[[139.8228280020309,35.72251885830376],[139.82051708524133,35.720265749169805]],[[139.80539157186934,35.696135860692344],[139.8087373075461,35.696334999125895]],[[139.8087373075461,35.696334999125895],[139.80876947808144,35.69632361978684]],[[139.81988439804607,35.72723559434427],[139.8198629510225,35.727229904674736]],[[139.81988439804607,35.733090264290816],[139.8242059732952,35.72938628942667]],[[139.80807244981546,35.705415711696055],[139.80802419401243,35.70608709270061]],[[139.80802419401243,35.70608709270061],[139.81103213906798,35.706695887340345],[139.81127341808312,35.70589364393659]],[[139.8113592061774,35.705444160043704],[139.81148788831882,35.70260501494815]],[[139.83772295989954,35.7083288224955],[139.8372725724046,35.70865882332825]],[[139.8372725724046,35.70865882332825],[139.83578736602243,35.70996175765066],[139.83307967929684,35.7105534832818]],[[139.83307967929684,35.7105534832818],[139.83460241797025,35.71306831721414]],[[139.83460241797025,35.71306831721414],[139.83839854114197,35.71149227875428],[139.83959957446183,35.70988779194677],[139.83772295989954,35.7083288224955]],[[139.80325759302423,35.689934120904454],[139.80322542248888,35.690372225458276]],[[139.82596999098374,35.70514260755861],[139.8237770328238,35.70604157534437]],[[139.8237770328238,35.70604157534437],[139.82536947432382,35.70860761630248],[139.82375558580026,35.711742624213606]],[[139.82375558580026,35.711742624213606],[139.82836669586757,35.71014951674516]],[[139.82836669586757,35.71014951674516],[139.8272407271302,35.70779399355967]],[[139.8163349156454,35.70287242941607],[139.81610436014202,35.705688815833504]],[[139.81610436014202,35.705688815833504],[139.81613653067737,35.70619519642169]],[[139.81613653067737,35.70619519642169],[139.81880668511172,35.70617243774357]],[[139.81880668511172,35.70617243774357],[139.8190318788592,35.70302036082385]],[[139.8190318788592,35.70302036082385],[139.8163349156454,35.70287242941607]],[[139.82375558580026,35.711742624213606],[139.8233802628878,35.7118734866128]],[[139.82331592181708,35.71190193496045],[139.8236429889265,35.71200434901199]],[[139.8236429889265,35.71200434901199],[139.8273157917127,35.71320486928286]],[[139.8279323936403,35.71264159199937],[139.82891359496858,35.7112134849473]],[[139.82891359496858,35.7112134849473],[139.82836669586757,35.71014951674516]],[[139.80663013748045,35.71743798341331],[139.80897858656124,35.72234816821785]],[[139.80897858656124,35.72234816821785],[139.81147716480703,35.7213581657196]],[[139.81339131166055,35.71798419168821],[139.8101260023222,35.71574815156285]],[[139.82611475839283,35.727776112949634],[139.82817903441136,35.72604076374293]],[[139.82817903441136,35.72604076374293],[139.8263506756521,35.7223197198702]],[[139.8263506756521,35.7223197198702],[139.8228280020309,35.72251885830376]],[[139.81148788831882,35.70260501494815],[139.8130106269922,35.7026903599911]],[[139.8130106269922,35.7026903599911],[139.81303743577166,35.70269604966063]],[[139.81303743577166,35.70269604966063],[139.81331088532218,35.699538283071384]],[[139.81331088532218,35.699538283071384],[139.81175061435752,35.69945293802843]],[[139.79582619935758,35.70562053979914],[139.79741327910168,35.70823209811349]],[[139.79741327910168,35.70823209811349],[139.7988555914367,35.70730468198007]],[[139.7988555914367,35.70730468198007],[139.79992794261514,35.70499467615082]],[[139.79987968681212,35.704829675734445],[139.79582619935758,35.70562053979914]],[[139.81498911491644,35.697245346250725],[139.81396501954103,35.69721120823355]],[[139.81396501954103,35.69721120823355],[139.81331088532218,35.699538283071384]],[[139.81331088532218,35.699538283071384],[139.814812176972,35.69961793844481]],[[139.814812176972,35.69961793844481],[139.81498911491644,35.697245346250725]],[[139.8132250972279,35.7275428364989],[139.81323045898378,35.7275997331942]],[[139.81303743577166,35.70269604966063],[139.8145387274215,35.70277001536452]],[[139.8145387274215,35.70277001536452],[139.8145440891774,35.70277001536452]],[[139.8145440891774,35.70277001536452],[139.81479072994844,35.69994224960803]],[[139.81479072994844,35.69994224960803],[139.814812176972,35.69961793844481]],[[139.83461314148204,35.71744367308284],[139.83268827111672,35.717824880941365]],[[139.83268827111672,35.717824880941365],[139.83349253450055,35.721591442170336],[139.8367846526184,35.72448179429166]],[[139.8367846526184,35.72448179429166],[139.84232870821097,35.71914488427236],[139.83901514306956,35.71707953423291],[139.8370473786571,35.717978502018674],[139.83461314148204,35.71744367308284]],[[139.80802419401243,35.70608709270061],[139.8077614679737,35.70875554771027]],[[139.8077614679737,35.70875554771027],[139.80768640339122,35.70968865351321]],[[139.80768640339122,35.70968865351321],[139.80856573135753,35.70943830805388]],[[139.81278543324473,35.705518125747595],[139.81279079500064,35.705518125747595]],[[139.81279079500064,35.705518125747595],[139.8130106269922,35.7026903599911]],[[139.83268827111672,35.717824880941365],[139.82962134674636,35.71779643259371]],[[139.82962134674636,35.71779643259371],[139.83039343959484,35.72040230123853]],[[139.83039343959484,35.72040230123853],[139.8313263851201,35.72323575666456]],[[139.8313263851201,35.72323575666456],[139.83192690178004,35.725409210425084],[139.8341627539871,35.72694542119823]],[[139.8341627539871,35.72694542119823],[139.8367846526184,35.72448179429166]],[[139.8236429889265,35.71200434901199],[139.82016320935244,35.71529866766996]],[[139.82016320935244,35.71529866766996],[139.8232462189905,35.71742660407425]],[[139.8145440891774,35.70277001536452],[139.8163349156454,35.70287242941607]],[[139.8190318788592,35.70302036082385],[139.81919809329185,35.70031207812749]],[[139.81919809329185,35.70031207812749],[139.81479072994844,35.69994224960803]],[[139.8372725724046,35.70865882332825],[139.8318840077329,35.70696330180826]],[[139.8318840077329,35.70696330180826],[139.8308974446487,35.70860761630248],[139.82836669586757,35.71014951674516]],[[139.82891359496858,35.7112134849473],[139.83307967929684,35.7105534832818]],[[139.80768640339122,35.70968865351321],[139.80440500878515,35.710655897333346]],[[139.80440500878515,35.710655897333346],[139.8021530713104,35.71129314032072]],[[139.8021530713104,35.71129314032072],[139.80089842043165,35.71190193496045]],[[139.80089842043165,35.71190193496045],[139.80346133974814,35.71421763045923]],[[139.82947121758139,35.71732419002271],[139.82962134674636,35.71779643259371]],[[139.83461314148204,35.71744367308284],[139.83324053197362,35.715025563532514]],[[139.83324053197362,35.715025563532514],[139.82895648901572,35.71574246189332]],[[139.82446869933392,35.718564537980285],[139.82592709693662,35.721170406625106]],[[139.82592709693662,35.721170406625106],[139.83039343959484,35.72040230123853]],[[139.79403537288957,35.70214984138573],[139.79582619935758,35.70562053979914]],[[139.81990048331375,35.73310164362988],[139.82168594802584,35.73491664821],[139.8213696044282,35.736657687086236],[139.82388426794168,35.73776717264462]],[[139.82388426794168,35.73776717264462],[139.82657586939956,35.73422819819685],[139.82901546833054,35.73184422666371]],[[139.82901546833054,35.73184422666371],[139.82515500408812,35.72862956337916]],[[139.81613653067737,35.70619519642169],[139.81608827487435,35.708789685727446]],[[139.8180667627986,35.708323132825974],[139.81872089701744,35.707856579924496]],[[139.81872089701744,35.707856579924496],[139.81880668511172,35.70617243774357]],[[139.80218524184576,35.705097090202365],[139.80221741238114,35.70801589067134]],[[139.80221741238114,35.70801589067134],[139.80437820000571,35.70809554604477]],[[139.80437820000571,35.70809554604477],[139.8045873084855,35.7052165732625]],[[139.80437820000571,35.70809554604477],[139.8077614679737,35.70875554771027]],[[139.81396501954103,35.69721120823355],[139.81188465825483,35.69701206979999],[139.81175061435752,35.69945293802843]],[[139.8318840077329,35.70696330180826],[139.83186792246522,35.70695761213873]],[[139.80221741238114,35.70801589067134],[139.8021530713104,35.71129314032072]],[[139.80440500878515,35.710655897333346],[139.80437820000571,35.70809554604477]],[[139.7988555914367,35.70730468198007],[139.80221741238114,35.70801589067134]],[[139.8237770328238,35.70604157534437],[139.81872089701744,35.707856579924496]],[[139.83324053197362,35.715025563532514],[139.83460241797025,35.71306831721414]],[[139.80337555165386,35.688301185749296],[139.80059816210166,35.68819308202822],[139.79931134068752,35.68983170685291]],[[139.83772295989954,35.7083288224955],[139.83476863240293,35.70571726418115],[139.83563187510157,35.70306587818009],[139.83323517021773,35.702883808755125]],[[139.82901546833054,35.73184422666371],[139.8341627539871,35.72694542119823]],[[139.8313263851201,35.72323575666456],[139.82817903441136,35.72604076374293]],[[139.81429208665045,35.70559778112102],[139.81384169915552,35.709648825826505]],[[139.81610436014202,35.705688815833504],[139.81429208665045,35.70559778112102]],[[139.8232462189905,35.71743229374378],[139.82051708524133,35.720265749169805]],[[139.8263506756521,35.7223197198702],[139.82592709693662,35.721170406625106]],[[139.80850675204272,35.69924810992535],[139.8087373075461,35.696334999125895]],[[139.7898639268054,35.69642603383838],[139.79253408123975,35.699532593401855]],[[139.79727923520437,35.69859379792938],[139.79756877002256,35.69573758382523]],[[139.80897858656124,35.72234816821785],[139.8097667646774,35.72807766543473]],[[139.82016320935244,35.71529866766996],[139.8181311038693,35.713933146982725]],[[139.81429208665045,35.70559778112102],[139.81279079500064,35.705518125747595]],[[139.79741327910168,35.70823209811349],[139.80089842043165,35.71190193496045]],[[139.8161794247245,35.7404413173238],[139.81795952768076,35.7426090814148],[139.82057606455615,35.7435706355654],[139.82388426794168,35.73776717264462]],[[139.81429208665045,35.70559778112102],[139.8145387274215,35.70277001536452]],[[139.8150159236959,35.69661379293288],[139.81498911491644,35.697245346250725]],[[139.81919809329185,35.70031207812749],[139.8194554575747,35.69683569004455]]]}