{"type":"Topology","bbox":[139.6732458996097,35.6732421040516,139.7451166294897,35.72989231313861],"objects":{"town":{"type":"GeometryCollection","geometries":[{"type":"MultiPolygon","arcs":[[[9,10,11,34,-14,2,3,4,0,35,5,6,7,20,21,22,23,24]]],"properties":{"name":"四谷"}},{"type":"Polygon","arcs":[[13,14,15,16,-3]],"properties":{"name":"三栄町"}},{"type":"Polygon","arcs":[[-17,17,18,19,-4]],"properties":{"name":"本塩町"}},{"type":"Polygon","arcs":[[25,26,-7,27]],"properties":{"name":"左門町"}},{"type":"Polygon","arcs":[[28,29,-28,-6,30,31]],"properties":{"name":"須賀町"}},{"type":"MultiPolygon","arcs":[[[39,40,-29,-32,-31,-36,-1,36,37]]],"properties":{"name":"若葉"}},{"type":"Polygon","arcs":[[41,42,43,-18,-16]],"properties":{"name":"四谷坂町"}},{"type":"Polygon","arcs":[[44,45,46,47,48]],"properties":{"name":"二十騎町"}},{"type":"MultiPolygon","arcs":[[[254,255,58,156,-23,-93,-92,-91,51,49,367,368,-204,55,56,-232,252,344,-289,-335,-275,-320]]],"properties":{"name":"新宿"}},{"type":"Polygon","arcs":[[59,60,61,-21,-8,-27,62]],"properties":{"name":"大京町"}},{"type":"Polygon","arcs":[[-60,63,64,65]],"properties":{"name":"霞ヶ丘町"}},{"type":"MultiPolygon","arcs":[[[85,221,66,67,68,69,-106,220,-181,87,88]]],"properties":{"name":"市谷田町"}},{"type":"Polygon","arcs":[[71,72,73,74,-47]],"properties":{"name":"市谷甲良町"}},{"type":"Polygon","arcs":[[75,76,77,78,79]],"properties":{"name":"揚場町"}},{"type":"MultiPolygon","arcs":[[[185,186,172,173,251,81,82,83,84,-94,-100,175,187,188,189,190]]],"properties":{"name":"百人町"}},{"type":"Polygon","arcs":[[89,-52,90,91,92,-22,-62]],"properties":{"name":"内藤町"}},{"type":"MultiPolygon","arcs":[[[-189,-188,-176,99,93,-85,94,95,96,97,286,287,288,-345,-253,-231]]],"properties":{"name":"大久保"}},{"type":"Polygon","arcs":[[100,101,102,103,104]],"properties":{"name":"南町"}},{"type":"MultiPolygon","arcs":[[[180,-221,105,-70,106,107,108,109,-338,182,183,184,-88]]],"properties":{"name":"市谷砂土原町"}},{"type":"Polygon","arcs":[[111,112,113,114,115,116,117]],"properties":{"name":"北山伏町"}},{"type":"Polygon","arcs":[[118,-109,119,120,121]],"properties":{"name":"市谷鷹匠町"}},{"type":"Polygon","arcs":[[122,123,124,125,126,127,128,129]],"properties":{"name":"喜久井町"}},{"type":"Polygon","arcs":[[-64,-63,-26,-30,-41,130]],"properties":{"name":"信濃町"}},{"type":"MultiPolygon","arcs":[[[196,197,198,199,171,132,133,202,140,-78,-77,-179,338,-323,-312,138,201,167,168,169,200]]],"properties":{"name":"神楽坂"}},{"type":"Polygon","arcs":[[-35,-12,135,136,137,-42,-15]],"properties":{"name":"荒木町"}},{"type":"MultiPolygon","arcs":[[[330,331,-299,142,143,144,-72,-46,-45]]],"properties":{"name":"市谷加賀町"}},{"type":"Polygon","arcs":[[-65,-131,-40,-38,146]],"properties":{"name":"南元町"}},{"type":"Polygon","arcs":[[147,148,149,150,151,152,-144]],"properties":{"name":"市谷薬王寺町"}},{"type":"Polygon","arcs":[[153,154,-48,-75,-118]],"properties":{"name":"南山伏町"}},{"type":"Polygon","arcs":[[157,158,159,160,161]],"properties":{"name":"西五軒町"}},{"type":"Polygon","arcs":[[-113,162,163,164,165]],"properties":{"name":"南榎町"}},{"type":"Polygon","arcs":[[177,178,-76,179]],"properties":{"name":"神楽河岸"}},{"type":"MultiPolygon","arcs":[[[232,-97,233,192,193,194,239,237,238,235,236]]],"properties":{"name":"西早稲田"}},{"type":"MultiPolygon","arcs":[[[-56,203,204,205,-191,-190,230,231,-57]]],"properties":{"name":"歌舞伎町"}},{"type":"Polygon","arcs":[[207,208,209]],"properties":{"name":"市谷台町"}},{"type":"Polygon","arcs":[[-120,-108,210]],"properties":{"name":"市谷長延寺町"}},{"type":"Polygon","arcs":[[-68,211,212,213]],"properties":{"name":"市谷八幡町"}},{"type":"Polygon","arcs":[[-114,-166,214,215,216,217,218,-198,219]],"properties":{"name":"矢来町"}},{"type":"Polygon","arcs":[[-103,222,223,224,-169,225]],"properties":{"name":"袋町"}},{"type":"MultiPolygon","arcs":[[[-373,-394,-409,-406,339,391,389,390,341,342,343,228,229,-384,-397]]],"properties":{"name":"中落合"}},{"type":"MultiPolygon","arcs":[[[-287,-98,-233,-237,243,-124,244,-276,334,-288]]],"properties":{"name":"戸山"}},{"type":"Polygon","arcs":[[-128,245,246,247,-164,248,249,250]],"properties":{"name":"弁天町"}},{"type":"Polygon","arcs":[[256,257,258,-223,-102]],"properties":{"name":"中町"}},{"type":"Polygon","arcs":[[-25,259,260,261,-10]],"properties":{"name":"愛住町"}},{"type":"Polygon","arcs":[[262,-249,-163,-112,-74]],"properties":{"name":"市谷山伏町"}},{"type":"Polygon","arcs":[[263,264,265,266,-150,267]],"properties":{"name":"河田町"}},{"type":"Polygon","arcs":[[268,269,270,271]],"properties":{"name":"筑土八幡町"}},{"type":"Polygon","arcs":[[-11,-262,272,-136]],"properties":{"name":"舟町"}},{"type":"Polygon","arcs":[[-266,273,274,275,-245,-123,276,277]],"properties":{"name":"若松町"}},{"type":"Polygon","arcs":[[-260,-24,-157,-59,-256,278,-208,279]],"properties":{"name":"富久町"}},{"type":"Polygon","arcs":[[280,281,282,-224,-259]],"properties":{"name":"北町"}},{"type":"Polygon","arcs":[[-141,-203,-134,283,-269,284,285,-79]],"properties":{"name":"津久戸町"}},{"type":"Polygon","arcs":[[-199,-219,290,291,-158,292,293]],"properties":{"name":"赤城元町"}},{"type":"Polygon","arcs":[[-180,-80,-286,294,295]],"properties":{"name":"下宮比町"}},{"type":"Polygon","arcs":[[-19,-44,296,297,-148,-143,298,299,-213,300]],"properties":{"name":"市谷本村町"}},{"type":"MultiPolygon","arcs":[[[378,-152,-151,-267,-278,-277,-130,-129,-251,355]]],"properties":{"name":"原町"}},{"type":"Polygon","arcs":[[-154,-117,302,-281,-258,303]],"properties":{"name":"細工町"}},{"type":"Polygon","arcs":[[304,305,306,307]],"properties":{"name":"中里町"}},{"type":"Polygon","arcs":[[-244,-236,-239,308,309,-125]],"properties":{"name":"馬場下町"}},{"type":"Polygon","arcs":[[-184,310,-104,-226,-168,-202,-139,311,312]],"properties":{"name":"若宮町"}},{"type":"Polygon","arcs":[[-280,-210,313,-264,314,315,-137,-273,-261]],"properties":{"name":"住吉町"}},{"type":"Polygon","arcs":[[-293,-162,316,317,-271,318]],"properties":{"name":"東五軒町"}},{"type":"Polygon","arcs":[[-279,-255,319,-274,-265,-314,-209]],"properties":{"name":"余丁町"}},{"type":"Polygon","arcs":[[320,321,-216]],"properties":{"name":"東榎町"}},{"type":"Polygon","arcs":[[322,323,-89,-185,-313]],"properties":{"name":"市谷船河原町"}},{"type":"Polygon","arcs":[[324,325,326,327,328,-307,329]],"properties":{"name":"改代町"}},{"type":"Polygon","arcs":[[-327,332,-160,333]],"properties":{"name":"水道町"}},{"type":"Polygon","arcs":[[-110,-119,336,-105,-311,-183,337]],"properties":{"name":"払方町"}},{"type":"Polygon","arcs":[[345,346,347,348]],"properties":{"name":"早稲田鶴巻町"}},{"type":"Polygon","arcs":[[-283,349,350,-201,-170,-225]],"properties":{"name":"岩戸町"}},{"type":"Polygon","arcs":[[-322,351,352,-305,353,-217]],"properties":{"name":"天神町"}},{"type":"Polygon","arcs":[[-115,-220,-197,-351,356]],"properties":{"name":"横寺町"}},{"type":"Polygon","arcs":[[-303,-116,-357,-350,-282]],"properties":{"name":"箪笥町"}},{"type":"Polygon","arcs":[[-354,-308,-329,357,-291,-218]],"properties":{"name":"赤城下町"}},{"type":"MultiPolygon","arcs":[[[-193,-234,-96,-95,-84,-83,358,359,360,361,-382,412,-194]]],"properties":{"name":"高田馬場"}},{"type":"Polygon","arcs":[[-358,-328,-334,-159,-292]],"properties":{"name":"築地町"}},{"type":"Polygon","arcs":[[-126,-310,364,-349,365,-247,366]],"properties":{"name":"早稲田町"}},{"type":"Polygon","arcs":[[-138,-316,-297,-43]],"properties":{"name":"片町"}},{"type":"Polygon","arcs":[[-365,-309,-238,369,-346]],"properties":{"name":"戸塚町"}},{"type":"MultiPolygon","arcs":[[[392,393,372,396,-383,-361,395,370,394]]],"properties":{"name":"上落合"}},{"type":"Polygon","arcs":[[-268,-149,-298,-315]],"properties":{"name":"市谷仲之町"}},{"type":"MultiPolygon","arcs":[[[381,-362,382,383,-230,375,387,410,385]]],"properties":{"name":"下落合"}},{"type":"Polygon","arcs":[[-325,379]],"properties":{"name":"山吹町"}},{"type":"Polygon","arcs":[[-122,380,-331,-49,-155,-304,-257,-101,-337]],"properties":{"name":"納戸町"}},{"type":"Polygon","arcs":[[-379,-356,-250,-263,-73,-145,-153]],"properties":{"name":"市谷柳町"}},{"type":"Polygon","arcs":[[-107,-69,-214,-300,-332,-381,-121,-211]],"properties":{"name":"市谷左内町"}},{"type":"Polygon","arcs":[[-200,-294,-319,-270,-284,-133,-172]],"properties":{"name":"白銀町"}},{"type":"Polygon","arcs":[[-165,-248,-366,-348,386,-352,-321,-215]],"properties":{"name":"榎町"}},{"type":"MultiPolygon","arcs":[[[398,438,400,-343,-342,-391,402,445]]],"properties":{"name":"西落合"}},{"type":"MultiPolygon","arcs":[[[407,404,-392,-340,405,408,-393]]],"properties":{"name":"中井"}},{"type":"Polygon","arcs":[[-285,-272,-318,409,-295]],"properties":{"name":"新小川町"}},{"type":"MultiPolygon","arcs":[[[-174,-173,-187,-444,-445,413,414,415,416,423,426,-359,-82,-252]]],"properties":{"name":"北新宿"}},{"type":"MultiPolygon","arcs":[[[430,-416,-415,-414,444,443,-186,-206,-205,-369,435,429,436]]],"properties":{"name":"西新宿"}},{"type":"Polygon","arcs":[[-127,-367,-246]],"properties":{"name":"早稲田南町"}}]}},"arcs":[[[139.72793780716614,35.68259032337289],[139.72698183086112,35.686142646714984]],[[139.72698183086112,35.686142646714984],[139.7272909059071,35.6869924848351]],[[139.7272909059071,35.6869924848351],[139.7278587414567,35.68827857319021]],[[139.7278587414567,35.68827857319021],[139.7303097784493,35.686930163372956],[139.7307051069965,35.68807461204138]],[[139.7307051069965,35.68807461204138],[139.72988569873505,35.684539285461696],[139.73150295188267,35.68154218969141],[139.72793780716614,35.68259032337289]],[[139.7229135407209,35.68754204681944],[139.72190006208172,35.68750238770717]],[[139.72190006208172,35.68750238770717],[139.71893150408187,35.68710013099698]],[[139.71893150408187,35.68710013099698],[139.71834929294874,35.687094465409515]],[[139.71834929294874,35.687094465409515],[139.7182055371134,35.688227582903004]],[[139.7182055371134,35.688227582903004],[139.72035468685178,35.6884542064017]],[[139.72035468685178,35.6884542064017],[139.7217778696217,35.68855052138865]],[[139.7217778696217,35.68855052138865],[139.7235029396458,35.68833522906488]],[[139.7235029396458,35.68833522906488],[139.7229135407209,35.68754204681944]],[[139.7272909059071,35.6869924848351],[139.7235029396458,35.68834656023982]],[[139.7235029396458,35.68834656023982],[139.72462423516149,35.69065811992654]],[[139.72462423516149,35.69065811992654],[139.7281031263768,35.68874881695001]],[[139.7281031263768,35.68874881695001],[139.7278587414567,35.68827857319021]],[[139.7281031263768,35.68874881695001],[139.72910222943244,35.6894286874461],[139.728714088677,35.69121334749835]],[[139.728714088677,35.69121334749835],[139.7305325999941,35.69107170781166],[139.73129450592143,35.68932104128422]],[[139.73129450592143,35.68932104128422],[139.7307051069965,35.68807461204138]],[[139.71834929294874,35.687094465409515],[139.71594138270672,35.68708313423458]],[[139.71594138270672,35.68708313423458],[139.7139934911378,35.68785365413015]],[[139.7139934911378,35.68785365413015],[139.71459726564626,35.69106037663673]],[[139.71459726564626,35.69106037663673],[139.7175873870214,35.69098672399965]],[[139.7175873870214,35.69098672399965],[139.7182055371134,35.688227582903004]],[[139.71998092167988,35.68448829517449],[139.71961434429974,35.68452228869929]],[[139.71961434429974,35.68452228869929],[139.71893150408187,35.68710013099698]],[[139.72190006208172,35.68750238770717],[139.72138972886626,35.68439198018754],[139.71998092167988,35.68448829517449]],[[139.72431516011548,35.68355913882983],[139.7220366301253,35.68379709350346]],[[139.7220366301253,35.68379709350346],[139.71998092167988,35.68448829517449]],[[139.7229135407209,35.68754204681944],[139.72259009009136,35.6865222410753]],[[139.72259009009136,35.6865222410753],[139.72431516011548,35.68355913882983]],[[139.72259009009136,35.6865222410753],[139.72590366209604,35.68492454540948],[139.72528551200406,35.68330418739379]],[[139.72528551200406,35.68330418739379],[139.72431516011548,35.68355913882983]],[[139.7235029396458,35.68833522906488],[139.7235029396458,35.68834656023982]],[[139.72698183086112,35.686142646714984],[139.72579584521952,35.68597267909096],[139.7229135407209,35.68754204681944]],[[139.72793780716614,35.68259032337289],[139.72682369944224,35.68053371512221]],[[139.72682369944224,35.68053371512221],[139.72506269045928,35.68137222206739]],[[139.72506269045928,35.68137222206739],[139.72528551200406,35.68330418739379]],[[139.72506269045928,35.68137222206739],[139.72261165346666,35.6831795444695]],[[139.72261165346666,35.6831795444695],[139.7220366301253,35.68379709350346]],[[139.72462423516149,35.69065811992654],[139.7251201927934,35.69151362363412]],[[139.7251201927934,35.69151362363412],[139.72621273714202,35.69204618885606]],[[139.72621273714202,35.69204618885606],[139.728714088677,35.69121334749835]],[[139.73220735547585,35.69796672775954],[139.73003664236217,35.69783641924779]],[[139.73003664236217,35.69783641924779],[139.72900878813945,35.69804604598409]],[[139.72900878813945,35.69804604598409],[139.72916691955834,35.69888455292927]],[[139.72916691955834,35.69888455292927],[139.73209235080756,35.69878257235486]],[[139.73209235080756,35.69878257235486],[139.73220735547585,35.69796672775954]],[[139.7051740706395,35.688063280866444],[139.7027014702716,35.68783099178028],[139.70215519809727,35.68932670687169]],[[139.70215519809727,35.68932670687169],[139.7048218688429,35.689864937681094]],[[139.7048218688429,35.689864937681094],[139.7051740706395,35.688063280866444]],[[139.71245530369964,35.69123034426075],[139.710097708,35.691485295696786]],[[139.710097708,35.691485295696786],[139.70661162899293,35.692102844730734]],[[139.70661162899293,35.692102844730734],[139.7044912304216,35.69267506906495]],[[139.7044912304216,35.69267506906495],[139.7053897043925,35.69473167731563]],[[139.7053897043925,35.69473167731563],[139.7067050702859,35.69480532995271]],[[139.7067050702859,35.69480532995271],[139.70804918734638,35.693439923373056],[139.7127931299127,35.692794046401765]],[[139.7127931299127,35.692794046401765],[139.71245530369964,35.69123034426075]],[[139.7169332979706,35.68069801715876],[139.71444632201914,35.68086231919532]],[[139.71444632201914,35.68086231919532],[139.71359816259064,35.68168949496557]],[[139.71359816259064,35.68168949496557],[139.71590544374789,35.68345149266794],[139.71594138270672,35.68708313423458]],[[139.71961434429974,35.68452228869929],[139.71717768289068,35.683695112929044],[139.7169332979706,35.68069801715876]],[[139.7169332979706,35.68069801715876],[139.71898900641602,35.679950159613064]],[[139.71898900641602,35.679950159613064],[139.71976528792686,35.67913431501775]],[[139.71976528792686,35.67913431501775],[139.7189961942078,35.678596084208344],[139.71987310480338,35.675264718777484],[139.71860805345236,35.67398996159731],[139.71625045775272,35.6732421040516],[139.7148057116075,35.67489079000463],[139.7126853130362,35.67437522154509],[139.71263499849383,35.676630125357136],[139.71444632201914,35.68086231919532]],[[139.73757663592593,35.69323596222423],[139.73570781006646,35.69196120504405]],[[139.73570781006646,35.69196120504405],[139.7349387163474,35.69263540995268]],[[139.7349387163474,35.69263540995268],[139.7359593827783,35.6935532351224]],[[139.7359593827783,35.6935532351224],[139.73658472066205,35.69404614123207]],[[139.73658472066205,35.69404614123207],[139.73757663592593,35.69323596222423]],[[139.72900878813945,35.69804604598409],[139.72749216407658,35.69847663063162]],[[139.72749216407658,35.69847663063162],[139.72713996227998,35.69941711815121]],[[139.72713996227998,35.69941711815121],[139.72920285851717,35.69923581935225]],[[139.72920285851717,35.69923581935225],[139.72916691955834,35.69888455292927]],[[139.74416065318468,35.702470869796166],[139.74313998675373,35.70133208671521]],[[139.74313998675373,35.70133208671521],[139.74292435300072,35.70142273611469]],[[139.74292435300072,35.70142273611469],[139.74174555515089,35.701955301336625]],[[139.74174555515089,35.701955301336625],[139.7423565174511,35.7029524447309]],[[139.7423565174511,35.7029524447309],[139.74416065318468,35.702470869796166]],[[139.70156579917239,35.70712231710694],[139.69430612948753,35.70776819407823]],[[139.69430612948753,35.70776819407823],[139.6939395521074,35.709348892981644]],[[139.6939395521074,35.709348892981644],[139.69410487131805,35.70947353590593]],[[139.69410487131805,35.70947353590593],[139.69843910975365,35.708652025723154],[139.70235645626676,35.70945653914353]],[[139.70235645626676,35.70945653914353],[139.70156579917239,35.70712231710694]],[[139.74021455550448,35.69670896734177],[139.73921545244886,35.69523591460023]],[[139.73921545244886,35.69523591460023],[139.73747600684118,35.696210395644634]],[[139.73747600684118,35.696210395644634],[139.73887043844402,35.697541808699484]],[[139.73887043844402,35.697541808699484],[139.74021455550448,35.69670896734177]],[[139.71359816259064,35.68168949496557],[139.71108243547212,35.683411833555674],[139.70712915000016,35.684624269273705],[139.7051740706395,35.688063280866444]],[[139.7048218688429,35.689864937681094],[139.70628817836342,35.689440018621035]],[[139.70628817836342,35.689440018621035],[139.709882074247,35.688040618516574]],[[139.709882074247,35.688040618516574],[139.71318127066814,35.68737207919542],[139.7139934911378,35.68785365413015]],[[139.70055950832497,35.70417621162387],[139.70156579917239,35.70712231710694]],[[139.70235645626676,35.70945653914353],[139.7025002121021,35.70955285413048]],[[139.7025002121021,35.70955285413048],[139.7090267270267,35.708510386036465]],[[139.7090267270267,35.708510386036465],[139.70899078806787,35.708068470214]],[[139.70899078806787,35.708068470214],[139.708523581603,35.704510481284444]],[[139.708523581603,35.704510481284444],[139.70260084118684,35.70479376065782],[139.70255771443624,35.70435184483536]],[[139.70255771443624,35.70435184483536],[139.70055950832497,35.70417621162387]],[[139.7347805849285,35.69781375689792],[139.7345218244249,35.69834632211987]],[[139.7345218244249,35.69834632211987],[139.737605387093,35.699445446088546]],[[139.737605387093,35.699445446088546],[139.73767726501066,35.69929814081439]],[[139.73767726501066,35.69929814081439],[139.73796477668137,35.69865226384311]],[[139.73796477668137,35.69865226384311],[139.7347805849285,35.69781375689792]],[[139.73592344381947,35.694726011728164],[139.73658472066205,35.69404614123207]],[[139.7359593827783,35.6935532351224],[139.73559999318996,35.69385917684564]],[[139.73559999318996,35.69385917684564],[139.7339899278341,35.69549653162374]],[[139.7339899278341,35.69549653162374],[139.73444275871543,35.69583646687178]],[[139.73444275871543,35.69583646687178],[139.7345002610496,35.69587612598406]],[[139.7345002610496,35.69587612598406],[139.73592344381947,35.694726011728164]],[[139.72920285851717,35.69923581935225],[139.72938255331135,35.700470917420155]],[[139.72938255331135,35.700470917420155],[139.72970600394086,35.70093549559249]],[[139.72970600394086,35.70093549559249],[139.73186952926278,35.700272621858794]],[[139.73186952926278,35.700272621858794],[139.7320204728899,35.69994401778568]],[[139.7320204728899,35.69994401778568],[139.73217860430879,35.699609748125106]],[[139.73217860430879,35.699609748125106],[139.73220735547585,35.69954742666296]],[[139.73220735547585,35.69954742666296],[139.72920285851717,35.69923581935225]],[[139.73328552424093,35.696680639404434],[139.73444275871543,35.69583646687178]],[[139.7339899278341,35.69549653162374],[139.73365928941283,35.6952585769501]],[[139.73365928941283,35.6952585769501],[139.7325308061054,35.69588179157152]],[[139.7325308061054,35.69588179157152],[139.73328552424093,35.696680639404434]],[[139.7215550480769,35.70278247710687],[139.72034031126825,35.70367763992673]],[[139.72034031126825,35.70367763992673],[139.7190177575831,35.70549062791632]],[[139.7190177575831,35.70549062791632],[139.72090095902607,35.705541618203526]],[[139.72090095902607,35.705541618203526],[139.7215478602851,35.705541618203526]],[[139.7215478602851,35.705541618203526],[139.7235460663964,35.704317851310556],[139.72287760176206,35.703626649639524],[139.72526394862876,35.70299776943064]],[[139.72526394862876,35.70299776943064],[139.72407796298717,35.70151338551417]],[[139.72407796298717,35.70151338551417],[139.7233519960187,35.70207994426091]],[[139.7233519960187,35.70207994426091],[139.7215550480769,35.70278247710687]],[[139.72261165346666,35.6831795444695],[139.7223600807548,35.68093030624493],[139.72040500139414,35.68082832567052],[139.7209872125273,35.67966121465222],[139.71898900641602,35.679950159613064]],[[139.73965390774666,35.701626697263514],[139.7395101519113,35.702754149169536]],[[139.7395101519113,35.702754149169536],[139.73984079033258,35.702850464156484]],[[139.73984079033258,35.702850464156484],[139.74056675730108,35.70244254185883]],[[139.74056675730108,35.70244254185883],[139.73965390774666,35.701626697263514]],[[139.7217778696217,35.68855052138865],[139.72175630624636,35.69189321799444]],[[139.72175630624636,35.69189321799444],[139.723373559394,35.69198953298139]],[[139.723373559394,35.69198953298139],[139.7251201927934,35.69151362363412]],[[139.74083989338823,35.69986469956114],[139.74044456484103,35.70048791418256]],[[139.74044456484103,35.70048791418256],[139.74173836735912,35.701955301336625]],[[139.74173836735912,35.701955301336625],[139.74174555515089,35.701955301336625]],[[139.74292435300072,35.70142273611469],[139.74083989338823,35.69986469956114]],[[139.72974194289972,35.69520192107543],[139.72726215474003,35.69551352838614]],[[139.72726215474003,35.69551352838614],[139.72747778849305,35.69824434154545]],[[139.72747778849305,35.69824434154545],[139.72749216407658,35.69847663063162]],[[139.73003664236217,35.69783641924779],[139.72974194289972,35.69520192107543]],[[139.72682369944224,35.68053371512221],[139.72404202402834,35.67869806478276],[139.71976528792686,35.67913431501775]],[[139.72726215474003,35.69551352838614],[139.72481111774744,35.69540588222426]],[[139.72481111774744,35.69540588222426],[139.72292072851266,35.69628404828171]],[[139.72292072851266,35.69628404828171],[139.72374013677413,35.697502149587216]],[[139.72374013677413,35.697502149587216],[139.72428640894842,35.698068708333956]],[[139.72428640894842,35.698068708333956],[139.7244876671179,35.69801771804675]],[[139.7244876671179,35.69801771804675],[139.72747778849305,35.69824434154545]],[[139.73220735547585,35.69954742666296],[139.73249486714653,35.698833562642065]],[[139.73249486714653,35.698833562642065],[139.73209235080756,35.69878257235486]],[[139.709882074247,35.688040618516574],[139.710097708,35.691485295696786]],[[139.71245530369964,35.69123034426075],[139.71459726564626,35.69106037663673]],[[139.73772757955305,35.70503171533145],[139.73619657990665,35.705450968804044]],[[139.73619657990665,35.705450968804044],[139.7366206596209,35.70635179721137]],[[139.7366206596209,35.70635179721137],[139.73723880971286,35.70899762655866]],[[139.73723880971286,35.70899762655866],[139.73872668260867,35.70879933099731]],[[139.73872668260867,35.70879933099731],[139.73772757955305,35.70503171533145]],[[139.72938255331135,35.700470917420155],[139.7276431077037,35.70084484619301]],[[139.7276431077037,35.70084484619301],[139.7283187601298,35.70371163345154]],[[139.7283187601298,35.70371163345154],[139.72924598526777,35.70354733141498]],[[139.72924598526777,35.70354733141498],[139.72970600394086,35.70093549559249]],[[139.73965390774666,35.701626697263514],[139.7394670251607,35.70117345026612]],[[139.7394670251607,35.70117345026612],[139.7392082646571,35.70116778467865]],[[139.7392082646571,35.70116778467865],[139.73847510989683,35.70163802843845]],[[139.73847510989683,35.70163802843845],[139.73759101150947,35.70230656775961]],[[139.73759101150947,35.70230656775961],[139.73830979068617,35.70239155157162]],[[139.73830979068617,35.70239155157162],[139.7395101519113,35.702754149169536]],[[139.69518304008312,35.70185332076221],[139.69487396503715,35.70332070791628]],[[139.69487396503715,35.70332070791628],[139.6946367679088,35.70460679627139]],[[139.6946367679088,35.70460679627139],[139.70055950832497,35.70417621162387]],[[139.70255771443624,35.70435184483536],[139.70229895393263,35.70129242760294]],[[139.70229895393263,35.70129242760294],[139.69518304008312,35.70185332076221]],[[139.74436191135413,35.70237455480922],[139.74313998675373,35.70024995950892]],[[139.74313998675373,35.70024995950892],[139.74313998675373,35.70133208671521]],[[139.74416065318468,35.702470869796166],[139.74436191135413,35.70237455480922]],[[139.73747600684118,35.696210395644634],[139.7363762747008,35.695451206924]],[[139.7363762747008,35.695451206924],[139.73529091814396,35.696550330892684]],[[139.73529091814396,35.696550330892684],[139.73818759822615,35.698210348020645]],[[139.73818759822615,35.698210348020645],[139.73884168727696,35.69799505569688]],[[139.73884168727696,35.69799505569688],[139.73887043844402,35.697541808699484]],[[139.69886318946791,35.697927068647274],[139.6974184433227,35.697949730997145]],[[139.6974184433227,35.697949730997145],[139.69518304008312,35.70185332076221]],[[139.70229895393263,35.70129242760294],[139.70240677080915,35.701269765253066]],[[139.70240677080915,35.701269765253066],[139.70198987888665,35.69801205245928]],[[139.70198987888665,35.69801205245928],[139.70032949898842,35.69795539658461]],[[139.70032949898842,35.69795539658461],[139.69886318946791,35.697927068647274]],[[139.71632233567038,35.70932056504431],[139.71351909688119,35.70983046791638],[139.70987488645522,35.711303520657914]],[[139.70987488645522,35.711303520657914],[139.70978863295403,35.71146782269447]],[[139.70978863295403,35.71146782269447],[139.71154245414522,35.71490683428721]],[[139.71154245414522,35.71490683428721],[139.71391442542838,35.71339978802087],[139.71700517588826,35.71294087543601]],[[139.71700517588826,35.71294087543601],[139.71632233567038,35.70932056504431]],[[139.73646252820203,35.702153596897986],[139.73483808726263,35.70330937674135]],[[139.73483808726263,35.70330937674135],[139.7354562373546,35.704261195435876]],[[139.7354562373546,35.704261195435876],[139.73667816195504,35.703966584887574]],[[139.73667816195504,35.703966584887574],[139.73830979068617,35.70239155157162]],[[139.73759101150947,35.70230656775961],[139.73646252820203,35.702153596897986]],[[139.74044456484103,35.70048791418256],[139.7394670251607,35.70117345026612]],[[139.74056675730108,35.70244254185883],[139.74173836735912,35.701955301336625]],[[139.7044912304216,35.69267506906495],[139.6996538465623,35.69342292661065]],[[139.6996538465623,35.69342292661065],[139.69964665877055,35.69342859219812]],[[139.69964665877055,35.69342859219812],[139.69886318946791,35.697927068647274]],[[139.70032949898842,35.69795539658461],[139.70020730652837,35.69628971386918],[139.7053897043925,35.69473167731563]],[[139.71926933029494,35.69247110791612],[139.71645890371397,35.694301092668105]],[[139.71645890371397,35.694301092668105],[139.7175442602708,35.69489597935219]],[[139.7175442602708,35.69489597935219],[139.72090814681783,35.69293002050098],[139.71926933029494,35.69247110791612]],[[139.73559999318996,35.69385917684564],[139.73424150054595,35.69371753715896],[139.73365928941283,35.6952585769501]],[[139.73570781006646,35.69196120504405],[139.73428462729657,35.69109437016153]],[[139.73428462729657,35.69109437016153],[139.73404743016826,35.69320763428689]],[[139.73404743016826,35.69320763428689],[139.7349387163474,35.69263540995268]],[[139.72924598526777,35.70354733141498],[139.7293753655196,35.7043631760103]],[[139.7293753655196,35.7043631760103],[139.7308201116648,35.70452747804685]],[[139.7308201116648,35.70452747804685],[139.7323726746865,35.705048712093856]],[[139.7323726746865,35.705048712093856],[139.73540592281225,35.704555805984185]],[[139.73540592281225,35.704555805984185],[139.7354562373546,35.704261195435876]],[[139.73483808726263,35.70330937674135],[139.7348452750544,35.701456729639496],[139.73186952926278,35.700272621858794]],[[139.73592344381947,35.694726011728164],[139.7363762747008,35.695451206924]],[[139.73921545244886,35.69523591460023],[139.73757663592593,35.69323596222423]],[[139.737605387093,35.699445446088546],[139.7372819364635,35.70014797893451]],[[139.7372819364635,35.70014797893451],[139.73687942012452,35.700918498830085]],[[139.73687942012452,35.700918498830085],[139.73847510989683,35.70163802843845]],[[139.7392082646571,35.70116778467865],[139.7393160815336,35.69989869308594],[139.73767726501066,35.69929814081439]],[[139.69462239232527,35.71673115345173],[139.69152445407363,35.717433686297696],[139.68892966124568,35.71885574875203]],[[139.68892966124568,35.71885574875203],[139.69257387167164,35.72253838060587]],[[139.69257387167164,35.72253838060587],[139.6942270637781,35.722334419457034]],[[139.6942270637781,35.722334419457034],[139.69462239232527,35.71673115345173]],[[139.70198987888665,35.69801205245928],[139.7073375959614,35.6978534160102]],[[139.7073375959614,35.6978534160102],[139.7067050702859,35.69480532995271]],[[139.71626483333625,35.70666907010955],[139.715006969777,35.70741126206778],[139.71039959525424,35.70832342165004],[139.70899078806787,35.708068470214]],[[139.7090267270267,35.708510386036465],[139.70987488645522,35.711303520657914]],[[139.71632233567038,35.70932056504431],[139.71858649007706,35.7065727551226]],[[139.71858649007706,35.7065727551226],[139.71834929294874,35.70640845308604]],[[139.71834929294874,35.70640845308604],[139.71626483333625,35.70666907010955]],[[139.72340949835282,35.710572659874614],[139.72149754574275,35.711088228334155],[139.71924776691964,35.70695234948292]],[[139.71924776691964,35.70695234948292],[139.71858649007706,35.7065727551226]],[[139.71700517588826,35.71294087543601],[139.72235289296304,35.71232332640206],[139.72340949835282,35.710572659874614]],[[139.70628817836342,35.689440018621035],[139.70661162899293,35.692102844730734]],[[139.71495665523463,35.70131508995281],[139.71607076295854,35.70464645538367]],[[139.71607076295854,35.70464645538367],[139.71626483333625,35.70666907010955]],[[139.71834929294874,35.70640845308604],[139.7190177575831,35.70549062791632]],[[139.72034031126825,35.70367763992673],[139.71942746171382,35.70071453768126],[139.71495665523463,35.70131508995281]],[[139.72526394862876,35.70299776943064],[139.72384076585885,35.704414166297504],[139.72471048866268,35.705354653817096]],[[139.72471048866268,35.705354653817096],[139.72695307969406,35.705224345305346]],[[139.72695307969406,35.705224345305346],[139.7283187601298,35.70371163345154]],[[139.7276431077037,35.70084484619301],[139.72703933319525,35.700856177367946]],[[139.72703933319525,35.700856177367946],[139.72656493893862,35.7010034826421]],[[139.72656493893862,35.7010034826421],[139.72407796298717,35.70151338551417]],[[139.6946367679088,35.70460679627139],[139.69430612948753,35.70776819407823]],[[139.7073375959614,35.6978534160102],[139.70735915933673,35.69796106217208]],[[139.70735915933673,35.69796106217208],[139.71277875432918,35.697717441910974]],[[139.71277875432918,35.697717441910974],[139.71300876366573,35.69647101266814]],[[139.71300876366573,35.69647101266814],[139.71232592344785,35.69415378739395],[139.7127931299127,35.692794046401765]],[[139.7345218244249,35.69834632211987],[139.73374554291402,35.698470965044145]],[[139.73374554291402,35.698470965044145],[139.7335945992869,35.69883922822953]],[[139.7335945992869,35.69883922822953],[139.7372819364635,35.70014797893451]],[[139.7175873870214,35.69098672399965],[139.71913276225135,35.69168359125815]],[[139.71913276225135,35.69168359125815],[139.72064219852246,35.691898883581906]],[[139.72064219852246,35.691898883581906],[139.72035468685178,35.6884542064017]],[[139.72713996227998,35.69941711815121],[139.72703933319525,35.700856177367946]],[[139.72130347536503,35.69391583272032],[139.71885243837244,35.69585912922165]],[[139.71885243837244,35.69585912922165],[139.71669610084228,35.698680591780445]],[[139.71669610084228,35.698680591780445],[139.7184858609923,35.69932080316426],[139.71913995004311,35.698068708333956],[139.72159098703574,35.69663531470469],[139.72252539996546,35.698057377159024]],[[139.72252539996546,35.698057377159024],[139.72374013677413,35.697502149587216]],[[139.72292072851266,35.69628404828171],[139.72213725921003,35.69644835031827],[139.72130347536503,35.69391583272032]],[[139.7415946115238,35.70438583836016],[139.740013297335,35.703388694965895]],[[139.740013297335,35.703388694965895],[139.73915076232294,35.70517335501814]],[[139.73915076232294,35.70517335501814],[139.7408039544294,35.705088371206124]],[[139.7408039544294,35.705088371206124],[139.7415946115238,35.70438583836016]],[[139.72064219852246,35.691898883581906],[139.72175630624636,35.69189321799444]],[[139.71669610084228,35.698680591780445],[139.7136916038836,35.69773443867338]],[[139.7136916038836,35.69773443867338],[139.71398630334605,35.70136041465255]],[[139.71398630334605,35.70136041465255],[139.71495665523463,35.70131508995281]],[[139.7215550480769,35.70278247710687],[139.72144004340862,35.70200629162384]],[[139.72144004340862,35.70200629162384],[139.72077876656604,35.700187638046785],[139.72206538129237,35.69981370927393],[139.72252539996546,35.698057377159024]],[[139.71300876366573,35.69647101266814],[139.71645890371397,35.694301092668105]],[[139.71926933029494,35.69247110791612],[139.71913276225135,35.69168359125815]],[[139.7335945992869,35.69883922822953],[139.73312020503027,35.69993835219822]],[[139.73312020503027,35.69993835219822],[139.73625408224078,35.70058989475697]],[[139.73625408224078,35.70058989475697],[139.73687942012452,35.700918498830085]],[[139.73984079033258,35.702850464156484],[139.740013297335,35.703388694965895]],[[139.7415946115238,35.70438583836016],[139.74287403845835,35.70387026990063]],[[139.74287403845835,35.70387026990063],[139.7423565174511,35.7029524447309]],[[139.708523581603,35.704510481284444],[139.7090986049444,35.70423286749854]],[[139.7090986049444,35.70423286749854],[139.70877515431485,35.70082784943061]],[[139.70877515431485,35.70082784943061],[139.70791980709456,35.700873174130344]],[[139.70791980709456,35.700873174130344],[139.70240677080915,35.701269765253066]],[[139.73540592281225,35.704555805984185],[139.73549217631344,35.70529233235496]],[[139.73549217631344,35.70529233235496],[139.73619657990665,35.705450968804044]],[[139.73772757955305,35.70503171533145],[139.73748319463297,35.70471444243328]],[[139.73748319463297,35.70471444243328],[139.73667816195504,35.703966584887574]],[[139.74287403845835,35.70387026990063],[139.74454160614832,35.704227201911074]],[[139.74454160614832,35.704227201911074],[139.74436191135413,35.70237455480922]],[[139.72621273714202,35.69204618885606],[139.72402046065304,35.693111319299945]],[[139.72402046065304,35.693111319299945],[139.72481111774744,35.69540588222426]],[[139.72974194289972,35.69520192107543],[139.73203484847343,35.69488464817725]],[[139.73203484847343,35.69488464817725],[139.73404743016826,35.69320763428689]],[[139.73428462729657,35.69109437016153],[139.73129450592143,35.68932104128422]],[[139.72144004340862,35.70200629162384],[139.72368263443997,35.70095815794236],[139.72428640894842,35.698068708333956]],[[139.73217860430879,35.699609748125106],[139.73312020503027,35.69993835219822]],[[139.73374554291402,35.698470965044145],[139.73249486714653,35.698833562642065]],[[139.7324589281877,35.705309329117355],[139.7310788721684,35.70631780368657]],[[139.7310788721684,35.70631780368657],[139.73294769802786,35.70660108305994]],[[139.73294769802786,35.70660108305994],[139.73305551490438,35.706640742172205]],[[139.73305551490438,35.706640742172205],[139.7324589281877,35.705309329117355]],[[139.71924776691964,35.70695234948292],[139.7205056304789,35.706663404522075]],[[139.7205056304789,35.706663404522075],[139.72090095902607,35.705541618203526]],[[139.73818759822615,35.698210348020645],[139.73796477668137,35.69865226384311]],[[139.74083989338823,35.69986469956114],[139.74060988405168,35.69885055940447]],[[139.74060988405168,35.69885055940447],[139.73884168727696,35.69799505569688]],[[139.7175442602708,35.69489597935219],[139.71885243837244,35.69585912922165]],[[139.72130347536503,35.69391583272032],[139.72402046065304,35.693111319299945]],[[139.72402046065304,35.693111319299945],[139.723373559394,35.69198953298139]],[[139.73872668260867,35.70879933099731],[139.74063863521874,35.708510386036465]],[[139.74063863521874,35.708510386036465],[139.7408039544294,35.705088371206124]],[[139.73915076232294,35.70517335501814],[139.73748319463297,35.70471444243328]],[[139.71277875432918,35.697717441910974],[139.7136916038836,35.69773443867338]],[[139.7293753655196,35.7043631760103],[139.7295694358973,35.70567759230274]],[[139.7295694358973,35.70567759230274],[139.7308201116648,35.70452747804685]],[[139.74060988405168,35.69885055940447],[139.74151554581434,35.69832365977]],[[139.74151554581434,35.69832365977],[139.74021455550448,35.69670896734177]],[[139.73345084345158,35.707756862903295],[139.7340618057518,35.707819184365434]],[[139.7340618057518,35.707819184365434],[139.73532685710282,35.708159119613484]],[[139.73532685710282,35.708159119613484],[139.73499621868152,35.706618079822334]],[[139.73499621868152,35.706618079822334],[139.73493152855562,35.70634046603643]],[[139.73493152855562,35.70634046603643],[139.73305551490438,35.706640742172205]],[[139.73294769802786,35.70660108305994],[139.73345084345158,35.707756862903295]],[[139.73220735547585,35.69796672775954],[139.73202766068167,35.69590445392139]],[[139.73202766068167,35.69590445392139],[139.73203484847343,35.69488464817725]],[[139.73532685710282,35.708159119613484],[139.73723880971286,35.70899762655866]],[[139.7366206596209,35.70635179721137],[139.73499621868152,35.706618079822334]],[[139.71398630334605,35.70136041465255],[139.70877515431485,35.70082784943061]],[[139.7090986049444,35.70423286749854],[139.71607076295854,35.70464645538367]],[[139.73328552424093,35.696680639404434],[139.7347805849285,35.69781375689792]],[[139.73529091814396,35.696550330892684],[139.7345002610496,35.69587612598406]],[[139.74313998675373,35.70024995950892],[139.74151554581434,35.69832365977]],[[139.68892966124568,35.71885574875203],[139.68841214023843,35.7193996451489]],[[139.68841214023843,35.7193996451489],[139.6860617323306,35.7210709934518]],[[139.6860617323306,35.7210709934518],[139.68401321167693,35.722544046193335]],[[139.68401321167693,35.722544046193335],[139.6843726012653,35.722742341754696]],[[139.6843726012653,35.722742341754696],[139.69257387167164,35.72253838060587]],[[139.70735915933673,35.69796106217208],[139.70791980709456,35.700873174130344]],[[139.72099440031906,35.70725262561869],[139.72342387393635,35.71031770843858]],[[139.72342387393635,35.71031770843858],[139.7261767981832,35.7092695747571],[139.7279234315826,35.70989845496599],[139.72771498562136,35.70666907010955]],[[139.72771498562136,35.70666907010955],[139.72648587322917,35.706119508125205]],[[139.72648587322917,35.706119508125205],[139.72099440031906,35.70725262561869]],[[139.73625408224078,35.70058989475697],[139.73588750486064,35.70095249235489]],[[139.73588750486064,35.70095249235489],[139.73646252820203,35.702153596897986]],[[139.7295694358973,35.70567759230274],[139.72967006498203,35.70658408629753]],[[139.72967006498203,35.70658408629753],[139.7310788721684,35.70631780368657]],[[139.7324589281877,35.705309329117355],[139.7323726746865,35.705048712093856]],[[139.72548677017355,35.698725916480186],[139.7233519960187,35.70207994426091]],[[139.72656493893862,35.7010034826421],[139.72548677017355,35.698725916480186]],[[139.73588750486064,35.70095249235489],[139.7320204728899,35.69994401778568]],[[139.73493152855562,35.70634046603643],[139.73549217631344,35.70529233235496]],[[139.6939395521074,35.709348892981644],[139.69340765551664,35.709949445253194]],[[139.69340765551664,35.709949445253194],[139.69404736898392,35.711042903634414]],[[139.69404736898392,35.711042903634414],[139.69566462213152,35.7150484739739]],[[139.69566462213152,35.7150484739739],[139.69690811010724,35.71541673715929],[139.70418215537563,35.71474253225066]],[[139.70418215537563,35.71474253225066],[139.70387308032963,35.71371139533158]],[[139.70387308032963,35.71371139533158],[139.6971165560685,35.71162645914356],[139.69410487131805,35.70947353590593]],[[139.7205056304789,35.706663404522075],[139.72099440031906,35.70725262561869]],[[139.72648587322917,35.706119508125205],[139.72695307969406,35.705224345305346]],[[139.72471048866268,35.705354653817096],[139.7215478602851,35.705541618203526]],[[139.70215519809727,35.68932670687169],[139.70014261640247,35.688816803999615]],[[139.70014261640247,35.688816803999615],[139.6996538465623,35.69342292661065]],[[139.72340949835282,35.710572659874614],[139.72342387393635,35.71031770843858]],[[139.68957656250473,35.71127519272058],[139.6845019815171,35.710323374026046]],[[139.6845019815171,35.710323374026046],[139.68665831904724,35.71490116869975]],[[139.68665831904724,35.71490116869975],[139.68851995711495,35.71468587637598],[139.69138069823828,35.71639121820368]],[[139.69138069823828,35.71639121820368],[139.68957656250473,35.71127519272058]],[[139.6987625603832,35.7165101955405],[139.69462239232527,35.71673115345173]],[[139.6942270637781,35.722334419457034],[139.69850379987955,35.7223060915197]],[[139.69850379987955,35.7223060915197],[139.6982953539183,35.71954695042305],[139.69918664009745,35.71886707992696]],[[139.69918664009745,35.71886707992696],[139.6987625603832,35.7165101955405]],[[139.72548677017355,35.698725916480186],[139.7244876671179,35.69801771804675]],[[139.73345084345158,35.707756862903295],[139.7340618057518,35.707819184365434]],[[139.7325308061054,35.69588179157152],[139.73202766068167,35.69590445392139]],[[139.70503750259593,35.71470853872585],[139.70418215537563,35.71474253225066]],[[139.69566462213152,35.7150484739739],[139.69456488999114,35.716232581754596]],[[139.69456488999114,35.716232581754596],[139.69462239232527,35.71673115345173]],[[139.6987625603832,35.7165101955405],[139.70439778912865,35.716164594704985]],[[139.70439778912865,35.716164594704985],[139.70503750259593,35.71470853872585]],[[139.72771498562136,35.70666907010955],[139.72967006498203,35.70658408629753]],[[139.69850379987955,35.7223060915197],[139.69991260706593,35.7235071960628],[139.7046924885911,35.722804663216834],[139.70579940852323,35.72149024692439],[139.7045343571722,35.72015316828207]],[[139.7045343571722,35.72015316828207],[139.69933758372454,35.71977923950922],[139.69918664009745,35.71886707992696]],[[139.6790895743164,35.71714474133685],[139.6788955039387,35.7179719171071]],[[139.6788955039387,35.7179719171071],[139.68144717001604,35.72024381768155],[139.68481824435486,35.72013617151967],[139.6860617323306,35.7210709934518]],[[139.68841214023843,35.7193996451489],[139.68753522964283,35.719410976323836],[139.68151186014194,35.716719822276794],[139.6790895743164,35.71714474133685]],[[139.68184249856324,35.71413631439164],[139.68662956788017,35.71492383104962]],[[139.68662956788017,35.71492383104962],[139.68665831904724,35.71490116869975]],[[139.6845019815171,35.710323374026046],[139.68276253590943,35.709994769952935],[139.6800383628297,35.71105990039682],[139.68201500556566,35.71329780744646],[139.68184249856324,35.71413631439164]],[[139.69404736898392,35.711042903634414],[139.68957656250473,35.71127519272058]],[[139.69138069823828,35.71639121820368],[139.69456488999114,35.716232581754596]],[[139.6782773538467,35.72356951752494],[139.67542380051515,35.723580848699875]],[[139.67542380051515,35.723580848699875],[139.6756322464764,35.72528052494011]],[[139.6756322464764,35.72528052494011],[139.68174905727028,35.725983057786074]],[[139.68174905727028,35.725983057786074],[139.68221626373514,35.723920783947925],[139.6843726012653,35.722742341754696]],[[139.68401321167693,35.722544046193335],[139.6818065596044,35.722402406506646],[139.6782773538467,35.72356951752494]],[[139.6788955039387,35.7179719171071],[139.678917067314,35.718141884731125]],[[139.678917067314,35.718141884731125],[139.6782773538467,35.72356951752494]],[[139.6791111376917,35.715620698308115],[139.6790895743164,35.71714474133685]],[[139.68892966124568,35.71885574875203],[139.68711833772034,35.715949302381226]],[[139.68711833772034,35.715949302381226],[139.68161967701846,35.714963490161885],[139.6791111376917,35.715620698308115]],[[139.68184249856324,35.71413631439164],[139.679966484912,35.71414764556658],[139.6791111376917,35.715620698308115]],[[139.68711833772034,35.715949302381226],[139.68662956788017,35.71492383104962]],[[139.74063863521874,35.708510386036465],[139.74333405713145,35.707864509065175],[139.74454160614832,35.704227201911074]],[[139.7045343571722,35.72015316828207],[139.70581378410677,35.71861779407839],[139.70547595789373,35.71632323115408],[139.70439778912865,35.716164594704985]],[[139.70978863295403,35.71146782269447],[139.707689797758,35.711864413817196],[139.70387308032963,35.71371139533158]],[[139.70503750259593,35.71470853872585],[139.70636724407285,35.71352443094516],[139.71028459058596,35.71353576212009],[139.71154245414522,35.71490683428721]],[[139.69052535101798,35.696901597315666],[139.68953343575413,35.69546253809893]],[[139.68953343575413,35.69546253809893],[139.68831869894547,35.69575714864724]],[[139.68831869894547,35.69575714864724],[139.68660800450488,35.696363366506255]],[[139.68660800450488,35.696363366506255],[139.68829713557017,35.69892987762901],[139.687499290684,35.701609700501116]],[[139.687499290684,35.701609700501116],[139.69057566556037,35.701694684313125]],[[139.69057566556037,35.701694684313125],[139.69120819123586,35.70024429392146],[139.69052535101798,35.696901597315666]],[[139.6893393653764,35.68610298760271],[139.6887930932021,35.68874881695001],[139.68722615459686,35.691003720762055]],[[139.68722615459686,35.691003720762055],[139.69418393702747,35.692488104678525]],[[139.69418393702747,35.692488104678525],[139.69559993200562,35.687519384469574]],[[139.69559993200562,35.687519384469574],[139.69066910685333,35.68676019574893],[139.6893393653764,35.68610298760271]],[[139.687499290684,35.701609700501116],[139.68802399948302,35.70602319313826]],[[139.68802399948302,35.70602319313826],[139.69207072624792,35.70503171533145],[139.69487396503715,35.70332070791628]],[[139.69518304008312,35.70185332076221],[139.69057566556037,35.701694684313125]],[[139.68802399948302,35.70602319313826],[139.68855589607378,35.707309281493366],[139.69340765551664,35.709949445253194]],[[139.68565202819985,35.684035048177094],[139.6893393653764,35.68610298760271]],[[139.69559993200562,35.687519384469574],[139.69576525121627,35.68713979010925]],[[139.69576525121627,35.68713979010925],[139.6933717165578,35.68585370175414],[139.6873914738075,35.68179714112745],[139.68565202819985,35.684035048177094]],[[139.6834741272944,35.68936636598396],[139.684875746689,35.691394646297304],[139.6835603807956,35.6925447605532],[139.68553702353157,35.69422177444356],[139.68660800450488,35.696363366506255]],[[139.68831869894547,35.69575714864724],[139.6871974034298,35.69415378739395],[139.68720459122156,35.69099805517458]],[[139.68720459122156,35.69099805517458],[139.6834741272944,35.68936636598396]],[[139.69418393702747,35.692488104678525],[139.69485958945359,35.69368354363415]],[[139.69485958945359,35.69368354363415],[139.69748313344863,35.692969679613256],[139.69964665877055,35.69342859219812]],[[139.70014261640247,35.688816803999615],[139.69576525121627,35.68713979010925]],[[139.68565202819985,35.684035048177094],[139.6847176152701,35.68636927021368],[139.68571671832575,35.68777433590561],[139.68396289713456,35.68742306948263],[139.6834741272944,35.68936636598396]],[[139.68720459122156,35.69099805517458],[139.68722615459686,35.691003720762055]],[[139.6756322464764,35.72528052494011],[139.676724790825,35.72766007167644],[139.67680385653446,35.72989231313861],[139.68134654093132,35.727337133190794],[139.68174905727028,35.725983057786074]],[[139.68953343575413,35.69546253809893],[139.69399705444152,35.69393282948272]],[[139.69399705444152,35.69393282948272],[139.69485958945359,35.69368354363415]],[[139.7025002121021,35.70955285413048],[139.70387308032963,35.71371139533158]],[[139.69399705444152,35.69393282948272],[139.69594494601043,35.69768911397364]],[[139.69594494601043,35.69768911397364],[139.6974184433227,35.697949730997145]],[[139.69052535101798,35.696901597315666],[139.69594494601043,35.69768911397364]],[[139.678917067314,35.718141884731125],[139.67695480016155,35.719473297785974],[139.67343278219565,35.718470488804236],[139.67349747232154,35.720566756167194],[139.67566818543523,35.721365604000106],[139.67542380051515,35.723580848699875]]]}