{"type":"Topology","bbox":[139.69520116284633,35.58482321791007,139.78926907575612,35.64159344780471],"objects":{"town":{"type":"GeometryCollection","geometries":[{"type":"MultiPolygon","arcs":[[[7,1,2,3,4,5,8,9,15,22,23,19,20,16,17,29,30,31,13,115,116]]],"properties":{"name":"荏原"}},{"type":"MultiPolygon","arcs":[[[43,44,45,46,107,108,133,131,132,101,98,99,35,36,24,32,33]]],"properties":{"name":"大井"}},{"type":"MultiPolygon","arcs":[[[84,85,86,87,88,42,48]]],"properties":{"name":"勝島"}},{"type":"MultiPolygon","arcs":[[[57,95,96,97,62,63,166,167,168,54,55,50,51,139,140,141]]],"properties":{"name":"北品川"}},{"type":"MultiPolygon","arcs":[[[138,76,66,73,74,75,68,69,-121]]],"properties":{"name":"上大崎"}},{"type":"MultiPolygon","arcs":[[[93,89,90,-166,83,-51,-56,78,79,80,72,-355,-269]]],"properties":{"name":"大崎"}},{"type":"MultiPolygon","arcs":[[[169,153,154,155,281,282,103,278,279,280,211,212,213,-248,105,106,283,-204,171,172]]],"properties":{"name":"中延"}},{"type":"MultiPolygon","arcs":[[[-268,111,112,-5,-4,-160,-129,-128,145,119,120,-70,121,196,197,163,164,165,-91,-90]]],"properties":{"name":"西五反田"}},{"type":"MultiPolygon","arcs":[[[126,127,128,129,130,123,124,229]]],"properties":{"name":"小山台"}},{"type":"MultiPolygon","arcs":[[[173,-173,174,175,148,149,-33,-25,-37,-36,-100,-99,190,202,150]]],"properties":{"name":"西大井"}},{"type":"MultiPolygon","arcs":[[[230,143,311,224,243,-124,-131,-130,159,-3,-2,-8,-117,-116,-14,-32,-31,-30,-18,-17,231]]],"properties":{"name":"小山"}},{"type":"MultiPolygon","arcs":[[[-273,-272,-270,354,-73,-81,180,181,176,177,-291]]],"properties":{"name":"西品川"}},{"type":"Polygon","arcs":[[182,183]],"properties":{"name":"東八潮"}},{"type":"MultiPolygon","arcs":[[[265,266,-112,267,-94,268,269,270,201,240,241,-290,-258,188,184,185,186,-251,-305]]],"properties":{"name":"戸越"}},{"type":"MultiPolygon","arcs":[[[192,220,343,342,228,287,288]]],"properties":{"name":"八潮"}},{"type":"MultiPolygon","arcs":[[[290,-178,-177,259,208,209,-307,205,203,-186,-185,-189,257,289,-242,-241,-202,-271,271,272]]],"properties":{"name":"豊町"}},{"type":"MultiPolygon","arcs":[[[324,-351,-300,-277,232,-168,-167,-64,-285,-338,217,218,263,260,261,326]]],"properties":{"name":"南品川"}},{"type":"MultiPolygon","arcs":[[[-132,-134,-109,237,-363,296,297,298,-88,-87,291,336,252]]],"properties":{"name":"南大井"}},{"type":"MultiPolygon","arcs":[[[-284,-107,-106,247,-214,248,249,250,-187]]],"properties":{"name":"東中延"}},{"type":"MultiPolygon","arcs":[[[-75,254,310,-141,-140,-52,-84,-165,-164,-198,-197,-122,-69,-76]]],"properties":{"name":"東五反田"}},{"type":"MultiPolygon","arcs":[[[274,275]],[[-264,-219,-218,337,284,-63,-98,285,338,322,323]],[[360,361]]],"properties":{"name":"東品川"}},{"type":"MultiPolygon","arcs":[[[-79,-55,-169,-233,276,299,300,-45,301,-181,-80]]],"properties":{"name":"広町"}},{"type":"MultiPolygon","arcs":[[[-9,-6,-113,-267,-266,304,-250,-249,-213,327,-10]]],"properties":{"name":"平塚"}},{"type":"MultiPolygon","arcs":[[[-172,-206,306,-210,-209,-260,-182,-302,-44,-34,-150,-149,-176,-175]]],"properties":{"name":"二葉"}},{"type":"MultiPolygon","arcs":[[[357,-319,-321,-282,-156,-155,346,334,312,-232,-21,-20,-24,348]]],"properties":{"name":"旗の台"}},{"type":"MultiPolygon","arcs":[[[-280,-279,-104,-283,320,318,-358,-349,-23,-16,-328,-212,-281]]],"properties":{"name":"西中延"}},{"type":"MultiPolygon","arcs":[[[-238,-108,-47,-46,-301,350,-325,-327,-262,-261,-324,344,356,-298,-297,362]]],"properties":{"name":"東大井"}},{"type":"Polygon","arcs":[[-183,365,-344,-221,-193,-289,366,-85,-49,-43,-89,-299,-357,-345,-323,-339,-286,-97,367,-276,368,-362,369]],"properties":{"name":""}}]}},"arcs":[[[139.71411070429534,35.617917894383304],[139.71097792951798,35.6202570617717]],[[139.71097792951798,35.6202570617717],[139.71150476251356,35.6206317827611]],[[139.71150476251356,35.6206317827611],[139.71285006819875,35.62209660117423]],[[139.71285006819875,35.62209660117423],[139.71424241254425,35.621324448832425]],[[139.71424241254425,35.621324448832425],[139.71683894659395,35.61955304051888]],[[139.71683894659395,35.61955304051888],[139.71411070429534,35.617917894383304]],[[139.70869185062637,35.61613513088826],[139.70833435680794,35.61841184477843]],[[139.70833435680794,35.61841184477843],[139.71097792951798,35.6202570617717]],[[139.71411070429534,35.617917894383304],[139.71188107179614,35.61702651263578]],[[139.71188107179614,35.61702651263578],[139.70915282949753,35.61585125135083]],[[139.70915282949753,35.61585125135083],[139.70869185062637,35.61613513088826]],[[139.7075064763863,35.61363131336815],[139.70504165058546,35.61361995818666]],[[139.70504165058546,35.61361995818666],[139.70559670677724,35.61484631778834],[139.70395035366602,35.61624868270323]],[[139.70395035366602,35.61624868270323],[139.70547440626044,35.617832730522075]],[[139.70547440626044,35.617832730522075],[139.70869185062637,35.61613513088826]],[[139.70915282949753,35.61585125135083],[139.7075064763863,35.61363131336815]],[[139.69866320824596,35.60899839931735],[139.69828689896337,35.61209836386605]],[[139.69828689896337,35.61209836386605],[139.70089284074515,35.61276831957438]],[[139.70089284074515,35.61276831957438],[139.70361167531172,35.610752774858646]],[[139.70361167531172,35.610752774858646],[139.70145730466902,35.609696742979416]],[[139.70145730466902,35.609696742979416],[139.69866320824596,35.60899839931735]],[[139.70089284074515,35.61276831957438],[139.70504165058546,35.61361995818666]],[[139.7075064763863,35.61363131336815],[139.70588834647126,35.61123537007227]],[[139.70588834647126,35.61123537007227],[139.70361167531172,35.610752774858646]],[[139.72682995804612,35.600527433920526],[139.72700870495535,35.602946087579404]],[[139.72700870495535,35.602946087579404],[139.73094113695817,35.603860179689924]],[[139.73094113695817,35.603860179689924],[139.73257808233734,35.60357062256175]],[[139.73257808233734,35.60357062256175],[139.73061186633592,35.60011296979589]],[[139.73061186633592,35.60011296979589],[139.72682995804612,35.600527433920526]],[[139.70089284074515,35.61276831957438],[139.70029074589306,35.614306946667234]],[[139.70029074589306,35.614306946667234],[139.70268030983735,35.61477818669936],[139.70394094593397,35.61626003788473]],[[139.70394094593397,35.61626003788473],[139.70395035366602,35.61624868270323]],[[139.72700870495535,35.602946087579404],[139.72650068742388,35.60445064912777]],[[139.72650068742388,35.60445064912777],[139.72989687869904,35.60709640641659]],[[139.72989687869904,35.60709640641659],[139.73094113695817,35.603860179689924]],[[139.72508952761424,35.59780219036123],[139.72579510751908,35.600482013194544]],[[139.72579510751908,35.600482013194544],[139.72682995804612,35.600527433920526]],[[139.73061186633592,35.60011296979589],[139.7305930508718,35.599073970688906]],[[139.7305930508718,35.599073970688906],[139.72976517045015,35.59670073775602]],[[139.72976517045015,35.59670073775602],[139.72508952761424,35.59780219036123]],[[139.7471130283765,35.595792323236246],[139.74191996027707,35.59609891313667]],[[139.74191996027707,35.59609891313667],[139.74197640666947,35.59631466158511]],[[139.74197640666947,35.59631466158511],[139.7430206649286,35.60078292550421],[139.74426248556105,35.60226477668958],[139.7477997928172,35.601850312564935],[139.7471130283765,35.595792323236246]],[[139.72989687869904,35.60709640641659],[139.7297275395219,35.60817514865881]],[[139.7297275395219,35.60817514865881],[139.73534395556422,35.60765281030994]],[[139.73534395556422,35.60765281030994],[139.7348453457648,35.604899178796906]],[[139.7348453457648,35.604899178796906],[139.7348453457648,35.60487646843391]],[[139.7348453457648,35.60487646843391],[139.73257808233734,35.60357062256175]],[[139.7471130283765,35.595792323236246],[139.74707539744824,35.59216434274793],[139.74636040981136,35.59067113638107],[139.73922934890672,35.58858178298561]],[[139.73922934890672,35.58858178298561],[139.73869310817906,35.591108310868705],[139.74191996027707,35.59609891313667]],[[139.73425265864478,35.618105254878],[139.72944530755996,35.621227929789704]],[[139.72944530755996,35.621227929789704],[139.73000977148382,35.62291985183276],[139.73128922304454,35.62292552942351],[139.7313268539728,35.624753713644544]],[[139.7313268539728,35.624753713644544],[139.7346665988556,35.62309585714597]],[[139.7346665988556,35.62309585714597],[139.73556033340168,35.6192748385722],[139.73425265864478,35.618105254878]],[[139.73651992207223,35.61587963930458],[139.73493942308545,35.61691863841156]],[[139.73493942308545,35.61691863841156],[139.73425265864478,35.618105254878]],[[139.7346665988556,35.62309585714597],[139.7352686937077,35.62313560028121]],[[139.7352686937077,35.62313560028121],[139.7374230643504,35.62324915209618],[139.73895652467687,35.62461177387583]],[[139.73895652467687,35.62461177387583],[139.73851436126984,35.622403191074646]],[[139.73851436126984,35.622403191074646],[139.73651992207223,35.61587963930458]],[[139.7409697793386,35.61606699979928],[139.74033005355824,35.61968930269685]],[[139.74033005355824,35.61968930269685],[139.74316178090956,35.62006402368625]],[[139.74316178090956,35.62006402368625],[139.7453255592843,35.61846294309516],[139.74531615155226,35.61712303167851]],[[139.74531615155226,35.61712303167851],[139.7409697793386,35.61606699979928]],[[139.7158793579234,35.63235600765684],[139.71557831049736,35.63374133979948]],[[139.71557831049736,35.63374133979948],[139.71956718889257,35.63463839913775]],[[139.71956718889257,35.63463839913775],[139.7197177126056,35.63446807141529]],[[139.7197177126056,35.63446807141529],[139.72044210797455,35.63221974547887]],[[139.72044210797455,35.63221974547887],[139.71973652806972,35.62869396162403]],[[139.71973652806972,35.62869396162403],[139.71755393423084,35.629778381457],[139.7158793579234,35.63235600765684]],[[139.72381007605352,35.61708328854327],[139.72482611111644,35.618809276130825],[139.7279118472335,35.61943948870391]],[[139.7279118472335,35.61943948870391],[139.73064008953213,35.61649849669617]],[[139.73064008953213,35.61649849669617],[139.7275731688792,35.61615784125126],[139.72381007605352,35.61708328854327]],[[139.7197177126056,35.63446807141529],[139.72206964562164,35.63581933801345],[139.72567280700224,35.635086928806885],[139.72632194051465,35.632918089140944]],[[139.72632194051465,35.632918089140944],[139.72576688432287,35.63257743369603]],[[139.72576688432287,35.63257743369603],[139.72044210797455,35.63221974547887]],[[139.7145152367741,35.633905989931186],[139.71325460067752,35.637607779099234],[139.71553127183702,35.64062825737746],[139.71929436466272,35.64156505985097],[139.7167730924695,35.639935591306134],[139.7179020203172,35.63597263296366],[139.71956718889257,35.63463839913775]],[[139.71557831049736,35.63374133979948],[139.7145152367741,35.633905989931186]],[[139.73493942308545,35.61691863841156],[139.73134566943693,35.61620326197725]],[[139.73134566943693,35.61620326197725],[139.73097876788643,35.61605564461778]],[[139.73097876788643,35.61605564461778],[139.73064008953213,35.61649849669617]],[[139.7279118472335,35.61943948870391],[139.72705574361567,35.62093269507078]],[[139.72705574361567,35.62093269507078],[139.72488255750883,35.62431653915691]],[[139.72488255750883,35.62431653915691],[139.7265759492804,35.623652261039325],[139.72944530755996,35.621227929789704]],[[139.73922934890672,35.58858178298561],[139.73715024012054,35.58801402391075]],[[139.73715024012054,35.58801402391075],[139.73691504681892,35.58800266872925]],[[139.73691504681892,35.58800266872925],[139.7370843859961,35.59046674311412],[139.7387119236432,35.59337934716812]],[[139.7387119236432,35.59337934716812],[139.741026225731,35.59654176521506]],[[139.741026225731,35.59654176521506],[139.74197640666947,35.59631466158511]],[[139.7184006301166,35.61839481200618],[139.72041388477834,35.61943381111316],[139.72275641006232,35.62281765519929]],[[139.72275641006232,35.62281765519929],[139.72338672811063,35.62247132216363]],[[139.72338672811063,35.62247132216363],[139.72456269461864,35.62175594572931]],[[139.72456269461864,35.62175594572931],[139.7234713976992,35.61941677834092],[139.71981178992624,35.617651047618125]],[[139.71981178992624,35.617651047618125],[139.7184006301166,35.61839481200618]],[[139.74033005355824,35.61968930269685],[139.73851436126984,35.622403191074646]],[[139.73895652467687,35.62461177387583],[139.7434628283356,35.62516250017844],[139.7440461077236,35.62376013526355]],[[139.7440461077236,35.62376013526355],[139.7413649040853,35.62200575972225]],[[139.7413649040853,35.62200575972225],[139.74316178090956,35.62006402368625]],[[139.72456269461864,35.59436724795837],[139.72508952761424,35.59777947999824]],[[139.72508952761424,35.59777947999824],[139.72508952761424,35.59780219036123]],[[139.72976517045015,35.59670073775602],[139.72937004570346,35.592646937961554]],[[139.72937004570346,35.592646937961554],[139.7280435554824,35.594565963634565],[139.72456269461864,35.59436724795837]],[[139.7123138274711,35.606187991896824],[139.70967025476105,35.60659677843071]],[[139.70967025476105,35.60659677843071],[139.7094444691915,35.608515804103725]],[[139.7094444691915,35.608515804103725],[139.71173995581518,35.609787584431395]],[[139.71173995581518,35.609787584431395],[139.71188107179614,35.60936176512526]],[[139.71188107179614,35.60936176512526],[139.7123138274711,35.606187991896824]],[[139.7348453457648,35.60487646843391],[139.7342996973051,35.600396849333315]],[[139.7342996973051,35.600396849333315],[139.73382931070188,35.5979157421762]],[[139.73382931070188,35.5979157421762],[139.7305930508718,35.599073970688906]],[[139.71838181465247,35.6185140414119],[139.71830655279598,35.61841184477843]],[[139.71830655279598,35.61841184477843],[139.71804313629818,35.61857081731939]],[[139.71804313629818,35.61857081731939],[139.71683894659395,35.61955304051888]],[[139.71424241254425,35.621324448832425],[139.71558771822941,35.6233797366834],[139.71713058628794,35.62423705288643]],[[139.71713058628794,35.62423705288643],[139.7176480115515,35.623498966089116],[139.71838181465247,35.6185140414119]],[[139.70547440626044,35.617832730522075],[139.70798627072156,35.61974040101359]],[[139.70798627072156,35.61974040101359],[139.70833435680794,35.61841184477843]],[[139.71814662135088,35.6251114018617],[139.7148539151284,35.62698500680872]],[[139.7148539151284,35.62698500680872],[139.71234205066727,35.628268142317886]],[[139.71234205066727,35.628268142317886],[139.71452464450616,35.629216299972896]],[[139.71452464450616,35.629216299972896],[139.71553127183702,35.628024005915705],[139.7164626373114,35.63018149040015],[139.7158793579234,35.63235600765684]],[[139.71973652806972,35.62869396162403],[139.71977415899798,35.62863718571654]],[[139.71977415899798,35.62863718571654],[139.71814662135088,35.6251114018617]],[[139.70593538513157,35.621358514376915],[139.70394094593397,35.62203414767599]],[[139.70394094593397,35.62203414767599],[139.70243570880368,35.62275520170106]],[[139.70243570880368,35.62275520170106],[139.70489112687244,35.623697681765314],[139.70401620779046,35.624787779189035]],[[139.70401620779046,35.624787779189035],[139.7073465449412,35.62559399707533]],[[139.7073465449412,35.62559399707533],[139.70830613361173,35.62399291648424],[139.71056398930713,35.62402130443798]],[[139.71056398930713,35.62402130443798],[139.7106016202354,35.62398156130274]],[[139.7106016202354,35.62398156130274],[139.7082120562911,35.62257919638785]],[[139.7082120562911,35.62257919638785],[139.70593538513157,35.621358514376915]],[[139.73124218438423,35.593549674890575],[139.73034844983812,35.5920905340682]],[[139.73034844983812,35.5920905340682],[139.72937004570346,35.592646937961554]],[[139.73382931070188,35.5979157421762],[139.73124218438423,35.593549674890575]],[[139.71996231363926,35.5979157421762],[139.7210347950946,35.60024923197385]],[[139.7210347950946,35.60024923197385],[139.72579510751908,35.600482013194544]],[[139.72508952761424,35.59777947999824],[139.72296338016776,35.59799522844668]],[[139.72296338016776,35.59799522844668],[139.71996231363926,35.5979157421762]],[[139.71452464450616,35.629216299972896],[139.7145152367741,35.633905989931186]],[[139.7313268539728,35.624753713644544],[139.73131744624075,35.624753713644544]],[[139.73131744624075,35.624753713644544],[139.73064008953213,35.62663867377306],[139.73111047613534,35.629284431061876]],[[139.73111047613534,35.629284431061876],[139.73086587510167,35.62667273931755],[139.73379167977362,35.625974395655476],[139.7352686937077,35.62313560028121]],[[139.69828689896337,35.61209836386605],[139.69559628759302,35.6124787624462]],[[139.69559628759302,35.6124787624462],[139.69577503450225,35.61361995818666],[139.69903010979647,35.61604428943628]],[[139.69903010979647,35.61604428943628],[139.70029074589306,35.614306946667234]],[[139.7073465449412,35.62559399707533],[139.71234205066727,35.628268142317886]],[[139.7148539151284,35.62698500680872],[139.71056398930713,35.62402130443798]],[[139.7210347950946,35.60024923197385],[139.7219003064445,35.60213419210236]],[[139.7219003064445,35.60213419210236],[139.72191912190863,35.60215690246536]],[[139.72191912190863,35.60215690246536],[139.72650068742388,35.60445064912777]],[[139.71773268114006,35.59534947115786],[139.7175633419629,35.59650202207982],[139.71450582904205,35.59741611419033],[139.7148539151284,35.59990857652894]],[[139.7148539151284,35.59990857652894],[139.7160110661723,35.59957359867477],[139.7210347950946,35.60024923197385]],[[139.71996231363926,35.5979157421762],[139.71773268114006,35.59534947115786]],[[139.70993367125885,35.60098164118041],[139.70578486141855,35.60131094144383]],[[139.70578486141855,35.60131094144383],[139.70669741142876,35.603928310778905]],[[139.70669741142876,35.603928310778905],[139.70829672587968,35.603922633188155]],[[139.70829672587968,35.603922633188155],[139.70984900167028,35.604115671273604]],[[139.70984900167028,35.604115671273604],[139.70993367125885,35.60098164118041]],[[139.71150476251356,35.6206317827611],[139.7082120562911,35.62257919638785]],[[139.7106016202354,35.62398156130274],[139.71285006819875,35.62209660117423]],[[139.70798627072156,35.61974040101359],[139.70593538513157,35.621358514376915]],[[139.72275641006232,35.62281765519929],[139.72100657189839,35.62370903694681]],[[139.72100657189839,35.62370903694681],[139.7231891657373,35.62620717687617]],[[139.7231891657373,35.62620717687617],[139.7239511920345,35.62548612285111]],[[139.7239511920345,35.62548612285111],[139.72488255750883,35.62431653915691]],[[139.72488255750883,35.62431653915691],[139.72338672811063,35.62247132216363]],[[139.7409697793386,35.61606699979928],[139.7409697793386,35.61606132220853]],[[139.7409697793386,35.61606132220853],[139.7365575530005,35.61587963930458]],[[139.7365575530005,35.61587963930458],[139.73651992207223,35.61587963930458]],[[139.71261487489713,35.60073750477822],[139.70993367125885,35.60098164118041]],[[139.70984900167028,35.604115671273604],[139.71320756201717,35.60367849678597]],[[139.71320756201717,35.60367849678597],[139.71282184500254,35.60184463497419]],[[139.71282184500254,35.60184463497419],[139.71261487489713,35.60073750477822]],[[139.7148539151284,35.59990857652894],[139.71261487489713,35.60073750477822]],[[139.71282184500254,35.60184463497419],[139.71509851616207,35.60130526385308],[139.7187675316671,35.601481269166285]],[[139.7187675316671,35.601481269166285],[139.7219003064445,35.60213419210236]],[[139.72533412864792,35.60852715928522],[139.72529649771965,35.60852715928522]],[[139.72529649771965,35.60852715928522],[139.7271215977401,35.61104800957757]],[[139.7271215977401,35.61104800957757],[139.72921952199042,35.614562438250914]],[[139.72921952199042,35.614562438250914],[139.73097876788643,35.61605564461778]],[[139.73097876788643,35.61605564461778],[139.73159967820266,35.61274560921139],[139.72976517045015,35.60922550294729]],[[139.72976517045015,35.60922550294729],[139.72533412864792,35.60852715928522]],[[139.77360520186926,35.62032519286068],[139.7706511740011,35.6187127570881],[139.76767833066882,35.62205685803899],[139.7675842533482,35.62581542311452],[139.76880725851652,35.62648537882285]],[[139.76880725851652,35.62648537882285],[139.77360520186926,35.62032519286068]],[[139.71880516259537,35.607306477274285],[139.71799609763787,35.60659110083997]],[[139.71799609763787,35.60659110083997],[139.7136779486204,35.60597792103913]],[[139.7136779486204,35.60597792103913],[139.71437412079314,35.60936744271601]],[[139.71437412079314,35.60936744271601],[139.71923791827032,35.60804456407159]],[[139.71923791827032,35.60804456407159],[139.71880516259537,35.607306477274285]],[[139.72096894097012,35.59443537904735],[139.72296338016776,35.59799522844668]],[[139.72456269461864,35.59436724795837],[139.72096894097012,35.59443537904735]],[[139.75479914547296,35.59563335069529],[139.74896635159314,35.595826388780736]],[[139.74896635159314,35.595826388780736],[139.7491074675741,35.60077724791346],[139.7519486026575,35.60550100341625]],[[139.7519486026575,35.60550100341625],[139.7548179609371,35.60530228774005]],[[139.7548179609371,35.60530228774005],[139.75479914547296,35.59563335069529]],[[139.72100657189839,35.62370903694681],[139.71814662135088,35.6251114018617]],[[139.71977415899798,35.62863718571654],[139.72330205852205,35.62628666314665]],[[139.72330205852205,35.62628666314665],[139.7231891657373,35.62620717687617]],[[139.72064907807996,35.61245037449246],[139.71760097289115,35.613057876702555]],[[139.71760097289115,35.613057876702555],[139.71793965124547,35.61504503346454]],[[139.71793965124547,35.61504503346454],[139.72177800592766,35.614312624257984]],[[139.72177800592766,35.614312624257984],[139.72064907807996,35.61245037449246]],[[139.72096894097012,35.59443537904735],[139.71925673373445,35.592607194826314],[139.71773268114006,35.59534947115786]],[[139.71320756201717,35.60367849678597],[139.7136779486204,35.60597792103913]],[[139.71799609763787,35.60659110083997],[139.7185605615617,35.603951021141896]],[[139.7185605615617,35.603951021141896],[139.7166696074168,35.60334919652255],[139.71320756201717,35.60367849678597]],[[139.72127939612827,35.604155414408844],[139.71880516259537,35.607306477274285]],[[139.71923791827032,35.60804456407159],[139.72215431521022,35.60779475007866],[139.72408290028338,35.60680684928841]],[[139.72408290028338,35.60680684928841],[139.7233679126465,35.60547829305325]],[[139.7233679126465,35.60547829305325],[139.72127939612827,35.604155414408844]],[[139.71284066046667,35.6115306047912],[139.70915282949753,35.612121074229044]],[[139.70915282949753,35.612121074229044],[139.70906815990895,35.61401738953906],[139.71054517384303,35.614329657030225]],[[139.71054517384303,35.614329657030225],[139.71337690119435,35.6127001884854]],[[139.71337690119435,35.6127001884854],[139.71284066046667,35.6115306047912]],[[139.74237153141615,35.609554803210706],[139.74156246645865,35.61274560921139]],[[139.74156246645865,35.61274560921139],[139.74114852624783,35.61439211052846]],[[139.74114852624783,35.61439211052846],[139.74494925000175,35.614556760660165]],[[139.74494925000175,35.614556760660165],[139.74492102680554,35.610803873175385]],[[139.74492102680554,35.610803873175385],[139.7449022113414,35.610798195584636]],[[139.7449022113414,35.610798195584636],[139.74237153141615,35.609554803210706]],[[139.7519486026575,35.60550100341625],[139.75303049184487,35.617634014845876],[139.75806362849923,35.61757723893839],[139.76029326099842,35.61574337712661]],[[139.76029326099842,35.61574337712661],[139.755683472287,35.612047265549315]],[[139.755683472287,35.612047265549315],[139.75487440732945,35.61027017964502],[139.7548179609371,35.60530228774005]],[[139.70394094593397,35.61626003788473],[139.70074231703214,35.61849133104891]],[[139.70074231703214,35.61849133104891],[139.70234163148305,35.620274094543944]],[[139.70234163148305,35.620274094543944],[139.70547440626044,35.617832730522075]],[[139.75493085372185,35.58971162354456],[139.75479914547296,35.59563335069529]],[[139.755683472287,35.612047265549315],[139.76067897801306,35.60370120714896],[139.76207132235857,35.599272686365104],[139.7654486981696,35.594730613766274]],[[139.7654486981696,35.594730613766274],[139.76236296205255,35.594895263897975],[139.76283334865576,35.58507870949376],[139.75534479393266,35.58482321791007],[139.75493085372185,35.58971162354456]],[[139.70243570880368,35.62275520170106],[139.70095869486963,35.623635228267084],[139.69621719790928,35.624975139683734],[139.70053534692673,35.62611065783344],[139.70401620779046,35.624787779189035]],[[139.6956809571816,35.608510126512975],[139.69559628759302,35.6124787624462]],[[139.69866320824596,35.60899839931735],[139.6956809571816,35.608510126512975]],[[139.73586138082774,35.612149462182785],[139.7365575530005,35.61587963930458]],[[139.7409697793386,35.61606132220853],[139.74114852624783,35.61439211052846]],[[139.74156246645865,35.61274560921139],[139.74025479170172,35.612234626044014]],[[139.74025479170172,35.612234626044014],[139.73586138082774,35.612149462182785]],[[139.73396101895077,35.59295920545273],[139.73124218438423,35.593549674890575]],[[139.7342996973051,35.600396849333315],[139.73574848804296,35.5998574782122]],[[139.73574848804296,35.5998574782122],[139.7357673035071,35.59854595474929],[139.73396101895077,35.59295920545273]],[[139.71713999402002,35.61104800957757],[139.71760097289115,35.613057876702555]],[[139.72064907807996,35.61245037449246],[139.7203762538501,35.61116156139254]],[[139.7203762538501,35.61116156139254],[139.7203950693142,35.6101395950578]],[[139.7203950693142,35.6101395950578],[139.71713999402002,35.61104800957757]],[[139.70234163148305,35.620274094543944],[139.70394094593397,35.62203414767599]],[[139.72705574361567,35.62093269507078],[139.72456269461864,35.62175594572931]],[[139.71814662135088,35.6251114018617],[139.71713058628794,35.62423705288643]],[[139.71437412079314,35.60936744271601],[139.71188107179614,35.60936176512526]],[[139.71173995581518,35.609787584431395],[139.71284066046667,35.6115306047912]],[[139.71337690119435,35.6127001884854],[139.71342393985466,35.61268315571315]],[[139.71342393985466,35.61268315571315],[139.71521140894686,35.61167822215066]],[[139.71521140894686,35.61167822215066],[139.71437412079314,35.60936744271601]],[[139.73396101895077,35.59295920545273],[139.73226762717923,35.58732703543018]],[[139.73226762717923,35.58732703543018],[139.72992510189525,35.58725322675045],[139.72915366786597,35.58962078209259],[139.73034844983812,35.5920905340682]],[[139.72589859257178,35.628205688819655],[139.72539998277236,35.63005090581293],[139.72650068742388,35.630840090926974],[139.72576688432287,35.63257743369603]],[[139.72632194051465,35.632918089140944],[139.72976517045015,35.6311580360089]],[[139.72976517045015,35.6311580360089],[139.7282505255878,35.62998277472395]],[[139.7282505255878,35.62998277472395],[139.72589859257178,35.628205688819655]],[[139.71923791827032,35.60804456407159],[139.71987764405068,35.60918575981205]],[[139.71987764405068,35.60918575981205],[139.72280344872266,35.60931066680852],[139.72529649771965,35.60852715928522]],[[139.72533412864792,35.60852715928522],[139.72408290028338,35.60680684928841]],[[139.74526911289192,35.60667626470119],[139.74314296544543,35.60673304060868]],[[139.74314296544543,35.60673304060868],[139.74305829585686,35.60673304060868]],[[139.74305829585686,35.60673304060868],[139.74237153141615,35.609554803210706]],[[139.7449022113414,35.610798195584636],[139.74526911289192,35.60667626470119]],[[139.71793965124547,35.61504503346454],[139.71658493782823,35.615311880229726]],[[139.71658493782823,35.615311880229726],[139.71778912753243,35.61808254451501]],[[139.71778912753243,35.61808254451501],[139.71804313629818,35.61857081731939]],[[139.71830655279598,35.61841184477843],[139.7184006301166,35.61839481200618]],[[139.71981178992624,35.617651047618125],[139.7222389847988,35.6171457420415]],[[139.7222389847988,35.6171457420415],[139.72222957706674,35.61532891300197]],[[139.72222957706674,35.61532891300197],[139.72177800592766,35.614312624257984]],[[139.72222957706674,35.61532891300197],[139.72453447142246,35.61473844356412]],[[139.72453447142246,35.61473844356412],[139.72403586162307,35.612030232777066]],[[139.72403586162307,35.612030232777066],[139.7236877755367,35.611309178752],[139.7203762538501,35.61116156139254]],[[139.74689665053904,35.62305043641998],[139.75179807894446,35.624748036053795]],[[139.75179807894446,35.624748036053795],[139.75144058512603,35.618934183127294],[139.7492673990192,35.61840616718768],[139.74689665053904,35.62305043641998]],[[139.73586138082774,35.612149462182785],[139.73568263391851,35.61016798301155]],[[139.73568263391851,35.61016798301155],[139.73372582564917,35.6138470618166],[139.73134566943693,35.61620326197725]],[[139.7094444691915,35.608515804103725],[139.70943506145943,35.608544192057465]],[[139.70943506145943,35.608544192057465],[139.7091810526937,35.611070719940564]],[[139.7091810526937,35.611070719940564],[139.70915282949753,35.612121074229044]],[[139.70829672587968,35.603922633188155],[139.7086071810378,35.606227735032064]],[[139.7086071810378,35.606227735032064],[139.70967025476105,35.60659677843071]],[[139.7123138274711,35.606187991896824],[139.7136779486204,35.60597792103913]],[[139.74542904433702,35.6171457420415],[139.74531615155226,35.61712303167851]],[[139.7413649040853,35.62200575972225],[139.74337815874702,35.62320373137019],[139.74605936238532,35.62272681374731],[139.74828899488452,35.617844085703574]],[[139.74828899488452,35.617844085703574],[139.74542904433702,35.6171457420415]],[[139.75493085372185,35.58971162354456],[139.75054685057992,35.58970594595382],[139.74951200005287,35.589149542060454]],[[139.74951200005287,35.589149542060454],[139.75060329697232,35.59186343043826],[139.74877819695186,35.59202808056997],[139.74896635159314,35.595826388780736]],[[139.71987764405068,35.60918575981205],[139.7203950693142,35.6101395950578]],[[139.72403586162307,35.612030232777066],[139.7271215977401,35.61104800957757]],[[139.73691504681892,35.58800266872925],[139.7358425653636,35.58792886004952]],[[139.7358425653636,35.58792886004952],[139.7362376901103,35.592578806872574]],[[139.7362376901103,35.592578806872574],[139.73628472877064,35.59394142865222]],[[139.73628472877064,35.59394142865222],[139.7387119236432,35.59337934716812]],[[139.73628472877064,35.59394142865222],[139.73801575147044,35.598256397621114]],[[139.73801575147044,35.598256397621114],[139.7380251592025,35.59826207521186]],[[139.7380251592025,35.59826207521186],[139.7408662942859,35.59680293438949]],[[139.7408662942859,35.59680293438949],[139.741026225731,35.59654176521506]],[[139.73568263391851,35.61016798301155],[139.73549447927724,35.60867477664468]],[[139.73549447927724,35.60867477664468],[139.73534395556422,35.60765281030994]],[[139.7297275395219,35.60817514865881],[139.72976517045015,35.60922550294729]],[[139.71342393985466,35.61268315571315],[139.7140448501709,35.6140571326743]],[[139.7140448501709,35.6140571326743],[139.71531489399956,35.61668585719087],[139.71778912753243,35.61808254451501]],[[139.71658493782823,35.615311880229726],[139.71521140894686,35.61167822215066]],[[139.7187675316671,35.601481269166285],[139.7185605615617,35.603951021141896]],[[139.7185605615617,35.603951021141896],[139.72127939612827,35.604155414408844]],[[139.7233679126465,35.60547829305325],[139.72191912190863,35.60215690246536]],[[139.73131744624075,35.624753713644544],[139.7289372900285,35.62541799176212]],[[139.7289372900285,35.62541799176212],[139.72729093691726,35.62655350991183],[139.7282505255878,35.62998277472395]],[[139.72976517045015,35.6311580360089],[139.73111047613534,35.629284431061876]],[[139.69903010979647,35.61604428943628],[139.70074231703214,35.61849133104891]],[[139.6980234824656,35.604075928138364],[139.69520116284633,35.60809566238833],[139.6956809571816,35.608510126512975]],[[139.70145730466902,35.609696742979416],[139.7022475541624,35.60677278374392]],[[139.7022475541624,35.60677278374392],[139.6995945737203,35.605307965330795]],[[139.6995945737203,35.605307965330795],[139.6980234824656,35.604075928138364]],[[139.72453447142246,35.61473844356412],[139.72921952199042,35.614562438250914]],[[139.71521140894686,35.61167822215066],[139.71713999402002,35.61104800957757]],[[139.7060576856484,35.60671600783643],[139.70608590884459,35.60845335060549]],[[139.70608590884459,35.60845335060549],[139.70943506145943,35.608544192057465]],[[139.7086071810378,35.606227735032064],[139.7060576856484,35.60671600783643]],[[139.74492102680554,35.610803873175385],[139.7507914516136,35.61166118937841]],[[139.7507914516136,35.61166118937841],[139.75036810367072,35.607374608363266]],[[139.75036810367072,35.607374608363266],[139.74526911289192,35.60667626470119]],[[139.7397373664382,35.60714750473333],[139.7371314246564,35.60798778816411]],[[139.7371314246564,35.60798778816411],[139.74025479170172,35.612234626044014]],[[139.74305829585686,35.60673304060868],[139.7397373664382,35.60714750473333]],[[139.71054517384303,35.614329657030225],[139.70915282949753,35.61585125135083]],[[139.71188107179614,35.61702651263578],[139.71239849705967,35.61490309369583],[139.7140448501709,35.6140571326743]],[[139.72330205852205,35.62628666314665],[139.72589859257178,35.628205688819655]],[[139.7289372900285,35.62541799176212],[139.7239511920345,35.62548612285111]],[[139.6995945737203,35.605307965330795],[139.70274616396182,35.6049218891599]],[[139.70274616396182,35.6049218891599],[139.70378101448887,35.60471749589295]],[[139.70378101448887,35.60471749589295],[139.70262386344498,35.601521012301525]],[[139.70262386344498,35.601521012301525],[139.70093047167342,35.6016118537535],[139.6980234824656,35.604075928138364]],[[139.73396101895077,35.59295920545273],[139.7362376901103,35.592578806872574]],[[139.7358425653636,35.58792886004952],[139.73580493443535,35.58723051638745],[139.73226762717923,35.58732703543018]],[[139.74494925000175,35.614556760660165],[139.74542904433702,35.6171457420415]],[[139.74828899488452,35.617844085703574],[139.75146880832222,35.6183153257357],[139.7507914516136,35.61166118937841]],[[139.74071577057285,35.60355926738025],[139.73783700456121,35.605046796156365]],[[139.73783700456121,35.605046796156365],[139.7397373664382,35.60714750473333]],[[139.74314296544543,35.60673304060868],[139.74071577057285,35.60355926738025]],[[139.77279613691172,35.59536650393011],[139.7671044590129,35.592493643011345],[139.7654486981696,35.594730613766274]],[[139.76029326099842,35.61574337712661],[139.76193961410968,35.6146078589769],[139.76370826773774,35.60906085281558],[139.7631061728856,35.608322766018276],[139.77279613691172,35.59536650393011]],[[139.75036810367072,35.607374608363266],[139.75021757995768,35.60571675186469],[139.74788446240578,35.602650852860485],[139.743227635034,35.602599754543746]],[[139.743227635034,35.602599754543746],[139.74071577057285,35.60355926738025]],[[139.70578486141855,35.60131094144383],[139.70262386344498,35.601521012301525]],[[139.70378101448887,35.60471749589295],[139.70669741142876,35.603928310778905]],[[139.70588834647126,35.61123537007227],[139.7048723114083,35.6090040769081]],[[139.7048723114083,35.6090040769081],[139.70437370160892,35.60778907248791],[139.7022475541624,35.60677278374392]],[[139.73549447927724,35.60867477664468],[139.7371314246564,35.60798778816411]],[[139.73783700456121,35.605046796156365],[139.7370279396037,35.604041862593874]],[[139.7370279396037,35.604041862593874],[139.7348453457648,35.604899178796906]],[[139.72408290028338,35.60680684928841],[139.72650068742388,35.60445064912777]],[[139.7222389847988,35.6171457420415],[139.72381007605352,35.61708328854327]],[[139.7380251592025,35.59826207521186],[139.74071577057285,35.60355926738025]],[[139.743227635034,35.602599754543746],[139.74155305872657,35.59953385553953],[139.7408662942859,35.59680293438949]],[[139.7048723114083,35.6090040769081],[139.70608590884459,35.60845335060549]],[[139.7060576856484,35.60671600783643],[139.70274616396182,35.6049218891599]],[[139.70588834647126,35.61123537007227],[139.7091810526937,35.611070719940564]],[[139.75345383978777,35.62408375793622],[139.7576214650922,35.62417459938819],[139.7574615336471,35.62779122469501],[139.75939952645234,35.62771173842453]],[[139.75939952645234,35.62771173842453],[139.75973820480664,35.61935432484268],[139.75923959500724,35.618951215899536],[139.7530022686487,35.618985281444026],[139.75345383978777,35.62408375793622]],[[139.73801575147044,35.598256397621114],[139.73574848804296,35.5998574782122]],[[139.73574848804296,35.5998574782122],[139.7370279396037,35.604041862593874]],[[139.72100657189839,35.62370903694681],[139.71838181465247,35.6185140414119]],[[139.77360520186926,35.62032519286068],[139.77426374311375,35.6194962646114],[139.7681863482003,35.616186229205],[139.78926907575612,35.59084146410352],[139.7792122101795,35.59396981660597],[139.77279613691172,35.59536650393011]],[[139.74951200005287,35.589149542060454],[139.74822314076008,35.59026234984717],[139.74088510975002,35.5881957068147],[139.73715024012054,35.58801402391075]],[[139.7440461077236,35.62376013526355],[139.74689665053904,35.62305043641998]],[[139.75179807894446,35.624748036053795],[139.75345383978777,35.62408375793622]],[[139.75939952645234,35.62771173842453],[139.76880725851652,35.62648537882285]]]}