{"type":"Topology","bbox":[139.70873903490127,35.623137423552976,139.78200357073533,35.68261779882671],"objects":{"town":{"type":"GeometryCollection","geometries":[{"type":"MultiPolygon","arcs":[[[1,2,3,24,20,32,30,31,25,26,27,33,34,35]]],"properties":{"name":"芝"}},{"type":"MultiPolygon","arcs":[[[93,94,95,96,97,98,99,100,101,102,6,7,8,9,10,11,12,13,14,15,234,235,236,-46,237,238,19,103],[17,233]]],"properties":{"name":"海岸"}},{"type":"MultiPolygon","arcs":[[[-296,-295,-294,-304,-303,39,40,36,37,-84,-83,-290,-289,-292,75,76,77]]],"properties":{"name":"新橋"}},{"type":"MultiPolygon","arcs":[[[307,-3,-167,42,43,44,45,-237]]],"properties":{"name":"浜松町"}},{"type":"MultiPolygon","arcs":[[[-2,-36,165,47,-41,48,-43,166]]],"properties":{"name":"芝大門"}},{"type":"MultiPolygon","arcs":[[[358,359,364,141,142,139,-231,363,-246,67,63,-250,-382,-302,-301,309,49,152,153]]],"properties":{"name":"赤坂"}},{"type":"MultiPolygon","arcs":[[[-112,-323,-209,299,300,301,297,334,-282,333,317,326,56,57,324,327,-113]]],"properties":{"name":"南青山"}},{"type":"MultiPolygon","arcs":[[[-118,104,105,106,124,125,84,85,86,87,88,-27,-26,-32,-31,60,61,62,310]]],"properties":{"name":"三田"}},{"type":"MultiPolygon","arcs":[[[69,70,113,114,115,116,-105,117,-311,-63,-133,-277,73,-276,323]]],"properties":{"name":"高輪"}},{"type":"MultiPolygon","arcs":[[[288,289,82,83,-38,78,79,80,286,-271,-270,290,-76,291]]],"properties":{"name":"西新橋"}},{"type":"MultiPolygon","arcs":[[[-188,196,197,198,-79,-37,-48,-166,-35,-34,-28,-89,260,261,-189]]],"properties":{"name":"芝公園"}},{"type":"MultiPolygon","arcs":[[[322,111,112,109,321,206,207,208]]],"properties":{"name":"北青山"}},{"type":"MultiPolygon","arcs":[[[353,167,173,174,175,376,377,320,-260,121,122,-106,-117,-116,354]]],"properties":{"name":"白金"}},{"type":"MultiPolygon","arcs":[[[130,131,132,-62,-61,-33,-21,-25,-4,-308,-236,348,-16,349,-14,350,-12,351,-10,352,-8,347,330,-102,331,-100,332,135,-98,136,137,138],[328,129,133]]],"properties":{"name":"芝浦"}},{"type":"MultiPolygon","arcs":[[[211,164,279,275,-74,276,-132,-131,143,-138,144,337,-96,338,-94,339],[150,277,159],[148,160,335],[146,336],[278,157],[162,209,340]]],"properties":{"name":"港南"}},{"type":"MultiPolygon","arcs":[[[172]],[[365]]],"properties":{"name":"台場"}},{"type":"MultiPolygon","arcs":[[[-205,-204,-369,-374,-372,180,181,182,177,-257,-242]]],"properties":{"name":"元麻布"}},{"type":"MultiPolygon","arcs":[[[190,191,192,184,185,186,187,188,-262,265,264,-253,194]]],"properties":{"name":"麻布台"}},{"type":"MultiPolygon","arcs":[[[-327,-318,-334,281,282,283,202,203,204,199,-241,378,-57]]],"properties":{"name":"西麻布"}},{"type":"MultiPolygon","arcs":[[[-182,-181,371,373,-368,374,-273,375,216,-85,212,218]]],"properties":{"name":"麻布十番"}},{"type":"MultiPolygon","arcs":[[[-233,-232,-143,285,268,269,270,266,223,224,-198,-197,-187,-229]]],"properties":{"name":"虎ノ門"}},{"type":"MultiPolygon","arcs":[[[-355,-115,-114,-71,343,346,227,-175,-174,-168,-354]]],"properties":{"name":"白金台"}},{"type":"MultiPolygon","arcs":[[[-375,367,368,-203,-284,-283,-335,-298,381,249,-64,-68,245,-364,230,-140,231,232,228,-186,-185,-193,-192,-274]]],"properties":{"name":"六本木"}},{"type":"MultiPolygon","arcs":[[[-125,-107,-123,-122,259,-321,-378,387,239,240,-200,241,256,-178,-183,-219,-213,-126]]],"properties":{"name":"南麻布"}},{"type":"Polygon","arcs":[[251,-195,252,253,254]],"properties":{"name":"麻布狸穴町"}},{"type":"Polygon","arcs":[[272,273,-191,-252,274]],"properties":{"name":"麻布永坂町"}},{"type":"MultiPolygon","arcs":[[[-49,-40,302,303,293,294,295,-78,296,-238,-45,-44]]],"properties":{"name":"東新橋"}},{"type":"Polygon","arcs":[[-136,-333,-99]],"properties":{"name":"‐"}},{"type":"MultiPolygon","arcs":[[[-153,-50,-310,-300,-208,361,366,-359,-154]]],"properties":{"name":"元赤坂"}},{"type":"MultiPolygon","arcs":[[[-80,-199,-225,-224,-267,-287,-81]]],"properties":{"name":"愛宕"}},{"type":"MultiPolygon","arcs":[[[-88,-87,-86,-217,-376,-275,-255,-254,-265,-266,-261]]],"properties":{"name":"東麻布"}}]}},"arcs":[[[139.7530685120286,35.649103203938],[139.7541675899739,35.65313042806645]],[[139.7541675899739,35.65313042806645],[139.75430680651363,35.65311258216927]],[[139.75430680651363,35.65311258216927],[139.756329109933,35.652916277300385]],[[139.756329109933,35.652916277300385],[139.75553044662607,35.6509413313467],[139.75367666849166,35.6489128477015]],[[139.75367666849166,35.6489128477015],[139.7530685120286,35.649103203938]],[[139.75721569947555,35.64645011389179],[139.75679072267002,35.64659288106916]],[[139.75679072267002,35.64659288106916],[139.7567101236207,35.64756845678122]],[[139.7567101236207,35.64756845678122],[139.75682003141523,35.647806402076846]],[[139.75682003141523,35.647806402076846],[139.75753076848653,35.6491626902619]],[[139.75753076848653,35.6491626902619],[139.75756740441804,35.64925191974776]],[[139.75756740441804,35.64925191974776],[139.75808763464548,35.650328622210466]],[[139.75808763464548,35.650328622210466],[139.7581462521359,35.65045949212306]],[[139.7581462521359,35.65045949212306],[139.75871777266747,35.651500502791414]],[[139.75871777266747,35.651500502791414],[139.75873975422635,35.651554040482935]],[[139.75873975422635,35.651554040482935],[139.75899620574694,35.65209536603048]],[[139.75899620574694,35.65209536603048],[139.75904016886474,35.65217864688395]],[[139.75904016886474,35.65217864688395],[139.7602638089772,35.65239279765001]],[[139.7602638089772,35.65239279765001],[139.76093058293068,35.65216080098678]],[[139.76093058293068,35.65216080098678],[139.7610038547937,35.652131057824825]],[[139.7610038547937,35.652131057824825],[139.7592819660127,35.6459980178301],[139.75721569947555,35.64645011389179]],[[139.75001307534063,35.64696169627738],[139.74928768389674,35.6466345214959]],[[139.74928768389674,35.6466345214959],[139.7491704489159,35.64998360153181]],[[139.7491704489159,35.64998360153181],[139.7491851032885,35.65007877965006]],[[139.7491851032885,35.65007877965006],[139.7530685120286,35.649103203938]],[[139.75367666849166,35.6489128477015],[139.75001307534063,35.64696169627738]],[[139.744854736184,35.650346468107635],[139.74497197116483,35.651893112529194]],[[139.74497197116483,35.651893112529194],[139.74522109549912,35.65465327795844]],[[139.74522109549912,35.65465327795844],[139.7473972698308,35.65323155481708],[139.74966869758444,35.6530947362721]],[[139.74966869758444,35.6530947362721],[139.7491851032885,35.65007877965006]],[[139.7491704489159,35.64998360153181],[139.744854736184,35.650346468107635]],[[139.7441439991127,35.643826767007525],[139.74463492059493,35.647895631562704]],[[139.74463492059493,35.647895631562704],[139.744854736184,35.650346468107635]],[[139.74928768389674,35.6466345214959],[139.7441439991127,35.643826767007525]],[[139.74966869758444,35.6530947362721],[139.74969800632965,35.65310663353688]],[[139.74969800632965,35.65310663353688],[139.75259224491896,35.65338027062685]],[[139.75259224491896,35.65338027062685],[139.7541675899739,35.65313042806645]],[[139.7527461158313,35.66055432128993],[139.75142722229694,35.66097072555727]],[[139.75142722229694,35.66097072555727],[139.75236510214359,35.662945671510954]],[[139.75236510214359,35.662945671510954],[139.75624118369737,35.66163697238502]],[[139.75624118369737,35.66163697238502],[139.75516408731096,35.66032827325908]],[[139.75516408731096,35.66032827325908],[139.7527461158313,35.66055432128993]],[[139.75728897133857,35.656592532117784],[139.75481970955477,35.656842374678185]],[[139.75481970955477,35.656842374678185],[139.75531795822332,35.66029853009713]],[[139.75531795822332,35.66029853009713],[139.7580656530866,35.65972746138763]],[[139.7580656530866,35.65972746138763],[139.75805099871397,35.659662026431334]],[[139.75805099871397,35.659662026431334],[139.75728897133857,35.656592532117784]],[[139.75481970955477,35.656842374678185],[139.75287800518473,35.6570208336499]],[[139.75287800518473,35.6570208336499],[139.7527461158313,35.66055432128993]],[[139.75516408731096,35.66032827325908],[139.75531795822332,35.66029853009713]],[[139.72767248430574,35.67389710374207],[139.73091110065124,35.67482509039501]],[[139.73091110065124,35.67482509039501],[139.7318416533116,35.67233261342334]],[[139.7318416533116,35.67233261342334],[139.7336368139556,35.67008997901208]],[[139.7336368139556,35.67008997901208],[139.73212741357736,35.668935944328304]],[[139.73212741357736,35.668935944328304],[139.73201750578284,35.66890620116635]],[[139.73201750578284,35.66890620116635],[139.7293430827826,35.67100011976785],[139.72767248430574,35.67389710374207]],[[139.71345774287977,35.658858961058606],[139.71907769477343,35.659388389341366]],[[139.71907769477343,35.659388389341366],[139.7182497227213,35.65707437134142]],[[139.7182497227213,35.65707437134142],[139.71790534496512,35.656408124513675],[139.71472534611004,35.657169549459674],[139.71345774287977,35.658858961058606]],[[139.74009206508768,35.64026948483794],[139.74038515253977,35.642006485496],[139.7426419259208,35.64536746279669],[139.74112519835626,35.64657503517199],[139.74210704132074,35.647877785665536]],[[139.74210704132074,35.647877785665536],[139.74463492059493,35.647895631562704]],[[139.7441439991127,35.643826767007525],[139.744151326299,35.64382081837513]],[[139.744151326299,35.64382081837513],[139.74140363143576,35.64000774501275]],[[139.74140363143576,35.64000774501275],[139.74009206508768,35.64026948483794]],[[139.73508759684339,35.66698479290418],[139.7336368139556,35.666925306580275]],[[139.7336368139556,35.666925306580275],[139.73212741357736,35.668935944328304]],[[139.7336368139556,35.67008997901208],[139.73635520007363,35.67221958940792]],[[139.73635520007363,35.67221958940792],[139.73826026851216,35.66929881090413],[139.7376228033039,35.66866825587073]],[[139.7376228033039,35.66866825587073],[139.73508759684339,35.66698479290418]],[[139.73774736547102,35.627783305450045],[139.73750556832306,35.6289492373986],[139.73236188353903,35.629561946534835],[139.73100635407314,35.630121117979556]],[[139.73100635407314,35.630121117979556],[139.72967280616618,35.631227563604206]],[[139.72967280616618,35.631227563604206],[139.73087446471973,35.63239349555277],[139.73135805901566,35.63582585644215]],[[139.73135805901566,35.63582585644215],[139.73305796623774,35.63565929473521]],[[139.73305796623774,35.63565929473521],[139.73848008410124,35.63394013997433]],[[139.73848008410124,35.63394013997433],[139.73828225007108,35.628271093306076],[139.73774736547102,35.627783305450045]],[[139.76049827893885,35.666699258549436],[139.7549442717219,35.668549283222916]],[[139.7549442717219,35.668549283222916],[139.75542786601784,35.6695724479941]],[[139.75542786601784,35.6695724479941],[139.76225680365135,35.66714540597873],[139.76257919984863,35.66653864547489]],[[139.76257919984863,35.66653864547489],[139.76049827893885,35.666699258549436]],[[139.75142722229694,35.66097072555727],[139.74933897420084,35.661654818282194]],[[139.74933897420084,35.661654818282194],[139.7495001722995,35.6637427882513]],[[139.7495001722995,35.6637427882513],[139.7498372228694,35.66564635061629]],[[139.7498372228694,35.66564635061629],[139.7531417838916,35.66459939131555]],[[139.7531417838916,35.66459939131555],[139.7531344567053,35.66458154541837]],[[139.7531344567053,35.66458154541837],[139.75236510214359,35.662945671510954]],[[139.7369120662326,35.6525891025189],[139.7376081489313,35.65533737068336]],[[139.7376081489313,35.65533737068336],[139.73889773372045,35.65550988102269]],[[139.73889773372045,35.65550988102269],[139.74172602763304,35.65498640137232]],[[139.74172602763304,35.65498640137232],[139.74522109549912,35.65465922659083]],[[139.74522109549912,35.65465922659083],[139.74522109549912,35.65465327795844]],[[139.74497197116483,35.651893112529194],[139.7369120662326,35.6525891025189]],[[139.75026952686122,35.65724093304836],[139.75036478028315,35.65783579628742]],[[139.75036478028315,35.65783579628742],[139.75142722229694,35.66097072555727]],[[139.75287800518473,35.6570208336499],[139.75026952686122,35.65724093304836]],[[139.75211597780932,35.63505848286376],[139.7520133972011,35.63509417465811]],[[139.7520133972011,35.63509417465811],[139.75157376602297,35.63523694183548]],[[139.75157376602297,35.63523694183548],[139.75116344359006,35.635385657645244]],[[139.75116344359006,35.635385657645244],[139.75186685347506,35.63804469632385]],[[139.75186685347506,35.63804469632385],[139.75195477971067,35.638211258030786]],[[139.75195477971067,35.638211258030786],[139.75432146088625,35.642857139927855]],[[139.75432146088625,35.642857139927855],[139.75438007837664,35.64299990710523]],[[139.75438007837664,35.64299990710523],[139.75546450194935,35.64507003117716]],[[139.75546450194935,35.64507003117716],[139.75552311943977,35.64520090108976]],[[139.75552311943977,35.64520090108976],[139.75679072267002,35.64659288106916]],[[139.75721569947555,35.64645011389179],[139.7603224264676,35.644986750323696],[139.76042500707584,35.636777637624654],[139.75551579225348,35.63905001519787],[139.75479772799588,35.638877504858534],[139.7530685120286,35.6354154008072],[139.75211597780932,35.63505848286376]],[[139.73632589132845,35.643921945125776],[139.7358642785914,35.64508787707434]],[[139.7358642785914,35.64508787707434],[139.73576169798318,35.64633114124398]],[[139.73576169798318,35.64633114124398],[139.73735169741073,35.64863326197914]],[[139.73735169741073,35.64863326197914],[139.74048040596168,35.64710446345475]],[[139.74048040596168,35.64710446345475],[139.7394033095753,35.645652997151444],[139.73632589132845,35.643921945125776]],[[139.71045359649594,35.6629813633053],[139.70873903490127,35.6641829870482],[139.7139340099894,35.669447526713896],[139.71506972386624,35.669655728847566]],[[139.71506972386624,35.669655728847566],[139.71594165903616,35.66911440330002]],[[139.71594165903616,35.66911440330002],[139.71252719021942,35.66517640865744]],[[139.71252719021942,35.66517640865744],[139.71045359649594,35.6629813633053]],[[139.73135805901566,35.63582585644215],[139.73133607745675,35.63583775370693]],[[139.73133607745675,35.63583775370693],[139.73277953315824,35.64043604654488]],[[139.73277953315824,35.64043604654488],[139.7340691179474,35.64287498582503]],[[139.7340691179474,35.64287498582503],[139.7358642785914,35.64508787707434]],[[139.73632589132845,35.643921945125776],[139.73784994607925,35.64093573166569]],[[139.73784994607925,35.64093573166569],[139.73486045406804,35.638859658961366],[139.73305796623774,35.63565929473521]],[[139.7340691179474,35.64287498582503],[139.73133607745675,35.6437196916245]],[[139.73133607745675,35.6437196916245],[139.73159985616363,35.64715205251388]],[[139.73159985616363,35.64715205251388],[139.73349027022954,35.6468843640563]],[[139.73349027022954,35.6468843640563],[139.73576169798318,35.64633114124398]],[[139.74210704132074,35.647877785665536],[139.74048040596168,35.64710446345475]],[[139.73735169741073,35.64863326197914],[139.7376667664217,35.65003713922333]],[[139.7376667664217,35.65003713922333],[139.7369120662326,35.6525891025189]],[[139.74815197001993,35.641471108580845],[139.744151326299,35.64382081837513]],[[139.75001307534063,35.64696169627738],[139.7513759319928,35.64483803451393]],[[139.7513759319928,35.64483803451393],[139.75122938826678,35.642767910442]],[[139.75122938826678,35.642767910442],[139.74924372077894,35.64125695781478],[139.74815197001993,35.641471108580845]],[[139.74470819245798,35.63762234342412],[139.74330137268797,35.63809823401537]],[[139.74330137268797,35.63809823401537],[139.74089072839462,35.63885371032897]],[[139.74089072839462,35.63885371032897],[139.74140363143576,35.64000774501275]],[[139.74815197001993,35.641471108580845],[139.7492363935926,35.641007115254375],[139.74924372077894,35.63907975835982],[139.75228450309427,35.64180423199472]],[[139.75228450309427,35.64180423199472],[139.75236510214359,35.64180423199472]],[[139.75236510214359,35.64180423199472],[139.75328832761764,35.641358084565425],[139.75195477971067,35.638211258030786]],[[139.75186685347506,35.63804469632385],[139.75080441146125,35.63658133275576],[139.74669385994582,35.636914456169634]],[[139.74669385994582,35.636914456169634],[139.74650335310196,35.6369977370231]],[[139.74650335310196,35.6369977370231],[139.74470819245798,35.63762234342412]],[[139.74289837744135,35.66684202572681],[139.74235616565502,35.665908090441484],[139.73968174265477,35.66781165280648]],[[139.73968174265477,35.66781165280648],[139.74315482896193,35.671315397284545]],[[139.74315482896193,35.671315397284545],[139.745946486943,35.67037551336683]],[[139.745946486943,35.67037551336683],[139.74399012820035,35.669072762873284],[139.74289837744135,35.66684202572681]],[[139.74470819245798,35.63762234342412],[139.74650335310196,35.6369977370231]],[[139.74669385994582,35.636914456169634],[139.74774897477332,35.63568308926478]],[[139.74774897477332,35.63568308926478],[139.74761708541988,35.63542729807198]],[[139.74761708541988,35.63542729807198],[139.74781491945004,35.63495735611313]],[[139.74781491945004,35.63495735611313],[139.7477196660281,35.63480269167097]],[[139.7477196660281,35.63480269167097],[139.746334827817,35.63184027274044]],[[139.746334827817,35.63184027274044],[139.74631284625812,35.631578532915256]],[[139.74631284625812,35.631578532915256],[139.74568270823613,35.629127696370325]],[[139.74568270823613,35.629127696370325],[139.74072220310967,35.62964522738831],[139.74209238694814,35.63209011530085],[139.74330137268797,35.63809823401537]],[[139.73091110065124,35.67482509039501],[139.73236188353903,35.675622207135355]],[[139.73236188353903,35.675622207135355],[139.73520483182423,35.67725213241038]],[[139.73520483182423,35.67725213241038],[139.73631123695583,35.67449196698114]],[[139.73631123695583,35.67449196698114],[139.7318416533116,35.67233261342334]],[[139.74615164815947,35.62469596523932],[139.74615164815947,35.624755451563225]],[[139.74615164815947,35.624755451563225],[139.74603441317862,35.628961134663385]],[[139.74603441317862,35.628961134663385],[139.74604906755124,35.629127696370325]],[[139.74604906755124,35.629127696370325],[139.74631284625812,35.631578532915256]],[[139.746334827817,35.63184027274044],[139.74670118713212,35.63182242684327]],[[139.74670118713212,35.63182242684327],[139.75218924967234,35.63113833411835]],[[139.75218924967234,35.63113833411835],[139.7530904935875,35.63005568302326]],[[139.7530904935875,35.63005568302326],[139.7530685120286,35.629793943198074]],[[139.7530685120286,35.629793943198074],[139.75225519434906,35.62985342952198],[139.75195477971067,35.62629019872],[139.74684040367185,35.62379177311594],[139.74615164815947,35.62469596523932]],[[139.75259224491896,35.65338027062685],[139.75287800518473,35.6570208336499]],[[139.75481970955477,35.656842374678185],[139.75430680651363,35.65311258216927]],[[139.7283026223277,35.640108871763395],[139.72443386796024,35.64106065294589]],[[139.72443386796024,35.64106065294589],[139.72619239267271,35.64439188708464]],[[139.72619239267271,35.64439188708464],[139.72770179305093,35.64399927734686]],[[139.72770179305093,35.64399927734686],[139.73064732194436,35.6437791779484]],[[139.73064732194436,35.6437791779484],[139.7283026223277,35.640108871763395]],[[139.76564196372289,35.633630811090015],[139.76564196372289,35.633630811090015]],[[139.72443386796024,35.64106065294589],[139.72228700237375,35.641512749007575]],[[139.72228700237375,35.641512749007575],[139.72083621948593,35.64329139009237]],[[139.72083621948593,35.64329139009237],[139.72270465199296,35.64471311323373]],[[139.72270465199296,35.64471311323373],[139.72619239267271,35.64439188708464]],[[139.73058870445394,35.65192285569115],[139.73056672289505,35.65191690705876]],[[139.73056672289505,35.65191690705876],[139.73227395730342,35.6551232199173]],[[139.73227395730342,35.6551232199173],[139.73278686034456,35.65620587101239]],[[139.73278686034456,35.65620587101239],[139.73419368011454,35.65533737068336],[139.73421566167346,35.65370744540834]],[[139.73421566167346,35.65370744540834],[139.7336881042597,35.652523667562605]],[[139.7336881042597,35.652523667562605],[139.73058870445394,35.65192285569115]],[[139.74061229531512,35.660108173860635],[139.7380551072957,35.6611432358966]],[[139.7380551072957,35.6611432358966],[139.73852404721904,35.66329069218961]],[[139.73852404721904,35.66329069218961],[139.7407881477864,35.662368654169065]],[[139.7407881477864,35.662368654169065],[139.74261994436188,35.66237460280146],[139.74251003656735,35.661095646837474],[139.7441146903675,35.661101595469866]],[[139.7441146903675,35.661101595469866],[139.74330137268797,35.65991186899174]],[[139.74330137268797,35.65991186899174],[139.7433160270606,35.65982263950588]],[[139.7433160270606,35.65982263950588],[139.74061229531512,35.660108173860635]],[[139.73897833276976,35.659828588138275],[139.73652372535858,35.65950141335679]],[[139.73652372535858,35.65950141335679],[139.73776201984364,35.66124436264724]],[[139.73776201984364,35.66124436264724],[139.7380551072957,35.6611432358966]],[[139.74061229531512,35.660108173860635],[139.74034851660826,35.659715564122855]],[[139.74034851660826,35.659715564122855],[139.73897833276976,35.659828588138275]],[[139.75036478028315,35.65783579628742],[139.7476463941651,35.65819271423086],[139.74330137268797,35.65991186899174]],[[139.7441146903675,35.661101595469866],[139.74488404492922,35.66208311981432]],[[139.74488404492922,35.66208311981432],[139.74862090994324,35.66176189366522]],[[139.74862090994324,35.66176189366522],[139.74933897420084,35.661654818282194]],[[139.7261630839275,35.65442128129521],[139.72348866092727,35.65580731264222]],[[139.72348866092727,35.65580731264222],[139.72343737062315,35.659667975063726]],[[139.72343737062315,35.659667975063726],[139.72815607860167,35.66120272222051]],[[139.72815607860167,35.66120272222051],[139.7275625765112,35.658561529439076]],[[139.7275625765112,35.658561529439076],[139.72633893639875,35.655480137860735]],[[139.72633893639875,35.655480137860735],[139.7261630839275,35.65442128129521]],[[139.72134912252707,35.67186267146448],[139.71950267157897,35.674997600734336]],[[139.71950267157897,35.674997600734336],[139.71900442291042,35.67859057469827],[139.7200668649242,35.678947492641704]],[[139.7200668649242,35.678947492641704],[139.7222064033244,35.67486673082174],[139.72403087271363,35.672772812220245]],[[139.72403087271363,35.672772812220245],[139.72134912252707,35.67186267146448]],[[139.7530904935875,35.63005568302326],[139.7531344567053,35.63112048822118]],[[139.7531344567053,35.63112048822118],[139.7531417838916,35.63130489582529]],[[139.7531417838916,35.63130489582529],[139.7541529356013,35.63125730676616],[139.7552446863603,35.633607016560454],[139.7592086941497,35.633630811090015],[139.75940652817985,35.62788443220069],[139.7574648238098,35.62779520271483],[139.75761869472214,35.62417248558894],[139.7534495257163,35.624083256103084],[139.7538671753355,35.62918718269423],[139.7530685120286,35.629793943198074]],[[139.7369120662326,35.6525891025189],[139.7366263059668,35.65258315388651]],[[139.7366263059668,35.65258315388651],[139.7368754303011,35.65375503446746]],[[139.7368754303011,35.65375503446746],[139.73708059151755,35.65545039469878]],[[139.73708059151755,35.65545039469878],[139.73709524589015,35.65544444606639]],[[139.73709524589015,35.65544444606639],[139.7376081489313,35.65533737068336]],[[139.73421566167346,35.65370744540834],[139.7368754303011,35.65375503446746]],[[139.7366263059668,35.65258315388651],[139.7336881042597,35.652523667562605]],[[139.74488404492922,35.66208311981432],[139.74589519663888,35.66383201773716]],[[139.74589519663888,35.66383201773716],[139.7451551508224,35.66667546401987]],[[139.7451551508224,35.66667546401987],[139.74750717762535,35.6668479743592]],[[139.74750717762535,35.6668479743592],[139.74832049530488,35.666550542739664]],[[139.74832049530488,35.666550542739664],[139.74799809910758,35.66406996303278]],[[139.74799809910758,35.66406996303278],[139.74686971241707,35.66286239065749],[139.74862090994324,35.66176189366522]],[[139.72228700237375,35.641512749007575],[139.72262405294362,35.63937718997935],[139.724016218341,35.63697989112593]],[[139.724016218341,35.63697989112593],[139.71951732595156,35.634695616287935]],[[139.71951732595156,35.634695616287935],[139.71789801777882,35.63597457225192],[139.7167696310883,35.63993636142406],[139.71942939971595,35.64114988243175],[139.72083621948593,35.64329139009237]],[[139.74228289379198,35.6639985794441],[139.7407881477864,35.662368654169065]],[[139.73852404721904,35.66329069218961],[139.73963045235067,35.667758115114964]],[[139.73963045235067,35.667758115114964],[139.73968174265477,35.66781165280648]],[[139.74289837744135,35.66684202572681],[139.74366773200308,35.66652079957771]],[[139.74366773200308,35.66652079957771],[139.74228289379198,35.6639985794441]],[[139.76093058293068,35.65216080098678],[139.7602638089772,35.65239279765001]],[[139.75904016886474,35.65217864688395],[139.7591574038456,35.652428489444354]],[[139.7591574038456,35.652428489444354],[139.7563364371193,35.652916277300385]],[[139.7563364371193,35.652916277300385],[139.75728897133857,35.656592532117784]],[[139.75805099871397,35.659662026431334],[139.75947980004287,35.65914449541335]],[[139.75947980004287,35.65914449541335],[139.7646674479447,35.656057155202625],[139.76250592798561,35.651875266632025],[139.7610038547937,35.652131057824825]],[[139.72229432956004,35.6507509751102],[139.72168617309697,35.6539215961744],[139.7229317947683,35.656039309305456]],[[139.7229317947683,35.656039309305456],[139.72348866092727,35.65580731264222]],[[139.7261630839275,35.65442128129521],[139.72919653905655,35.652244081840244]],[[139.72919653905655,35.652244081840244],[139.72772377460984,35.65135178698165]],[[139.72772377460984,35.65135178698165],[139.72375243963415,35.65141722193795],[139.72229432956004,35.6507509751102]],[[139.73648708942707,35.66541435395306],[139.73508759684339,35.66698479290418]],[[139.7376228033039,35.66866825587073],[139.73960114360546,35.66772837195301]],[[139.73960114360546,35.66772837195301],[139.73648708942707,35.66541435395306]],[[139.7322666301171,35.66325500039527],[139.7322226669993,35.663272846292436]],[[139.7322226669993,35.663272846292436],[139.73106497156357,35.66432575422558]],[[139.73106497156357,35.66432575422558],[139.7336368139556,35.666925306580275]],[[139.73648708942707,35.66541435395306],[139.7322666301171,35.66325500039527]],[[139.73881713467114,35.657960717567626],[139.73897833276976,35.659828588138275]],[[139.74034851660826,35.659715564122855],[139.7397769960767,35.65858532396864]],[[139.7397769960767,35.65858532396864],[139.73924943866294,35.65794882030284]],[[139.73924943866294,35.65794882030284],[139.73881713467114,35.657960717567626]],[[139.72802418924823,35.646420370729835],[139.7286470000839,35.64703307986607],[139.72772377460984,35.65135178698165]],[[139.72919653905655,35.652244081840244],[139.73056672289505,35.65191690705876]],[[139.73058870445394,35.65192285569115],[139.732603680687,35.649103203938]],[[139.732603680687,35.649103203938],[139.73349027022954,35.6468843640563]],[[139.73159985616363,35.64715205251388],[139.72802418924823,35.646420370729835]],[[139.74522109549912,35.65465922659083],[139.7451185148909,35.6563902786165],[139.74367505918937,35.65875188567557]],[[139.74367505918937,35.65875188567557],[139.7433160270606,35.65982263950588]],[[139.75026952686122,35.65724093304836],[139.74969800632965,35.65310663353688]],[[139.732603680687,35.649103203938],[139.73302133030623,35.649650478117934],[139.7376667664217,35.65003713922333]],[[139.74323542801125,35.658507991747555],[139.74214367725224,35.65747887834398],[139.7397769960767,35.65858532396864]],[[139.74367505918937,35.65875188567557],[139.74323542801125,35.658507991747555]],[[139.74996178503653,35.665973525397774],[139.74832049530488,35.666550542739664]],[[139.74750717762535,35.6668479743592],[139.7484304030994,35.6688764580044],[139.74753648637056,35.669536756199754]],[[139.74753648637056,35.669536756199754],[139.74941957325018,35.67094658207633],[139.75179358161202,35.670137568071205]],[[139.75179358161202,35.670137568071205],[139.75081906583387,35.66806744399927]],[[139.75081906583387,35.66806744399927],[139.74996178503653,35.665973525397774]],[[139.74228289379198,35.6639985794441],[139.74424657972094,35.66309438732072],[139.74589519663888,35.66383201773716]],[[139.73651639817228,35.657562159197454],[139.73647243505448,35.65755621056506]],[[139.73647243505448,35.65755621056506],[139.73652372535858,35.65950141335679]],[[139.73881713467114,35.657960717567626],[139.73651639817228,35.657562159197454]],[[139.7388098074848,35.624612684385845],[139.73774736547102,35.627783305450045]],[[139.73848008410124,35.63394013997433],[139.74089072839462,35.63885371032897]],[[139.74568270823613,35.629127696370325],[139.74604906755124,35.629127696370325]],[[139.74603441317862,35.628961134663385],[139.74547021983338,35.627093264092736],[139.74615164815947,35.624755451563225]],[[139.74615164815947,35.62469596523932],[139.74420994378943,35.623417009275336],[139.74346257078662,35.62515995856578],[139.7388098074848,35.624612684385845]],[[139.72343737062315,35.659667975063726],[139.7221551130203,35.66179758545957]],[[139.7221551130203,35.66179758545957],[139.7236425318396,35.66207717118193]],[[139.7236425318396,35.66207717118193],[139.7268371850673,35.66286833928988],[139.72870561757432,35.6614585134133]],[[139.72870561757432,35.6614585134133],[139.72815607860167,35.66120272222051]],[[139.7451551508224,35.66667546401987],[139.74366773200308,35.66652079957771]],[[139.745946486943,35.67037551336683],[139.74753648637056,35.669536756199754]],[[139.7498372228694,35.66564635061629],[139.74996178503653,35.665973525397774]],[[139.75081906583387,35.66806744399927],[139.7542262074643,35.66694315247745]],[[139.7542262074643,35.66694315247745],[139.75360339662865,35.66562255608673]],[[139.75360339662865,35.66562255608673],[139.7531417838916,35.66459939131555]],[[139.75179358161202,35.670137568071205],[139.75542786601784,35.6695724479941]],[[139.7549442717219,35.668549283222916],[139.7542262074643,35.66694315247745]],[[139.7580656530866,35.65972746138763],[139.75827081430305,35.664081860297564]],[[139.75827081430305,35.664081860297564],[139.75828546867564,35.66409970619473]],[[139.75828546867564,35.66409970619473],[139.7592526572675,35.66522994634895]],[[139.7592526572675,35.66522994634895],[139.76049827893885,35.666699258549436]],[[139.76257919984863,35.66653864547489],[139.76294555916374,35.663600021073925],[139.75947980004287,35.65914449541335]],[[139.7275992124427,35.666812282564855],[139.72452179419585,35.666235265222966]],[[139.72452179419585,35.666235265222966],[139.7236425318396,35.66989367414319],[139.72403087271363,35.672772812220245]],[[139.72403087271363,35.672772812220245],[139.72561354495485,35.67327249734106]],[[139.72561354495485,35.67327249734106],[139.7272255259413,35.66774621785018]],[[139.7272255259413,35.66774621785018],[139.7275992124427,35.666812282564855]],[[139.75624118369737,35.66163697238502],[139.7574648238098,35.663112233217895]],[[139.7574648238098,35.663112233217895],[139.75827081430305,35.664081860297564]],[[139.7146447470607,35.663826069104765],[139.71252719021942,35.66517640865744]],[[139.71594165903616,35.66911440330002],[139.7181617964857,35.667710526055835]],[[139.7181617964857,35.667710526055835],[139.7146447470607,35.663826069104765]],[[139.7563364371193,35.652916277300385],[139.756329109933,35.652916277300385]],[[139.73201750578284,35.66890620116635],[139.7272255259413,35.66774621785018]],[[139.72561354495485,35.67327249734106],[139.72767248430574,35.67389710374207]],[[139.74009206508768,35.64026948483794],[139.73784994607925,35.64093573166569]],[[139.7592526572675,35.66522994634895],[139.7542262074643,35.66694315247745]],[[139.7574648238098,35.663112233217895],[139.7531344567053,35.66458154541837]],[[139.75360339662865,35.66562255608673],[139.75828546867564,35.66409970619473]],[[139.71838893926105,35.66198794169607],[139.71621276492934,35.66282075023075]],[[139.71621276492934,35.66282075023075],[139.7146447470607,35.663826069104765]],[[139.7181617964857,35.667710526055835],[139.72060174952426,35.66587239864714],[139.7200229018064,35.6643733432847]],[[139.7200229018064,35.6643733432847],[139.71838893926105,35.66198794169607]],[[139.73133607745675,35.6437196916245],[139.73064732194436,35.6437791779484]],[[139.72770179305093,35.64399927734686],[139.72800220768931,35.64640847346505]],[[139.72800220768931,35.64640847346505],[139.72802418924823,35.646420370729835]],[[139.71506972386624,35.669655728847566],[139.71399262747983,35.67036361610205],[139.71484990827716,35.67294532255958],[139.71860875485012,35.67398633322793],[139.71950267157897,35.674997600734336]],[[139.72134912252707,35.67186267146448],[139.71667437766638,35.669953160467095],[139.71594165903616,35.66911440330002]],[[139.7388098074848,35.624612684385845],[139.73742496927375,35.623250447568395],[139.73527077650095,35.623137423552976],[139.73379068486793,35.625974921203294],[139.7308671375334,35.626670911193],[139.73100635407314,35.630121117979556]],[[139.71345774287977,35.658858961058606],[139.7139340099894,35.65978099907915]],[[139.7139340099894,35.65978099907915],[139.71621276492934,35.66282075023075]],[[139.71838893926105,35.66198794169607],[139.71756829439522,35.66054837265754],[139.71907769477343,35.659388389341366]],[[139.7139340099894,35.65978099907915],[139.71045359649594,35.6629813633053]],[[139.75228450309427,35.64180423199472],[139.75122938826678,35.642767910442]],[[139.7513759319928,35.64483803451393],[139.75406500936566,35.64599206919771]],[[139.75406500936566,35.64599206919771],[139.75583086126446,35.64659288106916],[139.75552311943977,35.64520090108976]],[[139.75546450194935,35.64507003117716],[139.75438007837664,35.64299990710523]],[[139.75432146088625,35.642857139927855],[139.75236510214359,35.64180423199472]],[[139.7221551130203,35.66179758545957],[139.7200229018064,35.6643733432847]],[[139.72452179419585,35.666235265222966],[139.7236425318396,35.66207717118193]],[[139.74670118713212,35.63182242684327],[139.7477196660281,35.63480269167097]],[[139.74781491945004,35.63495735611313],[139.74761708541988,35.63542729807198]],[[139.74774897477332,35.63568308926478],[139.75116344359006,35.635385657645244]],[[139.75157376602297,35.63523694183548],[139.7520133972011,35.63509417465811]],[[139.75211597780932,35.63505848286376],[139.75240906526142,35.631388176678755],[139.7531417838916,35.63130489582529]],[[139.7531344567053,35.63112048822118],[139.75218924967234,35.63113833411835]],[[139.7268005491358,35.63417808526995],[139.72776773772765,35.63374978373783],[139.72875690787842,35.63611733942929]],[[139.72875690787842,35.63611733942929],[139.73133607745675,35.63583775370693]],[[139.72967280616618,35.631227563604206],[139.72632428202616,35.632916975203145],[139.7268005491358,35.63417808526995]],[[139.724016218341,35.63697989112593],[139.72749663183447,35.63853248417988]],[[139.72749663183447,35.63853248417988],[139.72875690787842,35.63611733942929]],[[139.7268005491358,35.63417808526995],[139.72567216244528,35.635088226025715],[139.72207451397097,35.63581990780976],[139.71951732595156,35.634695616287935]],[[139.7567101236207,35.64756845678122],[139.75406500936566,35.64599206919771]],[[139.7591574038456,35.652428489444354],[139.75904016886474,35.65217864688395]],[[139.75899620574694,35.65209536603048],[139.75873975422635,35.651554040482935]],[[139.75871777266747,35.651500502791414],[139.7581462521359,35.65045949212306]],[[139.75808763464548,35.650328622210466],[139.75756740441804,35.64925191974776]],[[139.75753076848653,35.6491626902619],[139.75682003141523,35.647806402076846]],[[139.72841253012223,35.639044066565475],[139.7283026223277,35.640108871763395]],[[139.73277953315824,35.64043604654488],[139.73050077821833,35.64020999851403],[139.72841253012223,35.639044066565475]],[[139.72749663183447,35.63853248417988],[139.72841253012223,35.639044066565475]],[[139.73631123695583,35.67449196698114],[139.737212480871,35.67281445264698]],[[139.737212480871,35.67281445264698],[139.73635520007363,35.67221958940792]],[[139.73520483182423,35.67725213241038],[139.73707326433123,35.67798381419443]],[[139.73707326433123,35.67798381419443],[139.73889773372045,35.67383166878578]],[[139.73889773372045,35.67383166878578],[139.737212480871,35.67281445264698]],[[139.7200668649242,35.678947492641704],[139.72403819989992,35.6786976500813],[139.7265074616837,35.67986953066225],[139.7279582445715,35.68261779882671],[139.7315265843006,35.68155299362879],[139.73346096148433,35.679084311186685]],[[139.73346096148433,35.679084311186685],[139.73253040882398,35.678780930934764],[139.73236188353903,35.675622207135355]],[[139.73963045235067,35.667758115114964],[139.73960114360546,35.66772837195301]],[[139.73889773372045,35.67383166878578],[139.74315482896193,35.671315397284545]],[[139.77309371219206,35.625005294123625],[139.7711446806357,35.62355977645271],[139.76979647835614,35.625243239419255],[139.7796808526776,35.63062080310036],[139.78075794906397,35.63149525206179],[139.78200357073533,35.6299664535374],[139.77309371219206,35.625005294123625]],[[139.73346096148433,35.679084311186685],[139.7369047390463,35.67887016042062],[139.73707326433123,35.67798381419443]],[[139.7326256622459,35.657889333978936],[139.7322666301171,35.65756810782984]],[[139.7322666301171,35.65756810782984],[139.7275625765112,35.658561529439076]],[[139.72870561757432,35.6614585134133],[139.73228128448972,35.66314792501224]],[[139.73228128448972,35.66314792501224],[139.7328894409528,35.66125625991202],[139.7326256622459,35.657889333978936]],[[139.73278686034456,35.65620587101239],[139.73323381870898,35.65662227527974]],[[139.73323381870898,35.65662227527974],[139.73708059151755,35.65545039469878]],[[139.73323381870898,35.65662227527974],[139.7322666301171,35.65756810782984]],[[139.7326256622459,35.657889333978936],[139.73343165273914,35.65713980629772],[139.73647243505448,35.65755621056506]],[[139.73651639817228,35.657562159197454],[139.73709524589015,35.65544444606639]],[[139.72270465199296,35.64471311323373],[139.72390631054648,35.64675349414371]],[[139.72390631054648,35.64675349414371],[139.72800220768931,35.64640847346505]],[[139.7229317947683,35.656039309305456],[139.72204520522575,35.65572998042114],[139.7182497227213,35.65707437134142]],[[139.71907769477343,35.659388389341366],[139.72343737062315,35.659667975063726]],[[139.7322226669993,35.663272846292436],[139.73228128448972,35.66314792501224]],[[139.7275992124427,35.666812282564855],[139.73106497156357,35.66432575422558]],[[139.73227395730342,35.6551232199173],[139.73033958011968,35.655712134523974],[139.72633893639875,35.655480137860735]],[[139.73776201984364,35.66124436264724],[139.7322666301171,35.66325500039527]],[[139.74799809910758,35.66406996303278],[139.7495001722995,35.6637427882513]],[[139.73924943866294,35.65794882030284],[139.73889773372045,35.65550988102269]],[[139.74323542801125,35.658507991747555],[139.74172602763304,35.65498640137232]],[[139.72390631054648,35.64675349414371],[139.72308566568066,35.647413792339066],[139.72229432956004,35.6507509751102]]]}