{"type":"Topology","bbox":[139.58504256310317,35.66587876895456,139.66780966775892,35.73145268054705],"objects":{"town":{"type":"GeometryCollection","geometries":[{"type":"MultiPolygon","arcs":[[[3,0,1,12,13,14,15]]],"properties":{"name":"方南"}},{"type":"MultiPolygon","arcs":[[[22,-38,-130,-34,-109,-155,46,-13,-2,-1,6,25]]],"properties":{"name":"和泉"}},{"type":"MultiPolygon","arcs":[[[30,27,-18,-17,109,-36,110,11,214,215,216,-174,-69]]],"properties":{"name":"下高井戸"}},{"type":"MultiPolygon","arcs":[[[129,37,-23,38,35,-110,16,17,18,19,31,32,33]]],"properties":{"name":"永福"}},{"type":"MultiPolygon","arcs":[[[181,41,143,-117,-112,-93,43,44,39,-107,182]]],"properties":{"name":"松ノ木"}},{"type":"MultiPolygon","arcs":[[[49,-14,-47,154,-108,47,-45,-44,92,93,-72,-59]]],"properties":{"name":"堀ノ内"}},{"type":"MultiPolygon","arcs":[[[-129,-150,-83,255,90,-74,56,57,51,83,84,85,86,87]]],"properties":{"name":"高円寺南"}},{"type":"MultiPolygon","arcs":[[[91,61,-15,-50,58,71,72,-57,73,74]]],"properties":{"name":"和田"}},{"type":"MultiPolygon","arcs":[[[-28,-31,68,173,174,277,63,64,65,66,67,-184,-32,-20,-19]]],"properties":{"name":"浜田山"}},{"type":"MultiPolygon","arcs":[[[137,132,133,134,291,-141,-140,-200,-196,79,76,-154,288]]],"properties":{"name":"阿佐谷北"}},{"type":"MultiPolygon","arcs":[[[139,140,141,126,148,81,82,149,128,-88,-87,142]]],"properties":{"name":"高円寺北"}},{"type":"MultiPolygon","arcs":[[[190,191,226,227,228,96,97,98,163,164,165,161,193]]],"properties":{"name":"西荻南"}},{"type":"MultiPolygon","arcs":[[[-187,-186,200,201,209,147,144,100,101,102,103,145,-115,-114,-144,-42,-182]]],"properties":{"name":"成田東"}},{"type":"MultiPolygon","arcs":[[[183,-68,184,185,186,-183,106,-40,-48,107,108,-33]]],"properties":{"name":"大宮"}},{"type":"MultiPolygon","arcs":[[[113,114,115,-84,-52,-58,-73,-94,111,116]]],"properties":{"name":"梅里"}},{"type":"MultiPolygon","arcs":[[[-165,229,230,119,120,121,122,123,-188,340,-321,339,223,-166]]],"properties":{"name":"南荻窪"}},{"type":"MultiPolygon","arcs":[[[208,-173,156,157,152,153,-77,150,158,159,160,-208]]],"properties":{"name":"天沼"}},{"type":"MultiPolygon","arcs":[[[-289,-153,-158,-157,172,166,167,168,169,170,346,347,300,-133,-138]]],"properties":{"name":"本天沼"}},{"type":"MultiPolygon","arcs":[[[177,-160,178,-195,-102,-213,-212,-234,369,-322,-341,187,-124,-123,-122,-205]]],"properties":{"name":"荻窪"}},{"type":"MultiPolygon","arcs":[[[-85,-116,-146,-104,-103,194,-179,-159,-151,-80,195,199,-143,-86]]],"properties":{"name":"阿佐谷南"}},{"type":"MultiPolygon","arcs":[[[-279,-267,-266,206,207,-161,-178,204,-121,-120,-231,-254,-253,-252,271,272,273,274,-259,275]]],"properties":{"name":"上荻"}},{"type":"MultiPolygon","arcs":[[[232,233,211,212,-101,-145,-148,-210,-202,-201,-185,-67,-66,256]]],"properties":{"name":"成田西"}},{"type":"MultiPolygon","arcs":[[[-272,251,252,253,-230,-164,-99,-98,246,247,218,219,220,-325,-273]]],"properties":{"name":"西荻北"}},{"type":"MultiPolygon","arcs":[[[240,241,242,243,-317,298,237,238,239,235,-280,-261,-302,245]]],"properties":{"name":"今川"}},{"type":"MultiPolygon","arcs":[[[-246,301,260,279,-236,-240,268,269,270,265,266,278,-276,258,-275,302]]],"properties":{"name":"桃井"}},{"type":"MultiPolygon","arcs":[[[-309,282,-242,-241,-303,-274,324,-221,-220,262,280,330]]],"properties":{"name":"善福寺"}},{"type":"MultiPolygon","arcs":[[[-316,325,-305,-304,-338,-337,285,286,361,-134,-301,-348,-347,-171,-170,-329,327]]],"properties":{"name":"下井草"}},{"type":"MultiPolygon","arcs":[[[-286,336,337,303,304,-326,-315,-314,293,294,295,374,399,306,338]]],"properties":{"name":"井草"}},{"type":"MultiPolygon","arcs":[[[311,-238,-299,316,-244,-243,-283,308,309,317,-295,-294,313,314,315]]],"properties":{"name":"上井草"}},{"type":"MultiPolygon","arcs":[[[320,321,322,-388,-371,-356,-355,-391,-379,-394,-227,-192,-191,-194,-162,-224,-340]]],"properties":{"name":"宮前"}},{"type":"MultiPolygon","arcs":[[[-207,-271,-270,-269,-239,-312,-328,328,-169,-168,-167,-209]]],"properties":{"name":"清水"}},{"type":"MultiPolygon","arcs":[[[398,389,-380,390,354,355,356,357,351,335,331,364,365]]],"properties":{"name":"久我山"}},{"type":"MultiPolygon","arcs":[[[-64,-278,-175,-217,358,341,342,343,-383,-373,-372,387,-323,-370,-233,-257,-65]]],"properties":{"name":"高井戸東"}},{"type":"MultiPolygon","arcs":[[[376,392,350,-247,-97,-229,-228,393,378,379]]],"properties":{"name":"松庵"}},{"type":"MultiPolygon","arcs":[[[-385,391,-336,-352,-358,-357,370,371,372,382,-344,-343]]],"properties":{"name":"高井戸西"}},{"type":"MultiPolygon","arcs":[[[397,-365,-332,-392,384,-342,-359,-216,385,396,395]]],"properties":{"name":"上高井戸"}}]}},"arcs":[[[139.66070753996667,35.672613883186536],[139.65728063914383,35.679644109531885]],[[139.65728063914383,35.679644109531885],[139.65722269637632,35.680293356181316]],[[139.65722269637632,35.680293356181316],[139.6593500236987,35.68003103430276]],[[139.6593500236987,35.68003103430276],[139.6616594568619,35.68037861079185],[139.66480492138527,35.67890960827192],[139.6634060174262,35.67801771388483],[139.66401027771622,35.67656182745883],[139.66189122793205,35.6756764911187],[139.66180017501165,35.67368284484166],[139.66070753996667,35.672613883186536]],[[139.65709025576479,35.67159082786016],[139.65428417030842,35.67557812041424],[139.65276110327605,35.67702744879327]],[[139.65276110327605,35.67702744879327],[139.65555891119422,35.676791359102566],[139.65719786376164,35.67833250013909],[139.65728063914383,35.679644109531885]],[[139.66070753996667,35.672613883186536],[139.65709025576479,35.67159082786016]],[[139.62479957917094,35.6703644730779],[139.62560250037822,35.67034479893701]],[[139.62560250037822,35.67034479893701],[139.63083390453286,35.66970866838151]],[[139.63083390453286,35.66970866838151],[139.63388003859762,35.669072537826004]],[[139.63388003859762,35.669072537826004],[139.63785325694292,35.66766911577572],[139.64132982299506,35.667590419212154]],[[139.64132982299506,35.667590419212154],[139.64146226360657,35.666678850684164],[139.63930182613132,35.66587876895456],[139.63268807309402,35.66822654976765],[139.62486579947668,35.66924960509403],[139.62479957917094,35.6703644730779]],[[139.65722269637632,35.680293356181316],[139.65694126007685,35.683441218724006]],[[139.65694126007685,35.683441218724006],[139.65624594686642,35.68631364329422]],[[139.65624594686642,35.68631364329422],[139.65915964031964,35.68663498759545]],[[139.65915964031964,35.68663498759545],[139.66052543412584,35.68422818435968],[139.6593500236987,35.68219518980086],[139.6605916544316,35.68116557642752],[139.6593500236987,35.68003103430276]],[[139.6365205732896,35.6725483027169],[139.6364791855985,35.67248928029422]],[[139.6364791855985,35.67248928029422],[139.63518788963628,35.67457473922875]],[[139.63518788963628,35.67457473922875],[139.6334578841484,35.678004597790896],[139.63432702566146,35.67919816233834]],[[139.63432702566146,35.67919816233834],[139.63609841884042,35.680129405007214]],[[139.63609841884042,35.680129405007214],[139.64055173440244,35.67786032075769]],[[139.64055173440244,35.67786032075769],[139.6365205732896,35.6725483027169]],[[139.65017023381338,35.67031200870219],[139.64929281476213,35.672003984818886],[139.6462880683885,35.67412223398824]],[[139.6462880683885,35.67412223398824],[139.64848161601662,35.676181460734924],[139.64886238277472,35.67832594209213]],[[139.64886238277472,35.67832594209213],[139.65276110327605,35.67702744879327]],[[139.65709025576479,35.67159082786016],[139.65017023381338,35.67031200870219]],[[139.63083390453286,35.66970866838151],[139.63141333220824,35.672115471617275],[139.63075112915067,35.675886348621546]],[[139.63075112915067,35.675886348621546],[139.6335323819924,35.67601095151386],[139.63518788963628,35.67457473922875]],[[139.6364791855985,35.67248928029422],[139.63388003859762,35.669072537826004]],[[139.62560250037822,35.67034479893701],[139.62468369363586,35.67339429077524],[139.6267861883436,35.67536170486443]],[[139.6267861883436,35.67536170486443],[139.63075112915067,35.675886348621546]],[[139.63609841884042,35.680129405007214],[139.63615636160793,35.68016219524203]],[[139.63615636160793,35.68016219524203],[139.6433495423206,35.6819328679223]],[[139.6433495423206,35.6819328679223],[139.64411107583678,35.6771127034038],[139.64383791707556,35.676188018781886]],[[139.64383791707556,35.676188018781886],[139.64055173440244,35.67786032075769]],[[139.64159470421808,35.66762320944697],[139.64222379712277,35.67013494143416]],[[139.64222379712277,35.67013494143416],[139.6436475336965,35.67583388424583]],[[139.6436475336965,35.67583388424583],[139.6462880683885,35.67412223398824]],[[139.65017023381338,35.67031200870219],[139.6475296991214,35.66874463547781],[139.64159470421808,35.66762320944697]],[[139.6462052930063,35.689218858099245],[139.6445415078242,35.68904179083122]],[[139.6445415078242,35.68904179083122],[139.64388758230487,35.690018939828846],[139.64151192883588,35.6900451720167],[139.639591539969,35.689172951770495]],[[139.639591539969,35.689172951770495],[139.64200858112906,35.69251099767514]],[[139.64200858112906,35.69251099767514],[139.646420509,35.69239295282979]],[[139.646420509,35.69239295282979],[139.64613079516232,35.69171091594554]],[[139.64613079516232,35.69171091594554],[139.6462052930063,35.689218858099245]],[[139.64886238277472,35.67832594209213],[139.65091521225312,35.681873845499624],[139.6522727285211,35.682680485276194]],[[139.6522727285211,35.682680485276194],[139.65694126007685,35.683441218724006]],[[139.6481339594114,35.6886810982482],[139.6462052930063,35.689218858099245]],[[139.64613079516232,35.69171091594554],[139.6497977445935,35.69010419443938],[139.654946373366,35.690615722102564]],[[139.654946373366,35.690615722102564],[139.65624594686642,35.68631364329422]],[[139.65624594686642,35.68631364329422],[139.65429244784664,35.685146310934634],[139.65194990453054,35.68483152468036],[139.64934247999145,35.688228593007686],[139.6481339594114,35.6886810982482]],[[139.6481339594114,35.69789515423254],[139.64764558465646,35.697882038138616]],[[139.64764558465646,35.697882038138616],[139.64738898097167,35.70018391262296],[139.6483905630962,35.70298419867657]],[[139.6483905630962,35.70298419867657],[139.65497120598064,35.70171193756556]],[[139.65497120598064,35.70171193756556],[139.65497120598064,35.70170537951859]],[[139.65497120598064,35.70170537951859],[139.65484704290733,35.69809189564146]],[[139.65484704290733,35.69809189564146],[139.65483876536913,35.69807877954754]],[[139.65483876536913,35.69807877954754],[139.6481339594114,35.69789515423254]],[[139.654946373366,35.690615722102564],[139.65470632475763,35.691763380321255]],[[139.65470632475763,35.691763380321255],[139.6582822212684,35.69359963347116]],[[139.6582822212684,35.69359963347116],[139.65990461875938,35.69045177092847],[139.66088964580752,35.690130426627235],[139.66188295039382,35.68718586354042]],[[139.66188295039382,35.68718586354042],[139.65915964031964,35.68663498759545]],[[139.63508855917763,35.68071307118701],[139.62706762464305,35.68478561835162],[139.62441881241284,35.685762767349246]],[[139.62441881241284,35.685762767349246],[139.6244022573364,35.68578244149014]],[[139.6244022573364,35.68578244149014],[139.62498168501176,35.688189244725905]],[[139.62498168501176,35.688189244725905],[139.63002270578738,35.68622838868369]],[[139.63002270578738,35.68622838868369],[139.63589975792314,35.683670750367746]],[[139.63589975792314,35.683670750367746],[139.63508855917763,35.68071307118701]],[[139.6267861883436,35.67536170486443],[139.62677791080537,35.67536826291139]],[[139.62677791080537,35.67536826291139],[139.62872313228692,35.67877188928568],[139.62915356427433,35.681047531582166]],[[139.62915356427433,35.681047531582166],[139.63432702566146,35.67919816233834]],[[139.65470632475763,35.691763380321255],[139.6543586681524,35.694157067463095]],[[139.6543586681524,35.694157067463095],[139.65483876536913,35.69807877954754]],[[139.65484704290733,35.69809189564146],[139.661965725776,35.697501671414706]],[[139.661965725776,35.697501671414706],[139.6603764384379,35.69645238390048],[139.66096414365148,35.69482598825342]],[[139.66096414365148,35.69482598825342],[139.6582822212684,35.69359963347116]],[[139.62897973597174,35.70473519721594],[139.63066007623027,35.70773222467846]],[[139.63066007623027,35.70773222467846],[139.63236524910346,35.70746334475294],[139.63463329457556,35.70839458742182]],[[139.63463329457556,35.70839458742182],[139.6366944015922,35.70508277370503]],[[139.6366944015922,35.70508277370503],[139.62897973597174,35.70473519721594]],[[139.65490498567488,35.705515604804646],[139.65441661091992,35.70910285649393]],[[139.65441661091992,35.70910285649393],[139.65800078496892,35.70920778524535],[139.6581994458862,35.70560741746214]],[[139.6581994458862,35.70560741746214],[139.65490498567488,35.705515604804646]],[[139.64764558465646,35.697882038138616],[139.64388758230487,35.6978295737629]],[[139.64388758230487,35.6978295737629],[139.64371375400225,35.70166603123681]],[[139.64371375400225,35.70166603123681],[139.64489744196763,35.70522705073824]],[[139.64489744196763,35.70522705073824],[139.6449305521205,35.7052336087852]],[[139.6449305521205,35.7052336087852],[139.64934247999145,35.70546314042894]],[[139.64934247999145,35.70546314042894],[139.6483905630962,35.70298419867657]],[[139.65497120598064,35.70170537951859],[139.65819116834797,35.70111515529184],[139.6614525184064,35.70117417771451]],[[139.6614525184064,35.70117417771451],[139.66239615776342,35.69868867791518],[139.661965725776,35.697501671414706]],[[139.66096414365148,35.69482598825342],[139.66492080692035,35.69537686419839],[139.66751995392124,35.69186175102571],[139.66636109857052,35.69041242264668],[139.66188295039382,35.68718586354042]],[[139.646420509,35.69239295282979],[139.64637084377068,35.69388162949061],[139.64800979633813,35.69501617161537]],[[139.64800979633813,35.69501617161537],[139.64842367324908,35.694307902543265],[139.65165191315467,35.69531128372875],[139.6543586681524,35.694157067463095]],[[139.60325314718585,35.700387212078844],[139.60217706721733,35.70112171333881]],[[139.60217706721733,35.70112171333881],[139.59980141374837,35.70287926992514]],[[139.59980141374837,35.70287926992514],[139.5981210734898,35.703882651110625]],[[139.5981210734898,35.703882651110625],[139.60059605741742,35.703954789627225]],[[139.60059605741742,35.703954789627225],[139.60501626282658,35.704066276425614]],[[139.60501626282658,35.704066276425614],[139.60325314718585,35.700387212078844]],[[139.63200103742182,35.69769841282363],[139.6290128461246,35.69590806600247]],[[139.6290128461246,35.69590806600247],[139.6281519821498,35.699580572302274],[139.62840030829636,35.702741550938896]],[[139.62840030829636,35.702741550938896],[139.6356183216237,35.69949531769175]],[[139.6356183216237,35.69949531769175],[139.63561004408547,35.69946908550389]],[[139.63561004408547,35.69946908550389],[139.63200103742182,35.69769841282363]],[[139.6433495423206,35.6819328679223],[139.64256317618975,35.684995475854464]],[[139.64256317618975,35.684995475854464],[139.6441607410661,35.684844640774294],[139.6445415078242,35.68904179083122]],[[139.6481339594114,35.6886810982482],[139.64550997979586,35.68470692178805],[139.64752142158318,35.68398553662202],[139.6473227606659,35.682837878403326]],[[139.6473227606659,35.682837878403326],[139.6433495423206,35.6819328679223]],[[139.6365205732896,35.6725483027169],[139.63874723107062,35.67090879097591],[139.64222379712277,35.67013494143416]],[[139.64159470421808,35.66762320944697],[139.64132982299506,35.667590419212154]],[[139.64800979633813,35.69501617161537],[139.64807601664387,35.69680651843653]],[[139.64807601664387,35.69680651843653],[139.6481339594114,35.69789515423254]],[[139.64149537375945,35.6944652956704],[139.64054345686424,35.69623596835066]],[[139.64054345686424,35.69623596835066],[139.63919421813446,35.698223056580744]],[[139.63919421813446,35.698223056580744],[139.64388758230487,35.6978295737629]],[[139.64807601664387,35.69680651843653],[139.64149537375945,35.6944652956704]],[[139.61445265639668,35.698144360017174],[139.61346762934858,35.70021014481082]],[[139.61346762934858,35.70021014481082],[139.61336002135172,35.70432859830417]],[[139.61336002135172,35.70432859830417],[139.61609988650235,35.70442041096167]],[[139.61609988650235,35.70442041096167],[139.61611644157878,35.70439417877381]],[[139.61611644157878,35.70439417877381],[139.61725046431485,35.6999215907444]],[[139.61725046431485,35.6999215907444],[139.61742429261744,35.69883951299535]],[[139.61742429261744,35.69883951299535],[139.61742429261744,35.69881328080749]],[[139.61742429261744,35.69881328080749],[139.61445265639668,35.698144360017174]],[[139.6449305521205,35.7052336087852],[139.64601490962724,35.710801390657586]],[[139.64601490962724,35.710801390657586],[139.64995501781968,35.709686522673714]],[[139.64995501781968,35.709686522673714],[139.64939214522076,35.70546314042894]],[[139.64939214522076,35.70546314042894],[139.64934247999145,35.70546314042894]],[[139.64383791707556,35.676188018781886],[139.6436475336965,35.67583388424583]],[[139.64280322479812,35.71169984309165],[139.63917766305804,35.71276880474677]],[[139.63917766305804,35.71276880474677],[139.63486506564573,35.71415255265617]],[[139.63486506564573,35.71415255265617],[139.63487334318393,35.71416566875009]],[[139.63487334318393,35.71416566875009],[139.63601564345822,35.71669707487818]],[[139.63601564345822,35.71669707487818],[139.6416029817563,35.71486082172827],[139.6414208759155,35.71276880474677],[139.64280322479812,35.71169984309165]],[[139.63839129692718,35.710080005491555],[139.63641296529275,35.71042102393368],[139.63440980104366,35.709660290485864]],[[139.63440980104366,35.709660290485864],[139.63402075674733,35.7126901081832]],[[139.63402075674733,35.7126901081832],[139.63486506564573,35.71415255265617]],[[139.63917766305804,35.71276880474677],[139.63839129692718,35.710080005491555]],[[139.64256317618975,35.70518114440949],[139.64189269559398,35.706355034816035]],[[139.64189269559398,35.706355034816035],[139.6435233706232,35.711483427541836]],[[139.6435233706232,35.711483427541836],[139.64601490962724,35.710801390657586]],[[139.64489744196763,35.70522705073824],[139.64256317618975,35.70518114440949]],[[139.64200858112906,35.69251099767514],[139.64149537375945,35.6944652956704]],[[139.63243974694743,35.69537686419839],[139.63200103742182,35.69769841282363]],[[139.63561004408547,35.69946908550389],[139.63919421813446,35.698223056580744]],[[139.64054345686424,35.69623596835066],[139.63375587552432,35.69425543816755]],[[139.63375587552432,35.69425543816755],[139.63243974694743,35.69537686419839]],[[139.64995501781968,35.709686522673714],[139.65129597901122,35.70896513750768],[139.65441661091992,35.70910285649393]],[[139.65490498567488,35.705515604804646],[139.64939214522076,35.70546314042894]],[[139.62897973597174,35.70473519721594],[139.62643025420016,35.7046696167463]],[[139.62643025420016,35.7046696167463],[139.62591704683055,35.70587629738767],[139.62719178771633,35.70846672593842],[139.6269269064933,35.71166049480986]],[[139.6269269064933,35.71166049480986],[139.62911217658325,35.711785097702176]],[[139.62911217658325,35.711785097702176],[139.63066007623027,35.70773222467846]],[[139.6522727285211,35.682680485276194],[139.6473227606659,35.682837878403326]],[[139.622688806925,35.7052336087852],[139.62313579398884,35.70766008616186],[139.62267225184854,35.711030922301326]],[[139.62267225184854,35.711030922301326],[139.6228212475365,35.711063712536145]],[[139.6228212475365,35.711063712536145],[139.6269269064933,35.71166049480986]],[[139.62643025420016,35.7046696167463],[139.62450158779504,35.70461715237059]],[[139.62450158779504,35.70461715237059],[139.62443536748927,35.70463682651148]],[[139.62443536748927,35.70463682651148],[139.622688806925,35.7052336087852]],[[139.6058771268014,35.698491936506265],[139.6051487034381,35.699016580263375]],[[139.6051487034381,35.699016580263375],[139.60325314718585,35.700387212078844]],[[139.60501626282658,35.704066276425614],[139.60867493471955,35.70417120517704]],[[139.60867493471955,35.70417120517704],[139.60722636553115,35.701292222559864]],[[139.60722636553115,35.701292222559864],[139.6058771268014,35.698491936506265]],[[139.6211160746633,35.71060464924867],[139.61941917932833,35.71230318341233]],[[139.61941917932833,35.71230318341233],[139.62126507035126,35.71526742064003]],[[139.62126507035126,35.71526742064003],[139.6211160746633,35.71835626076005]],[[139.6211160746633,35.71835626076005],[139.62219215463182,35.71806770669364]],[[139.62219215463182,35.71806770669364],[139.62463402840655,35.71731353129279]],[[139.62463402840655,35.71731353129279],[139.6228212475365,35.711063712536145]],[[139.62267225184854,35.711030922301326],[139.6211160746633,35.71060464924867]],[[139.62677791080537,35.67536826291139],[139.62335928752077,35.677584882785204]],[[139.62335928752077,35.677584882785204],[139.6255114474578,35.68003759234972],[139.62543694961383,35.68209026104944]],[[139.62543694961383,35.68209026104944],[139.62915356427433,35.681047531582166]],[[139.61725046431485,35.6999215907444],[139.6211574623544,35.70244643882552],[139.62240737062552,35.70457780408881]],[[139.62240737062552,35.70457780408881],[139.62443536748927,35.70463682651148]],[[139.62450158779504,35.70461715237059],[139.6270427920284,35.70352195852761]],[[139.6270427920284,35.70352195852761],[139.62551972499602,35.703731816030455],[139.62264741923389,35.700426560360626]],[[139.62264741923389,35.700426560360626],[139.62195210602346,35.69939038894032],[139.61742429261744,35.69883951299535]],[[139.63991436395955,35.68610378579137],[139.639591539969,35.689172951770495]],[[139.64256317618975,35.684995475854464],[139.64072556270506,35.68498235976053],[139.63991436395955,35.68610378579137]],[[139.63615636160793,35.68016219524203],[139.63508855917763,35.68071307118701]],[[139.63589975792314,35.683670750367746],[139.63708344588852,35.682916574966896],[139.63764631848744,35.68580867367799]],[[139.63764631848744,35.68580867367799],[139.6374559351084,35.68672024220598]],[[139.6374559351084,35.68672024220598],[139.63991436395955,35.68610378579137]],[[139.6173994600028,35.694504643952186],[139.6178795572195,35.696216294209776],[139.61742429261744,35.69881328080749]],[[139.62264741923389,35.700426560360626],[139.6239304376579,35.69988224246262],[139.6234255078265,35.69533095786964]],[[139.6234255078265,35.69533095786964],[139.6173994600028,35.694504643952186]],[[139.60360908132927,35.695101426225904],[139.60346836317956,35.69516700669554]],[[139.60346836317956,35.69516700669554],[139.60026495588863,35.696852424765275]],[[139.60026495588863,35.696852424765275],[139.60217706721733,35.70112171333881]],[[139.6051487034381,35.699016580263375],[139.60360908132927,35.695101426225904]],[[139.62840030829636,35.702741550938896],[139.6270427920284,35.70352195852761]],[[139.6366944015922,35.70508277370503],[139.63672751174508,35.70505654151717]],[[139.63672751174508,35.70505654151717],[139.63675234435973,35.704230227599716]],[[139.63675234435973,35.704230227599716],[139.6356183216237,35.69949531769175]],[[139.64371375400225,35.70166603123681],[139.64106494177204,35.70211853647732],[139.63675234435973,35.704230227599716]],[[139.63672751174508,35.70505654151717],[139.64256317618975,35.70518114440949]],[[139.63764631848744,35.68580867367799],[139.63478229026353,35.686143134073156],[139.63243146940923,35.687887574565565],[139.63344132907199,35.69184863493179]],[[139.63344132907199,35.69184863493179],[139.6334496066102,35.69184863493179]],[[139.6334496066102,35.69184863493179],[139.63725727419111,35.69216997923302]],[[139.63725727419111,35.69216997923302],[139.63648746313672,35.68965824724583],[139.6374559351084,35.68672024220598]],[[139.62240737062552,35.70457780408881],[139.61611644157878,35.70439417877381]],[[139.61609988650235,35.70442041096167],[139.61509002683957,35.70816505577808]],[[139.61509002683957,35.70816505577808],[139.6156115117474,35.70784371147685]],[[139.6156115117474,35.70784371147685],[139.61948539963407,35.70575169449535],[139.622688806925,35.7052336087852]],[[139.6156115117474,35.70784371147685],[139.6211160746633,35.71060464924867]],[[139.6334496066102,35.69184863493179],[139.63375587552432,35.69425543816755]],[[139.64149537375945,35.6944652956704],[139.63725727419111,35.69216997923302]],[[139.62475819147983,35.69288480635209],[139.62620676066823,35.69268806494317],[139.6286734670576,35.695291609587855]],[[139.6286734670576,35.695291609587855],[139.6290128461246,35.69590806600247]],[[139.63243974694743,35.69537686419839],[139.62979093471722,35.693173360418506],[139.6265792498881,35.69138957164431],[139.62475819147983,35.69288480635209]],[[139.62479957917094,35.6703644730779],[139.62318545921815,35.6714924571557]],[[139.62318545921815,35.6714924571557],[139.62035454114712,35.67449604266519],[139.61806166306033,35.67594537104422]],[[139.61806166306033,35.67594537104422],[139.61869903350325,35.676555269411864],[139.62335928752077,35.677584882785204]],[[139.6286734670576,35.695291609587855],[139.62718351017813,35.69569165045266],[139.6234255078265,35.69533095786964]],[[139.59549709387426,35.705672997931785],[139.59080372970388,35.70914220477571]],[[139.59080372970388,35.70914220477571],[139.5954722612596,35.70944387493605]],[[139.5954722612596,35.70944387493605],[139.59745059289403,35.71006033135066]],[[139.59745059289403,35.71006033135066],[139.59864255839764,35.70835523914003]],[[139.59864255839764,35.70835523914003],[139.59647384338416,35.70501063518842],[139.59549709387426,35.705672997931785]],[[139.61066982143043,35.69642615171262],[139.6058771268014,35.698491936506265]],[[139.60722636553115,35.701292222559864],[139.61346762934858,35.70021014481082]],[[139.61445265639668,35.698144360017174],[139.61066982143043,35.69642615171262]],[[139.60026495588863,35.696852424765275],[139.59842734240394,35.697882038138616]],[[139.59842734240394,35.697882038138616],[139.59764097627308,35.69835421752002]],[[139.59764097627308,35.69835421752002],[139.59980141374837,35.70287926992514]],[[139.60867493471955,35.70417120517704],[139.61088503742414,35.704230227599716]],[[139.61088503742414,35.704230227599716],[139.61336002135172,35.70432859830417]],[[139.6308090719182,35.69096985663862],[139.62558594530176,35.69081902155845],[139.6214140660392,35.690097636392416]],[[139.6214140660392,35.690097636392416],[139.6213230131188,35.690169774909016]],[[139.6213230131188,35.690169774909016],[139.62475819147983,35.69288480635209]],[[139.63344132907199,35.69184863493179],[139.6308090719182,35.69096985663862]],[[139.61106714326496,35.71486082172827],[139.61105886572673,35.71486082172827]],[[139.61105886572673,35.71486082172827],[139.61086020480948,35.7191104361609]],[[139.61086020480948,35.7191104361609],[139.61408844471504,35.71909732006698]],[[139.61408844471504,35.71909732006698],[139.61441954624382,35.71507067923112]],[[139.61441954624382,35.71507067923112],[139.61106714326496,35.71486082172827]],[[139.59885777439135,35.71446733891043],[139.59672216953075,35.71705776746119]],[[139.59672216953075,35.71705776746119],[139.59668078183964,35.717077441602086]],[[139.59668078183964,35.717077441602086],[139.60018218050644,35.7178381750499]],[[139.60018218050644,35.7178381750499],[139.6020032389147,35.718244773961665]],[[139.6020032389147,35.718244773961665],[139.60234261798172,35.71463129008453]],[[139.60234261798172,35.71463129008453],[139.59885777439135,35.71446733891043]],[[139.5981210734898,35.703882651110625],[139.59442929144396,35.70373837407742]],[[139.59442929144396,35.70373837407742],[139.59549709387426,35.705672997931785]],[[139.59864255839764,35.70835523914003],[139.60021529065932,35.70752236717561],[139.601862520765,35.70804701093273]],[[139.601862520765,35.70804701093273],[139.60059605741742,35.703954789627225]],[[139.60501626282658,35.704066276425614],[139.6067793784673,35.708591328830735]],[[139.6067793784673,35.708591328830735],[139.60678765600554,35.708591328830735]],[[139.60678765600554,35.708591328830735],[139.60762368736567,35.706315686534246],[139.60990828791424,35.705174586362524]],[[139.60990828791424,35.705174586362524],[139.61088503742414,35.704230227599716]],[[139.65497120598064,35.70171193756556],[139.65490498567488,35.705515604804646]],[[139.6581994458862,35.70560741746214],[139.66098897626614,35.70480077768558],[139.6614525184064,35.70117417771451]],[[139.62498168501176,35.688189244725905],[139.6214140660392,35.690097636392416]],[[139.6308090719182,35.69096985663862],[139.63002270578738,35.68622838868369]],[[139.60778923813007,35.71118831542846],[139.60431267207792,35.71170640113861]],[[139.60431267207792,35.71170640113861],[139.60474310406534,35.71465096422542]],[[139.60474310406534,35.71465096422542],[139.608012731662,35.71466408031935]],[[139.608012731662,35.71466408031935],[139.60778923813007,35.71118831542846]],[[139.59080372970388,35.70914220477571],[139.5867146258235,35.71173919137343],[139.5870208947376,35.71263108576053]],[[139.5870208947376,35.71263108576053],[139.59384158623038,35.716231453543735]],[[139.59384158623038,35.716231453543735],[139.5954722612596,35.70944387493605]],[[139.61509002683957,35.70816505577808],[139.61143963248483,35.710047215256736]],[[139.61143963248483,35.710047215256736],[139.61132374694975,35.71009967963244]],[[139.61132374694975,35.71009967963244],[139.61106714326496,35.71486082172827]],[[139.61441954624382,35.71507067923112],[139.61443610132025,35.71506412118415]],[[139.61443610132025,35.71506412118415],[139.61470098254327,35.71234908974108]],[[139.61470098254327,35.71234908974108],[139.61509002683957,35.70816505577808]],[[139.6067793784673,35.708591328830735],[139.6033193674916,35.70865035125341],[139.601862520765,35.70807324312059]],[[139.601862520765,35.70807324312059],[139.6016473047713,35.711483427541836]],[[139.6016473047713,35.711483427541836],[139.6018707983032,35.71230318341233]],[[139.6018707983032,35.71230318341233],[139.60431267207792,35.71170640113861]],[[139.60778923813007,35.71118831542846],[139.60780579320652,35.711181757381496]],[[139.60780579320652,35.711181757381496],[139.60678765600554,35.708591328830735]],[[139.62543694961383,35.68209026104944],[139.62584254898658,35.68309364223492],[139.62441881241284,35.685762767349246]],[[139.61132374694975,35.71009967963244],[139.60780579320652,35.711181757381496]],[[139.608012731662,35.71466408031935],[139.61105886572673,35.71486082172827]],[[139.5870208947376,35.71263108576053],[139.58539849724662,35.71594945752428]],[[139.58539849724662,35.71594945752428],[139.590091861417,35.71778571067419],[139.59419752037383,35.717831617002936]],[[139.59419752037383,35.717831617002936],[139.59668078183964,35.717077441602086]],[[139.59672216953075,35.71705776746119],[139.59384158623038,35.716231453543735]],[[139.62697657172262,35.71681511972353],[139.6255114474578,35.722317321126276],[139.62388077242858,35.72405520357172]],[[139.62388077242858,35.72405520357172],[139.6275228892451,35.72361581442514]],[[139.6275228892451,35.72361581442514],[139.62950122087955,35.72038925531888],[139.63163682574015,35.719726892575515],[139.63136366697893,35.71810705497542]],[[139.63136366697893,35.71810705497542],[139.62697657172262,35.71681511972353]],[[139.62911217658325,35.711785097702176],[139.63402075674733,35.7126901081832]],[[139.63440980104366,35.709660290485864],[139.63463329457556,35.70839458742182]],[[139.64189269559398,35.706355034816035],[139.6398895313449,35.70734529990759],[139.63839129692718,35.710080005491555]],[[139.64280322479812,35.71169984309165],[139.6435233706232,35.711483427541836]],[[139.61143963248483,35.710047215256736],[139.60990828791424,35.705174586362524]],[[139.60988345529958,35.72496021405274],[139.60386568501409,35.72525532616612]],[[139.60386568501409,35.72525532616612],[139.60192874107074,35.72541927734022]],[[139.60192874107074,35.72541927734022],[139.60179630045923,35.725773411876276],[139.60870804487243,35.72818021511204]],[[139.60870804487243,35.72818021511204],[139.60988345529958,35.72496021405274]],[[139.608012731662,35.71466408031935],[139.6059599021836,35.71910387811394]],[[139.6059599021836,35.71910387811394],[139.61086020480948,35.7191104361609]],[[139.62911217658325,35.711785097702176],[139.62817681476446,35.71335902897353],[139.62955088610886,35.71568713564572]],[[139.62955088610886,35.71568713564572],[139.63487334318393,35.71416566875009]],[[139.60234261798172,35.71463129008453],[139.60474310406534,35.71465096422542]],[[139.6018707983032,35.71230318341233],[139.59885777439135,35.71446733891043]],[[139.62150511895962,35.7243503156851],[139.61720907662374,35.72461919561062]],[[139.61720907662374,35.72461919561062],[139.61711802370334,35.724625753657584]],[[139.61711802370334,35.724625753657584],[139.6176560636876,35.728960622700754],[139.61700213816826,35.730029584355876]],[[139.61700213816826,35.730029584355876],[139.6202303780738,35.73145268054705],[139.6198744439304,35.73019353552997],[139.62186933064126,35.73042306717371]],[[139.62186933064126,35.73042306717371],[139.62150511895962,35.7243503156851]],[[139.59419752037383,35.717831617002936],[139.59392436161258,35.71802835841186]],[[139.59392436161258,35.71802835841186],[139.59581991786482,35.72156314572542],[139.59824523656312,35.72319609941945]],[[139.59824523656312,35.72319609941945],[139.60018218050644,35.7178381750499]],[[139.61408844471504,35.7191104361609],[139.61408844471504,35.71909732006698]],[[139.61086020480948,35.7191104361609],[139.60988345529958,35.72496021405274]],[[139.60988345529958,35.72496021405274],[139.61357523734543,35.724822495066505]],[[139.61357523734543,35.724822495066505],[139.61434504839983,35.724815937019535]],[[139.61434504839983,35.724815937019535],[139.61408844471504,35.7191104361609]],[[139.6059599021836,35.71910387811394],[139.6020032389147,35.718244773961665]],[[139.59824523656312,35.72319609941945],[139.60192874107074,35.72541927734022]],[[139.60386568501409,35.72525532616612],[139.6059599021836,35.71910387811394]],[[139.60948613346505,35.69234048845408],[139.61174590139893,35.695993320613]],[[139.61174590139893,35.695993320613],[139.61693591786252,35.69276020345978]],[[139.61693591786252,35.69276020345978],[139.61693591786252,35.69274052931888]],[[139.61693591786252,35.69274052931888],[139.6165468735662,35.6901173105333]],[[139.6165468735662,35.6901173105333],[139.6139891142564,35.690550141632926],[139.60948613346505,35.69234048845408]],[[139.6016473047713,35.711483427541836],[139.59745059289403,35.71006033135066]],[[139.61434504839983,35.724815937019535],[139.61711802370334,35.724625753657584]],[[139.61720907662374,35.72461919561062],[139.61690280770964,35.719241597100186]],[[139.61690280770964,35.719241597100186],[139.61408844471504,35.7191104361609]],[[139.61690280770964,35.719241597100186],[139.6211160746633,35.71835626076005]],[[139.62126507035126,35.71526742064003],[139.61443610132025,35.71506412118415]],[[139.58539849724662,35.71594945752428],[139.58515017110003,35.717897197472574],[139.5860772553806,35.719123552254835],[139.5902160244903,35.72027776852049],[139.59392436161258,35.71802835841186]],[[139.60652277478252,35.68042451712059],[139.60412228869887,35.680824557985396]],[[139.60412228869887,35.680824557985396],[139.5981127959516,35.683965862481124]],[[139.5981127959516,35.683965862481124],[139.59985107897768,35.6878810165186]],[[139.59985107897768,35.6878810165186],[139.60168041492415,35.68684484509829],[139.60794651135623,35.6845888769427]],[[139.60794651135623,35.6845888769427],[139.60670488062334,35.68288378473207],[139.60652277478252,35.68042451712059]],[[139.62388077242858,35.72405520357172],[139.6215382291125,35.72434375763813]],[[139.6215382291125,35.72434375763813],[139.62150511895962,35.7243503156851]],[[139.62186933064126,35.73042306717371],[139.62425326164845,35.729531172786615],[139.6275228892451,35.72361581442514]],[[139.61174590139893,35.695993320613],[139.61066982143043,35.69642615171262]],[[139.6173994600028,35.694504643952186],[139.61693591786252,35.69276020345978]],[[139.61745740277033,35.67623392511063],[139.61444437885848,35.677584882785204]],[[139.61444437885848,35.677584882785204],[139.61466787239038,35.680208101570784],[139.61571084220603,35.68327726754991]],[[139.61571084220603,35.68327726754991],[139.61573567482068,35.68334940606651]],[[139.61573567482068,35.68334940606651],[139.61926190610217,35.68292313301386]],[[139.61926190610217,35.68292313301386],[139.6186410907357,35.67873909905086],[139.61745740277033,35.67623392511063]],[[139.62463402840655,35.71731353129279],[139.62701795941373,35.71659214612675]],[[139.62701795941373,35.71659214612675],[139.62955088610886,35.71568713564572]],[[139.61941917932833,35.71230318341233],[139.61470098254327,35.71234908974108]],[[139.59764097627308,35.69835421752002],[139.59284000410585,35.70087250755417]],[[139.59284000410585,35.70087250755417],[139.59442929144396,35.70373837407742]],[[139.60795478889446,35.68459543498966],[139.60794651135623,35.6845888769427]],[[139.59985107897768,35.6878810165186],[139.59985935651588,35.687887574565565]],[[139.59985935651588,35.687887574565565],[139.60106787709591,35.69167812571072]],[[139.60106787709591,35.69167812571072],[139.6018707983032,35.691264968751995]],[[139.6018707983032,35.691264968751995],[139.60470171637425,35.689553318494404],[139.60864182456666,35.6888450494223]],[[139.60864182456666,35.6888450494223],[139.6084762738023,35.68808431597448]],[[139.6084762738023,35.68808431597448],[139.60795478889446,35.68459543498966]],[[139.61806166306033,35.67594537104422],[139.61745740277033,35.67623392511063]],[[139.61926190610217,35.68292313301386],[139.62543694961383,35.68209026104944]],[[139.62701795941373,35.71659214612675],[139.62697657172262,35.71681511972353]],[[139.63136366697893,35.71810705497542],[139.63210036788044,35.71711678988387],[139.63601564345822,35.71669707487818]],[[139.62219215463182,35.71806770669364],[139.62138923342454,35.72222550846878],[139.6215382291125,35.72434375763813]],[[139.59151559799074,35.68578244149014],[139.5981127959516,35.683965862481124]],[[139.60412228869887,35.680824557985396],[139.60351802840887,35.680129405007214]],[[139.60351802840887,35.680129405007214],[139.59880810916204,35.68186728745266],[139.59403196960943,35.682293560505315],[139.59151559799074,35.68578244149014]],[[139.6018707983032,35.691264968751995],[139.60346836317956,35.69516700669554]],[[139.60360908132927,35.695101426225904],[139.60948613346505,35.69234048845408]],[[139.60948613346505,35.69234048845408],[139.60864182456666,35.6888450494223]],[[139.6213230131188,35.690169774909016],[139.61693591786252,35.69274052931888]],[[139.60864182456666,35.6888450494223],[139.61285509152034,35.68969103748065],[139.61633993511072,35.6887532367648]],[[139.61633993511072,35.6887532367648],[139.61633993511072,35.68873356262391]],[[139.61633993511072,35.68873356262391],[139.6159508908144,35.6864251300926]],[[139.6159508908144,35.6864251300926],[139.6084762738023,35.68808431597448]],[[139.60870804487243,35.72818021511204],[139.6135172945779,35.72953773083358]],[[139.6135172945779,35.72953773083358],[139.61357523734543,35.724822495066505]],[[139.59006702880234,35.69481943020645],[139.59140798999388,35.69788859618558]],[[139.59140798999388,35.69788859618558],[139.59756647842912,35.69564574412391]],[[139.59756647842912,35.69564574412391],[139.59621723969937,35.69279955174156]],[[139.59621723969937,35.69279955174156],[139.59006702880234,35.69481943020645]],[[139.601862520765,35.70804701093273],[139.601862520765,35.70807324312059]],[[139.61571084220603,35.68327726754991],[139.61102575557385,35.68357237966329],[139.60795478889446,35.68459543498966]],[[139.6159508908144,35.6864251300926],[139.61573567482068,35.68334940606651]],[[139.61396428164176,35.67532235658265],[139.6144112687056,35.677440605752]],[[139.6144112687056,35.677440605752],[139.61444437885848,35.677584882785204]],[[139.62318545921815,35.6714924571557],[139.62114090727795,35.672797508501525],[139.61396428164176,35.67532235658265]],[[139.6244022573364,35.68578244149014],[139.61633993511072,35.68873356262391]],[[139.61633993511072,35.6887532367648],[139.6165468735662,35.6901173105333]],[[139.59985935651588,35.687887574565565],[139.59740092766472,35.6893172288037],[139.5912838269206,35.6914813843018]],[[139.5912838269206,35.6914813843018],[139.5867560135146,35.6941373933222],[139.58813008485902,35.69558016365427],[139.59006702880234,35.69481943020645]],[[139.59621723969937,35.69279955174156],[139.60106787709591,35.69167812571072]],[[139.6144112687056,35.677440605752],[139.60652277478252,35.68042451712059]],[[139.59140798999388,35.69788859618558],[139.59284000410585,35.70087250755417]],[[139.59842734240394,35.697882038138616],[139.59756647842912,35.69564574412391]],[[139.60680421108196,35.67757832473824],[139.61022283436657,35.676522479177045]],[[139.61022283436657,35.676522479177045],[139.61336829888995,35.67281718264242],[139.61668759171593,35.6725483027169],[139.61647237572222,35.669911967837386],[139.6147920354637,35.669157792436536],[139.6134759068868,35.67048907597022],[139.61129063679687,35.66997754830703],[139.60908881163053,35.67065958519128],[139.6084762738023,35.67642410847259],[139.60680421108196,35.67757832473824]],[[139.61396428164176,35.67532235658265],[139.61022283436657,35.676522479177045]],[[139.60680421108196,35.67757832473824],[139.60351802840887,35.680129405007214]],[[139.59151559799074,35.68578244149014],[139.59053884848086,35.68687107728615],[139.5928234490294,35.6879531550352],[139.59351048470162,35.689402483414234],[139.5912838269206,35.6914813843018]],[[139.6135172945779,35.72953773083358],[139.61700213816826,35.730029584355876]]]}