{"type":"Topology","bbox":[139.6243371891938,35.73577246403634,139.72276007294684,35.80103500655709],"objects":{"town":{"type":"GeometryCollection","geometries":[{"type":"MultiPolygon","arcs":[[[4,5,6,24,25,2,8,9,10,11,12]]],"properties":{"name":"板橋"}},{"type":"Polygon","arcs":[[-13,14,15,16,17,18,-5]],"properties":{"name":"仲宿"}},{"type":"Polygon","arcs":[[19,20,21,22,23]],"properties":{"name":"中丸町"}},{"type":"Polygon","arcs":[[-22,26,27,28,-10,29,30]],"properties":{"name":"大山金井町"}},{"type":"Polygon","arcs":[[31,32,33,34,35,36]],"properties":{"name":"中板橋"}},{"type":"Polygon","arcs":[[37,38,39,40,41,42,-28]],"properties":{"name":"大山町"}},{"type":"Polygon","arcs":[[43,44,45,46,47]],"properties":{"name":"富士見町"}},{"type":"MultiPolygon","arcs":[[[-25,-7,-6,-19,48,49,141]]],"properties":{"name":"加賀"}},{"type":"Polygon","arcs":[[51,52,53,54,55,56]],"properties":{"name":"大谷口北町"}},{"type":"Polygon","arcs":[[57,58,59,-17]],"properties":{"name":"本町"}},{"type":"MultiPolygon","arcs":[[[-315,64,65,60,61,62,-340,-95,-94,-87,-316]]],"properties":{"name":"若木"}},{"type":"MultiPolygon","arcs":[[[78,79,80,-267,66,67,68,69,-354,380,82,83]]],"properties":{"name":"蓮根"}},{"type":"Polygon","arcs":[[71,-56,72,-37,73,-40]],"properties":{"name":"弥生町"}},{"type":"MultiPolygon","arcs":[[[118,77,74,-52,75,119,120,121]]],"properties":{"name":"大谷口"}},{"type":"Polygon","arcs":[[84,85,86,87,-84,88,89]],"properties":{"name":"相生町"}},{"type":"MultiPolygon","arcs":[[[-326,-325,-202,110,111,112,-80,-79,-88,93,94,339,-63,340]]],"properties":{"name":"西台"}},{"type":"MultiPolygon","arcs":[[[-208,96,97,98,-89,-83,-381,353,-70,-323,-209]]],"properties":{"name":"坂下"}},{"type":"MultiPolygon","arcs":[[[145,100,101,102,103,104,142,143,362,-327,-90,-99,-356]]],"properties":{"name":"志村"}},{"type":"Polygon","arcs":[[105,106,-34,107,-48,108]],"properties":{"name":"双葉町"}},{"type":"Polygon","arcs":[[113,-20,114]],"properties":{"name":"南町"}},{"type":"MultiPolygon","arcs":[[[-78,-119,271,117,176,-161,177,-53,-75]]],"properties":{"name":"向原"}},{"type":"MultiPolygon","arcs":[[[342,343,127,123,124,-102,-101,-146,355,-350]]],"properties":{"name":"小豆沢"}},{"type":"MultiPolygon","arcs":[[[-182,-195,-305,130,131,132,133,134,128,-205]]],"properties":{"name":"東新町"}},{"type":"MultiPolygon","arcs":[[[374,-215,154,-134,-133,135,136,137,138,139,155,375,376,162,163,-44,-108,-33,164]]],"properties":{"name":"常盤台"}},{"type":"MultiPolygon","arcs":[[[-137,-136,-132,146,147,195,196,356,-61,-345,-138]]],"properties":{"name":"上板橋"}},{"type":"Polygon","arcs":[[149,150,151,152,153]],"properties":{"name":"泉町"}},{"type":"MultiPolygon","arcs":[[[212,-191,181,182,189,-54,-178,160,157,363]]],"properties":{"name":"小茂根"}},{"type":"MultiPolygon","arcs":[[[171,172,173,-244,-225,-224,-185,-188,-335,-334,-338,-68,-67,266,-81,-113,263,-293,-275,170,165,166,-270]]],"properties":{"name":"高島平"}},{"type":"MultiPolygon","arcs":[[[221,-243,335,-332,-320,336,333,334,187,184,223,224]]],"properties":{"name":"新河岸"}},{"type":"MultiPolygon","arcs":[[[-147,-131,304,194,190,191,280,-196,-148]]],"properties":{"name":"桜川"}},{"type":"MultiPolygon","arcs":[[[273,-171,274,292,-264,-112,-111,201,324,325,323,282,260,248,-233,249,250,251,298]]],"properties":{"name":"徳丸"}},{"type":"Polygon","arcs":[[-190,-183,204,-129,205,206,-55]],"properties":{"name":"東山町"}},{"type":"MultiPolygon","arcs":[[[-98,-97,207,208,209,210,348,-343,349]]],"properties":{"name":"東坂下"}},{"type":"MultiPolygon","arcs":[[[-207,-206,-135,-155,214,-375,-165,-32,-73]]],"properties":{"name":"南常盤台"}},{"type":"MultiPolygon","arcs":[[[230,231,232,233,220,216,217,293,294]]],"properties":{"name":"赤塚新町"}},{"type":"MultiPolygon","arcs":[[[-309,-268,-285,257,258,-251,-250,-232,-231,-295,-308,369,-291,238,239,-310]]],"properties":{"name":"赤塚"}},{"type":"Polygon","arcs":[[234,-121,235,-39,236]],"properties":{"name":"大山西町"}},{"type":"MultiPolygon","arcs":[[[-269,308,309,-240,-290,-303,310,241,242,-222,243,-174,-173]]],"properties":{"name":"三園"}},{"type":"Polygon","arcs":[[-109,-47,245,-58,-16,246]],"properties":{"name":"大和町"}},{"type":"Polygon","arcs":[[-237,-38,-27,-21,-114,247]],"properties":{"name":"幸町"}},{"type":"Polygon","arcs":[[-29,-43,254,255,-11]],"properties":{"name":"大山東町"}},{"type":"Polygon","arcs":[[-57,-72,-236,-120,-76]],"properties":{"name":"大谷口上町"}},{"type":"Polygon","arcs":[[267,268,-172,269,-167,270]],"properties":{"name":"大門"}},{"type":"Polygon","arcs":[[-23,-31,276]],"properties":{"name":"熊野町"}},{"type":"Polygon","arcs":[[-60,277,278,-49,-18]],"properties":{"name":"稲荷台"}},{"type":"Polygon","arcs":[[279,-106,-247,-15,-12,-256]],"properties":{"name":"氷川町"}},{"type":"MultiPolygon","arcs":[[[-259,-258,284,-271,-166,-274,-299,-252]]],"properties":{"name":"四葉"}},{"type":"MultiPolygon","arcs":[[[289,-239,290,-370,307,-294,-218,-217,286,305,381,301,302]]],"properties":{"name":"成増"}},{"type":"Polygon","arcs":[[-152,295,-125,296,297]],"properties":{"name":"蓮沼町"}},{"type":"MultiPolygon","arcs":[[[345,-139,344,-66,-65,314,315,-86,-85,326,327,328]]],"properties":{"name":"中台"}},{"type":"MultiPolygon","arcs":[[[319,331,332,350,-210,322,-69,337,-337]]],"properties":{"name":"舟渡"}},{"type":"Polygon","arcs":[[351,-154,352,-246,-46]],"properties":{"name":"宮本町"}},{"type":"MultiPolygon","arcs":[[[-376,-156,-140,-346,-329,-328,-363,-144,-143,-105,-104,360,-373,-150,-352,-45,-164,-163,-377]]],"properties":{"name":"前野町"}},{"type":"Polygon","arcs":[[-353,-153,-298,367,-278,-59]],"properties":{"name":"清水町"}},{"type":"Polygon","arcs":[[372,-361,-103,-296,-151]],"properties":{"name":"大原町"}},{"type":"Polygon","arcs":[[-74,-36,373,-41]],"properties":{"name":"仲町"}},{"type":"Polygon","arcs":[[-255,-42,-374,-35,-107,-280]],"properties":{"name":"栄町"}}]}},"arcs":[[[139.71478702205775,35.74598707340177],[139.7149248278756,35.749296215221754]],[[139.7149248278756,35.749296215221754],[139.72181511876738,35.748604363085825]],[[139.72181511876738,35.748604363085825],[139.72121467913254,35.746300364935024],[139.719511792955,35.74513857549921],[139.71478702205775,35.74598707340177]],[[139.71430470169534,35.74936801119813],[139.71216871151887,35.74966172201055],[139.70969805007053,35.75161326718644]],[[139.70969805007053,35.75161326718644],[139.71284789733534,35.75279463734308],[139.71106626497618,35.75468091344954],[139.7123163606094,35.75586881051313]],[[139.7123163606094,35.75586881051313],[139.7150527904207,35.75373451194284]],[[139.7150527904207,35.75373451194284],[139.7157811926007,35.75313403650411]],[[139.7157811926007,35.75313403650411],[139.71654896787152,35.75177643986001],[139.71430470169534,35.74936801119813]],[[139.71478702205775,35.74598707340177],[139.71448188060398,35.74543228631163],[139.7103969224324,35.745960965774]],[[139.7103969224324,35.745960965774],[139.70816249952892,35.74701832469873]],[[139.70816249952892,35.74701832469873],[139.70829046207405,35.751306502560126]],[[139.70829046207405,35.751306502560126],[139.70831999189215,35.752337753857084]],[[139.70831999189215,35.752337753857084],[139.70969805007053,35.75161326718644]],[[139.71430470169534,35.74936801119813],[139.7149248278756,35.749296215221754]],[[139.70831999189215,35.752337753857084],[139.70697146353191,35.757082815204484]],[[139.70697146353191,35.757082815204484],[139.70709942607704,35.757115449739196]],[[139.70709942607704,35.757115449739196],[139.70951102788916,35.75680215820594],[139.71136156315725,35.75884508007903]],[[139.71136156315725,35.75884508007903],[139.71219824133698,35.75889729533457]],[[139.71219824133698,35.75889729533457],[139.71346802351562,35.75721335334334],[139.7123163606094,35.75586881051313]],[[139.7045893915379,35.738148258163505],[139.70284713226954,35.73981914634086],[139.7004749035482,35.74371570978569]],[[139.7004749035482,35.74371570978569],[139.69964806864118,35.7449688759187],[139.7018923348174,35.74496234901176]],[[139.7018923348174,35.74496234901176],[139.7019120213628,35.744955822104814]],[[139.7019120213628,35.744955822104814],[139.70719785880408,35.74082429001004]],[[139.70719785880408,35.74082429001004],[139.7045893915379,35.738148258163505]],[[139.7157811926007,35.75313403650411],[139.71788765295906,35.753251520829075],[139.72252383440198,35.75199835469606]],[[139.72252383440198,35.75199835469606],[139.72181511876738,35.748604363085825]],[[139.7018923348174,35.74496234901176],[139.6996677551866,35.746705033165476]],[[139.6996677551866,35.746705033165476],[139.70208920027144,35.74665281790993],[139.70329007954115,35.748108318158174]],[[139.70329007954115,35.748108318158174],[139.70816249952892,35.74701832469873]],[[139.7103969224324,35.745960965774],[139.7091763566173,35.74449893861882]],[[139.7091763566173,35.74449893861882],[139.7019120213628,35.744955822104814]],[[139.69273809120398,35.757082815204484],[139.6927873075675,35.757141557366964]],[[139.6927873075675,35.757141557366964],[139.69492329774397,35.75732431076136]],[[139.69492329774397,35.75732431076136],[139.70062255263875,35.75635180162689]],[[139.70062255263875,35.75635180162689],[139.70090800754713,35.75436762191629],[139.69835859991716,35.75432846047463]],[[139.69835859991716,35.75432846047463],[139.69610449046826,35.755509830631276]],[[139.69610449046826,35.755509830631276],[139.69273809120398,35.757082815204484]],[[139.6996677551866,35.746705033165476],[139.6992838675512,35.74694652872236]],[[139.6992838675512,35.74694652872236],[139.69534655847016,35.7500207018924]],[[139.69534655847016,35.7500207018924],[139.69595684137772,35.75071908093528]],[[139.69595684137772,35.75071908093528],[139.69871295773444,35.75013165931043],[139.70104581336497,35.75084961907414]],[[139.70104581336497,35.75084961907414],[139.70168562609064,35.74962908747584]],[[139.70168562609064,35.74962908747584],[139.70329007954115,35.748108318158174]],[[139.69489376792586,35.75849262710412],[139.69523828247046,35.76295703145298]],[[139.69523828247046,35.76295703145298],[139.69755145155554,35.762656793733605]],[[139.69755145155554,35.762656793733605],[139.70245340136142,35.762102006643474]],[[139.70245340136142,35.762102006643474],[139.70256167736116,35.76043764537307]],[[139.70256167736116,35.76043764537307],[139.69489376792586,35.75849262710412]],[[139.71219824133698,35.75889729533457],[139.71519059623856,35.761481950483905]],[[139.71519059623856,35.761481950483905],[139.71774000386853,35.75855789617355]],[[139.71774000386853,35.75855789617355],[139.7150527904207,35.75373451194284]],[[139.68620215812948,35.74774281136938],[139.68569030794893,35.74783418806658]],[[139.68569030794893,35.74783418806658],[139.68499143558705,35.747925564763776]],[[139.68499143558705,35.747925564763776],[139.685522972313,35.75180254748778]],[[139.685522972313,35.75180254748778],[139.68809206648837,35.75189392418498],[139.68983432575672,35.75379978101227]],[[139.68983432575672,35.75379978101227],[139.69235420356858,35.752076677579375]],[[139.69235420356858,35.752076677579375],[139.69231483047778,35.75039273558814],[139.68620215812948,35.74774281136938]],[[139.70709942607704,35.757115449739196],[139.70521936099084,35.762160748805954]],[[139.70521936099084,35.762160748805954],[139.70982601261565,35.762350029107296]],[[139.70982601261565,35.762350029107296],[139.71136156315725,35.75884508007903]],[[139.67569938615583,35.76593982792582],[139.66897643089996,35.767173413338]],[[139.66897643089996,35.767173413338],[139.66888784144564,35.76734311291852]],[[139.66888784144564,35.76734311291852],[139.66854332690104,35.769372980977714]],[[139.66854332690104,35.769372980977714],[139.66991154180673,35.76886388223618],[139.67617186324554,35.76987555281231]],[[139.67617186324554,35.76987555281231],[139.67634904215421,35.76879208625981]],[[139.67634904215421,35.76879208625981],[139.67569938615583,35.76593982792582]],[[139.67424258179585,35.785748990497126],[139.6744099174318,35.786858564677395]],[[139.6744099174318,35.786858564677395],[139.67464615597666,35.788614302645],[139.672913739981,35.79139476500262]],[[139.672913739981,35.79139476500262],[139.67611280360933,35.79121853851517],[139.68005011269037,35.791877756116385]],[[139.68005011269037,35.791877756116385],[139.67936108360118,35.78522031103476]],[[139.67936108360118,35.78522031103476],[139.67424258179585,35.785748990497126]],[[139.69534655847016,35.7500207018924],[139.69235420356858,35.752076677579375]],[[139.68983432575672,35.75379978101227],[139.69273809120398,35.757082815204484]],[[139.69610449046826,35.755509830631276],[139.6951004766526,35.753962953685836],[139.69595684137772,35.75071908093528]],[[139.68641871012895,35.743506848763516],[139.68542453958597,35.74534743652138],[139.68569030794893,35.74783418806658]],[[139.68620215812948,35.74774281136938],[139.68800347703404,35.74647659142248],[139.69109426466267,35.746411322353055]],[[139.69109426466267,35.746411322353055],[139.6881609693973,35.741777218423685]],[[139.6881609693973,35.741777218423685],[139.68646792649244,35.74204482160834],[139.68641871012895,35.743506848763516]],[[139.6759553112461,35.77716610786739],[139.67344527670693,35.77922208355436]],[[139.67344527670693,35.77922208355436],[139.6736519854337,35.78046219587348]],[[139.6736519854337,35.78046219587348],[139.6736913585245,35.780449142059595]],[[139.6736913585245,35.780449142059595],[139.67987293378172,35.780560099477626]],[[139.67987293378172,35.780560099477626],[139.68073914177955,35.77929387953073]],[[139.68073914177955,35.77929387953073],[139.67719556360663,35.778582446673965],[139.6759553112461,35.77716610786739]],[[139.68382008613546,35.77496654022767],[139.6820679835944,35.77540384299284]],[[139.6820679835944,35.77540384299284],[139.67819957742228,35.77635024449954]],[[139.67819957742228,35.77635024449954],[139.67607343051853,35.776761439636935]],[[139.67607343051853,35.776761439636935],[139.6759553112461,35.77716610786739]],[[139.68073914177955,35.77929387953073],[139.68183174504952,35.77775352949223]],[[139.68183174504952,35.77775352949223],[139.68382008613546,35.77496654022767]],[[139.67034464580564,35.77176182891877],[139.67038401889644,35.77185320561597]],[[139.67038401889644,35.77185320561597],[139.67048245162346,35.77605000678017]],[[139.67048245162346,35.77605000678017],[139.67344527670693,35.77922208355436]],[[139.67607343051853,35.776761439636935],[139.6740752461599,35.77477073301939],[139.67300232943532,35.772434100333875]],[[139.67300232943532,35.772434100333875],[139.6713978759848,35.77099165389952],[139.67034464580564,35.77176182891877]],[[139.67987293378172,35.780560099477626],[139.68833814830595,35.78268134423402]],[[139.68833814830595,35.78268134423402],[139.68886968503188,35.78213961095778]],[[139.68886968503188,35.78213961095778],[139.69078912320887,35.78009016217774]],[[139.69078912320887,35.78009016217774],[139.68183174504952,35.77775352949223]],[[139.6878262981254,35.77441828004448],[139.69059225775482,35.77620012563985],[139.69488392465314,35.77628497543011]],[[139.69488392465314,35.77628497543011],[139.69731521301068,35.774150676859826]],[[139.69731521301068,35.774150676859826],[139.69992368027687,35.7715529678966]],[[139.69992368027687,35.7715529678966],[139.69729552646527,35.770397705367735]],[[139.69729552646527,35.770397705367735],[139.6958288788326,35.771938055406224]],[[139.6958288788326,35.771938055406224],[139.693929127201,35.77395486965154],[139.69286605374913,35.773112898655924],[139.6878262981254,35.77441828004448]],[[139.70434330972031,35.7553009696091],[139.70433346644762,35.7553009696091]],[[139.70433346644762,35.7553009696091],[139.70292587845114,35.7564758128588],[139.70062255263875,35.75635180162689]],[[139.69492329774397,35.75732431076136],[139.69489376792586,35.75849262710412]],[[139.70256167736116,35.76043764537307],[139.70434330972031,35.7553009696091]],[[139.67048245162346,35.77605000678017],[139.66786414108458,35.77729664600624],[139.66692903017784,35.77896100727664],[139.66506865163706,35.779228610461296]],[[139.66506865163706,35.779228610461296],[139.66532457672733,35.78059273401234]],[[139.66532457672733,35.78059273401234],[139.66545253927245,35.7813498552177]],[[139.66545253927245,35.7813498552177],[139.67244126289128,35.780990875335846],[139.6736519854337,35.78046219587348]],[[139.69868342791634,35.74229284407217],[139.6985357788258,35.74344157969409],[139.7004749035482,35.74371570978569]],[[139.7045893915379,35.738148258163505],[139.7035558479041,35.73577246403634],[139.70197108099902,35.736124917011246],[139.70077020172928,35.74002800736302],[139.69904762900634,35.7398713615964],[139.69868342791634,35.74229284407217]],[[139.68072929850683,35.74299122311504],[139.6823928115936,35.742410328397135]],[[139.6823928115936,35.742410328397135],[139.68263889341114,35.741405184727945],[139.6851193981322,35.74094830124196],[139.68534579340437,35.73990399613111]],[[139.68534579340437,35.73990399613111],[139.68021744832632,35.73859861474256],[139.679036255602,35.740152018594934],[139.68072929850683,35.74299122311504]],[[139.68822002903352,35.74070680568507],[139.6881609693973,35.741777218423685]],[[139.69109426466267,35.746411322353055],[139.69260028538616,35.74680946367656]],[[139.69260028538616,35.74680946367656],[139.69257075556806,35.743474214228804]],[[139.69257075556806,35.743474214228804],[139.68822002903352,35.74070680568507]],[[139.69731521301068,35.774150676859826],[139.70071114209307,35.775691026898315],[139.70426456353871,35.776298029243996]],[[139.70426456353871,35.776298029243996],[139.70457954826517,35.77454229127639]],[[139.70457954826517,35.77454229127639],[139.69992368027687,35.7715529678966]],[[139.69488392465314,35.77628497543011],[139.69899841264282,35.77818430535046]],[[139.69899841264282,35.77818430535046],[139.7031424304506,35.77957453652927]],[[139.7031424304506,35.77957453652927],[139.70426456353871,35.776298029243996]],[[139.68501112213247,35.756834792740655],[139.68505049522327,35.75554246516599]],[[139.68505049522327,35.75554246516599],[139.68003042614495,35.7566585662532],[139.6797154414185,35.75717419190168]],[[139.6797154414185,35.75717419190168],[139.67960716541876,35.75965441653993]],[[139.67960716541876,35.75965441653993],[139.6794496730555,35.76231086766564]],[[139.6794496730555,35.76231086766564],[139.68153644686845,35.76141668141448]],[[139.68153644686845,35.76141668141448],[139.68336729559113,35.76050291444249]],[[139.68336729559113,35.76050291444249],[139.68272748286546,35.758146701036154],[139.68501112213247,35.756834792740655]],[[139.6794496730555,35.76231086766564],[139.6779731821501,35.76300271980157]],[[139.6779731821501,35.76300271980157],[139.67616201997285,35.76382511007636]],[[139.67616201997285,35.76382511007636],[139.67613249015474,35.76586803194945]],[[139.67613249015474,35.76586803194945],[139.68225500577574,35.7643342088179]],[[139.68225500577574,35.7643342088179],[139.68228453559385,35.764327681910956]],[[139.68228453559385,35.764327681910956],[139.68153644686845,35.76141668141448]],[[139.71774000386853,35.75855789617355],[139.7211457762236,35.75542498084102],[139.72252383440198,35.75199835469606]],[[139.6878262981254,35.77441828004448],[139.68624153122028,35.77435301097505]],[[139.68624153122028,35.77435301097505],[139.685158771223,35.7746206141597]],[[139.685158771223,35.7746206141597],[139.6856017184946,35.77640245975508],[139.69066116066375,35.77826262823377],[139.69153721193427,35.77931346025156]],[[139.69153721193427,35.77931346025156],[139.69488392465314,35.77628497543011]],[[139.67960716541876,35.75965441653993],[139.67628013924528,35.760574710418865]],[[139.67628013924528,35.760574710418865],[139.6748134916126,35.76096632483543]],[[139.6748134916126,35.76096632483543],[139.6760143708823,35.763368226590366],[139.6779731821501,35.76300271980157]],[[139.69840781628068,35.76512396455797],[139.6976794141007,35.76631186162156]],[[139.6976794141007,35.76631186162156],[139.6992641810058,35.76867460193484],[139.70207935699872,35.76898136656115]],[[139.70207935699872,35.76898136656115],[139.7034574151771,35.766781798921436]],[[139.7034574151771,35.766781798921436],[139.70374287008548,35.76605731225079]],[[139.70374287008548,35.76605731225079],[139.69892950973392,35.76479761921083],[139.69840781628068,35.76512396455797]],[[139.6866647919465,35.75954345912191],[139.68336729559113,35.76050291444249]],[[139.68228453559385,35.764327681910956],[139.68646792649244,35.76357708761254]],[[139.68646792649244,35.76357708761254],[139.6866647919465,35.75954345912191]],[[139.6809458505063,35.7439310977148],[139.67576828906473,35.74555629754355],[139.6748528647034,35.745451867032465]],[[139.6748528647034,35.745451867032465],[139.67807161487715,35.74777544590409]],[[139.67807161487715,35.74777544590409],[139.68382008613546,35.7480822105304]],[[139.68382008613546,35.7480822105304],[139.6840563246803,35.74624814967948],[139.6809458505063,35.7439310977148]],[[139.68919451303105,35.758655799777685],[139.68981463921133,35.75926280212337],[139.69032648939185,35.76330295752094]],[[139.69032648939185,35.76330295752094],[139.69160611484318,35.763263796079286]],[[139.69160611484318,35.763263796079286],[139.69523828247046,35.76295703145298]],[[139.6927873075675,35.757141557366964],[139.68919451303105,35.758655799777685]],[[139.6542016785734,35.783941037273976],[139.65126838330804,35.78475037373488]],[[139.65126838330804,35.78475037373488],[139.65121916694451,35.78476342754877]],[[139.65121916694451,35.78476342754877],[139.65288268003127,35.790428782775095]],[[139.65288268003127,35.790428782775095],[139.6598910901955,35.789038551596285]],[[139.6598910901955,35.789038551596285],[139.65792243565497,35.782948947418674]],[[139.65792243565497,35.782948947418674],[139.6542016785734,35.783941037273976]],[[139.6476559022262,35.7855923447305],[139.6457266207765,35.78595785151929]],[[139.6457266207765,35.78595785151929],[139.64436824914353,35.78706742569957],[139.64344298150948,35.789776092080814],[139.6439351451446,35.791877756116385]],[[139.6439351451446,35.791877756116385],[139.64404342114435,35.792171466928814]],[[139.64404342114435,35.792171466928814],[139.64928988549482,35.79113368872491]],[[139.64928988549482,35.79113368872491],[139.6476559022262,35.7855923447305]],[[139.68072929850683,35.74299122311504],[139.6809458505063,35.7439310977148]],[[139.68382008613546,35.7480822105304],[139.68499143558705,35.747925564763776]],[[139.68641871012895,35.743506848763516],[139.68267826650197,35.743278407020526],[139.6823928115936,35.742410328397135]],[[139.67892797960226,35.74838244824977],[139.67812083124068,35.74989669066049]],[[139.67812083124068,35.74989669066049],[139.67795349560473,35.75307529434162]],[[139.67795349560473,35.75307529434162],[139.6793807701466,35.75223985025295],[139.68344604177275,35.751939612533576]],[[139.68344604177275,35.751939612533576],[139.68381024286276,35.75191350490581]],[[139.68381024286276,35.75191350490581],[139.67892797960226,35.74838244824977]],[[139.66049152983035,35.79304607245914],[139.65971391128684,35.79309176080774]],[[139.65971391128684,35.79309176080774],[139.65966469492335,35.79730814269277]],[[139.65966469492335,35.79730814269277],[139.66430087636624,35.797549638249656],[139.66381855600383,35.792961222668886]],[[139.66381855600383,35.792961222668886],[139.66049152983035,35.79304607245914]],[[139.67807161487715,35.74777544590409],[139.67892797960226,35.74838244824977]],[[139.68381024286276,35.75191350490581],[139.685522972313,35.75180254748778]],[[139.67795349560473,35.75307529434162],[139.67577813233746,35.754661332728716],[139.6733173141618,35.75465480582177]],[[139.6733173141618,35.75465480582177],[139.67384885088774,35.758721068847116]],[[139.67384885088774,35.758721068847116],[139.67531549852043,35.75811406650144]],[[139.67531549852043,35.75811406650144],[139.67805192833174,35.75606461772141]],[[139.67805192833174,35.75606461772141],[139.67795349560473,35.75307529434162]],[[139.6748134916126,35.76096632483543],[139.67083680944077,35.762069372108755]],[[139.67083680944077,35.762069372108755],[139.66916345308132,35.76672305675895]],[[139.66916345308132,35.76672305675895],[139.67616201997285,35.76382511007636]],[[139.65974344110495,35.7756583923636],[139.65734168256552,35.779600644157036]],[[139.65734168256552,35.779600644157036],[139.65819804729065,35.77968549394729]],[[139.65819804729065,35.77968549394729],[139.66532457672733,35.78059273401234]],[[139.66506865163706,35.779228610461296],[139.66447805527488,35.775971683896856]],[[139.66447805527488,35.775971683896856],[139.6644583687295,35.77595210317603]],[[139.6644583687295,35.77595210317603],[139.65974344110495,35.7756583923636]],[[139.68344604177275,35.751939612533576],[139.68352478795438,35.75378020029144],[139.68489300286004,35.75384546936087],[139.68505049522327,35.75554246516599]],[[139.68501112213247,35.756834792740655],[139.6863005908565,35.75608419844224]],[[139.6863005908565,35.75608419844224],[139.68983432575672,35.75379978101227]],[[139.68833814830595,35.78268134423402],[139.68650729958327,35.78458067415437]],[[139.68650729958327,35.78458067415437],[139.6847748835876,35.78841196852978],[139.68523751740463,35.791238119236]],[[139.68523751740463,35.791238119236],[139.6889681177589,35.78747209393002]],[[139.6889681177589,35.78747209393002],[139.69220655447805,35.783973671808695]],[[139.69220655447805,35.783973671808695],[139.68886968503188,35.78213961095778]],[[139.67440007415908,35.74986405612578],[139.67499067052125,35.75166548244198],[139.6733173141618,35.75465480582177]],[[139.67812083124068,35.74989669066049],[139.67440007415908,35.74986405612578]],[[139.6866647919465,35.75954345912191],[139.68881062539566,35.75889076842763]],[[139.68881062539566,35.75889076842763],[139.6863005908565,35.75608419844224]],[[139.63235945644638,35.77118746110781],[139.63496792371257,35.77438564550977]],[[139.63496792371257,35.77438564550977],[139.63559789316554,35.77373948172243]],[[139.63559789316554,35.77373948172243],[139.63862962115795,35.771709613663226],[139.64252755714816,35.77080237359818]],[[139.64252755714816,35.77080237359818],[139.6426948927841,35.770717523807924]],[[139.6426948927841,35.770717523807924],[139.64111996915167,35.768785559352864],[139.63451513316826,35.768870409143126],[139.63446591680474,35.76989513353314],[139.63235945644638,35.77118746110781]],[[139.64551991204974,35.796250783768045],[139.64549038223163,35.79627689139581]],[[139.64549038223163,35.79627689139581],[139.6456872476857,35.79681862467206],[139.65253816548667,35.796172460884726],[139.65966469492335,35.79730814269277]],[[139.65971391128684,35.79309176080774],[139.6538866938469,35.79393373180336]],[[139.6538866938469,35.79393373180336],[139.64551991204974,35.796250783768045]],[[139.64173025205923,35.777544668470064],[139.64719326840918,35.77993351641112]],[[139.64719326840918,35.77993351641112],[139.64645502295647,35.77330870586421]],[[139.64645502295647,35.77330870586421],[139.64645502295647,35.77328912514338]],[[139.64645502295647,35.77328912514338],[139.6427047360568,35.773700320280774],[139.64138573751467,35.77566491927055],[139.64173025205923,35.777544668470064]],[[139.64252755714816,35.77080237359818],[139.64302956405598,35.77133105306055]],[[139.64302956405598,35.77133105306055],[139.64548053895894,35.77028022104276]],[[139.64548053895894,35.77028022104276],[139.65197709894264,35.76941866932631]],[[139.65197709894264,35.76941866932631],[139.65215427785128,35.76893567821255]],[[139.65215427785128,35.76893567821255],[139.64745903677215,35.7686680750279],[139.6426948927841,35.770717523807924]],[[139.69273809120398,35.74346116041492],[139.69257075556806,35.743474214228804]],[[139.69260028538616,35.74680946367656],[139.69534655847016,35.7500207018924]],[[139.6992838675512,35.74694652872236],[139.69592731155961,35.74566072805463],[139.69273809120398,35.74346116041492]],[[139.63869852406685,35.780710218337305],[139.63803902479577,35.7824790101188]],[[139.63803902479577,35.7824790101188],[139.63779294297822,35.78807256936875]],[[139.63779294297822,35.78807256936875],[139.64375796623597,35.78621892779701]],[[139.64375796623597,35.78621892779701],[139.64224210223978,35.785298633918075],[139.64200586369492,35.78240721414243],[139.63869852406685,35.780710218337305]],[[139.6389150760663,35.79256960825232],[139.640745924789,35.795617673794595],[139.641208558606,35.798352447803616],[139.64241928114842,35.79738646557608]],[[139.64241928114842,35.79738646557608],[139.64549038223163,35.79627689139581]],[[139.64551991204974,35.796250783768045],[139.64404342114435,35.792171466928814]],[[139.6439351451446,35.791877756116385],[139.6389150760663,35.79256960825232]],[[139.70245340136142,35.762102006643474],[139.70521936099084,35.762160748805954]],[[139.70697146353191,35.757082815204484],[139.70434330972031,35.7553009696091]],[[139.69868342791634,35.74229284407217],[139.69465752938098,35.742129671398594],[139.69273809120398,35.74346116041492]],[[139.65439854402746,35.769268550466634],[139.65215427785128,35.76893567821255]],[[139.65197709894264,35.76941866932631],[139.65069747349128,35.77366768574606]],[[139.65069747349128,35.77366768574606],[139.65060888403696,35.774999174762385]],[[139.65060888403696,35.774999174762385],[139.65407371602828,35.77616749110514]],[[139.65407371602828,35.77616749110514],[139.65628845238635,35.77625886780234]],[[139.65628845238635,35.77625886780234],[139.65439854402746,35.769268550466634]],[[139.70168562609064,35.74962908747584],[139.70554418899005,35.75080393072554]],[[139.70554418899005,35.75080393072554],[139.70829046207405,35.751306502560126]],[[139.64719326840918,35.77993351641112],[139.64963440003942,35.780403453710996]],[[139.64963440003942,35.780403453710996],[139.64972298949374,35.78007710836386]],[[139.64972298949374,35.78007710836386],[139.65060888403696,35.774999174762385]],[[139.65069747349128,35.77366768574606],[139.64645502295647,35.77330870586421]],[[139.66135773782818,35.76870070956261],[139.65439854402746,35.769268550466634]],[[139.65628845238635,35.77625886780234],[139.65974344110495,35.7756583923636]],[[139.65974344110495,35.7756583923636],[139.6602257614674,35.77488169043741],[139.65902488219766,35.77174877510488],[139.66135773782818,35.76870070956261]],[[139.66545253927245,35.7813498552177],[139.66530489018191,35.78138248975241]],[[139.66530489018191,35.78138248975241],[139.6671652687227,35.78745904011613]],[[139.6671652687227,35.78745904011613],[139.6744099174318,35.786858564677395]],[[139.67424258179585,35.785748990497126],[139.6736913585245,35.780449142059595]],[[139.64903396040455,35.7812584785205],[139.64497853205108,35.785605398544384]],[[139.64497853205108,35.785605398544384],[139.6457266207765,35.78595785151929]],[[139.6476559022262,35.7855923447305],[139.65121916694451,35.78476342754877]],[[139.65126838330804,35.78475037373488],[139.64903396040455,35.7812584785205]],[[139.68822002903352,35.74070680568507],[139.68534579340437,35.73990399613111]],[[139.65734168256552,35.779600644157036],[139.6537882611199,35.77965938631952]],[[139.6537882611199,35.77965938631952],[139.65499898366232,35.78109530584693],[139.6542016785734,35.783941037273976]],[[139.65792243565497,35.782948947418674],[139.66087541746575,35.78231583744523]],[[139.66087541746575,35.78231583744523],[139.65892644947064,35.781669673657895],[139.65819804729065,35.77968549394729]],[[139.7091763566173,35.74449893861882],[139.70719785880408,35.74082429001004]],[[139.70982601261565,35.762350029107296],[139.712660875154,35.76321810773069]],[[139.712660875154,35.76321810773069],[139.71519059623856,35.761481950483905]],[[139.70554418899005,35.75080393072554],[139.70412675772087,35.753930319151124],[139.70433346644762,35.7553009696091]],[[139.67384885088774,35.758721068847116],[139.67083680944077,35.762069372108755]],[[139.67628013924528,35.760574710418865],[139.67531549852043,35.75811406650144]],[[139.66425166000275,35.768172030100246],[139.66135773782818,35.76870070956261]],[[139.6644583687295,35.77595210317603],[139.66282438546085,35.772062066638135],[139.66290313164248,35.76873334409733],[139.66425166000275,35.768172030100246]],[[139.64963440003942,35.780403453710996],[139.64903396040455,35.7812584785205]],[[139.6537882611199,35.77965938631952],[139.64972298949374,35.78007710836386]],[[139.63235945644638,35.77118746110781],[139.630154563361,35.77244715414776],[139.62920960918157,35.771892367057625],[139.62957381027155,35.77699640828687],[139.62528214337325,35.77779269093389],[139.62567587428134,35.77931346025156]],[[139.62567587428134,35.77931346025156],[139.63418046189636,35.775090551459584],[139.63496792371257,35.77438564550977]],[[139.6308731222683,35.78231583744523],[139.6320641582653,35.782922839790906],[139.63402296953313,35.786427788819175],[139.63756654770606,35.78860777573806]],[[139.63756654770606,35.78860777573806],[139.63779294297822,35.78807256936875]],[[139.63803902479577,35.7824790101188],[139.6354404008023,35.780064054549975]],[[139.6354404008023,35.780064054549975],[139.6308731222683,35.78231583744523]],[[139.66087541746575,35.78231583744523],[139.66530489018191,35.78138248975241]],[[139.63559789316554,35.77373948172243],[139.63710391388904,35.77481642136799]],[[139.63710391388904,35.77481642136799],[139.64302956405598,35.77133105306055]],[[139.70207935699872,35.76898136656115],[139.69992368027687,35.7715529678966]],[[139.70457954826517,35.77454229127639],[139.70645961335137,35.76786526547394]],[[139.70645961335137,35.76786526547394],[139.7034574151771,35.766781798921436]],[[139.65407371602828,35.77616749110514],[139.6537882611199,35.77965938631952]],[[139.64928988549482,35.79113368872491],[139.65288268003127,35.790428782775095]],[[139.6308731222683,35.78231583744523],[139.63026283936074,35.78431959787666],[139.6289339975459,35.78523336484865]],[[139.6289339975459,35.78523336484865],[139.6319361957202,35.78648653098166],[139.63229055353747,35.789071186131],[139.63566679607445,35.79061153616949]],[[139.63566679607445,35.79061153616949],[139.63756654770606,35.78860777573806]],[[139.6538866938469,35.79393373180336],[139.65288268003127,35.790428782775095]],[[139.6797154414185,35.75717419190168],[139.67818973414958,35.75752664487659],[139.67805192833174,35.75606461772141]],[[139.62567587428134,35.77931346025156],[139.6243371891938,35.78022722722354],[139.62617788118916,35.78221793384109]],[[139.62617788118916,35.78221793384109],[139.63494823716718,35.77628497543011]],[[139.63494823716718,35.77628497543011],[139.63710391388904,35.77481642136799]],[[139.64497853205108,35.785605398544384],[139.64440762223435,35.78600353986789]],[[139.64440762223435,35.78600353986789],[139.64375796623597,35.78621892779701]],[[139.63566679607445,35.79061153616949],[139.63762560734227,35.790813870284715],[139.6389150760663,35.79256960825232]],[[139.6598910901955,35.789038551596285],[139.66006826910413,35.78899939015463]],[[139.66006826910413,35.78899939015463],[139.66425166000275,35.78809215008958]],[[139.66425166000275,35.78809215008958],[139.6671652687227,35.78745904011613]],[[139.67617186324554,35.76987555281231],[139.67651637779014,35.77228398147419]],[[139.67651637779014,35.77228398147419],[139.67819957742228,35.77635024449954]],[[139.6820679835944,35.77540384299284],[139.68116240250575,35.77227092766031],[139.67995167996335,35.77181404417431],[139.67958747887334,35.76894873202644]],[[139.67958747887334,35.76894873202644],[139.67634904215421,35.76879208625981]],[[139.68005011269037,35.791877756116385],[139.68080804468846,35.79570252358485]],[[139.68080804468846,35.79570252358485],[139.6855032857676,35.796355214279124]],[[139.6855032857676,35.796355214279124],[139.6855426588584,35.7936661286187]],[[139.6855426588584,35.7936661286187],[139.68523751740463,35.791238119236]],[[139.68523751740463,35.791238119236],[139.68379055631735,35.79183859467473],[139.68005011269037,35.791877756116385]],[[139.66732276108593,35.76759766228928],[139.66425166000275,35.768172030100246]],[[139.66447805527488,35.775971683896856],[139.6660136058165,35.774287741905624],[139.6690158039908,35.77251242321719]],[[139.6690158039908,35.77251242321719],[139.66751962653998,35.77109608441061],[139.66732276108593,35.76759766228928]],[[139.68382008613546,35.77496654022767],[139.68384961595356,35.77494695950684]],[[139.68384961595356,35.77494695950684],[139.68414491413463,35.772545057751906],[139.6832294897733,35.770241059601105]],[[139.6832294897733,35.770241059601105],[139.6820778268671,35.76869418265567]],[[139.6820778268671,35.76869418265567],[139.6805422763255,35.76971238013874],[139.67958747887334,35.76894873202644]],[[139.6919900024786,35.79199524044136],[139.69021821339211,35.79333978327157],[139.6855426588584,35.7936661286187]],[[139.6855032857676,35.796355214279124],[139.6919309428424,35.7966097636499],[139.6947067457445,35.79585264244454]],[[139.6947067457445,35.79585264244454],[139.6919900024786,35.79199524044136]],[[139.67108289125832,35.79177985251224],[139.66508833818244,35.79291553432029]],[[139.66508833818244,35.79291553432029],[139.66381855600383,35.792961222668886]],[[139.64241928114842,35.79738646557608],[139.64391545859922,35.79888765417292],[139.64799057349808,35.797268981251115],[139.65284330694044,35.800114712678166],[139.6552647520253,35.8005324347225],[139.66170225237278,35.80028441225868],[139.6649013160011,35.80061075760581],[139.6713289730759,35.80027788535173],[139.67395712688747,35.79933148384503],[139.67838659960364,35.79897250396318],[139.6847059806787,35.800512854001674],[139.69092692902672,35.80095015676684],[139.69483470828965,35.79985363640045],[139.6947067457445,35.79585264244454]],[[139.68080804468846,35.79570252358485],[139.67589625160988,35.79600928821116],[139.67086633925888,35.79684473229983],[139.671722703984,35.7937575053159],[139.67108289125832,35.79177985251224]],[[139.672913739981,35.79139476500262],[139.67108289125832,35.79177985251224]],[[139.6690158039908,35.77251242321719],[139.67038401889644,35.77185320561597]],[[139.67034464580564,35.77176182891877],[139.66854332690104,35.769372980977714]],[[139.66888784144564,35.76734311291852],[139.66732276108593,35.76759766228928]],[[139.69899841264282,35.77818430535046],[139.69643916174016,35.780958240801134]],[[139.69643916174016,35.780958240801134],[139.6965966541034,35.78226362218969]],[[139.6965966541034,35.78226362218969],[139.69821095082662,35.78207434188835],[139.7024041849979,35.78431959787666],[139.70322117663224,35.782165718585546],[139.7031424304506,35.77957453652927]],[[139.67613249015474,35.76586803194945],[139.67569938615583,35.76593982792582]],[[139.6820778268671,35.76869418265567],[139.68277669922898,35.76591372029805],[139.68225500577574,35.7643342088179]],[[139.66049152983035,35.79304607245914],[139.66006826910413,35.78899939015463]],[[139.66508833818244,35.79291553432029],[139.66425166000275,35.78809215008958]],[[139.69220655447805,35.783973671808695],[139.6965966541034,35.78226362218969]],[[139.69643916174016,35.780958240801134],[139.69078912320887,35.78009016217774]],[[139.6919900024786,35.79199524044136],[139.6889681177589,35.78747209393002]],[[139.69755145155554,35.762656793733605],[139.69638010210394,35.764373370259555],[139.69840781628068,35.76512396455797]],[[139.70374287008548,35.76605731225079],[139.70521936099084,35.762160748805954]],[[139.6793709268739,35.78520073031393],[139.67936108360118,35.78522031103476]],[[139.68650729958327,35.78458067415437],[139.6793709268739,35.78520073031393]],[[139.69153721193427,35.77931346025156],[139.69078912320887,35.78009016217774]],[[139.66916345308132,35.76672305675895],[139.66897643089996,35.767173413338]],[[139.64719326840918,35.77993351641112],[139.6450671215054,35.78274008639651],[139.64440762223435,35.78600353986789]],[[139.6930924490213,35.765561267323136],[139.68931263230348,35.76864196740013]],[[139.68931263230348,35.76864196740013],[139.69368304538344,35.77208817426591],[139.6958288788326,35.771938055406224]],[[139.69729552646527,35.770397705367735],[139.69602574428666,35.77008441383448],[139.69459846974476,35.76768903898648]],[[139.69459846974476,35.76768903898648],[139.6930924490213,35.765561267323136]],[[139.685158771223,35.7746206141597],[139.68384961595356,35.77494695950684]],[[139.6748528647034,35.745451867032465],[139.67221486761912,35.745171210033924],[139.67440007415908,35.74986405612578]],[[139.67651637779014,35.77228398147419],[139.67349449307045,35.77157254861743],[139.67300232943532,35.772434100333875]],[[139.68931263230348,35.76864196740013],[139.68842673776027,35.76904010872364]],[[139.68842673776027,35.76904010872364],[139.68846611085107,35.77179446345348],[139.68624153122028,35.77435301097505]],[[139.70645961335137,35.76786526547394],[139.7081428129835,35.76536546011486],[139.7091665133446,35.76562653639257],[139.7103083329781,35.763413914938965],[139.712660875154,35.76321810773069]],[[139.64548053895894,35.77028022104276],[139.64645502295647,35.77328912514338]],[[139.63494823716718,35.77628497543011],[139.63672002625364,35.77864771574339],[139.6354404008023,35.780064054549975]],[[139.63869852406685,35.780710218337305],[139.64173025205923,35.777544668470064]],[[139.64173025205923,35.777544668470064],[139.63710391388904,35.77481642136799]],[[139.6976794141007,35.76631186162156],[139.69459846974476,35.76768903898648]],[[139.69835859991716,35.75432846047463],[139.70104581336497,35.75084961907414]],[[139.68919451303105,35.758655799777685],[139.68881062539566,35.75889076842763]],[[139.68646792649244,35.76357708761254],[139.68680259776434,35.76357708761254]],[[139.68680259776434,35.76357708761254],[139.69032648939185,35.76330295752094]],[[139.6832294897733,35.770241059601105],[139.6839874217714,35.768961785840325],[139.68740303739918,35.76850490235433],[139.68842673776027,35.76904010872364]],[[139.68931263230348,35.76864196740013],[139.6874227239446,35.76745407033654],[139.68680259776434,35.76357708761254]],[[139.6930924490213,35.765561267323136],[139.69160611484318,35.763263796079286]],[[139.6793709268739,35.78520073031393],[139.67892797960226,35.782100449516115],[139.67987293378172,35.780560099477626]],[[139.62617788118916,35.78221793384109],[139.62755593936754,35.782779247838164],[139.6289339975459,35.78523336484865]]]}