{"type":"Topology","bbox":[139.6613424539862,35.64157230457077,139.72390883824923,35.692129779354595],"objects":{"town":{"type":"GeometryCollection","geometries":[{"type":"MultiPolygon","arcs":[[[13,10,11,12,2,3,8,9,7]]],"properties":{"name":"恵比寿"}},{"type":"MultiPolygon","arcs":[[[18,-12,19,20,14,15,16,-120,-49,-81,-38]]],"properties":{"name":"恵比寿西"}},{"type":"MultiPolygon","arcs":[[[-21,-20,-11,65,23,82,83,-15]]],"properties":{"name":"恵比寿南"}},{"type":"MultiPolygon","arcs":[[[-52,-51,55,56,57,58,59,-214,-116,-170,24,25,26,-183,77,78,79,-53]]],"properties":{"name":"渋谷"}},{"type":"Polygon","arcs":[[28,29,30,31,32]],"properties":{"name":"元代々木町"}},{"type":"MultiPolygon","arcs":[[[-42,-41,-108,-110,160,234,36,-9,-4]]],"properties":{"name":"広尾"}},{"type":"MultiPolygon","arcs":[[[48,49,50,51,52,-80,108,109,107,40,41,-3,-13,-19,37,80]]],"properties":{"name":"東"}},{"type":"Polygon","arcs":[[42,43,44,45,46,47]],"properties":{"name":"大山町"}},{"type":"MultiPolygon","arcs":[[[63,64,-32,61,171,172,173,174]]],"properties":{"name":"初台"}},{"type":"Polygon","arcs":[[67,68,69,70,71]],"properties":{"name":"宇田川町"}},{"type":"MultiPolygon","arcs":[[[158,159,74,176,183,-78,182,-27,-26,128,129,-128,100,101]]],"properties":{"name":"神宮前"}},{"type":"MultiPolygon","arcs":[[[152,153,-33,-65,-64,-175,233,156,85,86,-220,-89,-165,-126,-125,-124,-123]]],"properties":{"name":"代々木"}},{"type":"MultiPolygon","arcs":[[[134,230,168,-159,-102,-127,164,88,219,-87,220]]],"properties":{"name":"千駄ケ谷"}},{"type":"Polygon","arcs":[[92,93,94,-58,95]],"properties":{"name":"鴬谷町"}},{"type":"Polygon","arcs":[[-84,96,97,-96,-57,98,-16]],"properties":{"name":"猿楽町"}},{"type":"MultiPolygon","arcs":[[[-197,231,106,-48,-47,-143,-29,-154,-218,-198]]],"properties":{"name":"上原"}},{"type":"MultiPolygon","arcs":[[[-213,112,113,-72,114,115,213,-60,214,-210]]],"properties":{"name":"道玄坂"}},{"type":"Polygon","arcs":[[117,118,-93,-98]],"properties":{"name":"鉢山町"}},{"type":"Polygon","arcs":[[-17,-99,-56,-50,119]],"properties":{"name":"代官山町"}},{"type":"Polygon","arcs":[[120,121,122,123,124,125,126,-101,127]],"properties":{"name":"代々木神園町"}},{"type":"MultiPolygon","arcs":[[[137,138,189,190,135,192,193,-144]]],"properties":{"name":"笹塚"}},{"type":"MultiPolygon","arcs":[[[191,-182,-172,-62,-31,-30,142,-46,-45,162]]],"properties":{"name":"西原"}},{"type":"MultiPolygon","arcs":[[[145,146,-178,-192,-163,-44,206,-190,-139,-138,143,-194,204,-149,205]]],"properties":{"name":"幡ケ谷"}},{"type":"MultiPolygon","arcs":[[[228,229,180,-173,181,177,-147,-146,-206,148,149,224]]],"properties":{"name":"本町"}},{"type":"MultiPolygon","arcs":[[[-129,-25,169,-115,-71,-70,-188,-219,-121,-130]]],"properties":{"name":"神南"}},{"type":"Polygon","arcs":[[184,185,186,187,-69,188]],"properties":{"name":"神山町"}},{"type":"MultiPolygon","arcs":[[[-186,194,195,196,197,217,-153,-122,218,-187]]],"properties":{"name":"富ケ谷"}},{"type":"Polygon","arcs":[[199,200,201,202,203]],"properties":{"name":"神泉町"}},{"type":"Polygon","arcs":[[207,-204,208,209,210,-94,-119]],"properties":{"name":"南平台町"}},{"type":"Polygon","arcs":[[-209,-203,211,-113,212]],"properties":{"name":"円山町"}},{"type":"MultiPolygon","arcs":[[[-201,222,-195,-185,-189,-68,-114,-212,-202]]],"properties":{"name":"松涛"}},{"type":"Polygon","arcs":[[-211,-215,-59,-95]],"properties":{"name":"桜丘町"}}]}},"arcs":[[[139.7164626939075,35.64563753206614],[139.71641889305843,35.64563753206614]],[[139.71641889305843,35.64563753206614],[139.71115027664183,35.646299901222726],[139.70957344607535,35.64805947730281]],[[139.70957344607535,35.64805947730281],[139.71068723909454,35.64876229648422]],[[139.71068723909454,35.64876229648422],[139.7124392730573,35.64809992732764],[139.71756397239838,35.64816060236488]],[[139.71756397239838,35.64816060236488],[139.7164626939075,35.64563753206614]],[[139.715705564945,35.64254310516668],[139.71526129919016,35.643862787226745],[139.71641889305843,35.64563753206614]],[[139.7164626939075,35.64563753206614],[139.72270118626776,35.644712237748166]],[[139.72270118626776,35.644712237748166],[139.71906571579504,35.64157230457077],[139.715705564945,35.64254310516668]],[[139.71756397239838,35.64816060236488],[139.71854636287034,35.64839319000765],[139.72308913664523,35.647412276905534]],[[139.72308913664523,35.647412276905534],[139.72390883824923,35.64675496400206],[139.72270118626776,35.644712237748166]],[[139.71231412777425,35.64233579878943],[139.70932315550925,35.64780160839452]],[[139.70932315550925,35.64780160839452],[139.7093294127734,35.647816777153835]],[[139.7093294127734,35.647816777153835],[139.70957344607535,35.64805947730281]],[[139.715705564945,35.64254310516668],[139.71231412777425,35.64233579878943]],[[139.70668884730094,35.64635046375376],[139.70246519399788,35.64682575154551]],[[139.70246519399788,35.64682575154551],[139.70196461286565,35.64801902727798]],[[139.70196461286565,35.64801902727798],[139.7032410947528,35.647816777153835]],[[139.7032410947528,35.647816777153835],[139.70861608465998,35.649257809288386]],[[139.70861608465998,35.649257809288386],[139.7093294127734,35.647816777153835]],[[139.70932315550925,35.64780160839452],[139.70747100532003,35.646360576259966]],[[139.70747100532003,35.646360576259966],[139.70668884730094,35.64635046375376]],[[139.70740217541436,35.64306389923636],[139.70668884730094,35.64635046375376]],[[139.70747100532003,35.646360576259966],[139.71161331418915,35.64224478623356]],[[139.71161331418915,35.64224478623356],[139.71031806050954,35.64163803586112],[139.70740217541436,35.64306389923636]],[[139.7011511685258,35.659542228101294],[139.70127631380885,35.66216136720901]],[[139.70127631380885,35.66216136720901],[139.70237133503556,35.66195911708486],[139.7029532606018,35.66415353093186]],[[139.7029532606018,35.66415353093186],[139.70763995145217,35.661443379268285]],[[139.70763995145217,35.661443379268285],[139.7057314858856,35.660229878523396],[139.7011511685258,35.659542228101294]],[[139.68802968559754,35.66942214666591],[139.6834305964453,35.67010474083491]],[[139.6834305964453,35.67010474083491],[139.68289247172817,35.67218791711363]],[[139.68289247172817,35.67218791711363],[139.68541414918172,35.674549187313055]],[[139.68541414918172,35.674549187313055],[139.68787325399373,35.67355816170473]],[[139.68787325399373,35.67355816170473],[139.68802968559754,35.66942214666591]],[[139.71756397239838,35.64816060236488],[139.7171509929643,35.64986961591393]],[[139.7171509929643,35.64986961591393],[139.71952249607818,35.650451085020855]],[[139.71952249607818,35.650451085020855],[139.72156236419195,35.65116907296158],[139.72175008211653,35.65237751745337]],[[139.72175008211653,35.65237751745337],[139.72308913664523,35.647412276905534]],[[139.70861608465998,35.649257809288386],[139.7077275531503,35.650840416509844]],[[139.7077275531503,35.650840416509844],[139.71213266711382,35.652574711324405]],[[139.71213266711382,35.652574711324405],[139.7132214310764,35.6528376364858]],[[139.7132214310764,35.6528376364858],[139.71281470890645,35.65154323569126]],[[139.71281470890645,35.65154323569126],[139.71068723909454,35.64876229648422]],[[139.6737005506878,35.6658473757216],[139.67251792776295,35.6698215906611],[139.67278699012152,35.67211712957018]],[[139.67278699012152,35.67211712957018],[139.67301225163104,35.67217274835432]],[[139.67301225163104,35.67217274835432],[139.6759156221979,35.67103003515289]],[[139.6759156221979,35.67103003515289],[139.67931957389698,35.66878000252174]],[[139.67931957389698,35.66878000252174],[139.67829338257593,35.66826932095827]],[[139.67829338257593,35.66826932095827],[139.6737005506878,35.6658473757216]],[[139.7065762165462,35.652190436088524],[139.70652615843298,35.65224605487267]],[[139.70652615843298,35.65224605487267],[139.70547493805532,35.65346461187066]],[[139.70547493805532,35.65346461187066],[139.70827819239574,35.658025352170185]],[[139.70827819239574,35.658025352170185],[139.70842210947126,35.658171983510194]],[[139.70842210947126,35.658171983510194],[139.71087495701912,35.657282082963945]],[[139.71087495701912,35.657282082963945],[139.71097507324555,35.65581576956387]],[[139.71097507324555,35.65581576956387],[139.7079027565466,35.654091587255515],[139.7065762165462,35.652190436088524]],[[139.70547493805532,35.65346461187066],[139.70546242352702,35.65347472437686]],[[139.70546242352702,35.65347472437686],[139.7051871039043,35.653732593285156]],[[139.7051871039043,35.653732593285156],[139.70437365956445,35.654475862491395]],[[139.70437365956445,35.654475862491395],[139.70187075390336,35.657428714303954]],[[139.70187075390336,35.657428714303954],[139.7018394675826,35.65747927683499]],[[139.7018394675826,35.65747927683499],[139.70827819239574,35.658025352170185]],[[139.68541414918172,35.674549187313055],[139.68211031370907,35.677653726718724]],[[139.68211031370907,35.677653726718724],[139.68826746163535,35.677653726718724]],[[139.68826746163535,35.677653726718724],[139.68825494710705,35.67763350170631]],[[139.68825494710705,35.67763350170631],[139.68787325399373,35.67355816170473]],[[139.71231412777425,35.64233579878943],[139.71161331418915,35.64224478623356]],[[139.71281470890645,35.65154323569126],[139.7147669753221,35.649394328122185],[139.7171509929643,35.64986961591393]],[[139.6962267016376,35.661220904131724],[139.69463109927867,35.66284396137801]],[[139.69463109927867,35.66284396137801],[139.69552588805252,35.663567005571835]],[[139.69552588805252,35.663567005571835],[139.69876089361946,35.66473500003879]],[[139.69876089361946,35.66473500003879],[139.70057550022375,35.65965852192268]],[[139.70057550022375,35.65965852192268],[139.69951802258194,35.65957762187302],[139.6962267016376,35.661220904131724]],[[139.7067889635274,35.67010474083491],[139.70839708041464,35.67216769210122]],[[139.70839708041464,35.67216769210122],[139.71112524758522,35.67270871118331],[139.71439153947296,35.67199072324259]],[[139.71439153947296,35.67199072324259],[139.71295236871782,35.66829965847689]],[[139.71295236871782,35.66829965847689],[139.71110647579277,35.669396865400394],[139.7067889635274,35.67010474083491]],[[139.70842210947126,35.658171983510194],[139.70897900598084,35.66019448475167],[139.70818433343345,35.66176697946692]],[[139.70818433343345,35.66176697946692],[139.71028677418877,35.66309677403319]],[[139.71028677418877,35.66309677403319],[139.7122014970195,35.66081640388342],[139.71397856003887,35.65974953447855],[139.7133778626802,35.65866749631436]],[[139.7133778626802,35.65866749631436],[139.71087495701912,35.657282082963945]],[[139.7077275531503,35.650840416509844],[139.7065762165462,35.652190436088524]],[[139.71097507324555,35.65581576956387],[139.71213266711382,35.652574711324405]],[[139.70740217541436,35.64306389923636],[139.70202092824303,35.646613388915156]],[[139.70202092824303,35.646613388915156],[139.70246519399788,35.64682575154551]],[[139.697021374185,35.68215884823411],[139.6963080460716,35.68301335500864],[139.69536319918453,35.68695217617641]],[[139.69536319918453,35.68695217617641],[139.69989971569527,35.688489277119935]],[[139.69989971569527,35.688489277119935],[139.70123877022394,35.685925756796365]],[[139.70123877022394,35.685925756796365],[139.697021374185,35.68215884823411]],[[139.70341004088493,35.679317233989835],[139.70226496154498,35.68294256746518]],[[139.70226496154498,35.68294256746518],[139.70431108692293,35.68170884170788],[139.7092480683394,35.68163299791133]],[[139.7092480683394,35.68163299791133],[139.70729580192378,35.6781745207884]],[[139.70729580192378,35.6781745207884],[139.70341004088493,35.679317233989835]],[[139.70091964975214,35.651229747998826],[139.698823466261,35.65350506189549]],[[139.698823466261,35.65350506189549],[139.69900492692142,35.65367697450101]],[[139.69900492692142,35.65367697450101],[139.70437365956445,35.654475862491395]],[[139.7051871039043,35.653732593285156],[139.70091964975214,35.651229747998826]],[[139.70202092824303,35.646613388915156],[139.69822276890233,35.6494145531346]],[[139.69822276890233,35.6494145531346],[139.70091964975214,35.651229747998826]],[[139.70546242352702,35.65347472437686],[139.70259659654508,35.649859503407725],[139.70196461286565,35.64801902727798]],[[139.70563136965913,35.66866876495346],[139.70226496154498,35.669867096939036]],[[139.70226496154498,35.669867096939036],[139.70303460503575,35.67290084880125]],[[139.70303460503575,35.67290084880125],[139.70704551135765,35.67482728123376]],[[139.70704551135765,35.67482728123376],[139.70839708041464,35.67216769210122]],[[139.7067889635274,35.67010474083491],[139.70563136965913,35.66866876495346]],[[139.67829338257593,35.66826932095827],[139.68202896927508,35.66806201458102]],[[139.68202896927508,35.66806201458102],[139.67769268521727,35.66413330591945]],[[139.67769268521727,35.66413330591945],[139.67511469238633,35.664027124604274],[139.6737005506878,35.6658473757216]],[[139.71332780456697,35.652943817800974],[139.7132214310764,35.6528376364858]],[[139.7133778626802,35.65866749631436],[139.7144103112654,35.65736803926671]],[[139.7144103112654,35.65736803926671],[139.71332780456697,35.652943817800974]],[[139.71332780456697,35.652943817800974],[139.7155866769261,35.65226627988508],[139.71716976475676,35.65367191824791]],[[139.71716976475676,35.65367191824791],[139.717876835606,35.65155334819746],[139.71952249607818,35.650451085020855]],[[139.69619541531685,35.65743882681016],[139.6955008589959,35.66005796591787]],[[139.6955008589959,35.66005796591787],[139.6962267016376,35.661220904131724]],[[139.70057550022375,35.65965852192268],[139.70108859588427,35.65949166557026]],[[139.70108859588427,35.65949166557026],[139.7011511685258,35.658950646488165]],[[139.7011511685258,35.658950646488165],[139.69619541531685,35.65743882681016]],[[139.69822276890233,35.6494145531346],[139.69568857692047,35.651745485815404]],[[139.69568857692047,35.651745485815404],[139.698823466261,35.65350506189549]],[[139.70652615843298,35.65224605487267],[139.7032410947528,35.647816777153835]],[[139.70203344277132,35.66915416525141],[139.70012497720475,35.66845640232311],[139.69302923965557,35.6681783084024],[139.69182784493825,35.667824370685146]],[[139.69182784493825,35.667824370685146],[139.69077662456058,35.670382834755614]],[[139.69077662456058,35.670382834755614],[139.6915838116363,35.67444806225098],[139.69282900720268,35.67640483220211]],[[139.69282900720268,35.67640483220211],[139.69418683352382,35.67929195272432]],[[139.69418683352382,35.67929195272432],[139.69775347409086,35.681294228953384]],[[139.69775347409086,35.681294228953384],[139.70353518616798,35.678867227463606]],[[139.70353518616798,35.678867227463606],[139.7037979912624,35.675085150142046],[139.70303460503575,35.67290084880125]],[[139.70226496154498,35.669867096939036],[139.70203344277132,35.66915416525141]],[[139.70127631380885,35.66216136720901],[139.70179566673352,35.66671705125543]],[[139.70179566673352,35.66671705125543],[139.70203344277132,35.66915416525141]],[[139.70563136965913,35.66866876495346],[139.70699545324445,35.66792043949411]],[[139.70699545324445,35.66792043949411],[139.70560008333837,35.666059738351954],[139.7029532606018,35.66415353093186]],[[139.71321517381224,35.681981879375485],[139.71248307390636,35.681218385156825],[139.7098612802264,35.68162794165823]],[[139.7098612802264,35.68162794165823],[139.7043674023003,35.68497518121287],[139.7041796843757,35.687968483050255]],[[139.7041796843757,35.687968483050255],[139.70516833211184,35.68805949560612],[139.70712685579164,35.68462124349561],[139.71108144673616,35.683412799003825],[139.71321517381224,35.681981879375485]],[[139.6614613420051,35.672693542424],[139.6614613420051,35.674407612226155]],[[139.6614613420051,35.674407612226155],[139.67045928785672,35.677653726718724]],[[139.67045928785672,35.677653726718724],[139.67107249974367,35.67547448163103]],[[139.67107249974367,35.67547448163103],[139.671085014272,35.675454256618615]],[[139.671085014272,35.675454256618615],[139.6614613420051,35.672693542424]],[[139.6759156221979,35.67103003515289],[139.6766414648396,35.67222836713846],[139.67900671068932,35.672663204905376],[139.67918817134975,35.67164689803153],[139.68242943418088,35.67293624257298]],[[139.68242943418088,35.67293624257298],[139.68289247172817,35.67218791711363]],[[139.6834305964453,35.67010474083491],[139.67931957389698,35.66878000252174]],[[139.67045928785672,35.677653726718724],[139.67045303059257,35.677668895478035]],[[139.67045303059257,35.677668895478035],[139.6768542118208,35.67997960314642]],[[139.6768542118208,35.67997960314642],[139.67829338257593,35.680459947191274]],[[139.67829338257593,35.680459947191274],[139.67925074399128,35.677815526818044]],[[139.67925074399128,35.677815526818044],[139.67107249974367,35.67547448163103]],[[139.67537749748075,35.681668391683054],[139.67335640115942,35.68327628017003]],[[139.67335640115942,35.68327628017003],[139.67627854351875,35.686224075729484]],[[139.67627854351875,35.686224075729484],[139.6792757730479,35.684464499649394]],[[139.6792757730479,35.684464499649394],[139.67819326634947,35.68300829875553],[139.67537749748075,35.681668391683054]],[[139.69077662456058,35.670382834755614],[139.68807348644663,35.66942214666591]],[[139.68807348644663,35.66942214666591],[139.68802968559754,35.66942214666591]],[[139.68825494710705,35.67763350170631],[139.6921657372025,35.678134070763576],[139.69282900720268,35.67640483220211]],[[139.69418683352382,35.67929195272432],[139.69075159550397,35.6840498868949]],[[139.69075159550397,35.6840498868949],[139.69536319918453,35.68695217617641]],[[139.697021374185,35.68215884823411],[139.69775347409086,35.681294228953384]],[[139.70704551135765,35.67482728123376],[139.71273962173663,35.675767744311045]],[[139.71273962173663,35.675767744311045],[139.7126895636234,35.67437727470753],[139.7148107761712,35.674887956271],[139.7164501793792,35.672112073317074],[139.71439153947296,35.67199072324259]],[[139.7144103112654,35.65736803926671],[139.71790812192677,35.65640735117701]],[[139.71790812192677,35.65640735117701],[139.71716976475676,35.65367191824791]],[[139.67301225163104,35.67217274835432],[139.67579047691484,35.675398637834476],[139.67715456050013,35.6762582008621]],[[139.67715456050013,35.6762582008621],[139.68157218899194,35.6739323244344],[139.68242943418088,35.67293624257298]],[[139.70353518616798,35.678867227463606],[139.70341004088493,35.679317233989835]],[[139.70729580192378,35.6781745207884],[139.70904157862236,35.67753237664424]],[[139.70904157862236,35.67753237664424],[139.7091291803205,35.67653629478281],[139.70675767720664,35.67565650674276],[139.70704551135765,35.67482728123376]],[[139.70904157862236,35.67753237664424],[139.71282722343477,35.676981245055934]],[[139.71282722343477,35.676981245055934],[139.71273962173663,35.675767744311045]],[[139.7011511685258,35.659542228101294],[139.70108859588427,35.65949166557026]],[[139.69876089361946,35.66473500003879],[139.70179566673352,35.66671705125543]],[[139.68211031370907,35.677653726718724],[139.68132815568998,35.678563852277385]],[[139.68132815568998,35.678563852277385],[139.68741021644644,35.68180996676996]],[[139.68741021644644,35.68180996676996],[139.68836757786178,35.68245211091413]],[[139.68836757786178,35.68245211091413],[139.68897453248462,35.68132962272511],[139.68826746163535,35.677653726718724]],[[139.71091250060402,35.66609513212368],[139.70699545324445,35.66792043949411]],[[139.71295236871782,35.66829965847689],[139.71091250060402,35.66609513212368]],[[139.67925074399128,35.67779024555252],[139.67925074399128,35.677815526818044]],[[139.67829338257593,35.680459947191274],[139.6809026617276,35.68143074778718]],[[139.6809026617276,35.68143074778718],[139.6856143816346,35.68411056193214]],[[139.6856143816346,35.68411056193214],[139.68741021644644,35.68180996676996]],[[139.68132815568998,35.678563852277385],[139.67925074399128,35.67779024555252]],[[139.70818433343345,35.66176697946692],[139.70763995145217,35.661443379268285]],[[139.71091250060402,35.66609513212368],[139.70874122994303,35.664178812197385],[139.71028677418877,35.66309677403319]],[[139.6894500845602,35.662201817233836],[139.68802968559754,35.661387760484146]],[[139.68802968559754,35.661387760484146],[139.6877981668239,35.66412824966635]],[[139.6877981668239,35.66412824966635],[139.69321695758015,35.666383338550595]],[[139.69321695758015,35.666383338550595],[139.69552588805252,35.663567005571835]],[[139.69463109927867,35.66284396137801],[139.691489952674,35.66314228031113],[139.6894500845602,35.662201817233836]],[[139.671085014272,35.675454256618615],[139.67181711417786,35.67198061073638]],[[139.67181711417786,35.67198061073638],[139.6640956502134,35.67141936664187],[139.66168034625045,35.67155588547567],[139.6614613420051,35.672693542424]],[[139.67715456050013,35.6762582008621],[139.67925074399128,35.67779024555252]],[[139.6614613420051,35.674407612226155],[139.6618868359675,35.67567673175518],[139.66509681247783,35.67695090753731],[139.6674057429502,35.67991387185607],[139.66967087257348,35.68079871614922]],[[139.66967087257348,35.68079871614922],[139.67045303059257,35.677668895478035]],[[139.68802968559754,35.661387760484146],[139.68777939503144,35.66124618539724]],[[139.68777939503144,35.66124618539724],[139.68405632286058,35.66307149276767],[139.68267346748283,35.66305126775526]],[[139.68267346748283,35.66305126775526],[139.6858897012573,35.66785470820377]],[[139.6858897012573,35.66785470820377],[139.68811103003154,35.667738414382384]],[[139.68811103003154,35.667738414382384],[139.6877981668239,35.66412824966635]],[[139.69341719003305,35.653788212069294],[139.69003826739058,35.65779276452742]],[[139.69003826739058,35.65779276452742],[139.69261626022148,35.65862199003642]],[[139.69261626022148,35.65862199003642],[139.69362993701424,35.65908210906886]],[[139.69362993701424,35.65908210906886],[139.69329830201414,35.656068582219056],[139.69455601210882,35.65499160030797]],[[139.69455601210882,35.65499160030797],[139.69341719003305,35.653788212069294]],[[139.66967087257348,35.68079871614922],[139.67335640115942,35.68327628017003]],[[139.67537749748075,35.681668391683054],[139.6768542118208,35.67997960314642]],[[139.67278699012152,35.67211712957018],[139.67181711417786,35.67198061073638]],[[139.69568857692047,35.651745485815404],[139.69341719003305,35.653788212069294]],[[139.69455601210882,35.65499160030797],[139.69488138984477,35.65541632556868]],[[139.69488138984477,35.65541632556868],[139.69745312541153,35.65600285092871]],[[139.69745312541153,35.65600285092871],[139.69900492692142,35.65367697450101]],[[139.69362993701424,35.65908210906886],[139.6955008589959,35.66005796591787]],[[139.69619541531685,35.65743882681016],[139.69488138984477,35.65541632556868]],[[139.7011511685258,35.658950646488165],[139.7018394675826,35.65747927683499]],[[139.70187075390336,35.657428714303954],[139.69745312541153,35.65600285092871]],[[139.6792757730479,35.684464499649394],[139.67934460295356,35.68449989342112]],[[139.67934460295356,35.68449989342112],[139.6809026617276,35.68143074778718]],[[139.68811103003154,35.667738414382384],[139.68807348644663,35.66942214666591]],[[139.69182784493825,35.667824370685146],[139.69321695758015,35.666383338550595]],[[139.70226496154498,35.68294256746518],[139.70123877022394,35.685925756796365]],[[139.69989971569527,35.688489277119935],[139.70215858805437,35.689328615135146],[139.70270297003566,35.687826907963355],[139.7041796843757,35.687968483050255]],[[139.7098612802264,35.68162794165823],[139.7092480683394,35.68163299791133]],[[139.69003826739058,35.65779276452742],[139.68777939503144,35.66124618539724]],[[139.6894500845602,35.662201817233836],[139.69261626022148,35.65862199003642]],[[139.67627854351875,35.686224075729484],[139.6798827276707,35.68905557746755]],[[139.6798827276707,35.68905557746755],[139.68353071267174,35.68596620682119]],[[139.68353071267174,35.68596620682119],[139.67934460295356,35.68449989342112]],[[139.68471959286077,35.68613811942672],[139.68353071267174,35.68596620682119]],[[139.6798827276707,35.68905557746755],[139.68349942635098,35.69209438558287],[139.6848760244646,35.69139156640146],[139.68313650503012,35.68851961463856],[139.68396246389827,35.687422407715054],[139.6857207551252,35.68777634543232],[139.68471959286077,35.68613811942672]],[[139.68471959286077,35.68613811942672],[139.6856143816346,35.68411056193214]],[[139.71321517381224,35.681981879375485],[139.7146105437183,35.68072792860577],[139.71282722343477,35.676981245055934]],[[139.68267346748283,35.66305126775526],[139.67769268521727,35.66413330591945]],[[139.68202896927508,35.66806201458102],[139.6858897012573,35.66785470820377]],[[139.68836757786178,35.68245211091413],[139.69075159550397,35.6840498868949]],[[139.71790812192677,35.65640735117701],[139.718246014191,35.6570747765867],[139.7220441735317,35.65572981326111],[139.72175008211653,35.65237751745337]]]}