{"type":"Topology","bbox":[139.66160935107976,35.60055333719412,139.7177480064779,35.66415983304567],"objects":{"town":{"type":"GeometryCollection","geometries":[{"type":"MultiPolygon","arcs":[[[4,5,24,9,10,11,0,1,2,12,25,7,8]]],"properties":{"name":"青葉台"}},{"type":"MultiPolygon","arcs":[[[26,22,-2,23,14,15,19]]],"properties":{"name":"駒場"}},{"type":"MultiPolygon","arcs":[[[-154,32,33,27,28,29,30,-138,-113,205,206]]],"properties":{"name":"中央町"}},{"type":"MultiPolygon","arcs":[[[44,45,144,145,-143,54,55,34,35,36,37,38,39,40,-52]]],"properties":{"name":"中目黒"}},{"type":"MultiPolygon","arcs":[[[-58,249,-128,-140,64,-5,-9,100,-45,51,-41,47,-147,-59]]],"properties":{"name":"上目黒"}},{"type":"MultiPolygon","arcs":[[[155,136,56,57,58,59,60,-80,-85,-29,-28,156]]],"properties":{"name":"五本木"}},{"type":"MultiPolygon","arcs":[[[90,193,123,234,-115,-139,121,-94,66,67,-179,87,88,91,92]]],"properties":{"name":"下目黒"}},{"type":"MultiPolygon","arcs":[[[-126,-103,70,71,-15,-24,-1,-12,-11]]],"properties":{"name":"大橋"}},{"type":"MultiPolygon","arcs":[[[75,76,117,118,119,116,73,-211,212]]],"properties":{"name":"柿の木坂"}},{"type":"MultiPolygon","arcs":[[[-39,78,79,-61,-60,146,-48,-40]]],"properties":{"name":"祐天寺"}},{"type":"MultiPolygon","arcs":[[[-107,83,81,209,210,211]]],"properties":{"name":"東が丘"}},{"type":"MultiPolygon","arcs":[[[-114,137,-31,-30,84,-79,-38,-37,-95,-122,138]]],"properties":{"name":"中町"}},{"type":"MultiPolygon","arcs":[[[-92,-89,-88,178,-68,-67,93,94,-36,-35,-56,-55,142,143,97,98,99]]],"properties":{"name":"目黒"}},{"type":"MultiPolygon","arcs":[[[-65,139,127,124,101,-71,102,125,-10,-25,-6]]],"properties":{"name":"東山"}},{"type":"MultiPolygon","arcs":[[[245,105,-84,106,-212,-74,-117,-133,-132,-131,-160,-193]]],"properties":{"name":"八雲"}},{"type":"MultiPolygon","arcs":[[[165,161,204,-188,-187,-186,-231,-241,-206,112,113,114,115,222]]],"properties":{"name":"目黒本町"}},{"type":"MultiPolygon","arcs":[[[196,128,129,130,131,132,-120,133,197,198,199]]],"properties":{"name":"中根"}},{"type":"MultiPolygon","arcs":[[[149,229,230,185,186,187,179,180,181,218,219,217,-208,200,-118,-77,147,166,167,168]]],"properties":{"name":"碑文谷"}},{"type":"MultiPolygon","arcs":[[[243,-157,-34,-33,153,-207,240,-230,-150,-169,-168]]],"properties":{"name":"鷹番"}},{"type":"MultiPolygon","arcs":[[[159,-130,-129,194,195,157,191,192]]],"properties":{"name":"自由が丘"}},{"type":"MultiPolygon","arcs":[[[-190,213,169,170,171,172,214]]],"properties":{"name":"大岡山"}},{"type":"MultiPolygon","arcs":[[[177,174,175,237,238,239]]],"properties":{"name":"洗足"}},{"type":"MultiPolygon","arcs":[[[-195,-197,-200,-170,-214,189,190,215,220]]],"properties":{"name":"緑が丘"}},{"type":"MultiPolygon","arcs":[[[-199,-198,-134,-119,-201,207,-218,233,-171]]],"properties":{"name":"平町"}},{"type":"MultiPolygon","arcs":[[[-220,-219,-182,228,-175,226,242,-172,-234]]],"properties":{"name":"南"}},{"type":"MultiPolygon","arcs":[[[236,-99,-98,-144,-146,241]]],"properties":{"name":"三田"}},{"type":"MultiPolygon","arcs":[[[-229,-181,-180,-205,-162,247,-239,-238,-176]]],"properties":{"name":"原町"}}]}},"arcs":[[[139.68945129448605,35.65256320918955],[139.6900464237462,35.655317645903594]],[[139.6900464237462,35.655317645903594],[139.69075384154598,35.65681890933203]],[[139.69075384154598,35.65681890933203],[139.69337016451985,35.65382910504658]],[[139.69337016451985,35.65382910504658],[139.68945129448605,35.65256320918955]],[[139.69730026340758,35.64567393676158],[139.69717674601398,35.64575663347586]],[[139.69717674601398,35.64575663347586],[139.69381931867844,35.64773499333283]],[[139.69381931867844,35.64773499333283],[139.6968791813839,35.65060393318972]],[[139.6968791813839,35.65060393318972],[139.70010186247185,35.6475823224757],[139.70146055380164,35.647022529332894]],[[139.70146055380164,35.647022529332894],[139.69850736520883,35.64732150976144],[139.69730026340758,35.64567393676158]],[[139.69215744829162,35.64872735390417],[139.69042259035402,35.64994872076121]],[[139.69042259035402,35.64994872076121],[139.68945129448605,35.65254412533241]],[[139.68945129448605,35.65254412533241],[139.68945129448605,35.65256320918955]],[[139.69337016451985,35.65382910504658],[139.6939203783641,35.65333292476091]],[[139.6939203783641,35.65333292476091],[139.69362281373404,35.65123370047538],[139.69215744829162,35.64872735390417]],[[139.68293855918634,35.65570568433213],[139.68175952952,35.655597542475]],[[139.68175952952,35.655597542475],[139.68058049985368,35.65568023918927],[139.6777789007894,35.65967512661749]],[[139.6777789007894,35.65967512661749],[139.6812486166646,35.65918530761754]],[[139.6812486166646,35.65918530761754],[139.6834607008957,35.65875274018901]],[[139.6834607008957,35.65875274018901],[139.68293855918634,35.65570568433213]],[[139.6777789007894,35.65967512661749],[139.67474711021885,35.66396899447426],[139.6796709626825,35.66401352347426],[139.6819167334755,35.663243807902894]],[[139.6819167334755,35.663243807902894],[139.6812486166646,35.65918530761754]],[[139.6834607008957,35.65875274018901],[139.68864843142754,35.65704155433201],[139.6905797943095,35.65706063818915]],[[139.6905797943095,35.65706063818915],[139.69075384154598,35.65681890933203]],[[139.6900464237462,35.655317645903594],[139.68293855918634,35.65570568433213]],[[139.69381931867844,35.64773499333283],[139.69215744829162,35.64872735390417]],[[139.6939203783641,35.65333292476091],[139.6968791813839,35.65060393318972]],[[139.6819167334755,35.663243807902894],[139.68405583015584,35.66307205318863],[139.68799715789757,35.661068248188805],[139.6905797943095,35.65706063818915]],[[139.68382563864955,35.63063585733433],[139.6866160088599,35.63218164976277]],[[139.6866160088599,35.63218164976277],[139.68950743875587,35.633740164762635]],[[139.68950743875587,35.633740164762635],[139.6921349905837,35.63248063019132],[139.6935722838912,35.630864863620026]],[[139.6935722838912,35.630864863620026],[139.6935722838912,35.6308521410486]],[[139.6935722838912,35.6308521410486],[139.689788160105,35.62950354847729]],[[139.689788160105,35.62950354847729],[139.68973763026216,35.63024145762008],[139.68642511834247,35.63087758619145]],[[139.68642511834247,35.63087758619145],[139.68382563864955,35.63063585733433]],[[139.70338068782965,35.63534320876249],[139.70162337218412,35.635165092762506]],[[139.70162337218412,35.635165092762506],[139.69863088260246,35.633657468048355]],[[139.69863088260246,35.633657468048355],[139.69823225828668,35.63352388104837]],[[139.69823225828668,35.63352388104837],[139.69772695985827,35.63532412490535],[139.69319611728338,35.63559766019104]],[[139.69319611728338,35.63559766019104],[139.6961043904603,35.63704803333377]],[[139.6961043904603,35.63704803333377],[139.69750238277896,35.638180342190815]],[[139.69750238277896,35.638180342190815],[139.6975809847567,35.63825031633367]],[[139.6975809847567,35.63825031633367],[139.6997706112799,35.63690808504807]],[[139.6997706112799,35.63690808504807],[139.70338068782965,35.63534320876249]],[[139.70203322535386,35.640864804762],[139.70071383501295,35.64247421004758]],[[139.70071383501295,35.64247421004758],[139.70212305618557,35.64643729104723]],[[139.70212305618557,35.64643729104723],[139.70525029201482,35.644433486047404]],[[139.70525029201482,35.644433486047404],[139.70203322535386,35.640864804762]],[[139.69750238277896,35.638180342190815],[139.69442567679255,35.64090297247629]],[[139.69442567679255,35.64090297247629],[139.6934768386325,35.642175229619035]],[[139.6934768386325,35.642175229619035],[139.6971992037219,35.642378790761875],[139.69922039743562,35.64404544761887]],[[139.69922039743562,35.64404544761887],[139.70071383501295,35.64247421004758]],[[139.70071383501295,35.64247421004758],[139.6975809847567,35.63825031633367]],[[139.6997706112799,35.63690808504807],[139.70351543407725,35.63911545119073]],[[139.70351543407725,35.63911545119073],[139.7050987024863,35.63730248476232]],[[139.7050987024863,35.63730248476232],[139.70611491377014,35.63604931147672]],[[139.70611491377014,35.63604931147672],[139.70338068782965,35.63534320876249]],[[139.68530784737294,35.63645643376239],[139.6865991655789,35.63937626390499],[139.68601526517276,35.63985972161924]],[[139.68601526517276,35.63985972161924],[139.6867395262535,35.64043223733347]],[[139.6867395262535,35.64043223733347],[139.68760976243578,35.639770663619245],[139.69243816964072,35.63923631561929]],[[139.69243816964072,35.63923631561929],[139.69159600559337,35.63818670347653]],[[139.69159600559337,35.63818670347653],[139.6897207869812,35.63584575033388]],[[139.6897207869812,35.63584575033388],[139.68530784737294,35.63645643376239]],[[139.6934768386325,35.642175229619035],[139.69095596091736,35.6423915133333]],[[139.69095596091736,35.6423915133333],[139.69059102316348,35.64426809261885]],[[139.69059102316348,35.64426809261885],[139.69183181152664,35.644293537761705],[139.69442567679255,35.6461001429044],[139.69717674601398,35.64575663347586]],[[139.69730026340758,35.64567393676158],[139.69922039743562,35.64404544761887]],[[139.70341998881852,35.631112953762866],[139.70486851098002,35.63148826961997]],[[139.70486851098002,35.63148826961997],[139.70671004303028,35.631863585477085]],[[139.70671004303028,35.631863585477085],[139.70765326676334,35.62711170504893]],[[139.70765326676334,35.62711170504893],[139.70585665012894,35.62693995033466],[139.70341998881852,35.631112953762866]],[[139.68598157861084,35.65122733918967],[139.6845274420224,35.650527597761155]],[[139.6845274420224,35.650527597761155],[139.6842691783812,35.65235964804671],[139.68296663132125,35.65304666690379],[139.68175952952,35.655597542475]],[[139.68945129448605,35.65254412533241],[139.68598157861084,35.65122733918967]],[[139.67355123727157,35.622429798763626],[139.6721981603688,35.62634835076328]],[[139.6721981603688,35.62634835076328],[139.67658302784213,35.62747429833461]],[[139.67658302784213,35.62747429833461],[139.67830665692574,35.6252923773348]],[[139.67830665692574,35.6252923773348],[139.67901407472556,35.62376566876351]],[[139.67901407472556,35.62376566876351],[139.67355123727157,35.622429798763626]],[[139.69319611728338,35.63559766019104],[139.6928704805184,35.63550224090533]],[[139.6928704805184,35.63550224090533],[139.6897207869812,35.63584575033388]],[[139.69159600559337,35.63818670347653],[139.6961043904603,35.63704803333377]],[[139.6639000372886,35.6242682103349],[139.66366984578235,35.62638651847757],[139.66183954258605,35.62795775604886],[139.66249081611602,35.63028598662008],[139.66160935107976,35.631946282191365],[139.6646186839424,35.63199081119136]],[[139.6646186839424,35.63199081119136],[139.66482080331375,35.63093483776288],[139.6687228300666,35.6254768546205]],[[139.6687228300666,35.6254768546205],[139.6639000372886,35.6242682103349]],[[139.68950743875587,35.633740164762635],[139.6928704805184,35.63550224090533]],[[139.69823225828668,35.63352388104837],[139.6935722838912,35.630864863620026]],[[139.71229639787788,35.62825037519168],[139.71072435832278,35.62921092933446],[139.70825962487746,35.63259513333416]],[[139.70825962487746,35.63259513333416],[139.7108478757164,35.63376560990549]],[[139.7108478757164,35.63376560990549],[139.71085910457037,35.63376560990549]],[[139.71085910457037,35.63376560990549],[139.71438496471538,35.62943357433444]],[[139.71438496471538,35.62943357433444],[139.71229639787788,35.62825037519168]],[[139.71085910457037,35.63376560990549],[139.7144411089852,35.63389283561976]],[[139.7144411089852,35.63389283561976],[139.71527204417862,35.62989794819154],[139.71438496471538,35.62943357433444]],[[139.70341998881852,35.631112953762866],[139.70132019312706,35.63050227033435]],[[139.70132019312706,35.63050227033435],[139.69863088260246,35.633657468048355]],[[139.70162337218412,35.635165092762506],[139.70444181452936,35.632754165477],[139.70486851098002,35.63148826961997]],[[139.7108478757164,35.63376560990549],[139.70770379660618,35.63666635619094]],[[139.70770379660618,35.63666635619094],[139.70918600532957,35.63794497461941],[139.7113307164369,35.63751876847659],[139.71307118880148,35.63843479361936]],[[139.71307118880148,35.63843479361936],[139.71352034296007,35.63777958119085]],[[139.71352034296007,35.63777958119085],[139.7144411089852,35.63389283561976]],[[139.70146055380164,35.647022529332894],[139.70212305618557,35.64643729104723]],[[139.68448252660653,35.646755355332914],[139.6845274420224,35.650527597761155]],[[139.68598157861084,35.65122733918967],[139.68906389902423,35.64998688847549]],[[139.68906389902423,35.64998688847549],[139.6890133691814,35.648714631332744],[139.68448252660653,35.646755355332914]],[[139.66713394723055,35.62050232919237],[139.66585947230553,35.62005703919241]],[[139.66585947230553,35.62005703919241],[139.66531487288822,35.62260791476361],[139.6639000372886,35.6242682103349]],[[139.6687228300666,35.6254768546205],[139.6687509022015,35.62547049333479]],[[139.6687509022015,35.62547049333479],[139.67024433977886,35.621571025192274]],[[139.67024433977886,35.621571025192274],[139.66713394723055,35.62050232919237]],[[139.6963065098317,35.62492978404912],[139.69618860686506,35.62484072604913]],[[139.69618860686506,35.62484072604913],[139.69548680349223,35.62536871276337]],[[139.69548680349223,35.62536871276337],[139.69324103269923,35.62769058204888]],[[139.69324103269923,35.62769058204888],[139.69586858452706,35.628746555477356]],[[139.69586858452706,35.628746555477356],[139.6959191143699,35.628746555477356]],[[139.6959191143699,35.628746555477356],[139.69887230296268,35.62569949962048]],[[139.69887230296268,35.62569949962048],[139.6963065098317,35.62492978404912]],[[139.6754657568726,35.61823771147828],[139.67355123727157,35.622429798763626]],[[139.67901407472556,35.62376566876351],[139.68039522376324,35.620375103478096]],[[139.68039522376324,35.620375103478096],[139.67775644308148,35.6191728204782]],[[139.67775644308148,35.6191728204782],[139.6754657568726,35.61823771147828]],[[139.7017019741619,35.6259412284776],[139.70069137730502,35.62933179376302],[139.7011517603176,35.63043229619149]],[[139.7011517603176,35.63043229619149],[139.70132019312706,35.63050227033435]],[[139.70765326676334,35.62711170504893],[139.70772063988713,35.62613842833473]],[[139.70772063988713,35.62613842833473],[139.70401511807867,35.62478983576342],[139.7017019741619,35.6259412284776]],[[139.68491483748417,35.6428558871904],[139.68448252660653,35.646755355332914]],[[139.68906389902423,35.64998688847549],[139.69042259035402,35.64994872076121]],[[139.69215744829162,35.64872735390417],[139.68963657057645,35.6461001429044],[139.68815997628008,35.64587749790442]],[[139.68815997628008,35.64587749790442],[139.68601526517276,35.64296402904753],[139.68491483748417,35.6428558871904]],[[139.672125172818,35.61302781847874],[139.6686610713698,35.61380389533581]],[[139.6686610713698,35.61380389533581],[139.6674988849844,35.61410287576436]],[[139.6674988849844,35.61410287576436],[139.66970535478853,35.61496164933571]],[[139.66970535478853,35.61496164933571],[139.67237220760524,35.616418383764156]],[[139.67237220760524,35.616418383764156],[139.6754657568726,35.61823771147828]],[[139.67775644308148,35.6191728204782],[139.6759542120201,35.61712448647838]],[[139.6759542120201,35.61712448647838],[139.672125172818,35.61302781847874]],[[139.6866160088599,35.63218164976277],[139.6838144097956,35.63375288733406]],[[139.6838144097956,35.63375288733406],[139.68530784737294,35.63645643376239]],[[139.69586858452706,35.628746555477356],[139.6935722838912,35.6308521410486]],[[139.7011517603176,35.63043229619149],[139.6959191143699,35.628746555477356]],[[139.69059102316348,35.64426809261885],[139.68815997628008,35.64587749790442]],[[139.70203322535386,35.640864804762],[139.70351543407725,35.63911545119073]],[[139.70825962487746,35.63259513333416],[139.70611491377014,35.63604931147672]],[[139.7050987024863,35.63730248476232],[139.70621035902883,35.638059477762255]],[[139.70621035902883,35.638059477762255],[139.70770379660618,35.63666635619094]],[[139.70525029201482,35.644433486047404],[139.7102022166134,35.64167268804765]],[[139.7102022166134,35.64167268804765],[139.70621035902883,35.638059477762255]],[[139.69243816964072,35.63923631561929],[139.69442567679255,35.64090297247629]],[[139.67830665692574,35.6252923773348],[139.67944077117622,35.625260570906235]],[[139.67944077117622,35.625260570906235],[139.68492045191115,35.62462444233486]],[[139.68492045191115,35.62462444233486],[139.68684058593917,35.624179152334904]],[[139.68684058593917,35.624179152334904],[139.68466218826995,35.62294506290644]],[[139.68466218826995,35.62294506290644],[139.68039522376324,35.620375103478096]],[[139.6854875090364,35.6271435114775],[139.68642511834247,35.63087758619145]],[[139.689788160105,35.62950354847729],[139.68935023480034,35.62690178262038]],[[139.68935023480034,35.62690178262038],[139.6854875090364,35.6271435114775]],[[139.6808949077647,35.628994645620196],[139.6838144097956,35.63375288733406]],[[139.68382563864955,35.63063585733433],[139.6808949077647,35.628994645620196]],[[139.6681108575255,35.60653930705074],[139.66540470371993,35.60725813233639]],[[139.66540470371993,35.60725813233639],[139.66539908929295,35.613848424335806]],[[139.66539908929295,35.613848424335806],[139.6674988849844,35.61410287576436]],[[139.6686610713698,35.61380389533581],[139.6681108575255,35.60653930705074]],[[139.69902389249123,35.61604306790704],[139.69715990273303,35.618155014764]],[[139.69715990273303,35.618155014764],[139.6975192260599,35.62239163104935]],[[139.6975192260599,35.62239163104935],[139.6996751660212,35.62220079247793]],[[139.6996751660212,35.62220079247793],[139.7022746457141,35.62020334876382]],[[139.7022746457141,35.62020334876382],[139.69902389249123,35.61604306790704]],[[139.67944077117622,35.625260570906235],[139.68044575360608,35.62796411733457]],[[139.68044575360608,35.62796411733457],[139.6854875090364,35.6271435114775]],[[139.6854875090364,35.6271435114775],[139.68492045191115,35.62462444233486]],[[139.6798000945031,35.608530389479135],[139.67892424389382,35.61302145719303]],[[139.67892424389382,35.61302145719303],[139.68408390229075,35.613543082621554]],[[139.68408390229075,35.613543082621554],[139.6842298773923,35.61308507005016]],[[139.6842298773923,35.61308507005016],[139.6848418499334,35.60906473747909]],[[139.6848418499334,35.60906473747909],[139.6798000945031,35.608530389479135]],[[139.69020924212867,35.611195768193184],[139.69054610774762,35.61351127619298]],[[139.69054610774762,35.61351127619298],[139.69354982618327,35.61309779262159]],[[139.69354982618327,35.61309779262159],[139.69559347760492,35.612480747907355]],[[139.69559347760492,35.612480747907355],[139.6955990920319,35.60813598976488],[139.69139950064897,35.611093987621764],[139.69020924212867,35.611195768193184]],[[139.70825962487746,35.63259513333416],[139.70671004303028,35.631863585477085]],[[139.69281433624857,35.61798962133545],[139.69281433624857,35.617964176192594]],[[139.69281433624857,35.617964176192594],[139.6900464237462,35.61784967304975]],[[139.6900464237462,35.61784967304975],[139.68828349367368,35.61775425376404]],[[139.68828349367368,35.61775425376404],[139.68665530984876,35.61991072962099]],[[139.68665530984876,35.61991072962099],[139.68665530984876,35.6199170909067]],[[139.68665530984876,35.6199170909067],[139.68986114765576,35.62197178619224]],[[139.68986114765576,35.62197178619224],[139.69221359256144,35.623485772192105]],[[139.69221359256144,35.623485772192105],[139.6928087218216,35.62025423904953]],[[139.6928087218216,35.62025423904953],[139.69281433624857,35.61798962133545]],[[139.67841333103843,35.606755590765005],[139.680148188976,35.60622124276505]],[[139.680148188976,35.60622124276505],[139.68068155953935,35.6041601861938]],[[139.68068155953935,35.6041601861938],[139.68017626111094,35.60314238047961],[139.67841333103843,35.606755590765005]],[[139.66540470371993,35.60725813233639],[139.66331052245548,35.60851766690771],[139.66348456969192,35.61177464519314],[139.66283891058893,35.61386114690724]],[[139.66283891058893,35.61386114690724],[139.66539908929295,35.613848424335806]],[[139.71229639787788,35.62825037519168],[139.70772063988713,35.62613842833473]],[[139.672125172818,35.61302781847874],[139.67155811569276,35.61228990933595],[139.6713279241865,35.60751894505065]],[[139.6713279241865,35.60751894505065],[139.6681108575255,35.60653930705074]],[[139.67597105530103,35.61229627062166],[139.672125172818,35.61302781847874]],[[139.6759542120201,35.61712448647838],[139.67785750276715,35.61573136490707]],[[139.67785750276715,35.61573136490707],[139.67892424389382,35.61302145719303]],[[139.67892424389382,35.61302145719303],[139.67597105530103,35.61229627062166]],[[139.68221991253256,35.61758886033548],[139.68039522376324,35.620375103478096]],[[139.68466218826995,35.62294506290644],[139.68665530984876,35.6199170909067]],[[139.68665530984876,35.61991072962099],[139.68221991253256,35.61758886033548]],[[139.6928087218216,35.62025423904953],[139.6975192260599,35.62239163104935]],[[139.69715990273303,35.618155014764],[139.69281433624857,35.61798962133545]],[[139.69324103269923,35.62769058204888],[139.69247185620264,35.62727073719177]],[[139.69247185620264,35.62727073719177],[139.68935023480034,35.62690178262038]],[[139.68221991253256,35.61758886033548],[139.6825567781515,35.61703542847839]],[[139.6825567781515,35.61703542847839],[139.67907021899538,35.61548327476424],[139.67785750276715,35.61573136490707]],[[139.6646186839424,35.63199081119136],[139.67238905088618,35.629719832191554]],[[139.67238905088618,35.629719832191554],[139.67166478980545,35.627951394763144],[139.6721981603688,35.62634835076328]],[[139.6721981603688,35.62634835076328],[139.6687509022015,35.62547049333479]],[[139.67238905088618,35.629719832191554],[139.67658302784213,35.62747429833461]],[[139.680148188976,35.60622124276505],[139.6798000945031,35.608530389479135]],[[139.6848418499334,35.60906473747909],[139.6851001135746,35.60693370676499],[139.6842972505161,35.60224543919397],[139.6822367558135,35.60424288290808],[139.68068155953935,35.6041601861938]],[[139.67841333103843,35.606755590765005],[139.67577455035664,35.60843497019343]],[[139.67577455035664,35.60843497019343],[139.67597105530103,35.61229627062166]],[[139.68332034022114,35.61577589390707],[139.6825567781515,35.61703542847839]],[[139.68828349367368,35.61775425376404],[139.68831718023557,35.6176906409069]],[[139.68831718023557,35.6176906409069],[139.68332034022114,35.61577589390707]],[[139.67577455035664,35.60843497019343],[139.6713279241865,35.60751894505065]],[[139.6996751660212,35.62220079247793],[139.69618860686506,35.62484072604913]],[[139.6963065098317,35.62492978404912],[139.7009552553732,35.623632081763525],[139.70404319021358,35.6219527023351],[139.7022746457141,35.62020334876382]],[[139.68662162328687,35.61330771505014],[139.68332034022114,35.61577589390707]],[[139.68831718023557,35.6176906409069],[139.6883115658086,35.615457829621384],[139.68662162328687,35.61330771505014]],[[139.69221359256144,35.623485772192105],[139.69548118906525,35.62457991333487],[139.69548680349223,35.62536871276337]],[[139.69020924212867,35.611195768193184],[139.68974885911612,35.61126574233604]],[[139.68974885911612,35.61126574233604],[139.68662162328687,35.61330771505014]],[[139.6900464237462,35.61784967304975],[139.69054610774762,35.61351127619298]],[[139.68684058593917,35.624179152334904],[139.68935584922733,35.625565912620495]],[[139.68935584922733,35.625565912620495],[139.68986114765576,35.62197178619224]],[[139.67237220760524,35.616418383764156],[139.67214201609895,35.61799598262116],[139.67024433977886,35.621571025192274]],[[139.67024433977886,35.621571025192274],[139.67355123727157,35.622429798763626]],[[139.68332034022114,35.61577589390707],[139.68408390229075,35.613543082621554]],[[139.7017019741619,35.6259412284776],[139.69887230296268,35.62569949962048]],[[139.71307118880148,35.63843479361936],[139.71161143778602,35.64224520376189]],[[139.71161143778602,35.64224520376189],[139.71570435505626,35.64254418419043],[139.7177480064779,35.64131645604768],[139.71553030781982,35.6406294371906],[139.71352034296007,35.63777958119085]],[[139.69354982618327,35.61309779262159],[139.6927469631248,35.616602861049856]],[[139.6927469631248,35.616602861049856],[139.69571699499852,35.616195738764176],[139.69723850471078,35.61492348162143]],[[139.69723850471078,35.61492348162143],[139.69559347760492,35.612480747907355]],[[139.69247185620264,35.62727073719177],[139.68935584922733,35.625565912620495]],[[139.7102022166134,35.64167268804765],[139.71161143778602,35.64224520376189]],[[139.68974885911612,35.61126574233604],[139.68585244679025,35.61178736776456],[139.6842298773923,35.61308507005016]],[[139.68044575360608,35.62796411733457],[139.6808949077647,35.628994645620196]],[[139.66970535478853,35.61496164933571],[139.66713394723055,35.62050232919237]],[[139.66283891058893,35.61386114690724],[139.664742201336,35.61683186733555],[139.66479834560582,35.618377659763986],[139.6663872284419,35.61858122090682],[139.66585947230553,35.62005703919241]],[[139.6927469631248,35.616602861049856],[139.69281433624857,35.617964176192594]],[[139.69902389249123,35.61604306790704],[139.69723850471078,35.61492348162143]],[[139.6867395262535,35.64043223733347],[139.68796347133568,35.64195894590477],[139.69095596091736,35.6423915133333]],[[139.68601526517276,35.63985972161924],[139.68491483748417,35.6428558871904]]]}