{"type":"Topology","bbox":[139.7494405817784,35.724781400577996,139.81464458982643,35.754825374283286],"objects":{"town":{"type":"GeometryCollection","geometries":[{"type":"MultiPolygon","arcs":[[[34,26,27,52,53,54,44,9,3,36]]],"properties":{"name":"南千住"}},{"type":"MultiPolygon","arcs":[[[47,48,-19,-18,38,39,121,-111,118,73,6,125]]],"properties":{"name":"町屋"}},{"type":"MultiPolygon","arcs":[[[-131,133,137,-26,-25,113,-68,87,109,110,-122,-40,92,13,-116,-105]]],"properties":{"name":"東尾久"}},{"type":"MultiPolygon","arcs":[[[103,104,115,-14,-93,-39,17,18,-49,128,-54,-53,-28,-51,126,-80,-79,100,106]]],"properties":{"name":"荒川"}},{"type":"MultiPolygon","arcs":[[[96,141,144,136,66,67,-114,24,25,21,95]]],"properties":{"name":"西尾久"}},{"type":"MultiPolygon","arcs":[[[-127,50,-27,-35,51,145,84,107,-56,-61,123,77,78,79]]],"properties":{"name":"東日暮里"}},{"type":"MultiPolygon","arcs":[[[143,139,129,130,-104,-107,-101,-78,-124,60,55,56,63]]],"properties":{"name":"西日暮里"}}]}},"arcs":[[[139.7996266049745,35.72893689769115],[139.79855063124432,35.73138272173316]],[[139.79855063124432,35.73138272173316],[139.79952226812793,35.730066664079104],[139.8068062842285,35.73218497605653],[139.80594550524435,35.7340689216024]],[[139.80594550524435,35.7340689216024],[139.8080387632285,35.73412000146569],[139.81103844756714,35.73252751161032]],[[139.81103844756714,35.73252751161032],[139.80976032119676,35.727948352101684],[139.80128947346657,35.7290600903026],[139.7996266049745,35.72893689769115]],[[139.78921248347706,35.7476561652363],[139.78520203593735,35.74967832688283]],[[139.78520203593735,35.74967832688283],[139.78758222024953,35.75301654618342]],[[139.78758222024953,35.75301654618342],[139.78896468346647,35.75261692137065],[139.79135138883157,35.75007194229991],[139.7913122625141,35.7488340067897],[139.78921248347706,35.7476561652363]],[[139.80594550524435,35.7340689216024],[139.80505864204858,35.73544507321326],[139.80488257362,35.738317564348606],[139.80108079977344,35.73780075632007]],[[139.80108079977344,35.73780075632007],[139.80126991030784,35.73871718916137]],[[139.80126991030784,35.73871718916137],[139.80263933141896,35.73871117976569],[139.80872347378406,35.740733341412216],[139.81129276863064,35.74123212125371],[139.8138555424243,35.740294655527535],[139.81445547929204,35.73681221073061],[139.81103844756714,35.73252751161032]],[[139.7740445144082,35.74087456221071],[139.76906242998487,35.74238892992223]],[[139.76906242998487,35.74238892992223],[139.76936891947165,35.74508414388499]],[[139.76936891947165,35.74508414388499],[139.77538785130767,35.74384921307262]],[[139.77538785130767,35.74384921307262],[139.7740445144082,35.74087456221071]],[[139.78168718841883,35.74056207363532],[139.77873967250346,35.740030242117584]],[[139.77873967250346,35.740030242117584],[139.7786940251331,35.74004226090894]],[[139.7786940251331,35.74004226090894],[139.7806307778474,35.74286968157668]],[[139.7806307778474,35.74286968157668],[139.78065686205903,35.74286066748316]],[[139.78065686205903,35.74286066748316],[139.78477164644528,35.74343156007282]],[[139.78477164644528,35.74343156007282],[139.78476512539237,35.74061315349861]],[[139.78476512539237,35.74061315349861],[139.78168718841883,35.74056207363532]],[[139.76408686661446,35.74410761708689],[139.7618566665192,35.743590809058354]],[[139.7618566665192,35.743590809058354],[139.76160886650862,35.74721747935161]],[[139.76160886650862,35.74721747935161],[139.76502589823352,35.74729259679762]],[[139.76502589823352,35.74729259679762],[139.76505198244516,35.74512620965476]],[[139.76505198244516,35.74512620965476],[139.76408686661446,35.74410761708689]],[[139.79236867308555,35.731412768711564],[139.7887234045088,35.731869482783296]],[[139.7887234045088,35.731869482783296],[139.78776480973102,35.732437370675115],[139.78918639926542,35.73452864037197],[139.78887990977864,35.735784604069224]],[[139.78887990977864,35.735784604069224],[139.79425325737657,35.734363381990754]],[[139.79425325737657,35.734363381990754],[139.79236867308555,35.731412768711564]],[[139.79425325737657,35.734363381990754],[139.79681603117024,35.73681221073061]],[[139.79681603117024,35.73681221073061],[139.79812024175226,35.73248244114272]],[[139.79812024175226,35.73248244114272],[139.7981528470168,35.73238629081183]],[[139.7981528470168,35.73238629081183],[139.79644433115436,35.73126854321523],[139.79236867308555,35.731412768711564]],[[139.79217304149824,35.73104018617937],[139.79236867308555,35.731412768711564]],[[139.7981528470168,35.73238629081183],[139.79855063124432,35.73138272173316]],[[139.7996266049745,35.72893689769115],[139.79519228899562,35.72877163930993],[139.79425977842948,35.730331077489055],[139.79217304149824,35.73104018617937]],[[139.79812024175226,35.73248244114272],[139.79952878918084,35.73433333501235],[139.80108079977344,35.73780075632007]],[[139.7806307778474,35.74286968157668],[139.77573998816482,35.7444591667342]],[[139.77573998816482,35.7444591667342],[139.77609212502196,35.74601259551765]],[[139.77609212502196,35.74601259551765],[139.77828971985267,35.7451141908634],[139.77988737781564,35.74551982507184]],[[139.77988737781564,35.74551982507184],[139.7822610410749,35.745300482129494]],[[139.7822610410749,35.745300482129494],[139.78065686205903,35.74286066748316]],[[139.79681603117024,35.73681221073061],[139.79746813646125,35.739366203894875]],[[139.79746813646125,35.739366203894875],[139.80126991030784,35.73871718916137]],[[139.7822610410749,35.745300482129494],[139.78339570428125,35.747055225668234]],[[139.78339570428125,35.747055225668234],[139.78629105177333,35.74662254917923],[139.78635626230243,35.74548376869775],[139.78841691502203,35.74556489553944]],[[139.78841691502203,35.74556489553944],[139.78912118873632,35.74409860299337]],[[139.78912118873632,35.74409860299337],[139.78477164644528,35.74343156007282]],[[139.78683229916487,35.727768070231264],[139.78676056758286,35.73211286330836]],[[139.78676056758286,35.73211286330836],[139.7887234045088,35.731869482783296]],[[139.79217304149824,35.73104018617937],[139.79148180988977,35.73125652442387],[139.7897602519215,35.728801686288335],[139.78683229916487,35.727768070231264]],[[139.78887990977864,35.735784604069224],[139.78837778870457,35.737365075133226]],[[139.78837778870457,35.737365075133226],[139.7914296414665,35.741388365541404]],[[139.7914296414665,35.741388365541404],[139.7933729152337,35.740360758880016],[139.79746813646125,35.739366203894875]],[[139.77200342484733,35.72847417422374],[139.77129915113304,35.72741051118827]],[[139.77129915113304,35.72741051118827],[139.77002102476266,35.728065535317455]],[[139.77002102476266,35.728065535317455],[139.7679929773076,35.730267978834405]],[[139.7679929773076,35.730267978834405],[139.7703144721436,35.73258159617145],[139.7736010828103,35.733624226322036]],[[139.7736010828103,35.733624226322036],[139.77529003551402,35.73342892096242]],[[139.77529003551402,35.73342892096242],[139.7741097249373,35.73076074928022],[139.77200342484733,35.72847417422374]],[[139.76406730345573,35.730886946589514],[139.76646052987374,35.73211887270404]],[[139.76646052987374,35.73211887270404],[139.7679929773076,35.730267978834405]],[[139.77002102476266,35.728065535317455],[139.76717784569385,35.72732938434658],[139.76581494563564,35.72769896218094],[139.76556062457215,35.72953783725921],[139.76406730345573,35.730886946589514]],[[139.7620522981065,35.75058875032845],[139.761145871752,35.75064884428525]],[[139.761145871752,35.75064884428525],[139.76175885072556,35.75425748639147]],[[139.76175885072556,35.75425748639147],[139.7660431824875,35.75392997432687]],[[139.7660431824875,35.75392997432687],[139.7658540719531,35.74998480606254]],[[139.7658540719531,35.74998480606254],[139.7620522981065,35.75058875032845]],[[139.78191542527068,35.7356043221988],[139.7770833250643,35.73710066172328]],[[139.7770833250643,35.73710066172328],[139.77873967250346,35.740030242117584]],[[139.78168718841883,35.74056207363532],[139.78191542527068,35.7356043221988]],[[139.78136113577332,35.74964527520659],[139.78106768839237,35.75088621541464],[139.7820719305405,35.75400509177288]],[[139.7820719305405,35.75400509177288],[139.78758222024953,35.75301654618342]],[[139.78520203593735,35.74967832688283],[139.78518899383153,35.749651284602265]],[[139.78518899383153,35.749651284602265],[139.78136113577332,35.74964527520659]],[[139.7788896567204,35.728621404417915],[139.77860273039235,35.733023286753976]],[[139.77860273039235,35.733023286753976],[139.77874619355637,35.733185540437354]],[[139.77874619355637,35.733185540437354],[139.78404128851935,35.73244338007079]],[[139.78404128851935,35.73244338007079],[139.78409997799554,35.73243436597728]],[[139.78409997799554,35.73243436597728],[139.782906625313,35.72802647424553]],[[139.782906625313,35.72802647424553],[139.7788896567204,35.728621404417915]],[[139.7790200777786,35.724901588491605],[139.7788896567204,35.728621404417915]],[[139.782906625313,35.72802647424553],[139.78425648326538,35.727722999763664]],[[139.78425648326538,35.727722999763664],[139.7812763620855,35.72479041467152],[139.7790200777786,35.724901588491605]],[[139.7715404300907,35.749437951055604],[139.76968845106424,35.74936583830743]],[[139.76968845106424,35.74936583830743],[139.7658540719531,35.74998480606254]],[[139.7660431824875,35.75392997432687],[139.77174258273092,35.75362349514716]],[[139.77174258273092,35.75362349514716],[139.771083956387,35.7525087522484],[139.7715404300907,35.749437951055604]],[[139.76936891947165,35.74508414388499],[139.76937544052456,35.74512620965476]],[[139.76937544052456,35.74512620965476],[139.76969497211715,35.74912846717805]],[[139.76969497211715,35.74912846717805],[139.77270769856162,35.746400201539046],[139.77573998816482,35.7444591667342]],[[139.77573998816482,35.7444591667342],[139.77538785130767,35.74384921307262]],[[139.75797011898482,35.747415789409075],[139.76150452966206,35.74765916993414]],[[139.76150452966206,35.74765916993414],[139.76160886650862,35.74721747935161]],[[139.7618566665192,35.743590809058354],[139.7600894611806,35.74342555067714],[139.75720715579433,35.74518029421588],[139.75797011898482,35.747415789409075]],[[139.75797011898482,35.747415789409075],[139.75797011898482,35.747460859876675]],[[139.75797011898482,35.747460859876675],[139.75787230319116,35.7507870603859]],[[139.75787230319116,35.7507870603859],[139.761145871752,35.75064884428525]],[[139.7620522981065,35.75058875032845],[139.76150452966206,35.74765916993414]],[[139.77874619355637,35.733185540437354],[139.7767051039955,35.73651474564442],[139.7770833250643,35.73710066172328]],[[139.78191542527068,35.7356043221988],[139.78496727803258,35.734778030292716]],[[139.78496727803258,35.734778030292716],[139.78404128851935,35.73244338007079]],[[139.77465749338174,35.73745822076628],[139.7729554985722,35.73778873752871]],[[139.7729554985722,35.73778873752871],[139.77410320388438,35.74085352932583]],[[139.77410320388438,35.74085352932583],[139.7786940251331,35.74004226090894]],[[139.7770833250643,35.73710066172328],[139.77465749338174,35.73745822076628]],[[139.7790200777786,35.724901588491605],[139.77677683557752,35.72525614283676],[139.77410320388438,35.726620275656266],[139.77348370385792,35.726034359577405],[139.77129915113304,35.72741051118827]],[[139.77200342484733,35.72847417422374],[139.7788896567204,35.728621404417915]],[[139.77174258273092,35.75362349514716],[139.7774028566569,35.753839833391666]],[[139.7774028566569,35.753839833391666],[139.7781853830061,35.750880206018955],[139.77652903556694,35.74958518124978]],[[139.77652903556694,35.74958518124978],[139.7715404300907,35.749437951055604]],[[139.76937544052456,35.74512620965476],[139.76505198244516,35.74512620965476]],[[139.76502589823352,35.74729259679762],[139.7658540719531,35.74998480606254]],[[139.76968845106424,35.74936583830743],[139.76969497211715,35.74912846717805]],[[139.77410320388438,35.74085352932583],[139.7740445144082,35.74087456221071]],[[139.78476512539237,35.74061315349861],[139.78473904118073,35.7371547462844]],[[139.78473904118073,35.7371547462844],[139.78496727803258,35.734778030292716]],[[139.7774028566569,35.753839833391666],[139.7820719305405,35.75400509177288]],[[139.78136113577332,35.74964527520659],[139.78045470941882,35.749651284602265]],[[139.78045470941882,35.749651284602265],[139.77652903556694,35.74958518124978]],[[139.77609212502196,35.74601259551765],[139.77652903556694,35.74958518124978]],[[139.78045470941882,35.749651284602265],[139.77988737781564,35.74551982507184]],[[139.77529003551402,35.73342892096242],[139.77860273039235,35.733023286753976]],[[139.78339570428125,35.747055225668234],[139.78518899383153,35.749651284602265]],[[139.78921248347706,35.7476561652363],[139.78841691502203,35.74556489553944]],[[139.78676056758286,35.73211286330836],[139.78409997799554,35.73243436597728]],[[139.78473904118073,35.7371547462844],[139.78643451493735,35.73785183618336],[139.78837778870457,35.737365075133226]],[[139.78912118873632,35.74409860299337],[139.7914296414665,35.741388365541404]],[[139.76486287191076,35.735814651047626],[139.7706861721595,35.738179348247954]],[[139.7706861721595,35.738179348247954],[139.7729554985722,35.73778873752871]],[[139.77465749338174,35.73745822076628],[139.76968193001133,35.73432432091883]],[[139.76968193001133,35.73432432091883],[139.76661703514358,35.73482009606248],[139.76486287191076,35.735814651047626]],[[139.7706861721595,35.738179348247954],[139.76877550365683,35.739880007225565]],[[139.76877550365683,35.739880007225565],[139.76906242998487,35.74238892992223]],[[139.75787230319116,35.7507870603859],[139.7572462821118,35.75318781396032]],[[139.7572462821118,35.75318781396032],[139.75774840318587,35.754825374283286],[139.76175885072556,35.75425748639147]],[[139.76877550365683,35.739880007225565],[139.76820165100074,35.74140038433277],[139.76571060878908,35.741601699088065],[139.7641129508261,35.74278254533931],[139.76408686661446,35.74410761708689]],[[139.76646052987374,35.73211887270404],[139.76434118767796,35.73460375781798]],[[139.76434118767796,35.73460375781798],[139.76486287191076,35.735814651047626]],[[139.76968193001133,35.73432432091883],[139.7736010828103,35.733624226322036]],[[139.75797011898482,35.747460859876675],[139.75535517676786,35.74748790215724],[139.75523127676257,35.74888809135083],[139.75102519763556,35.749543115480016],[139.7494405817784,35.75111757714834]],[[139.7494405817784,35.75111757714834],[139.75787230319116,35.7507870603859]],[[139.76406730345573,35.730886946589514],[139.76163495072026,35.7317883559416],[139.76148496650333,35.73375943772485],[139.76331086131816,35.73353709008467],[139.76434118767796,35.73460375781798]],[[139.7494405817784,35.75111757714834],[139.7518272871435,35.753746687758614],[139.7572462821118,35.75318781396032]],[[139.78683229916487,35.727768070231264],[139.78425648326538,35.727722999763664]]]}