{"type":"Topology","bbox":[139.62425042405474,35.676558708365796,139.6940953908748,35.735554144079835],"objects":{"town":{"type":"GeometryCollection","geometries":[{"type":"MultiPolygon","arcs":[[[18,19,20,24,13,1,2,3,4,14,17]]],"properties":{"name":"南台"}},{"type":"MultiPolygon","arcs":[[[-2,-14,-25,-21,-20,73,135,136,8,9,63,-30,64,65,-4,-3]]],"properties":{"name":"弥生町"}},{"type":"MultiPolygon","arcs":[[[192,126,-85,124,120,121,114,115,27,-31,123,-65,29,-64,-10,-9,-137]]],"properties":{"name":"本町"}},{"type":"MultiPolygon","arcs":[[[82,-69,-39,-38,-81,-80,-88,-148,32,33,30,-28,-116,-115,-122,-121,-125,84]]],"properties":{"name":"中央"}},{"type":"MultiPolygon","arcs":[[[66,180,181,-99,47,48,49,69,70,71,81,79,80,37,38,68]]],"properties":{"name":"中野"}},{"type":"MultiPolygon","arcs":[[[-79,93,40,103,104,105,131,128,129,-70,-50]]],"properties":{"name":"上高田"}},{"type":"MultiPolygon","arcs":[[[52,53,54,55,133,134,-90,-89,139,137,225]]],"properties":{"name":"大和町"}},{"type":"MultiPolygon","arcs":[[[-169,58,59,60,61,182,183,184,-163,-162,-145,91,-144,-96,-182,241,-140,88,89,-135]]],"properties":{"name":"野方"}},{"type":"MultiPolygon","arcs":[[[95,143,-92,144,145,-155,-188,-187,-234,-104,-41,-94,78,-49,-48,98]]],"properties":{"name":"新井"}},{"type":"MultiPolygon","arcs":[[[142,101,149,-33,147,87,-82,-72,-71,-130,191]]],"properties":{"name":"東中野"}},{"type":"MultiPolygon","arcs":[[[165,-159,164,106,107,111]]],"properties":{"name":"江原町"}},{"type":"MultiPolygon","arcs":[[[167,-59,168,-134,-56,-55,116,-180,193,194,195,196]]],"properties":{"name":"若宮"}},{"type":"MultiPolygon","arcs":[[[161,162,-185,205,206,220,221,-189,153,154,-146]]],"properties":{"name":"沼袋"}},{"type":"MultiPolygon","arcs":[[[-221,-207,-225,242,238,-107,-165,158,159,160,155,-190,-222]]],"properties":{"name":"江古田"}},{"type":"MultiPolygon","arcs":[[[213,173,174,-210,218,228,229,-61,-60,-168,-197,-196,-204,176,197,198,199,200]]],"properties":{"name":"鷺宮"}},{"type":"MultiPolygon","arcs":[[[-194,179,-117,-54,177,226,202,-198,-177,203,-195]]],"properties":{"name":"白鷺"}},{"type":"MultiPolygon","arcs":[[[233,186,187,-154,188,189,-156,-161,234,-105]]],"properties":{"name":"松が丘"}},{"type":"MultiPolygon","arcs":[[[-201,-200,215,243,240,212,209,-175,-174,-214]]],"properties":{"name":"上鷺宮"}},{"type":"MultiPolygon","arcs":[[[-230,232,223,224,-206,-184,-183,-62]]],"properties":{"name":"丸山"}}]}},"arcs":[[[139.67335634632147,35.683273060385254],[139.67242731535967,35.68642373171952]],[[139.67242731535967,35.68642373171952],[139.67248319692126,35.68642373171952]],[[139.67248319692126,35.68642373171952],[139.6763110838917,35.68706094614667]],[[139.6763110838917,35.68706094614667],[139.6781342198393,35.68758605803572]],[[139.6781342198393,35.68758605803572],[139.67335634632147,35.683273060385254]],[[139.67595483893643,35.690170316545846],[139.67402692506082,35.689910710668116]],[[139.67402692506082,35.689910710668116],[139.6690674364677,35.690058214007735]],[[139.6690674364677,35.690058214007735],[139.66903949568692,35.69131494246129]],[[139.66903949568692,35.69131494246129],[139.6717427662299,35.691704351277885],[139.6744530219681,35.69310268293747]],[[139.6744530219681,35.69310268293747],[139.67691181067903,35.69313808373898]],[[139.67691181067903,35.69313808373898],[139.67705151458307,35.690146716011505],[139.67595483893643,35.690170316545846]],[[139.66959831130305,35.68078910414607],[139.6694376518134,35.68267124675961]],[[139.6694376518134,35.68267124675961],[139.66908140685814,35.68617002597537]],[[139.66908140685814,35.68617002597537],[139.67242731535967,35.68642373171952]],[[139.67335634632147,35.683273060385254],[139.66959831130305,35.68078910414607]],[[139.66387743643298,35.679632677963454],[139.6656866019902,35.682081233401135]],[[139.6656866019902,35.682081233401135],[139.66640607709596,35.68316685798073],[139.6694376518134,35.68267124675961]],[[139.66959831130305,35.68078910414607],[139.66790789406429,35.68021089105476],[139.66509984559326,35.67694811718239],[139.66387743643298,35.679632677963454]],[[139.66387743643298,35.679632677963454],[139.6616631295541,35.680376094795136],[139.6593510299424,35.680027986913636],[139.66060836507867,35.68111361149323],[139.6593510299424,35.682193335939246],[139.66052454273625,35.684228882025984]],[[139.66052454273625,35.684228882025984],[139.6624943677831,35.68478349458295]],[[139.6624943677831,35.68478349458295],[139.6625013529783,35.68478939471654]],[[139.6625013529783,35.68478939471654],[139.66194952255736,35.683320261453936],[139.6638355252618,35.68212843446981],[139.6656866019902,35.682081233401135]],[[139.66908140685814,35.68617002597537],[139.6690674364677,35.690058214007735]],[[139.67402692506082,35.689910710668116],[139.6720990111852,35.68735595282591],[139.67248319692126,35.68642373171952]],[[139.6625013529783,35.68478939471654],[139.66734907844815,35.6861228249067],[139.66908140685814,35.68617002597537]],[[139.67595483893643,35.690170316545846],[139.6763110838917,35.68706094614667]],[[139.67792466398325,35.69288437799484],[139.67776400449364,35.69512642875704],[139.67865810947941,35.69749238232453]],[[139.67865810947941,35.69749238232453],[139.68290510816195,35.69701447150417]],[[139.68290510816195,35.69701447150417],[139.68189924005293,35.692081959827306]],[[139.68189924005293,35.692081959827306],[139.67792466398325,35.69288437799484]],[[139.68664218759477,35.696418558012105],[139.68290510816195,35.69701447150417]],[[139.68290510816195,35.69701447150417],[139.68289812296675,35.70104426274256]],[[139.68289812296675,35.70104426274256],[139.68750136660455,35.7016106755667]],[[139.68750136660455,35.7016106755667],[139.68829767885754,35.698932014919215],[139.68664218759477,35.696418558012105]],[[139.66557483886697,35.70267859974554],[139.66547006093893,35.70533365985868]],[[139.66547006093893,35.70533365985868],[139.67272767875332,35.705870572014895]],[[139.67272767875332,35.705870572014895],[139.67192438130516,35.70250749587158]],[[139.67192438130516,35.70250749587158],[139.67191739610996,35.702501595738]],[[139.67191739610996,35.702501595738],[139.6661546100687,35.70305620829497],[139.66557483886697,35.70267859974554]],[[139.67412471779363,35.712809129110575],[139.67010124535756,35.71472667252562]],[[139.67010124535756,35.71472667252562],[139.67142144725065,35.71600110137993]],[[139.67142144725065,35.71600110137993],[139.6744809627489,35.715694294433526]],[[139.6744809627489,35.715694294433526],[139.67792466398325,35.712024411343805]],[[139.67792466398325,35.712024411343805],[139.67412471779363,35.712809129110575]],[[139.67274863433892,35.7059472737515],[139.67272767875332,35.705870572014895]],[[139.66547006093893,35.70533365985868],[139.66546307574373,35.70544576239679]],[[139.66546307574373,35.70544576239679],[139.66494617129882,35.70997706498989]],[[139.66494617129882,35.70997706498989],[139.66495315649402,35.70997706498989]],[[139.66495315649402,35.70997706498989],[139.67046447550803,35.709623056974806]],[[139.67046447550803,35.709623056974806],[139.6730140717566,35.709168746688775]],[[139.6730140717566,35.709168746688775],[139.67274863433892,35.7059472737515]],[[139.64900595584893,35.7131100359234],[139.64219539052746,35.71225451655361]],[[139.64219539052746,35.71225451655361],[139.64160863413053,35.714862375598074],[139.64072849953513,35.71521638361316]],[[139.64072849953513,35.71521638361316],[139.64128731515126,35.71660881513916]],[[139.64128731515126,35.71660881513916],[139.64534571356333,35.71475027305996],[139.6474552425142,35.71581229710522]],[[139.6474552425142,35.71581229710522],[139.6474692129046,35.71581229710522]],[[139.6474692129046,35.71581229710522],[139.64900595584893,35.7131100359234]],[[139.65376985897637,35.71947037992777],[139.64954381587947,35.72085101118661]],[[139.64954381587947,35.72085101118661],[139.64946697873225,35.72091001252245]],[[139.64946697873225,35.72091001252245],[139.64928536365701,35.72385417918125]],[[139.64928536365701,35.72385417918125],[139.64941808236583,35.723824678513324]],[[139.64941808236583,35.723824678513324],[139.65376985897637,35.7229042576741]],[[139.65376985897637,35.7229042576741],[139.65376985897637,35.71947037992777]],[[139.67691181067903,35.69313808373898],[139.67792466398325,35.69288437799484]],[[139.68189924005293,35.692081959827306],[139.6835547313157,35.69254217024692]],[[139.6835547313157,35.69254217024692],[139.6781342198393,35.68758605803572]],[[139.66178187787253,35.70022414417428],[139.6607061578115,35.70136877008972],[139.66099255081477,35.70479674770247],[139.65817053195335,35.70545166253038]],[[139.65817053195335,35.70545166253038],[139.66546307574373,35.70544576239679]],[[139.66557483886697,35.70267859974554],[139.66414287385064,35.700342146845976],[139.66178187787253,35.70022414417428]],[[139.6730140717566,35.709168746688775],[139.67665335845658,35.70836632852125],[139.6790283248251,35.708413529589926]],[[139.6790283248251,35.708413529589926],[139.67870002065064,35.706159678560546]],[[139.67870002065064,35.706159678560546],[139.67644380260055,35.706047576022435]],[[139.67644380260055,35.706047576022435],[139.67274863433892,35.7059472737515]],[[139.66052454273625,35.684228882025984],[139.65918338525756,35.68669513786442],[139.66127195862282,35.686854441471205],[139.6634303839401,35.6880167677874]],[[139.6634303839401,35.6880167677874],[139.6624943677831,35.68478349458295]],[[139.66495315649402,35.70997706498989],[139.6662035064351,35.71429596277394]],[[139.6662035064351,35.71429596277394],[139.66653181060957,35.71453196811733]],[[139.66653181060957,35.71453196811733],[139.66816634628674,35.71310413578981]],[[139.66816634628674,35.71310413578981],[139.67046447550803,35.709623056974806]],[[139.68057205296464,35.7010265623418],[139.67570337190918,35.70192338264669]],[[139.67570337190918,35.70192338264669],[139.67192438130516,35.70250749587158]],[[139.67644380260055,35.706047576022435],[139.67825995335292,35.70318601123383],[139.68057205296464,35.7010265623418]],[[139.66197047814296,35.697480582057366],[139.66178187787253,35.70022414417428]],[[139.66557483886697,35.70267859974554],[139.66690901115047,35.7012625676852],[139.66737701922895,35.69743928112227]],[[139.66737701922895,35.69743928112227],[139.66197047814296,35.697480582057366]],[[139.67870002065064,35.706159678560546],[139.6827304782819,35.70612427775904]],[[139.6827304782819,35.70612427775904],[139.68231835176502,35.702082686253476],[139.68283525620993,35.70105606300973]],[[139.68283525620993,35.70105606300973],[139.68057205296464,35.7010265623418]],[[139.65390956288041,35.71209521294682],[139.65375588858598,35.714225161170916]],[[139.65375588858598,35.714225161170916],[139.65375588858598,35.717257829833486]],[[139.65375588858598,35.717257829833486],[139.65652901108098,35.7157414955022],[139.65863854003186,35.71559989229617]],[[139.65863854003186,35.71559989229617],[139.65993778633933,35.71334604126679]],[[139.65993778633933,35.71334604126679],[139.65556505414318,35.71199491067588],[139.65390956288041,35.71209521294682]],[[139.66816634628674,35.71310413578981],[139.67010124535756,35.71472667252562]],[[139.67412471779363,35.712809129110575],[139.6730140717566,35.709168746688775]],[[139.66034991285622,35.70987086258536],[139.65995175672973,35.71334604126679]],[[139.65995175672973,35.71334604126679],[139.662005404119,35.71317493739283],[139.6661825508495,35.714284162506765]],[[139.6661825508495,35.714284162506765],[139.6662035064351,35.71429596277394]],[[139.66494617129882,35.70997706498989],[139.66034991285622,35.70987086258536]],[[139.68804621183028,35.70607707669036],[139.68662821720437,35.706218679896395]],[[139.68662821720437,35.706218679896395],[139.6864116761531,35.70811262277711],[139.68965979192183,35.71128099451212]],[[139.68965979192183,35.71128099451212],[139.69404649450837,35.71103908903515],[139.69301268561856,35.70964665750915],[139.68882855369284,35.70750490901788],[139.68804621183028,35.70607707669036]],[[139.6790842063867,35.71551729042598],[139.6744809627489,35.715694294433526]],[[139.67142144725065,35.71600110137993],[139.67157512154506,35.71614270458597]],[[139.67157512154506,35.71614270458597],[139.67339127229747,35.71874466349685]],[[139.67339127229747,35.71874466349685],[139.67531220097788,35.72001909235116],[139.67891656170187,35.7181428498712],[139.6790842063867,35.71551729042598]],[[139.67063910538806,35.72752996240456],[139.6685435468276,35.728161276698124],[139.66692996673606,35.73120574562787]],[[139.66692996673606,35.73120574562787],[139.67042954953203,35.732609977421035]],[[139.67042954953203,35.732609977421035],[139.67269275277732,35.73178395871917]],[[139.67269275277732,35.73178395871917],[139.67063910538806,35.72752996240456]],[[139.67680004755582,35.729890015838464],[139.67269275277732,35.73178395871917]],[[139.67042954953203,35.732609977421035],[139.67124681737062,35.73372510266856],[139.67481625211857,35.73311148877574],[139.67784084164083,35.73064523293731],[139.67680004755582,35.729890015838464]],[[139.6744530219681,35.69310268293747],[139.6743482440401,35.69401130350953]],[[139.6743482440401,35.69401130350953],[139.67375450244796,35.69763988566415]],[[139.67375450244796,35.69763988566415],[139.6757802090564,35.697716587400755]],[[139.6757802090564,35.697716587400755],[139.67865810947941,35.69749238232453]],[[139.64128731515126,35.71660881513916],[139.63954101635088,35.717287330501414],[139.63982042415893,35.718703362561754]],[[139.63982042415893,35.718703362561754],[139.64374610386218,35.719104571645516],[139.64690341209328,35.71846145708478]],[[139.64690341209328,35.71846145708478],[139.6474552425142,35.71581229710522]],[[139.66830605019075,35.69432401058952],[139.66718143376332,35.6959170466574],[139.66741194520498,35.69743928112227]],[[139.66741194520498,35.69743928112227],[139.67094645397694,35.69753958339321]],[[139.67094645397694,35.69753958339321],[139.67375450244796,35.69763988566415]],[[139.6743482440401,35.69401130350953],[139.66830605019075,35.69432401058952]],[[139.68664218759477,35.696418558012105],[139.68553852675294,35.694223708318574],[139.6835547313157,35.69254217024692]],[[139.66737701922895,35.69743928112227],[139.66741194520498,35.69743928112227]],[[139.66830605019075,35.69432401058952],[139.66739797481455,35.6937516976318]],[[139.66739797481455,35.6937516976318],[139.66492521571323,35.695374234367605],[139.66096461003394,35.69482552194422],[139.66037785363702,35.69645395881361],[139.66197047814296,35.697480582057366]],[[139.67792466398325,35.712024411343805],[139.68004117812933,35.71106268956949]],[[139.68004117812933,35.71106268956949],[139.6827444486723,35.7100124657914]],[[139.6827444486723,35.7100124657914],[139.6790283248251,35.708413529589926]],[[139.67191739610996,35.702501595738],[139.67097439475774,35.70006484056749],[139.67094645397694,35.69753958339321]],[[139.6790842063867,35.71551729042598],[139.68201798837134,35.71313363645774],[139.68004117812933,35.71106268956949]],[[139.65375588858598,35.714225161170916],[139.64900595584893,35.7131100359234]],[[139.6474692129046,35.71581229710522],[139.6506893878925,35.715753295769375]],[[139.6506893878925,35.715753295769375],[139.65375588858598,35.717257829833486]],[[139.6634303839401,35.6880167677874],[139.6638564808474,35.689043391031156],[139.66699283349288,35.69094913417903]],[[139.66699283349288,35.69094913417903],[139.66903949568692,35.69131494246129]],[[139.6542518374453,35.70908614481859],[139.65129011467985,35.708968142146894],[139.6497324161499,35.7097410596465]],[[139.6497324161499,35.7097410596465],[139.64900595584893,35.7131100359234]],[[139.65390956288041,35.71209521294682],[139.6542518374453,35.70908614481859]],[[139.68662821720437,35.706218679896395],[139.68278635984353,35.706153778426966]],[[139.68278635984353,35.706153778426966],[139.6845815550103,35.71033107300497]],[[139.6845815550103,35.71033107300497],[139.68965979192183,35.71128099451212]],[[139.65995175672973,35.71334604126679],[139.65993778633933,35.71334604126679]],[[139.65863854003186,35.71559989229617],[139.65866648081266,35.715611692563336]],[[139.65866648081266,35.715611692563336],[139.6635351618681,35.71886266616854]],[[139.6635351618681,35.71886266616854],[139.66379361409057,35.717057225291605],[139.6661825508495,35.714284162506765]],[[139.68289812296675,35.70104426274256],[139.68283525620993,35.70105606300973]],[[139.6827304782819,35.70612427775904],[139.68278635984353,35.706153778426966]],[[139.68804621183028,35.70607707669036],[139.68750136660455,35.7016106755667]],[[139.6635351618681,35.71886266616854],[139.66273884961515,35.721045715594904]],[[139.66273884961515,35.721045715594904],[139.66274583481035,35.721098816797166]],[[139.66274583481035,35.721098816797166],[139.6657075575758,35.72053830410661],[139.66888582139248,35.72125812040395]],[[139.66888582139248,35.72125812040395],[139.66848766526599,35.71793044506215]],[[139.66848766526599,35.71793044506215],[139.66590314304145,35.71754103624556],[139.6635351618681,35.71886266616854]],[[139.67375450244796,35.72354147210126],[139.66899758451572,35.72398398212012]],[[139.66899758451572,35.72398398212012],[139.66993360067272,35.725990027538934]],[[139.66993360067272,35.725990027538934],[139.6703038160184,35.72676294503854]],[[139.6703038160184,35.72676294503854],[139.67659049169976,35.727288056927584]],[[139.67659049169976,35.727288056927584],[139.6754099937107,35.7236417743722]],[[139.6754099937107,35.7236417743722],[139.67375450244796,35.72354147210126]],[[139.65866648081266,35.715611692563336],[139.65775142024125,35.71698642368859],[139.65848486573742,35.7193051761874]],[[139.65848486573742,35.7193051761874],[139.6588550810831,35.71981848780927]],[[139.6588550810831,35.71981848780927],[139.66060137988347,35.719836188210024],[139.66273884961515,35.721045715594904]],[[139.6703038160184,35.72676294503854],[139.67063910538806,35.72752996240456]],[[139.67680004755582,35.729890015838464],[139.67659049169976,35.727288056927584]],[[139.64690341209328,35.71846145708478],[139.64721774587736,35.72162982881979]],[[139.64721774587736,35.72162982881979],[139.64946697873225,35.72091001252245]],[[139.64954381587947,35.72085101118661],[139.65071732867332,35.71988928941229],[139.6506893878925,35.715753295769375]],[[139.65376985897637,35.71947037992777],[139.65376985897637,35.71944677939344]],[[139.65376985897637,35.71944677939344],[139.65375588858598,35.717257829833486]],[[139.630048136072,35.72327596608994],[139.63126356003707,35.72375387691031]],[[139.63126356003707,35.72375387691031],[139.6359576112125,35.7267393445042]],[[139.6359576112125,35.7267393445042],[139.63764104325605,35.72648563876005]],[[139.63764104325605,35.72648563876005],[139.63865389656027,35.726273233951005]],[[139.63865389656027,35.726273233951005],[139.63808111055377,35.72268005259788]],[[139.63808111055377,35.72268005259788],[139.630048136072,35.72327596608994]],[[139.64072849953513,35.71521638361316],[139.6359925371885,35.71670321727652]],[[139.6359925371885,35.71670321727652],[139.63664216034223,35.72060320557605],[139.63805316977295,35.72251484885751]],[[139.63805316977295,35.72251484885751],[139.63991123169654,35.72138792334282],[139.63982042415893,35.718703362561754]],[[139.65817053195335,35.70545166253038],[139.657499953214,35.70918644708953]],[[139.657499953214,35.70918644708953],[139.66034991285622,35.70987086258536]],[[139.65376985897637,35.7229042576741],[139.65378382936677,35.7229042576741]],[[139.65378382936677,35.7229042576741],[139.65760473114202,35.72279805526958]],[[139.65760473114202,35.72279805526958],[139.65774443504606,35.720266897961714],[139.6588550810831,35.71981848780927]],[[139.65848486573742,35.7193051761874],[139.65376985897637,35.71944677939344]],[[139.66926302193338,35.71748203490971],[139.66924206634778,35.717487935043295]],[[139.66924206634778,35.717487935043295],[139.66848766526599,35.71793044506215]],[[139.66888582139248,35.72125812040395],[139.66872516190284,35.72397218185294]],[[139.66872516190284,35.72397218185294],[139.66899758451572,35.72398398212012]],[[139.67375450244796,35.72354147210126],[139.67060417941207,35.72001319221757],[139.66926302193338,35.71748203490971]],[[139.6827444486723,35.7100124657914],[139.6845815550103,35.71033107300497]],[[139.66699283349288,35.69094913417903],[139.66781010133144,35.69136804366355],[139.66739797481455,35.6937516976318]],[[139.63805316977295,35.72251484885751],[139.63804618457775,35.72253844939185]],[[139.63804618457775,35.72253844939185],[139.63808111055377,35.722632851529205]],[[139.63808111055377,35.722632851529205],[139.64426999350232,35.72249124832317]],[[139.64426999350232,35.72249124832317],[139.64721774587736,35.72162982881979]],[[139.630048136072,35.72327596608994],[139.62753346579944,35.723582773036355]],[[139.62753346579944,35.723582773036355],[139.6254239368486,35.72732345772909]],[[139.6254239368486,35.72732345772909],[139.63032754388007,35.72726445639324]],[[139.63032754388007,35.72726445639324],[139.63034151427047,35.72726445639324]],[[139.63034151427047,35.72726445639324],[139.63126356003707,35.72375387691031]],[[139.63155693823552,35.71997779141606],[139.6295032908463,35.72039080076699],[139.62753346579944,35.723582773036355]],[[139.63808111055377,35.72268005259788],[139.63808111055377,35.722632851529205]],[[139.63804618457775,35.72253844939185],[139.63155693823552,35.71997779141606]],[[139.65760473114202,35.72279805526958],[139.6578911241453,35.722862956739014]],[[139.6578911241453,35.722862956739014],[139.66268296805353,35.723848279047665]],[[139.66268296805353,35.723848279047665],[139.66274583481035,35.721098816797166]],[[139.66924206634778,35.717487935043295],[139.66653181060957,35.71453196811733]],[[139.6397016758405,35.72617293168006],[139.63865389656027,35.726273233951005]],[[139.63764104325605,35.72648563876005],[139.63344992613514,35.73178395871917]],[[139.63344992613514,35.73178395871917],[139.63515431376433,35.73220876833727]],[[139.63515431376433,35.73220876833727],[139.63625098941097,35.732432973413495],[139.6378855250881,35.72849758431246],[139.6397366018165,35.72733525799626],[139.6397016758405,35.72617293168006]],[[139.63034151427047,35.72726445639324],[139.6359576112125,35.7267393445042]],[[139.67570337190918,35.70192338264669],[139.6757802090564,35.697716587400755]],[[139.6254239368486,35.72732345772909],[139.62425042405474,35.72953010768979],[139.62657649405685,35.73307018784065]],[[139.62657649405685,35.73307018784065],[139.63116576730425,35.730845837479194]],[[139.63116576730425,35.730845837479194],[139.63032754388007,35.72726445639324]],[[139.6397016758405,35.72617293168006],[139.64374610386218,35.7251522085699]],[[139.64374610386218,35.7251522085699],[139.64426999350232,35.72249124832317]],[[139.66268296805353,35.723848279047665],[139.6661546100687,35.72391908065068]],[[139.6661546100687,35.72391908065068],[139.66872516190284,35.72397218185294]],[[139.65378382936677,35.7229042576741],[139.6538676517092,35.72625553355025]],[[139.6538676517092,35.72625553355025],[139.65807273922053,35.725754022195545]],[[139.65807273922053,35.725754022195545],[139.6578911241453,35.722862956739014]],[[139.6497324161499,35.7097410596465],[139.64280310251,35.71169990399664],[139.64219539052746,35.71225451655361]],[[139.6359925371885,35.71670321727652],[139.63210178346125,35.717116226627454],[139.63110988574263,35.7184909577527],[139.63155693823552,35.71997779141606]],[[139.64928536365701,35.72385417918125],[139.64374610386218,35.7251522085699]],[[139.64374610386218,35.7251522085699],[139.6474692129046,35.72536461337895],[139.6474901684902,35.72661544169892],[139.6497254309547,35.726621341832505]],[[139.6497254309547,35.726621341832505],[139.64941808236583,35.723824678513324]],[[139.6661546100687,35.72391908065068],[139.6638355252618,35.72606672927554],[139.66315796132724,35.7278249690838]],[[139.66315796132724,35.7278249690838],[139.668417813314,35.72591332580233],[139.66993360067272,35.725990027538934]],[[139.6497254309547,35.726621341832505],[139.6538676517092,35.72625553355025]],[[139.67157512154506,35.71614270458597],[139.66926302193338,35.71748203490971]],[[139.6754099937107,35.7236417743722],[139.67566844593316,35.72136432280848],[139.6735030354207,35.72056780477454],[139.67339127229747,35.71874466349685]],[[139.63116576730425,35.730845837479194],[139.63136833796509,35.73137684950182]],[[139.63136833796509,35.73137684950182],[139.63344992613514,35.73178395871917]],[[139.66315796132724,35.7278249690838],[139.66311605015602,35.72785446975172]],[[139.66311605015602,35.72785446975172],[139.66452705958673,35.730987440685226],[139.66692996673606,35.73120574562787]],[[139.63136833796509,35.73137684950182],[139.6305370997361,35.735318138736446]],[[139.6305370997361,35.735318138736446],[139.63340801496395,35.73551874327833],[139.63515431376433,35.73220876833727]],[[139.657499953214,35.70918644708953],[139.6542518374453,35.70908614481859]],[[139.65807273922053,35.725754022195545],[139.66311605015602,35.72785446975172]],[[139.62657649405685,35.73307018784065],[139.6272470727962,35.73502903219079],[139.6305370997361,35.735318138736446]]]}