{"type":"Topology","bbox":[139.67753192672407,35.71230995520207,139.75268363799782,35.745991737479855],"objects":{"town":{"type":"GeometryCollection","geometries":[{"type":"MultiPolygon","arcs":[[[3,96,97,-16,-15,-110,9,10,99,6,2,237]]],"properties":{"name":"駒込"}},{"type":"MultiPolygon","arcs":[[[110,-64,111,-35,112,107,108,-10,109,14,15,-98,139,-116,138,65]]],"properties":{"name":"巣鴨"}},{"type":"MultiPolygon","arcs":[[[225,26,27,21,22,23,17,18,197,198]]],"properties":{"name":"池袋本町"}},{"type":"MultiPolygon","arcs":[[[-43,29,30,171,172,173,78,-52,79,80,-44]]],"properties":{"name":"雑司が谷"}},{"type":"MultiPolygon","arcs":[[[32,179,195,-108,-113,34,-112,-63,-141,-137,-101,-93,144]]],"properties":{"name":"西巣鴨"}},{"type":"MultiPolygon","arcs":[[[-47,82,132,-129,-57,-73,38,39,40,41,-125,196]]],"properties":{"name":"東池袋"}},{"type":"MultiPolygon","arcs":[[[-80,-51,126,127,-58,128,-133,-83,46,47,-30,42,43,-81]]],"properties":{"name":"南池袋"}},{"type":"MultiPolygon","arcs":[[[181,212,204,238,-194,-186,-185,-146,-127,50,51,183,-142]]],"properties":{"name":"目白"}},{"type":"MultiPolygon","arcs":[[[53,54,55,56,57,-128,145,184,185,186,-158,-157,232,-175,-78,-77]]],"properties":{"name":"西池袋"}},{"type":"MultiPolygon","arcs":[[[62,63,-111,-66,-139,-115,-105,59,60,-126,-41,-138,140]]],"properties":{"name":"北大塚"}},{"type":"MultiPolygon","arcs":[[[100,136,137,-40,-39,72,-56,69,-24,-23,-22,-28,91,92]]],"properties":{"name":"上池袋"}},{"type":"MultiPolygon","arcs":[[[223,-198,-19,-18,-70,-55,-54,76,77,174,175,176,177]]],"properties":{"name":"池袋"}},{"type":"MultiPolygon","arcs":[[[88,89,-230,-119,-118,216,-220,191,192,193,189,234,218,233,86,133,134,135]]],"properties":{"name":"南長崎"}},{"type":"MultiPolygon","arcs":[[[-60,104,114,115,116,102,123,124,-42,125,-61]]],"properties":{"name":"南大塚"}},{"type":"MultiPolygon","arcs":[[[164,165,230,120,121,-215,-154,-159,-187,-193,-192,219,-217,117,118,229,-90,-89,-136,-135,231,-168]]],"properties":{"name":"長崎"}},{"type":"MultiPolygon","arcs":[[[239,143,141,-184,-79,-174,-173,236]]],"properties":{"name":"高田"}},{"type":"MultiPolygon","arcs":[[[207,-170,208,209,210,150,-229,-201,-228,-176,-233,-156,152,148,211]]],"properties":{"name":"要町"}},{"type":"MultiPolygon","arcs":[[[167,168,169,-208,-212,-149,-153,155,156,157,158,153,214,-122,-121,-231,-166,-165]]],"properties":{"name":"千早"}},{"type":"MultiPolygon","arcs":[[[200,201,160,161,162,202,226,-177,227]]],"properties":{"name":"高松"}},{"type":"MultiPolygon","arcs":[[[-211,-210,221,-162,-161,-202,228,-151]]],"properties":{"name":"千川"}}]}},"arcs":[[[139.74924134539222,35.73723359827371],[139.7465882246722,35.736438628715]],[[139.7465882246722,35.736438628715],[139.746325167377,35.738773009664946]],[[139.746325167377,35.738773009664946],[139.7467460590493,35.73987788261095],[139.74924134539222,35.73723359827371]],[[139.745333065578,35.73590303481739],[139.74528045411896,35.73592324590787]],[[139.74528045411896,35.73592324590787],[139.74182312966792,35.73741212957292]],[[139.74182312966792,35.73741212957292],[139.74415306571103,35.74117476091648]],[[139.74415306571103,35.74117476091648],[139.74405535871566,35.73886732808717],[139.746325167377,35.738773009664946]],[[139.7465882246722,35.736438628715],[139.745333065578,35.73590303481739]],[[139.73953077323844,35.73839573597606],[139.73652440415057,35.739766721613336]],[[139.73652440415057,35.739766721613336],[139.73684758882752,35.74091201674029]],[[139.73684758882752,35.74091201674029],[139.74110911700956,35.74235037267915]],[[139.74110911700956,35.74235037267915],[139.73953077323844,35.73839573597606]],[[139.73889191980726,35.733501283565865],[139.73543459535622,35.73667442477055]],[[139.73543459535622,35.73667442477055],[139.7359907736375,35.73691695785626]],[[139.7359907736375,35.73691695785626],[139.7383658052169,35.73559649994518],[139.73886937203912,35.736300519596746]],[[139.73886937203912,35.736300519596746],[139.74180058189978,35.734535417695206]],[[139.74180058189978,35.734535417695206],[139.73889191980726,35.733501283565865]],[[139.71466058495912,35.73663737110468],[139.71118071273992,35.73877637818003]],[[139.71118071273992,35.73877637818003],[139.7110905216673,35.738823537391134]],[[139.7110905216673,35.738823537391134],[139.71221791007525,35.74071664286569]],[[139.71221791007525,35.74071664286569],[139.71711077576572,35.74138360885139]],[[139.71711077576572,35.74138360885139],[139.71722351460653,35.74134318667044]],[[139.71722351460653,35.74134318667044],[139.71620134911666,35.739544399618104]],[[139.71620134911666,35.739544399618104],[139.71466058495912,35.73663737110468]],[[139.71221791007525,35.74071664286569],[139.7122028782298,35.74117476091648]],[[139.7122028782298,35.74117476091648],[139.71367599908285,35.74264680200612],[139.71448020281386,35.74543593249177]],[[139.71448020281386,35.74543593249177],[139.7147582919545,35.745991737479855],[139.71918517043636,35.74521024198146]],[[139.71918517043636,35.74521024198146],[139.71711077576572,35.74138360885139]],[[139.71956096657235,35.7183059120432],[139.71741892859723,35.720492078329656]],[[139.71741892859723,35.720492078329656],[139.72327383239585,35.72245255410581]],[[139.72327383239585,35.72245255410581],[139.72435612526746,35.72034386366617],[139.72278529741905,35.71893582436303],[139.71956096657235,35.7183059120432]],[[139.7301133220707,35.73658010634833],[139.72778338602762,35.736964117067366],[139.7256638958207,35.73982398636968]],[[139.7256638958207,35.73982398636968],[139.7245590551809,35.740602113353],[139.72637790847907,35.742272896832326]],[[139.72637790847907,35.742272896832326],[139.7303012201387,35.73914354632367]],[[139.7303012201387,35.73914354632367],[139.7301133220707,35.73658010634833]],[[139.7251377812303,35.72908516029692],[139.7228303929554,35.73040224969292]],[[139.7228303929554,35.73040224969292],[139.71696797323406,35.73346759841507]],[[139.71696797323406,35.73346759841507],[139.71614873765762,35.73441751966743]],[[139.71614873765762,35.73441751966743],[139.71775714511963,35.73428614757933]],[[139.71775714511963,35.73428614757933],[139.72083115751195,35.733518126141256]],[[139.72083115751195,35.733518126141256],[139.72583676204323,35.73217072010954]],[[139.72583676204323,35.73217072010954],[139.7251377812303,35.72908516029692]],[[139.71741892859723,35.720492078329656],[139.7161412217349,35.72181590475582]],[[139.7161412217349,35.72181590475582],[139.71612618988945,35.72184622139153]],[[139.71612618988945,35.72184622139153],[139.71792249541946,35.72415702273592]],[[139.71792249541946,35.72415702273592],[139.72029001107614,35.72530905489304]],[[139.72029001107614,35.72530905489304],[139.72304083879152,35.723439529024034]],[[139.72304083879152,35.723439529024034],[139.72327383239585,35.72245255410581]],[[139.7135782920875,35.71892235030271],[139.70689663678974,35.72164411048678]],[[139.70689663678974,35.72164411048678],[139.70828708249286,35.724470294638294]],[[139.70828708249286,35.724470294638294],[139.71207510754357,35.72297467394309]],[[139.71207510754357,35.72297467394309],[139.7135782920875,35.71892235030271]],[[139.7068816049443,35.72831377034376],[139.7086102671698,35.73188439632781]],[[139.7086102671698,35.73188439632781],[139.70919650914195,35.733022954424605],[139.7117444069439,35.73330254117619]],[[139.7117444069439,35.73330254117619],[139.71301459788353,35.73336991147777]],[[139.71301459788353,35.73336991147777],[139.71348810101486,35.73334633187221]],[[139.71348810101486,35.73334633187221],[139.7121352349253,35.73137238203575]],[[139.7121352349253,35.73137238203575],[139.70968504411871,35.72735711206124]],[[139.70968504411871,35.72735711206124],[139.7068816049443,35.72831377034376]],[[139.72951956417586,35.731473437488134],[139.72951204825316,35.73147680600321]],[[139.72951204825316,35.73147680600321],[139.72597204865218,35.732450306861125]],[[139.72597204865218,35.732450306861125],[139.72688147530127,35.73536744091979]],[[139.72688147530127,35.73536744091979],[139.73013586983888,35.73535733537455]],[[139.73013586983888,35.73535733537455],[139.7301433857616,35.73530343913328]],[[139.7301433857616,35.73530343913328],[139.72951956417586,35.731473437488134]],[[139.73575778003317,35.73195513514447],[139.73554733419704,35.73270631400715],[139.73134593339674,35.73467015829837]],[[139.73134593339674,35.73467015829837],[139.7335856783672,35.73661042298404],[139.7352692450564,35.736741795072135]],[[139.7352692450564,35.736741795072135],[139.73543459535622,35.73667442477055]],[[139.73889191980726,35.733501283565865],[139.73575778003317,35.73195513514447]],[[139.71301459788353,35.73336991147777],[139.71466058495912,35.73663737110468]],[[139.71620134911666,35.739544399618104],[139.7203125588443,35.736596948923726]],[[139.7203125588443,35.736596948923726],[139.71775714511963,35.73428614757933]],[[139.71614873765762,35.73441751966743],[139.71348810101486,35.73334633187221]],[[139.70278542706208,35.7329589526381],[139.70373243332477,35.73467015829837],[139.70467943958744,35.733922347950774],[139.7078361271297,35.73478805632615],[139.7087530697015,35.736357784353096]],[[139.7087530697015,35.736357784353096],[139.71133103119433,35.737055066974506]],[[139.71133103119433,35.737055066974506],[139.7117444069439,35.73330254117619]],[[139.7086102671698,35.73188439632781],[139.70724236923485,35.73183723711669]],[[139.70724236923485,35.73183723711669],[139.70278542706208,35.7329589526381]],[[139.713886444919,35.71878424118446],[139.7135782920875,35.71892235030271]],[[139.71207510754357,35.72297467394309],[139.71193230501189,35.723294682875625]],[[139.71193230501189,35.723294682875625],[139.71612618988945,35.72184622139153]],[[139.7161412217349,35.72181590475582],[139.713886444919,35.71878424118446]],[[139.72029001107614,35.72530905489304],[139.71735128529275,35.727222371458076]],[[139.71735128529275,35.727222371458076],[139.7170656802294,35.72937822110882]],[[139.7170656802294,35.72937822110882],[139.72041026583966,35.727552485935846],[139.7228303929554,35.73040224969292]],[[139.7251377812303,35.72908516029692],[139.72301077510065,35.72662614428904],[139.72029001107614,35.72530905489304]],[[139.6818986778242,35.725231579046216],[139.68128237216118,35.72741100830251],[139.68006479268058,35.727882600413615]],[[139.68006479268058,35.727882600413615],[139.68216173511937,35.73077278635164]],[[139.68216173511937,35.73077278635164],[139.68326657575915,35.729853181734995]],[[139.68326657575915,35.729853181734995],[139.68495014244837,35.728768519879466]],[[139.68495014244837,35.728768519879466],[139.6818986778242,35.725231579046216]],[[139.71918517043636,35.74521024198146],[139.72026746330798,35.7418215158117],[139.72392020174973,35.73990483073158]],[[139.72392020174973,35.73990483073158],[139.7226500108101,35.738773009664946]],[[139.7226500108101,35.738773009664946],[139.7207710301302,35.74006988797047],[139.71722351460653,35.74134318667044]],[[139.73886937203912,35.736300519596746],[139.7401696266696,35.73811278070941]],[[139.7401696266696,35.73811278070941],[139.74182312966792,35.73741212957292]],[[139.74528045411896,35.73592324590787],[139.7444161230062,35.73551902409835]],[[139.7444161230062,35.73551902409835],[139.74180058189978,35.734535417695206]],[[139.7401696266696,35.73811278070941],[139.73953077323844,35.73839573597606]],[[139.74110911700956,35.74235037267915],[139.74415306571103,35.74117476091648]],[[139.7226500108101,35.738773009664946],[139.722680074501,35.73874943005939]],[[139.722680074501,35.73874943005939],[139.7203125588443,35.736596948923726]],[[139.7357652959559,35.725063153292254],[139.7339314108123,35.72552800837319],[139.73118058309691,35.724251341158144],[139.7301133220707,35.72590528206207]],[[139.7301133220707,35.72590528206207],[139.72927905464883,35.72941864328977],[139.72951204825316,35.73147680600321]],[[139.72951956417586,35.731473437488134],[139.7302486086797,35.731267958068294]],[[139.7302486086797,35.731267958068294],[139.73016593352975,35.730368564542125],[139.7357652959559,35.725063153292254]],[[139.7352692450564,35.736741795072135],[139.7307972710382,35.7414307680625]],[[139.7307972710382,35.7414307680625],[139.73217268489591,35.743175658873575]],[[139.73217268489591,35.743175658873575],[139.73544962720166,35.740538111566494],[139.73684758882752,35.74091201674029]],[[139.73652440415057,35.739766721613336],[139.7359907736375,35.73691695785626]],[[139.73134593339674,35.73467015829837],[139.7301433857616,35.73530343913328]],[[139.73013586983888,35.73535733537455],[139.7301133220707,35.73658010634833]],[[139.7303012201387,35.73914354632367],[139.7307972710382,35.7414307680625]],[[139.7170656802294,35.72937822110882],[139.71696797323406,35.73346759841507]],[[139.7302486086797,35.731267958068294],[139.73241319442292,35.730937843590524],[139.7357728118786,35.731877659297645]],[[139.7357728118786,35.731877659297645],[139.73674236590944,35.73019003324293]],[[139.73674236590944,35.73019003324293],[139.73551727050614,35.729243480505644],[139.73747141041326,35.72685857182951],[139.73535943612904,35.72605012821048],[139.7357652959559,35.725063153292254]],[[139.6895874667664,35.72752216930013],[139.68721995110968,35.72798365586599]],[[139.68721995110968,35.72798365586599],[139.68636313591966,35.72817902974059]],[[139.68636313591966,35.72817902974059],[139.68778364531366,35.73235261992382]],[[139.68778364531366,35.73235261992382],[139.68907638402146,35.73208987574764]],[[139.68907638402146,35.73208987574764],[139.69027141573386,35.731237641432585]],[[139.69027141573386,35.731237641432585],[139.6895874667664,35.72752216930013]],[[139.7301133220707,35.72590528206207],[139.7296473348621,35.72610739296683]],[[139.7296473348621,35.72610739296683],[139.7251377812303,35.72908516029692]],[[139.72583676204323,35.73217072010954],[139.72597204865218,35.732450306861125]],[[139.70828708249286,35.724470294638294],[139.70819689142024,35.724490505728774]],[[139.70819689142024,35.724490505728774],[139.70968504411871,35.72735711206124]],[[139.7121352349253,35.73137238203575],[139.7142246614414,35.72917611020406]],[[139.7142246614414,35.72917611020406],[139.71195485278005,35.72671035716602]],[[139.71195485278005,35.72671035716602],[139.71193230501189,35.723294682875625]],[[139.71195485278005,35.72671035716602],[139.71489357856345,35.72475998693511],[139.71792249541946,35.72415702273592]],[[139.71735128529275,35.727222371458076],[139.7142246614414,35.72917611020406]],[[139.68006479268058,35.727882600413615],[139.67753192672407,35.729556752408016],[139.67764466556486,35.73175976126987],[139.6791854297224,35.733316015236504]],[[139.6791854297224,35.733316015236504],[139.67992950607163,35.73273663064286]],[[139.67992950607163,35.73273663064286],[139.68216173511937,35.73077278635164]],[[139.722680074501,35.73874943005939],[139.72523548822568,35.7361287253277]],[[139.72523548822568,35.7361287253277],[139.72083115751195,35.733518126141256]],[[139.7357728118786,35.731877659297645],[139.73575778003317,35.73195513514447]],[[139.7444161230062,35.73551902409835],[139.74235676018102,35.73380108140792],[139.74340898936177,35.732723156582544],[139.7406280979555,35.73037530157229],[139.73881676058008,35.73197871475003],[139.73674236590944,35.73019003324293]],[[139.72523548822568,35.7361287253277],[139.72688147530127,35.73536744091979]],[[139.70564899361827,35.71747388881862],[139.71000071287295,35.71636227884245],[139.71245841960226,35.71638922696309]],[[139.71245841960226,35.71638922696309],[139.7117444069439,35.71487676369249]],[[139.7117444069439,35.71487676369249],[139.7102863179363,35.71353609469093],[139.70636300627663,35.713525989145694],[139.7043938345241,35.716163536452775],[139.70564899361827,35.71747388881862]],[[139.72392020174973,35.73990483073158],[139.7256638958207,35.73982398636968]],[[139.70819689142024,35.724490505728774],[139.70721982146668,35.7242580781883],[139.7026726882213,35.72601307454461]],[[139.7026726882213,35.72601307454461],[139.70235701946706,35.72662277577396]],[[139.70235701946706,35.72662277577396],[139.7068816049443,35.72831377034376]],[[139.69292453645392,35.7329589526381],[139.69057956856537,35.73658684337849]],[[139.69057956856537,35.73658684337849],[139.6920752371866,35.737078646580066]],[[139.6920752371866,35.737078646580066],[139.69493128782005,35.73736160184672]],[[139.69493128782005,35.73736160184672],[139.69501396296997,35.73312737839206]],[[139.69501396296997,35.73312737839206],[139.69292453645392,35.7329589526381]],[[139.69320262559452,35.73074246971593],[139.6931875937491,35.73074583823101]],[[139.6931875937491,35.73074583823101],[139.69292453645392,35.7329589526381]],[[139.69501396296997,35.73312737839206],[139.6991552363885,35.732783789853976]],[[139.6991552363885,35.732783789853976],[139.69817816643493,35.73063467723339]],[[139.69817816643493,35.73063467723339],[139.69771969514903,35.72968812449611]],[[139.69771969514903,35.72968812449611],[139.69320262559452,35.73074246971593]],[[139.6990500134704,35.73987114558079],[139.6948711604383,35.739581453283975]],[[139.6948711604383,35.739581453283975],[139.6948035171338,35.74038315987284]],[[139.6948035171338,35.74038315987284],[139.69465319867942,35.74213141919899]],[[139.69465319867942,35.74213141919899],[139.69868173325716,35.7422931079228],[139.6990500134704,35.73987114558079]],[[139.67992950607163,35.73273663064286],[139.68372504704507,35.73595693105866]],[[139.68372504704507,35.73595693105866],[139.68448415523974,35.736300519596746]],[[139.68448415523974,35.736300519596746],[139.68510797682546,35.734296253124576],[139.68433383678536,35.73281410648969]],[[139.68433383678536,35.73281410648969],[139.68369498335417,35.7329252674873],[139.68326657575915,35.729853181734995]],[[139.68372504704507,35.73595693105866],[139.68112453778406,35.73774561256576]],[[139.68112453778406,35.73774561256576],[139.68104186263415,35.73875953560463],[139.68582198948386,35.7400328343046]],[[139.68582198948386,35.7400328343046],[139.68685167089643,35.73862816351654],[139.6863030085379,35.73712243727609]],[[139.6863030085379,35.73712243727609],[139.68448415523974,35.736300519596746]],[[139.71956096657235,35.7183059120432],[139.71781727250138,35.717032613343235]],[[139.71781727250138,35.717032613343235],[139.7152167632404,35.71817790847019]],[[139.7152167632404,35.71817790847019],[139.713886444919,35.71878424118446]],[[139.70278542706208,35.7329589526381],[139.69947842106544,35.73318464314841]],[[139.69947842106544,35.73318464314841],[139.70010224265118,35.73462973611743]],[[139.70010224265118,35.73462973611743],[139.70188351633573,35.73642515465468]],[[139.70188351633573,35.73642515465468],[139.70355956710222,35.7357716627293],[139.70396542692907,35.73746602581418],[139.70564899361827,35.73926144435144]],[[139.70564899361827,35.73926144435144],[139.7087530697015,35.736357784353096]],[[139.72637790847907,35.742272896832326],[139.72773829049132,35.74469485917433]],[[139.72773829049132,35.74469485917433],[139.7307972710382,35.7414307680625]],[[139.70564899361827,35.71747388881862],[139.7058143439181,35.718615815430496]],[[139.7058143439181,35.718615815430496],[139.70689663678974,35.72164411048678]],[[139.7135782920875,35.71892235030271],[139.71245841960226,35.71638922696309]],[[139.7026726882213,35.72601307454461],[139.69982415351055,35.72662614428904],[139.69780237029897,35.726262344660476]],[[139.69780237029897,35.726262344660476],[139.69561523678755,35.72626571317556]],[[139.69561523678755,35.72626571317556],[139.69771969514903,35.72968812449611]],[[139.69817816643493,35.73063467723339],[139.69921536377026,35.73041235523816]],[[139.69921536377026,35.73041235523816],[139.7012221151364,35.72879883651518],[139.70235701946706,35.72662277577396]],[[139.69277421799953,35.72251655589231],[139.69075995071066,35.72269845570659]],[[139.69075995071066,35.72269845570659],[139.6920752371866,35.7269899439176]],[[139.6920752371866,35.7269899439176],[139.6935784217305,35.726680040530304]],[[139.6935784217305,35.726680040530304],[139.69561523678755,35.72626571317556]],[[139.69561523678755,35.72626571317556],[139.69277421799953,35.72251655589231]],[[139.69921536377026,35.73041235523816],[139.70559638215923,35.73122079885719],[139.70724236923485,35.73183723711669]],[[139.72773829049132,35.74469485917433],[139.73284911794067,35.744940760775116],[139.73217268489591,35.743175658873575]],[[139.7296473348621,35.72610739296683],[139.7293466979533,35.72556506203907],[139.7263553607109,35.72707752530966],[139.72266504265556,35.72503620517162],[139.72304083879152,35.723439529024034]],[[139.7110905216673,35.738823537391134],[139.70737013992107,35.74100633516251]],[[139.70737013992107,35.74100633516251],[139.70950466197345,35.74492054968464]],[[139.70950466197345,35.74492054968464],[139.7122028782298,35.74117476091648]],[[139.69885459947972,35.736724952496736],[139.6949388037428,35.737408761057836]],[[139.6949388037428,35.737408761057836],[139.6948711604383,35.739581453283975]],[[139.6990500134704,35.73987114558079],[139.7007711597732,35.74002609727444],[139.7017181660359,35.737108963215775]],[[139.7017181660359,35.737108963215775],[139.69885459947972,35.736724952496736]],[[139.702868102212,35.72327784030023],[139.6999143445832,35.72350689932562],[139.69730631939947,35.72213591368835]],[[139.69730631939947,35.72213591368835],[139.69780237029897,35.726262344660476]],[[139.7026726882213,35.72601307454461],[139.702868102212,35.72327784030023]],[[139.6879489956135,35.73601419581501],[139.6863030085379,35.73712243727609]],[[139.68582198948386,35.7400328343046],[139.689865555907,35.74140045142679]],[[139.689865555907,35.74140045142679],[139.69048937749275,35.739766721613336]],[[139.69048937749275,35.739766721613336],[139.6920752371866,35.737078646580066]],[[139.69057956856537,35.73658684337849],[139.6879489956135,35.73601419581501]],[[139.7058143439181,35.718615815430496],[139.70452912113305,35.72015185830665],[139.70579931207266,35.721489158793126],[139.702868102212,35.72327784030023]],[[139.68907638402146,35.73208987574764],[139.6879489956135,35.73601419581501]],[[139.6931875937491,35.73074583823101],[139.69027141573386,35.731237641432585]],[[139.68602491939728,35.72291404067167],[139.68572428248848,35.7252181049859],[139.68721995110968,35.72798365586599]],[[139.6895874667664,35.72752216930013],[139.68960249861183,35.727512063754894]],[[139.68960249861183,35.727512063754894],[139.68846759428115,35.723567532597045],[139.68971523745262,35.72283993333992]],[[139.68971523745262,35.72283993333992],[139.68602491939728,35.72291404067167]],[[139.6920752371866,35.7269899439176],[139.68960249861183,35.727512063754894]],[[139.69320262559452,35.73074246971593],[139.6935784217305,35.726680040530304]],[[139.689865555907,35.74140045142679],[139.69271409061776,35.74347882523071],[139.69465319867942,35.74213141919899]],[[139.6948035171338,35.74038315987284],[139.69048937749275,35.739766721613336]],[[139.70564899361827,35.73926144435144],[139.70737013992107,35.74100633516251]],[[139.71118071273992,35.73877637818003],[139.71133103119433,35.737055066974506]],[[139.70950466197345,35.74492054968464],[139.71077485291306,35.74593110420843],[139.71448020281386,35.74543593249177]],[[139.7017181660359,35.737108963215775],[139.70188351633573,35.73642515465468]],[[139.70010224265118,35.73462973611743],[139.6975167652356,35.734936270989635],[139.69885459947972,35.736724952496736]],[[139.6949388037428,35.737408761057836],[139.69493128782005,35.73736160184672]],[[139.68636313591966,35.72817902974059],[139.68495014244837,35.728768519879466]],[[139.68433383678536,35.73281410648969],[139.68778364531366,35.73235261992382]],[[139.6791854297224,35.733316015236504],[139.67850899667764,35.73444446778806],[139.68112453778406,35.73774561256576]],[[139.6991552363885,35.732783789853976],[139.69947842106544,35.73318464314841]],[[139.68602491939728,35.72291404067167],[139.6822143465784,35.723921226680375],[139.6818986778242,35.725231579046216]],[[139.69075995071066,35.72269845570659],[139.68971523745262,35.72283993333992]],[[139.71424720920953,35.71328345605999],[139.7152167632404,35.71817790847019]],[[139.71781727250138,35.717032613343235],[139.71726861014284,35.71466791575757],[139.7221915395242,35.71250532907667],[139.71805026610568,35.71257943640842],[139.71572784598533,35.71363041311315],[139.71424720920953,35.71328345605999]],[[139.74924134539222,35.73723359827371],[139.75268363799782,35.73525627992217],[139.75018083573218,35.734238988368226],[139.74924134539222,35.73286463421588],[139.7470542118808,35.73511480228884],[139.745333065578,35.73590303481739]],[[139.69730631939947,35.72213591368835],[139.69277421799953,35.72251655589231]],[[139.71424720920953,35.71328345605999],[139.7117444069439,35.71487676369249]]]}