{"type":"Topology","bbox":[139.65281963345578,35.52086178990677,139.82745265992406,35.61309720593961],"objects":{"town":{"type":"GeometryCollection","geometries":[{"type":"MultiPolygon","arcs":[[[38,39,40,41,37,3,4,14,15,16,35,36,-24,-12,-22,0,-21,33]]],"properties":{"name":"大森東"}},{"type":"MultiPolygon","arcs":[[[11,23,24,25,26,27,22,7,8,9,17,18,19,20,-1,21]]],"properties":{"name":"大森中"}},{"type":"MultiPolygon","arcs":[[[-36,-17,-16,47,392,393,31,32,42,43,44,-25,-37]]],"properties":{"name":"大森南"}},{"type":"MultiPolygon","arcs":[[[67,68,49,50,51,52,53,69,-40]]],"properties":{"name":"大森本町"}},{"type":"MultiPolygon","arcs":[[[-18,-10,245,136,137,-113,-112,140,203,-162,-184,-88,-193,71,-39,-34,-20,-19]]],"properties":{"name":"大森西"}},{"type":"MultiPolygon","arcs":[[[183,-161,184,-166,63,64,186,58,59,60,61,-121,-120,-152,-89]]],"properties":{"name":"山王"}},{"type":"MultiPolygon","arcs":[[[261,294,-131,100,101,102,134,72,73,332]]],"properties":{"name":"平和島"}},{"type":"MultiPolygon","arcs":[[[77,78,79,116,117,118,113,114,376,-348,-199]]],"properties":{"name":"中馬込"}},{"type":"MultiPolygon","arcs":[[[-60,240,-182,86,83,84,241]]],"properties":{"name":"東馬込"}},{"type":"MultiPolygon","arcs":[[[119,120,-62,121,224,-51,-50,-69,-68,-72,192,87,88,151]]],"properties":{"name":"大森北"}},{"type":"MultiPolygon","arcs":[[[209,210,211,300,-244,-249,-109,-108,213,214,206,207,208,253,95,91,92,194,195]]],"properties":{"name":"池上"}},{"type":"MultiPolygon","arcs":[[[243,244,-169,-168,-163,-167,-185,160,161,-204,-141,111,112,105,106,107,108,248]]],"properties":{"name":"中央"}},{"type":"Polygon","arcs":[[124,125,126,127,128]],"properties":{"name":"東嶺町"}},{"type":"MultiPolygon","arcs":[[[130,131,132,133,142,-101]]],"properties":{"name":"昭和島"}},{"type":"Polygon","arcs":[[143,144,145,146]],"properties":{"name":"田園調布南"}},{"type":"MultiPolygon","arcs":[[[313,-230,-119,-118,148,149,-298,314]]],"properties":{"name":"西馬込"}},{"type":"MultiPolygon","arcs":[[[-255,-222,-274,-273,305,-285,306,155,307,308,309,-257,-256]]],"properties":{"name":"南雪谷"}},{"type":"MultiPolygon","arcs":[[[-245,-301,-212,428,-315,297,-150,-149,-117,-80,180,-87,181,-241,-59,-187,-65,-64,165,166,162,167,168]]],"properties":{"name":"南馬込"}},{"type":"MultiPolygon","arcs":[[[296,216,218,176,177,178,172,295,281,282]]],"properties":{"name":"田園調布"}},{"type":"MultiPolygon","arcs":[[[-181,-79,-78,198,199,200,201,349,-84]]],"properties":{"name":"北馬込"}},{"type":"Polygon","arcs":[[219,-179,220,221,222,223,-145]],"properties":{"name":"田園調布本町"}},{"type":"MultiPolygon","arcs":[[[-317,-401,225,226,227,228,-114,229,-314,-429,-211]]],"properties":{"name":"仲池上"}},{"type":"MultiPolygon","arcs":[[[234,231,-129,232,-278,278,-264,279,280]]],"properties":{"name":"南久が原"}},{"type":"Polygon","arcs":[[-135,-103,249,-41,-70,-54,250,-73]],"properties":{"name":"平和の森公園"}},{"type":"Polygon","arcs":[[-146,-224,-125,251,252]],"properties":{"name":"西嶺町"}},{"type":"Polygon","arcs":[[-223,254,255,256,257,-126]],"properties":{"name":"北嶺町"}},{"type":"MultiPolygon","arcs":[[[277,-233,-128,-127,-258,-310,333,-227,-226,400,316,-210,-196,-313,266,263,-279]]],"properties":{"name":"久が原"}},{"type":"MultiPolygon","arcs":[[[-342,452,453,303,301,267,-147,-253,-252,-232]]],"properties":{"name":"鵜の木"}},{"type":"Polygon","arcs":[[-221,-178,270,271,272,273]],"properties":{"name":"雪谷大塚町"}},{"type":"MultiPolygon","arcs":[[[366,357,358,-228,-334,-309,-308,-156,-307,284,285,286,-336,373,374,375]]],"properties":{"name":"東雪谷"}},{"type":"MultiPolygon","arcs":[[[322,289,290,323,-286,-306,-272]]],"properties":{"name":"石川町"}},{"type":"MultiPolygon","arcs":[[[361,362,343,339,340,341,-235,-281,-280,-267,312,-195,-93,-92,363]]],"properties":{"name":"千鳥"}},{"type":"MultiPolygon","arcs":[[[416,-415,318,319,320,321,415,-374,335,-287,-324,-291,336,337]]],"properties":{"name":"南千束"}},{"type":"MultiPolygon","arcs":[[[454,401,429,324,325,326,327,328,329,330,430,431,403,404,455]]],"properties":{"name":"西六郷"}},{"type":"MultiPolygon","arcs":[[[-375,-416,-322,-321,360,-201,-200,347,-377,-115,-229,-359,-358,-367,-376]]],"properties":{"name":"上池台"}},{"type":"MultiPolygon","arcs":[[[-382,475,352,441,442,354,350,476,-391]]],"properties":{"name":"羽田空港"}},{"type":"MultiPolygon","arcs":[[[-456,-405,-404,-432,-431,-331,-330,368,369,370,371,480,459,460,-497,547]]],"properties":{"name":"仲六郷"}},{"type":"MultiPolygon","arcs":[[[433,434,-410,383,384,385,386,396,397,379,380,381,390,391]]],"properties":{"name":"羽田"}},{"type":"MultiPolygon","arcs":[[[-502,-424,-423,-425,407,408,-384,409,410,457,509]]],"properties":{"name":"本羽田"}},{"type":"MultiPolygon","arcs":[[[485,466,413,-319,414,-417,-338]]],"properties":{"name":"北千束"}},{"type":"MultiPolygon","arcs":[[[-409,-408,424,422,423,417,418,419,420,425,426,435,-385]]],"properties":{"name":"萩中"}},{"type":"MultiPolygon","arcs":[[[-555,-473,-386,-436,-427,477,478,436,437,438,468,469,-44,470]]],"properties":{"name":"西糀谷"}},{"type":"Polygon","arcs":[[-380,-398,443,444,445,446]],"properties":{"name":"羽田旭町"}},{"type":"MultiPolygon","arcs":[[[-32,-394,451,-446,-445,-444,-397,-387,472,554,-471,-43,-33]]],"properties":{"name":"東糀谷"}},{"type":"MultiPolygon","arcs":[[[496,-461,-460,-481,-372,464,-419,465,462,-509,572,498,499]]],"properties":{"name":"東六郷"}},{"type":"MultiPolygon","arcs":[[[-478,-426,-421,-420,-465,-371,481,482,487,488,-437,-479]]],"properties":{"name":"南蒲田"}},{"type":"MultiPolygon","arcs":[[[-469,-439,489,-27,-26,-45,-470]]],"properties":{"name":"北糀谷"}},{"type":"MultiPolygon","arcs":[[[524,494,495,491,492,-514,523,503,-344,-363,504]]],"properties":{"name":"矢口"}},{"type":"MultiPolygon","arcs":[[[-499,-573,508,-463,-466,-418,501,502,506,-611]]],"properties":{"name":"南六郷"}},{"type":"MultiPolygon","arcs":[[[-453,-341,-340,-504,-524,513,-493,510,518,540,541,-304,-454]]],"properties":{"name":"下丸子"}},{"type":"MultiPolygon","arcs":[[[-209,515,516,531,532,530,521,-364,-96,-254]]],"properties":{"name":"東矢口"}},{"type":"MultiPolygon","arcs":[[[527,528,-326,525,-496,-495,-525,-505,-362,-522,529]]],"properties":{"name":"多摩川"}},{"type":"MultiPolygon","arcs":[[[-214,-107,-106,-138,-552,-551,557,544,-566,-539,-533,-532,-517,-516,-208,-207,-215]]],"properties":{"name":"西蒲田"}},{"type":"MultiPolygon","arcs":[[[-328,-327,-529,-528,-530,-531,538,539]]],"properties":{"name":"新蒲田"}},{"type":"MultiPolygon","arcs":[[[550,551,-137,-246,-9,569,560,561,-488,-483,573,563,564,565,-545,-558]]],"properties":{"name":"蒲田"}},{"type":"MultiPolygon","arcs":[[[-562,-561,-570,-8,-23,-28,-490,-438,-489]]],"properties":{"name":"東蒲田"}},{"type":"MultiPolygon","arcs":[[[-370,-369,-329,-540,-565,-564,-574,-482]]],"properties":{"name":"蒲田本町"}},{"type":"MultiPolygon","arcs":[[[590,591,593,-621,-585,-617,587,574,575,588,622,578]]],"properties":{"name":"東海"}},{"type":"MultiPolygon","arcs":[[[583,584,585,-620,-619,609,606,-618]]],"properties":{"name":"城南島"}},{"type":"MultiPolygon","arcs":[[[-615,599,602,-133,603]]],"properties":{"name":"京浜島"}},{"type":"Polygon","arcs":[[-519,-511,-492,-526,-325,-430,-402,-455,-548,-500,610,-507,-503,-510,-458,-411,-435,-434,-392,-477,-351,611,612,-541]],"properties":{"name":"多摩川河川敷（下流）"}},{"type":"Polygon","arcs":[[-442,-353,-476,-381,-447,-452,-393,-48,-15,-5,613,-42,-250,-102,-143,-134,-603,-600,614,-604,-132,-295,-262,-333,-74,-251,-53,615,-575,-588,616,-584,617,-607,-610,618,619,-586,620,-594,-592,621]],"properties":{"name":"羽田沖水面"}},{"type":"Polygon","arcs":[[-4,-38,-614]],"properties":{"name":"ふるさとの浜辺公園"}},{"type":"Polygon","arcs":[[-296,-173,-220,-144,-268,-302,-542,-613,624,-282]],"properties":{"name":"多摩川河川敷（上流）"}}]}},"arcs":[[[139.73513241010795,35.569262552775484],[139.7344338081419,35.57151332200361]],[[139.7344338081419,35.57151332200361],[139.7368439849248,35.571577893251956],[139.73969078793655,35.57464041531646]],[[139.73969078793655,35.57464041531646],[139.73997022872297,35.57440057925116]],[[139.73997022872297,35.57440057925116],[139.74367281914314,35.57130115933047]],[[139.74367281914314,35.57130115933047],[139.7437252142906,35.57107977219327]],[[139.7437252142906,35.57107977219327],[139.73965585783824,35.57000973436351]],[[139.73965585783824,35.57000973436351],[139.73513241010795,35.569262552775484]],[[139.72943880408448,35.56630149981554],[139.72882752736416,35.56703023247546]],[[139.72882752736416,35.56703023247546],[139.72884499241331,35.56703945693951]],[[139.72884499241331,35.56703945693951],[139.73022473129632,35.5688566763573]],[[139.73022473129632,35.5688566763573],[139.73537692079606,35.56853382011556]],[[139.73537692079606,35.56853382011556],[139.73618031305705,35.56620925517504]],[[139.73618031305705,35.56620925517504],[139.73216335175215,35.56670737623372],[139.72943880408448,35.56630149981554]],[[139.741122921967,35.56676272301802],[139.73965585783824,35.57000973436351]],[[139.7437252142906,35.57107977219327],[139.74624018136845,35.569124185814744]],[[139.74624018136845,35.569124185814744],[139.74398719002787,35.56800802566473]],[[139.74398719002787,35.56800802566473],[139.741122921967,35.56676272301802]],[[139.73022473129632,35.5688566763573],[139.73024219634544,35.56888434974945]],[[139.73024219634544,35.56888434974945],[139.73244279253856,35.5717531580689]],[[139.73244279253856,35.5717531580689],[139.73392732171646,35.57381021355199]],[[139.73392732171646,35.57381021355199],[139.7344338081419,35.57151332200361]],[[139.73513241010795,35.569262552775484],[139.73537692079606,35.56853382011556]],[[139.73053910218104,35.56332199792749],[139.73085347306576,35.5658863989333],[139.72943880408448,35.56630149981554]],[[139.73618031305705,35.56620925517504],[139.73638989364687,35.56560044054776]],[[139.73638989364687,35.56560044054776],[139.73637242859772,35.56560044054776]],[[139.73637242859772,35.56560044054776],[139.735254665452,35.56569268518826],[139.7338050663724,35.56394003701882]],[[139.7338050663724,35.56394003701882],[139.73188391096573,35.56259326526756]],[[139.73188391096573,35.56259326526756],[139.73053910218104,35.56332199792749]],[[139.7398130432806,35.561034330843164],[139.7402147394111,35.563635629705175]],[[139.7402147394111,35.563635629705175],[139.7462227163193,35.56412452629981]],[[139.7462227163193,35.56412452629981],[139.74742780471078,35.562095144208875],[139.74699117848198,35.56096975959482]],[[139.74699117848198,35.56096975959482],[139.7427471715381,35.56111735101961]],[[139.7427471715381,35.56111735101961],[139.7398130432806,35.561034330843164]],[[139.73392732171646,35.57381021355199],[139.73429408774865,35.57522155655158]],[[139.73429408774865,35.57522155655158],[139.73735047135023,35.57433600800282],[139.73969078793655,35.57464041531646]],[[139.741122921967,35.56676272301802],[139.74019727436195,35.56645831570438]],[[139.74019727436195,35.56645831570438],[139.73878260538066,35.56501007484858],[139.73638989364687,35.56560044054776]],[[139.74197870937542,35.574907924773896],[139.73997022872297,35.57440057925116]],[[139.73429408774865,35.57522155655158],[139.7351498751571,35.5777675086293]],[[139.7351498751571,35.5777675086293],[139.73839837429932,35.577306285426815],[139.73792681797224,35.57833942540038],[139.73951613744504,35.5792526473413]],[[139.73951613744504,35.5792526473413],[139.740895876328,35.578560812537575],[139.74281703173472,35.575719677610266]],[[139.74281703173472,35.575719677610266],[139.74197870937542,35.574907924773896]],[[139.7398130432806,35.561034330843164],[139.73773470243157,35.560932861738614]],[[139.73773470243157,35.560932861738614],[139.7376823072841,35.560932861738614]],[[139.7376823072841,35.560932861738614],[139.73637242859772,35.56560044054776]],[[139.74019727436195,35.56645831570438],[139.7402147394111,35.563635629705175]],[[139.74398719002787,35.56800802566473],[139.7462227163193,35.56412452629981]],[[139.74624018136845,35.569124185814744],[139.7493664251666,35.56679039641017]],[[139.7493664251666,35.56679039641017],[139.7462227163193,35.56412452629981]],[[139.73637242859772,35.58141117192893],[139.7360231276147,35.58446446952937]],[[139.7360231276147,35.58446446952937],[139.7355515712876,35.58724103320833]],[[139.7355515712876,35.58724103320833],[139.73703610046547,35.58801588818851]],[[139.73703610046547,35.58801588818851],[139.73797921311967,35.583615818836805]],[[139.73797921311967,35.583615818836805],[139.73843330439763,35.581438845321074]],[[139.73843330439763,35.581438845321074],[139.73637242859772,35.58141117192893]],[[139.73244279253856,35.5717531580689],[139.7246533806169,35.57274017572222]],[[139.7246533806169,35.57274017572222],[139.7257711437626,35.57515698530324]],[[139.7257711437626,35.57515698530324],[139.73429408774865,35.57522155655158]],[[139.71868033380701,35.59175179612863],[139.71868033380701,35.59177946952078]],[[139.71868033380701,35.59177946952078],[139.71916935518325,35.59204697897822]],[[139.71916935518325,35.59204697897822],[139.72096825524588,35.59443611516709],[139.72804160015235,35.59456525766378],[139.73034698664037,35.59209310129847],[139.72936894388786,35.590109841527784]],[[139.72936894388786,35.590109841527784],[139.72887992251162,35.59023898402448]],[[139.72887992251162,35.59023898402448],[139.72418182428981,35.591788693984824],[139.71868033380701,35.59175179612863]],[[139.72025218823066,35.58399402186284],[139.71937893577308,35.588329519966194]],[[139.71937893577308,35.588329519966194],[139.71892484449512,35.590451146697625]],[[139.71892484449512,35.590451146697625],[139.72447873012538,35.58778527658726]],[[139.72447873012538,35.58778527658726],[139.7207761397052,35.585156304333104],[139.72025218823066,35.58399402186284]],[[139.7351498751571,35.5777675086293],[139.73637242859772,35.581401947464876]],[[139.73637242859772,35.581401947464876],[139.73637242859772,35.58141117192893]],[[139.73843330439763,35.581438845321074],[139.73951613744504,35.5792526473413]],[[139.7257711437626,35.57515698530324],[139.72793680985743,35.579427912158245]],[[139.72793680985743,35.579427912158245],[139.7351498751571,35.5777675086293]],[[139.7396383927891,35.58340365616366],[139.73955106754335,35.58377263472565]],[[139.73955106754335,35.58377263472565],[139.73885246557728,35.58728715552858],[139.74016234426364,35.587895970155856]],[[139.74016234426364,35.587895970155856],[139.7426074511449,35.58575589449633],[139.74356802884824,35.584095490967385]],[[139.74356802884824,35.584095490967385],[139.7396383927891,35.58340365616366]],[[139.70673424018722,35.59422395249395],[139.70752016739903,35.59778459561713]],[[139.70752016739903,35.59778459561713],[139.70753763244818,35.59777537115308]],[[139.70753763244818,35.59777537115308],[139.7115895238514,35.59567219334975]],[[139.7115895238514,35.59567219334975],[139.71120529277005,35.59411325892535]],[[139.71120529277005,35.59411325892535],[139.70673424018722,35.59422395249395]],[[139.73024219634544,35.56888434974945],[139.72383252330675,35.5703971618536]],[[139.72383252330675,35.5703971618536],[139.7246533806169,35.57274017572222]],[[139.7115895238514,35.595690642277845],[139.71261996175136,35.60073642411302]],[[139.71261996175136,35.60073642411302],[139.71485548804276,35.59990622234855],[139.7144537919123,35.597535535087786],[139.7175625706613,35.59650239511422],[139.71761496580874,35.59546925514066]],[[139.71761496580874,35.59546925514066],[139.7144537919123,35.5941040344613]],[[139.7144537919123,35.5941040344613],[139.7115895238514,35.595690642277845]],[[139.72788441470996,35.57944636108634],[139.72350068737288,35.580571745700404]],[[139.72350068737288,35.580571745700404],[139.7242516844864,35.5823336183339]],[[139.7242516844864,35.5823336183339],[139.72887992251162,35.581392723000825]],[[139.72887992251162,35.581392723000825],[139.72788441470996,35.57944636108634]],[[139.69629014079447,35.56649521356058],[139.69597576990972,35.56915185920689],[139.6967442320724,35.571633240036256]],[[139.6967442320724,35.571633240036256],[139.69716339325205,35.57245421733668]],[[139.69716339325205,35.57245421733668],[139.69875271272485,35.57257413536932]],[[139.69875271272485,35.57257413536932],[139.6994338496418,35.56673504962587]],[[139.6994338496418,35.56673504962587],[139.69629014079447,35.56649521356058]],[[139.72889738756078,35.581392723000825],[139.73074868277087,35.584824223627315]],[[139.73074868277087,35.584824223627315],[139.73076614782002,35.584824223627315]],[[139.73076614782002,35.584824223627315],[139.7360231276147,35.58446446952937]],[[139.73637242859772,35.581401947464876],[139.73151714493355,35.5807931328376],[139.72889738756078,35.581392723000825]],[[139.74823119697174,35.57521233208754],[139.74803908143107,35.57515698530324]],[[139.74803908143107,35.57515698530324],[139.7445984667482,35.57588571796316]],[[139.7445984667482,35.57588571796316],[139.74094827147547,35.57987991089668]],[[139.74094827147547,35.57987991089668],[139.74501762792784,35.58133737621653]],[[139.74501762792784,35.58133737621653],[139.74823119697174,35.57521233208754]],[[139.71916935518325,35.570129652396155],[139.71838342797142,35.57038793738955]],[[139.71838342797142,35.57038793738955],[139.71239291611238,35.57344123498999]],[[139.71239291611238,35.57344123498999],[139.71026218011588,35.57478800674125]],[[139.71026218011588,35.57478800674125],[139.7120261500802,35.575627432969775]],[[139.7120261500802,35.575627432969775],[139.71277714719372,35.57497249602225],[139.71689889879352,35.57426221229042]],[[139.71689889879352,35.57426221229042],[139.72056655911538,35.573736417839584]],[[139.72056655911538,35.573736417839584],[139.7197282367561,35.57154099539576]],[[139.7197282367561,35.57154099539576],[139.71916935518325,35.570129652396155]],[[139.70123274970442,35.590395799913324],[139.70123274970442,35.590405024377375]],[[139.70123274970442,35.590405024377375],[139.70282206917722,35.593974891964606]],[[139.70282206917722,35.593974891964606],[139.70673424018722,35.59422395249395]],[[139.71120529277005,35.59411325892535],[139.71052415585314,35.593006323239386]],[[139.71052415585314,35.593006323239386],[139.7022107924569,35.590690982762915]],[[139.7022107924569,35.590690982762915],[139.70123274970442,35.590395799913324]],[[139.72582353891008,35.585543731823186],[139.72638242048293,35.58642005590791]],[[139.72638242048293,35.58642005590791],[139.72887992251162,35.59023898402448]],[[139.72936894388786,35.590109841527784],[139.72992782546072,35.58725025767238],[139.732145886703,35.587324053384776]],[[139.732145886703,35.587324053384776],[139.73076614782002,35.584824223627315]],[[139.73074868277087,35.584824223627315],[139.72774469431675,35.584768876843015],[139.72582353891008,35.585543731823186]],[[139.68308656363575,35.57903126020411],[139.68072878200027,35.58451059184962]],[[139.68072878200027,35.58451059184962],[139.68787198710334,35.58656764733271]],[[139.68787198710334,35.58656764733271],[139.68778466185756,35.584824223627315],[139.68638745792543,35.584492142921526],[139.68701619969488,35.58316382009837]],[[139.68701619969488,35.58316382009837],[139.6861429472373,35.580387256419414]],[[139.6861429472373,35.580387256419414],[139.68308656363575,35.57903126020411]],[[139.74842331251241,35.56892124760565],[139.74926163487171,35.57309070535611],[139.74823119697174,35.57521233208754]],[[139.74823119697174,35.57521233208754],[139.7485106377582,35.575295352263986]],[[139.7485106377582,35.575295352263986],[139.7526673194563,35.575673555290024],[139.75572370305784,35.572694053401975]],[[139.75572370305784,35.572694053401975],[139.75579356325446,35.572537237513124]],[[139.75579356325446,35.572537237513124],[139.75490284574772,35.57291544053916],[139.75684146620355,35.56892124760565],[139.75046672326317,35.567436108893645],[139.74842331251241,35.56892124760565]],[[139.74094827147547,35.57987991089668],[139.7396383927891,35.58340365616366]],[[139.74356802884824,35.584095490967385],[139.74501762792784,35.58133737621653]],[[139.723168851439,35.56832165744242],[139.71880258915107,35.569262552775484]],[[139.71880258915107,35.569262552775484],[139.71916935518325,35.570129652396155]],[[139.7197282367561,35.57154099539576],[139.72383252330675,35.5703971618536]],[[139.72383252330675,35.5703971618536],[139.723168851439,35.56832165744242]],[[139.72056655911538,35.573736417839584],[139.72119530088486,35.575240005479685]],[[139.72119530088486,35.575240005479685],[139.7257711437626,35.57515698530324]],[[139.74842331251241,35.56892124760565],[139.7454542541566,35.57101520094493],[139.7457511599922,35.57358882641479],[139.74803908143107,35.57515698530324]],[[139.67393487788024,35.57743542792351],[139.6721709079159,35.58176170156282]],[[139.6721709079159,35.58176170156282],[139.6797332741986,35.584243082392184]],[[139.6797332741986,35.584243082392184],[139.67964594895287,35.582647250111584],[139.67707858672756,35.58201076209216],[139.67685154108858,35.57993525768098]],[[139.67685154108858,35.57993525768098],[139.6755416624022,35.57772138630905],[139.67393487788024,35.57743542792351]],[[139.70687396058042,35.5882003774695],[139.7039922274704,35.58831107103809],[139.7022107924569,35.590690982762915]],[[139.71052415585314,35.593006323239386],[139.71024471506672,35.59264656914145]],[[139.71024471506672,35.59264656914145],[139.70687396058042,35.5882003774695]],[[139.72889738756078,35.581392723000825],[139.72887992251162,35.581392723000825]],[[139.7242516844864,35.5823336183339],[139.72582353891008,35.585543731823186]],[[139.68514743943567,35.58940878226001],[139.68423925687978,35.5911891038216]],[[139.68423925687978,35.5911891038216],[139.68385502579844,35.59272036485385]],[[139.68385502579844,35.59272036485385],[139.68596829674578,35.59393799410841]],[[139.68596829674578,35.59393799410841],[139.68916440074057,35.5912813484621]],[[139.68916440074057,35.5912813484621],[139.68514743943567,35.58940878226001]],[[139.72142234652384,35.57573812653837],[139.71887244934769,35.57901281127601]],[[139.71887244934769,35.57901281127601],[139.71964091151034,35.57944636108634]],[[139.71964091151034,35.57944636108634],[139.72173671740856,35.581448069785125]],[[139.72173671740856,35.581448069785125],[139.72341336212713,35.580534847844206]],[[139.72341336212713,35.580534847844206],[139.72142234652384,35.57573812653837]],[[139.71686396869524,35.582693372431834],[139.71682903859693,35.582693372431834]],[[139.71682903859693,35.582693372431834],[139.71585099584442,35.58557140521534],[139.71396477053602,35.58734250231288]],[[139.71396477053602,35.58734250231288],[139.7157811356478,35.588375642286444],[139.71937893577308,35.588329519966194]],[[139.72025218823066,35.58399402186284],[139.72051416396795,35.58278561707233]],[[139.72051416396795,35.58278561707233],[139.71686396869524,35.582693372431834]],[[139.71682903859693,35.582693372431834],[139.71426167637162,35.58273027028803]],[[139.71426167637162,35.58273027028803],[139.71382505014282,35.58295165742523]],[[139.71382505014282,35.58295165742523],[139.71167684909716,35.584289204712434],[139.7075725625465,35.585405364862446]],[[139.7075725625465,35.585405364862446],[139.71172924424462,35.58820960193355]],[[139.71172924424462,35.58820960193355],[139.71396477053602,35.58734250231288]],[[139.6696734058872,35.58572822110418],[139.6640321950112,35.59061718705052]],[[139.6640321950112,35.59061718705052],[139.6657612348772,35.59169644934433]],[[139.6657612348772,35.59169644934433],[139.66810155146356,35.59027588188068],[139.6681888767093,35.59110608364515]],[[139.6681888767093,35.59110608364515],[139.66969087093636,35.591216777213745],[139.67472080509205,35.59355056661832]],[[139.67472080509205,35.59355056661832],[139.675978288631,35.59173334720053]],[[139.675978288631,35.59173334720053],[139.67786451393937,35.589104374946366]],[[139.67786451393937,35.589104374946366],[139.6696734058872,35.58572822110418]],[[139.71171177919547,35.5882188263976],[139.7105765510006,35.59024820848853],[139.71024471506672,35.59264656914145]],[[139.7115895238514,35.59567219334975],[139.7115895238514,35.595690642277845]],[[139.7144537919123,35.5941040344613],[139.71759750075958,35.592369835219955]],[[139.71759750075958,35.592369835219955],[139.71464590745296,35.58992535224679],[139.71171177919547,35.5882188263976]],[[139.72350068737288,35.580571745700404],[139.72341336212713,35.580534847844206]],[[139.72173671740856,35.581448069785125],[139.72051416396795,35.58278561707233]],[[139.72447873012538,35.58778527658726],[139.72638242048293,35.58642005590791]],[[139.71892484449512,35.590451146697625],[139.71868033380701,35.59175179612863]],[[139.70360799638905,35.57286931821891],[139.70329362550433,35.5761347784925]],[[139.70329362550433,35.5761347784925],[139.70331109055346,35.5761347784925]],[[139.70331109055346,35.5761347784925],[139.70853314024984,35.575572086185474],[139.71026218011588,35.57478800674125]],[[139.71026218011588,35.57478800674125],[139.70512745566526,35.57310915428421]],[[139.70512745566526,35.57310915428421],[139.70360799638905,35.57286931821891]],[[139.72793680985743,35.579427912158245],[139.72788441470996,35.57944636108634]],[[139.7015995157366,35.57280474697057],[139.69875271272485,35.57257413536932]],[[139.69716339325205,35.57245421733668],[139.69779213502153,35.57372719337554]],[[139.69779213502153,35.57372719337554],[139.7005166826892,35.57895746449171]],[[139.7005166826892,35.57895746449171],[139.70329362550433,35.5761347784925]],[[139.70360799638905,35.57286931821891],[139.7015995157366,35.57280474697057]],[[139.70752016739903,35.59778459561713],[139.70371278668395,35.59946344807417]],[[139.70371278668395,35.59946344807417],[139.70123274970442,35.60061650608038]],[[139.70123274970442,35.60061650608038],[139.7009183788197,35.601612748197745]],[[139.7009183788197,35.601612748197745],[139.70802665382445,35.60110540267502]],[[139.70802665382445,35.60110540267502],[139.70753763244818,35.59777537115308]],[[139.72119530088486,35.575240005479685],[139.72142234652384,35.57573812653837]],[[139.7025426283908,35.56699333461926],[139.7015995157366,35.57280474697057]],[[139.70512745566526,35.57310915428421],[139.70573873238556,35.57093218076848]],[[139.70573873238556,35.57093218076848],[139.70648972949908,35.5689489209978]],[[139.70648972949908,35.5689489209978],[139.70715340136684,35.5674084355015]],[[139.70715340136684,35.5674084355015],[139.7025426283908,35.56699333461926]],[[139.7005166826892,35.57895746449171],[139.70049921764004,35.57897591341981]],[[139.70049921764004,35.57897591341981],[139.70189642157217,35.58170635477852]],[[139.70189642157217,35.58170635477852],[139.70395729737209,35.58191851745166]],[[139.70395729737209,35.58191851745166],[139.70462096923984,35.579234198413204],[139.70331109055346,35.5761347784925]],[[139.71239291611238,35.57344123498999],[139.71029711021416,35.57227895251974]],[[139.71029711021416,35.57227895251974],[139.70573873238556,35.57093218076848]],[[139.6657612348772,35.59169644934433],[139.66270485127566,35.59588435602289],[139.66326373284852,35.59884540898284]],[[139.66326373284852,35.59884540898284],[139.66712350871106,35.59888230683904]],[[139.66712350871106,35.59888230683904],[139.66705364851444,35.59679757796381],[139.6681888767093,35.59110608364515]],[[139.66712350871106,35.59888230683904],[139.66888747867537,35.59819047203531],[139.66986552142788,35.59922361200888],[139.67472080509205,35.59355056661832]],[[139.6721709079159,35.58176170156282],[139.6696734058872,35.58572822110418]],[[139.67786451393937,35.589104374946366],[139.67788197898852,35.58909515048232]],[[139.67788197898852,35.58909515048232],[139.6783710003648,35.58831107103809]],[[139.6783710003648,35.58831107103809],[139.68072878200027,35.58451059184962]],[[139.68072878200027,35.58451059184962],[139.6797332741986,35.584243082392184]],[[139.732145886703,35.587324053384776],[139.7355515712876,35.58724103320833]],[[139.69653465148258,35.585110182012855],[139.6949802621081,35.58639238251576]],[[139.6949802621081,35.58639238251576],[139.6929892465048,35.58806201050875]],[[139.6929892465048,35.58806201050875],[139.69642986118768,35.58904902816207]],[[139.69642986118768,35.58904902816207],[139.70123274970442,35.590405024377375]],[[139.70123274970442,35.590395799913324],[139.70175670117897,35.58701964607114]],[[139.70175670117897,35.58701964607114],[139.69653465148258,35.585110182012855]],[[139.68631759772882,35.57309992982016],[139.68437897727298,35.57464041531646],[139.68308656363575,35.57903126020411]],[[139.6861429472373,35.580387256419414],[139.68811649779144,35.57898513788386]],[[139.68811649779144,35.57898513788386],[139.6864049229746,35.57343201052595]],[[139.6864049229746,35.57343201052595],[139.68631759772882,35.57309992982016]],[[139.71555409000885,35.577315509890866],[139.71331856371742,35.57940946323014]],[[139.71331856371742,35.57940946323014],[139.71541436961562,35.58133737621653],[139.71426167637162,35.58273027028803]],[[139.71686396869524,35.582693372431834],[139.71964091151034,35.57944636108634]],[[139.71887244934769,35.57901281127601],[139.7161129715817,35.5775830193483]],[[139.7161129715817,35.5775830193483],[139.71555409000885,35.577315509890866]],[[139.71868033380701,35.59177946952078],[139.71759750075958,35.592369835219955]],[[139.71761496580874,35.59546925514066],[139.71916935518325,35.59204697897822]],[[139.71331856371742,35.57940946323014],[139.7120960102768,35.58027656285081],[139.70965090339556,35.57906815806031]],[[139.70965090339556,35.57906815806031],[139.70703114602279,35.58223214922935]],[[139.70703114602279,35.58223214922935],[139.71382505014282,35.58295165742523]],[[139.72884499241331,35.56703945693951],[139.723168851439,35.56832165744242]],[[139.7120261500802,35.575627432969775],[139.71555409000885,35.577315509890866]],[[139.7161129715817,35.5775830193483],[139.71737045512063,35.57596873813961],[139.71689889879352,35.57426221229042]],[[139.7120261500802,35.575627432969775],[139.70965090339556,35.57906815806031]],[[139.7445984667482,35.57588571796316],[139.74281703173472,35.575719677610266]],[[139.73797921311967,35.583615818836805],[139.73955106754335,35.58377263472565]],[[139.68308656363575,35.57903126020411],[139.67948876351048,35.57876375074667]],[[139.67948876351048,35.57876375074667],[139.67685154108858,35.57993525768098]],[[139.7025426283908,35.56699333461926],[139.6994338496418,35.56673504962587]],[[139.6783710003648,35.58831107103809],[139.68137498881887,35.59022975956043]],[[139.68137498881887,35.59022975956043],[139.68254514711205,35.58748086927362],[139.6860381569424,35.58759156284222]],[[139.6860381569424,35.58759156284222],[139.6881688929389,35.588624702815785],[139.68993286290322,35.587185686424036]],[[139.68993286290322,35.587185686424036],[139.68787198710334,35.58656764733271]],[[139.68137498881887,35.59022975956043],[139.68423925687978,35.5911891038216]],[[139.68514743943567,35.58940878226001],[139.6860381569424,35.58759156284222]],[[139.74356802884824,35.584095490967385],[139.74910444942935,35.58570977217608]],[[139.74910444942935,35.58570977217608],[139.75029207277166,35.583228391346715]],[[139.75029207277166,35.583228391346715],[139.74501762792784,35.58133737621653]],[[139.6907013250659,35.57453894621191],[139.68956609687103,35.57629159438135]],[[139.68956609687103,35.57629159438135],[139.69017737359135,35.57675281758384],[139.69491040191147,35.577029551505326]],[[139.69491040191147,35.577029551505326],[139.69513744755045,35.57416996764992],[139.69622028059786,35.573265970173054]],[[139.69622028059786,35.573265970173054],[139.69260501542345,35.57314605214041],[139.69253515522684,35.5746865376367],[139.6907013250659,35.57453894621191]],[[139.67480813033782,35.5749632715582],[139.67393487788024,35.57743542792351]],[[139.67948876351048,35.57876375074667],[139.67980313439523,35.57691885793673]],[[139.67980313439523,35.57691885793673],[139.6764847750564,35.57475110888505],[139.67480813033782,35.5749632715582]],[[139.675978288631,35.59173334720053],[139.68083357229517,35.59504492979437]],[[139.68083357229517,35.59504492979437],[139.68156710435954,35.59504492979437]],[[139.68156710435954,35.59504492979437],[139.68099075773753,35.59318158805633]],[[139.68099075773753,35.59318158805633],[139.6805017363613,35.59172412273648],[139.67788197898852,35.58909515048232]],[[139.68701619969488,35.58316382009837],[139.69391489410984,35.58439989828103]],[[139.69391489410984,35.58439989828103],[139.6928495261116,35.58339443169961]],[[139.6928495261116,35.58339443169961],[139.69180162316246,35.58161411013802],[139.68923426093716,35.57936334090989]],[[139.68923426093716,35.57936334090989],[139.68811649779144,35.57898513788386]],[[139.68923426093716,35.57936334090989],[139.69031709398456,35.578035018086744],[139.68956609687103,35.57629159438135]],[[139.6907013250659,35.57453894621191],[139.69033455903372,35.57434523246687]],[[139.69033455903372,35.57434523246687],[139.6864049229746,35.57343201052595]],[[139.65886254046228,35.59186248969723],[139.65657461902342,35.592379059684006]],[[139.65657461902342,35.592379059684006],[139.65818140354537,35.59345832197782],[139.65281963345578,35.595985825127435],[139.65362302571677,35.59727725009439],[139.6555965762709,35.59645627279397],[139.65746533653015,35.59899300040764],[139.65964846767412,35.5999523446688],[139.66266992117735,35.5985963484535]],[[139.66266992117735,35.5985963484535],[139.6601549540995,35.597517086159684],[139.65970086282155,35.59331073055303],[139.65886254046228,35.59186248969723]],[[139.68596829674578,35.593956443036504],[139.6826674024561,35.59667765993116]],[[139.6826674024561,35.59667765993116],[139.68565392586106,35.59905757165598]],[[139.68565392586106,35.59905757165598],[139.68687647930167,35.599500345930366]],[[139.68687647930167,35.599500345930366],[139.68926919103546,35.596511619578266]],[[139.68926919103546,35.596511619578266],[139.68596829674578,35.593956443036504]],[[139.68076371209858,35.60110540267502],[139.6806414567545,35.604121802419264],[139.6822307762273,35.60424172045191],[139.6842916520272,35.602249236217176]],[[139.6842916520272,35.602249236217176],[139.68525222973057,35.6001921807341]],[[139.68525222973057,35.6001921807341],[139.68355811996284,35.59971250860351],[139.68076371209858,35.60110540267502]],[[139.6928495261116,35.58339443169961],[139.69539942328774,35.58286863724878],[139.6947532164691,35.57854236360947]],[[139.6947532164691,35.57854236360947],[139.69491040191147,35.577029551505326]],[[139.75029207277166,35.583228391346715],[139.75235294857157,35.57883754645906],[139.75181153204787,35.57728783649872],[139.7485106377582,35.575295352263986]],[[139.6640321950112,35.59061718705052],[139.65886254046228,35.59186248969723]],[[139.66266992117735,35.5985963484535],[139.66326373284852,35.59884540898284]],[[139.70383504202803,35.58427075578433],[139.70687396058042,35.5882003774695]],[[139.71171177919547,35.5882188263976],[139.71172924424462,35.58820960193355]],[[139.7075725625465,35.585405364862446],[139.70383504202803,35.58427075578433]],[[139.70395729737209,35.58191851745166],[139.70703114602279,35.58223214922935]],[[139.67545433715642,35.573413561597846],[139.67480813033782,35.5749632715582]],[[139.67980313439523,35.57691885793673],[139.68319135393065,35.5734781328462]],[[139.68319135393065,35.5734781328462],[139.6805715965579,35.571144343441624],[139.6785456508563,35.57141185289906],[139.67681661099027,35.57376409123174],[139.67545433715642,35.573413561597846]],[[139.68385502579844,35.59272036485385],[139.68099075773753,35.59318158805633]],[[139.68156710435954,35.59504492979437],[139.6826674024561,35.59667765993116]],[[139.68596829674578,35.593956443036504],[139.68596829674578,35.59393799410841]],[[139.68916440074057,35.5912813484621],[139.68916440074057,35.591272123998046]],[[139.68916440074057,35.591272123998046],[139.69295431640649,35.588098908364955]],[[139.69295431640649,35.588098908364955],[139.68993286290322,35.587185686424036]],[[139.6967442320724,35.571633240036256],[139.69117288139302,35.571430301827164]],[[139.69117288139302,35.571430301827164],[139.69033455903372,35.57434523246687]],[[139.69622028059786,35.573265970173054],[139.69779213502153,35.57372719337554]],[[139.70283953422637,35.58297933081737],[139.70175670117897,35.58701964607114]],[[139.70383504202803,35.58427075578433],[139.70283953422637,35.58297933081737]],[[139.6947532164691,35.57854236360947],[139.6999403360672,35.58013819589007]],[[139.6999403360672,35.58013819589007],[139.70049921764004,35.57897591341981]],[[139.69213345909634,35.60034899662294],[139.69253515522684,35.60198172675973],[139.69141739208112,35.603688252608926],[139.69173176296587,35.60572685916391]],[[139.69173176296587,35.60572685916391],[139.6972856485961,35.60472139258249]],[[139.6972856485961,35.60472139258249],[139.6979842505622,35.60403878224282]],[[139.6979842505622,35.60403878224282],[139.69433405528946,35.6016773194461]],[[139.69433405528946,35.6016773194461],[139.69213345909634,35.60034899662294]],[[139.68083357229517,35.59504492979437],[139.68022229557485,35.598098227394814],[139.68076371209858,35.60110540267502]],[[139.68525222973057,35.6001921807341],[139.68565392586106,35.59905757165598]],[[139.70512745566526,35.55177296893728],[139.70367785658564,35.55379312656416]],[[139.70367785658564,35.55379312656416],[139.70491787507544,35.55500153135467]],[[139.70491787507544,35.55500153135467],[139.70745030720244,35.554549532616235],[139.70916188201932,35.55508455153112]],[[139.70916188201932,35.55508455153112],[139.71358053945468,35.55689254648485]],[[139.71358053945468,35.55689254648485],[139.71303912293098,35.5555642236617]],[[139.71303912293098,35.5555642236617],[139.71186896463783,35.552723088734396]],[[139.71186896463783,35.552723088734396],[139.71129261801582,35.55128407234264]],[[139.71129261801582,35.55128407234264],[139.7086553955939,35.55199435607447],[139.70512745566526,35.55177296893728]],[[139.74016234426364,35.587895970155856],[139.74606553087693,35.589593271541],[139.74761992025145,35.58879996763273],[139.74910444942935,35.58570977217608]],[[139.69295431640649,35.588098908364955],[139.6929892465048,35.58806201050875]],[[139.6949802621081,35.58639238251576],[139.69391489410984,35.58439989828103]],[[139.68823875313552,35.59989699788451],[139.68687647930167,35.599500345930366]],[[139.6842916520272,35.602249236217176],[139.6846933481577,35.60467527026224]],[[139.6846933481577,35.60467527026224],[139.68778466185756,35.60468449472629]],[[139.68778466185756,35.60468449472629],[139.68823875313552,35.59989699788451]],[[139.68939144637952,35.57005585668376],[139.68787198710334,35.57126426147427]],[[139.68787198710334,35.57126426147427],[139.68659703851526,35.572066789846595]],[[139.68659703851526,35.572066789846595],[139.68631759772882,35.57309992982016]],[[139.69117288139302,35.571430301827164],[139.69043934932864,35.570138876860206]],[[139.69043934932864,35.570138876860206],[139.68939144637952,35.57005585668376]],[[139.70001019626378,35.59445456409519],[139.69793185541474,35.59589358048694],[139.69739043889103,35.59796908489812]],[[139.69739043889103,35.59796908489812],[139.6974079039402,35.59796908489812]],[[139.6974079039402,35.59796908489812],[139.69959103508415,35.59835651238821],[139.70123274970442,35.60061650608038]],[[139.70371278668395,35.59946344807417],[139.703485741045,35.59817202310721]],[[139.703485741045,35.59817202310721],[139.70001019626378,35.59445456409519]],[[139.70802665382445,35.60110540267502],[139.71261996175136,35.60073642411302]],[[139.75287690004612,35.54512213035745],[139.75264985440714,35.54537119088679]],[[139.75264985440714,35.54537119088679],[139.7647531334693,35.559447723026615],[139.76391481111003,35.56044396514398]],[[139.76391481111003,35.56044396514398],[139.77114534145883,35.568801329573006]],[[139.77114534145883,35.568801329573006],[139.77476060663327,35.56678117194612],[139.7662725927455,35.557095484693946],[139.77219324440796,35.55017713665668],[139.77530202315697,35.5479724897488],[139.77741529410432,35.543231115227265],[139.781292535016,35.53850818963382]],[[139.781292535016,35.53850818963382],[139.77862038249577,35.53690313288918],[139.76896221031487,35.54124785545658],[139.76821121320134,35.540187042090864],[139.76057898672204,35.54378458307025],[139.75532200692737,35.54512213035745],[139.75287690004612,35.54512213035745]],[[139.68916440074057,35.591272123998046],[139.69223824939127,35.59342142412162]],[[139.69223824939127,35.59342142412162],[139.6940371494539,35.59134591971044],[139.69630760584363,35.589879229926545]],[[139.69630760584363,35.589879229926545],[139.69637746604022,35.58986078099844]],[[139.69637746604022,35.58986078099844],[139.69642986118768,35.58904902816207]],[[139.6974079039402,35.59796908489812],[139.69433405528946,35.6016773194461]],[[139.6979842505622,35.60403878224282],[139.7009183788197,35.601612748197745]],[[139.69632507089278,35.56630149981554],[139.69630760584363,35.56625537749529]],[[139.69630760584363,35.56625537749529],[139.69043934932864,35.570138876860206]],[[139.69629014079447,35.56649521356058],[139.69632507089278,35.56630149981554]],[[139.69223824939127,35.59342142412162],[139.69092837070488,35.59504492979437]],[[139.69092837070488,35.59504492979437],[139.69354812807765,35.595755213526196]],[[139.69354812807765,35.595755213526196],[139.69690141751477,35.59206542790632],[139.69630760584363,35.589879229926545]],[[139.68926919103546,35.596511619578266],[139.69092837070488,35.59504492979437]],[[139.71303912293098,35.5555642236617],[139.71667185315457,35.5555642236617]],[[139.71667185315457,35.5555642236617],[139.72014739793576,35.5553981833088]],[[139.72014739793576,35.5553981833088],[139.72002514259168,35.55525059188401]],[[139.72002514259168,35.55525059188401],[139.71737045512063,35.551791417865374]],[[139.71737045512063,35.551791417865374],[139.71186896463783,35.552723088734396]],[[139.68823875313552,35.59989699788451],[139.69141739208112,35.60021062966219]],[[139.69141739208112,35.60021062966219],[139.6912776716879,35.597858391329524],[139.69295431640649,35.59652084404232]],[[139.69295431640649,35.59652084404232],[139.69354812807765,35.595755213526196]],[[139.70282206917722,35.593974891964606],[139.703485741045,35.59817202310721]],[[139.7516892767038,35.54696702316739],[139.7476723153989,35.54811085670955]],[[139.7476723153989,35.54811085670955],[139.7491568445768,35.55136709251909]],[[139.7491568445768,35.55136709251909],[139.75271971460376,35.55072138003561]],[[139.75271971460376,35.55072138003561],[139.75287690004612,35.54994652505544]],[[139.75287690004612,35.54994652505544],[139.7516892767038,35.54696702316739]],[[139.74410944537195,35.54895028293807],[139.74082601613142,35.54912554775502]],[[139.74082601613142,35.54912554775502],[139.74082601613142,35.549143996683114]],[[139.74082601613142,35.549143996683114],[139.74030206465687,35.55219729428356]],[[139.74030206465687,35.55219729428356],[139.74023220446026,35.55251092606125]],[[139.74023220446026,35.55251092606125],[139.7454542541566,35.55192978482612]],[[139.7454542541566,35.55192978482612],[139.74410944537195,35.54895028293807]],[[139.746764132843,35.54434727537728],[139.74732301441585,35.548193876885996]],[[139.74732301441585,35.548193876885996],[139.7476723153989,35.54811085670955]],[[139.7516892767038,35.54696702316739],[139.75209097283428,35.545933883193825]],[[139.75209097283428,35.545933883193825],[139.746764132843,35.54434727537728]],[[139.7493664251666,35.56679039641017],[139.7533484563732,35.56238110259442],[139.75184646214618,35.56078527031382]],[[139.75184646214618,35.56078527031382],[139.74699117848198,35.56096975959482]],[[139.74732301441585,35.548193876885996],[139.74433649101093,35.54889493615377]],[[139.74433649101093,35.54889493615377],[139.74410944537195,35.54895028293807]],[[139.7454542541566,35.55192978482612],[139.74559397454985,35.55191133589802]],[[139.74559397454985,35.55191133589802],[139.7491568445768,35.55136709251909]],[[139.69295431640649,35.59652084404232],[139.69739043889103,35.59796908489812]],[[139.70001019626378,35.59445456409519],[139.69637746604022,35.58986078099844]],[[139.69653465148258,35.585110182012855],[139.6985256670859,35.583034677601674],[139.6999403360672,35.58013819589007]],[[139.70271727888232,35.54584163855333],[139.70374771678226,35.54777877600376]],[[139.70374771678226,35.54777877600376],[139.7096683684447,35.547428246369876]],[[139.7096683684447,35.547428246369876],[139.7089523014295,35.54576784284093]],[[139.7089523014295,35.54576784284093],[139.7085156752007,35.544725478403315]],[[139.7085156752007,35.544725478403315],[139.70380011192972,35.5450022123248],[139.70271727888232,35.54584163855333]],[[139.73382253142157,35.54534351749464],[139.73350816053684,35.5495314241732]],[[139.73350816053684,35.5495314241732],[139.73354309063512,35.549540648637254]],[[139.73354309063512,35.549540648637254],[139.74082601613142,35.549143996683114]],[[139.74082601613142,35.54912554775502],[139.74105306177037,35.54517747714175]],[[139.74105306177037,35.54517747714175],[139.73382253142157,35.54534351749464]],[[139.69031709398456,35.60548702309862],[139.68949623667444,35.60846652498667]],[[139.68949623667444,35.60846652498667],[139.69344333778272,35.60961958299288]],[[139.69344333778272,35.60961958299288],[139.69496279705893,35.608457300522616],[139.6972856485961,35.60472139258249]],[[139.69173176296587,35.60572685916391],[139.69031709398456,35.60548702309862]],[[139.69213345909634,35.60034899662294],[139.69141739208112,35.60021062966219]],[[139.68778466185756,35.60468449472629],[139.69031709398456,35.60548702309862]],[[139.7235705475695,35.55037085040173],[139.72255757471868,35.55204970285877]],[[139.72255757471868,35.55204970285877],[139.72257503976783,35.552086600714965]],[[139.72257503976783,35.552086600714965],[139.72329110678305,35.5525754973096]],[[139.72329110678305,35.5525754973096],[139.72966584972346,35.552418681420754]],[[139.72966584972346,35.552418681420754],[139.72966584972346,35.54986350487899]],[[139.72966584972346,35.54986350487899],[139.7296483846743,35.54981738255874]],[[139.7296483846743,35.54981738255874],[139.7235705475695,35.55037085040173]],[[139.73350816053684,35.5495314241732],[139.72966584972346,35.54986350487899]],[[139.72966584972346,35.552418681420754],[139.72985796526413,35.55350716817862]],[[139.72985796526413,35.55350716817862],[139.73347323043853,35.55283378230299]],[[139.73347323043853,35.55283378230299],[139.73354309063512,35.549540648637254]],[[139.70189642157217,35.58170635477852],[139.70283953422637,35.58297933081737]],[[139.70374771678226,35.54777877600376],[139.70512745566526,35.55177296893728]],[[139.71129261801582,35.55128407234264],[139.7105765510006,35.54961444434965]],[[139.7105765510006,35.54961444434965],[139.7096683684447,35.547428246369876]],[[139.7431488676686,35.544863845364056],[139.74433649101093,35.54889493615377]],[[139.746764132843,35.54434727537728],[139.7431488676686,35.544863845364056]],[[139.7431488676686,35.544863845364056],[139.74105306177037,35.54517747714175]],[[139.73347323043853,35.55283378230299],[139.74030206465687,35.55219729428356]],[[139.7271508826456,35.5569940155894],[139.72837343608623,35.56033327157539]],[[139.72837343608623,35.56033327157539],[139.7297881050675,35.56059155656878]],[[139.7297881050675,35.56059155656878],[139.73305406925888,35.560748372457624]],[[139.73305406925888,35.560748372457624],[139.73321125470125,35.5569755666613]],[[139.73321125470125,35.5569755666613],[139.72743032343203,35.556661934883614],[139.7271508826456,35.5569940155894]],[[139.77114534145883,35.568801329573006],[139.78536189146837,35.57040638631765],[139.80104550560662,35.54838759063104],[139.8037700532743,35.54602612783432],[139.80651206599111,35.5421979752537]],[[139.80651206599111,35.5421979752537],[139.80883491752832,35.53890484158796],[139.80303652120992,35.536155951301154],[139.80668671648263,35.53080576215233],[139.80712334271144,35.53078731322423],[139.82039678006677,35.542649973992134],[139.8232785131768,35.54378458307025],[139.82588080550042,35.541792098835515],[139.80244270953875,35.52086178990677],[139.79980548711686,35.5227989273572],[139.801779037671,35.524560799990695],[139.80010239295243,35.52581532710145],[139.80432893484715,35.52993866253166],[139.8008359250168,35.53487375079825],[139.79489780830522,35.53222632961599],[139.78764981290723,35.53435718081146],[139.7863923293683,35.53580542166726],[139.78440131376502,35.53533497400073],[139.7820609971787,35.53861888320242],[139.781292535016,35.53850818963382]],[[139.74559397454985,35.55191133589802],[139.74644976195827,35.554199002982344]],[[139.74644976195827,35.554199002982344],[139.74796922123448,35.55487238885797]],[[139.74796922123448,35.55487238885797],[139.75174167185125,35.55655124131501]],[[139.75174167185125,35.55655124131501],[139.75289436509527,35.553387250145974],[139.75271971460376,35.55072138003561]],[[139.74243280065338,35.55712315808609],[139.7427471715381,35.56111735101961]],[[139.74699117848198,35.56096975959482],[139.74748019985822,35.55720617826254]],[[139.74748019985822,35.55720617826254],[139.74243280065338,35.55712315808609]],[[139.74796922123448,35.55487238885797],[139.74748019985822,35.55720617826254]],[[139.75184646214618,35.56078527031382],[139.75174167185125,35.55655124131501]],[[139.68659703851526,35.572066789846595],[139.68423925687978,35.572601808761476]],[[139.68423925687978,35.572601808761476],[139.68319135393065,35.5734781328462]],[[139.70573873238556,35.54013169530657],[139.70238544294844,35.542705320776435],[139.70271727888232,35.54584163855333]],[[139.7085156752007,35.544725478403315],[139.70573873238556,35.54013169530657]],[[139.72998022060818,35.545251272854145],[139.7296483846743,35.54981738255874]],[[139.73382253142157,35.54534351749464],[139.72998022060818,35.545251272854145]],[[139.7105765510006,35.54961444434965],[139.71494281328853,35.548581304376086]],[[139.71494281328853,35.548581304376086],[139.71412195597838,35.54739134851367]],[[139.71412195597838,35.54739134851367],[139.71239291611238,35.54512213035745]],[[139.71239291611238,35.54512213035745],[139.7089523014295,35.54576784284093]],[[139.7202347231815,35.54987272934304],[139.7202347231815,35.54986350487899]],[[139.7202347231815,35.54986350487899],[139.71737045512063,35.551791417865374]],[[139.72002514259168,35.55525059188401],[139.72233052907973,35.553571739426964],[139.72257503976783,35.552086600714965]],[[139.72255757471868,35.55204970285877],[139.7202347231815,35.54987272934304]],[[139.6850950442882,35.60727656912426],[139.68423925687978,35.61308798147556],[139.6860730870407,35.61170431186811],[139.69139992703197,35.611095497240825],[139.69344333778272,35.60961958299288]],[[139.68949623667444,35.60846652498667],[139.6850950442882,35.60727656912426]],[[139.73305406925888,35.560748372457624],[139.73364788093005,35.56076682138573]],[[139.73364788093005,35.56076682138573],[139.7376823072841,35.560932861738614]],[[139.73773470243157,35.560932861738614],[139.7388699306264,35.557086260229894]],[[139.7388699306264,35.557086260229894],[139.73321125470125,35.5569755666613]],[[139.74023220446026,35.55251092606125],[139.7398130432806,35.55390382013275]],[[139.7398130432806,35.55390382013275],[139.7422057550144,35.55371933085176]],[[139.7422057550144,35.55371933085176],[139.74644976195827,35.554199002982344]],[[139.75287690004612,35.54994652505544],[139.75319127093084,35.554448063511686],[139.75291183014443,35.55711393362205],[139.75416931368335,35.56160624761424],[139.7586403662662,35.56453962718204],[139.76126012363895,35.56317440650269],[139.76391481111003,35.56044396514398]],[[139.75264985440714,35.54537119088679],[139.75209097283428,35.545933883193825]],[[139.72985796526413,35.55350716817862],[139.72633002533547,35.556034671328234]],[[139.72633002533547,35.556034671328234],[139.7271508826456,35.5569940155894]],[[139.73321125470125,35.5569755666613],[139.73347323043853,35.55283378230299]],[[139.71737045512063,35.551791417865374],[139.71494281328853,35.548581304376086]],[[139.72014739793576,35.5553981833088],[139.72210348344075,35.55803638002701]],[[139.72210348344075,35.55803638002701],[139.72257503976783,35.55867286804644]],[[139.72257503976783,35.55867286804644],[139.72633002533547,35.556034671328234]],[[139.72633002533547,35.556034671328234],[139.72329110678305,35.5525754973096]],[[139.6846933481577,35.60467527026224],[139.6850950442882,35.60727656912426]],[[139.7422057550144,35.55371933085176],[139.74243280065338,35.55712315808609]],[[139.72257503976783,35.55867286804644],[139.7246533806169,35.56140330940515]],[[139.7246533806169,35.56140330940515],[139.72837343608623,35.56033327157539]],[[139.7297881050675,35.56059155656878],[139.73188391096573,35.56259326526756]],[[139.7338050663724,35.56394003701882],[139.73469578387915,35.56114502441176],[139.73364788093005,35.56076682138573]],[[139.69642986118768,35.55725230058279],[139.69134753188453,35.55789801306627],[139.68850072887278,35.55918021356918]],[[139.68850072887278,35.55918021356918],[139.689216795888,35.561043555307215]],[[139.689216795888,35.561043555307215],[139.69688395246564,35.56160624761424]],[[139.69688395246564,35.56160624761424],[139.69707606800628,35.56004731318985]],[[139.69707606800628,35.56004731318985],[139.69642986118768,35.55725230058279]],[[139.70863793054474,35.53979039013673],[139.71239291611238,35.54512213035745]],[[139.71412195597838,35.54739134851367],[139.71609550653255,35.54599845444217]],[[139.71609550653255,35.54599845444217],[139.7129692627344,35.543526298076856],[139.712462776309,35.54038075583591]],[[139.712462776309,35.54038075583591],[139.70863793054474,35.53979039013673]],[[139.72355308252034,35.54426425520083],[139.72243531937463,35.54557412909588],[139.72257503976783,35.548286121526495],[139.7202347231815,35.54987272934304]],[[139.7235705475695,35.55037085040173],[139.7266793263185,35.54615527033101],[139.72646974572868,35.54488229429216]],[[139.72646974572868,35.54488229429216],[139.72355308252034,35.54426425520083]],[[139.6901948386405,35.56467799414279],[139.69061399982016,35.566190806246944],[139.68939144637952,35.57005585668376]],[[139.69630760584363,35.56625537749529],[139.69648225633514,35.56487170788783]],[[139.69648225633514,35.56487170788783],[139.6901948386405,35.56467799414279]],[[139.72355308252034,35.54426425520083],[139.71932654062562,35.54275144309668]],[[139.71932654062562,35.54275144309668],[139.71737045512063,35.54716073691243]],[[139.71737045512063,35.54716073691243],[139.7202347231815,35.54986350487899]],[[139.72998022060818,35.545251272854145],[139.72646974572868,35.54488229429216]],[[139.68850072887278,35.55918021356918],[139.68493785884584,35.56136641154895],[139.6807811771477,35.56464109628659]],[[139.6807811771477,35.56464109628659],[139.68464095301024,35.56685496765852],[139.68626520258135,35.568792105108955]],[[139.68626520258135,35.568792105108955],[139.690020188149,35.564318240044855]],[[139.690020188149,35.564318240044855],[139.68848326382363,35.56217816438532],[139.689216795888,35.561043555307215]],[[139.702909394423,35.56399538380312],[139.7025426283908,35.56699333461926]],[[139.70715340136684,35.5674084355015],[139.70731058680923,35.56703945693951]],[[139.70731058680923,35.56703945693951],[139.70846328005322,35.5644750559337]],[[139.70846328005322,35.5644750559337],[139.702909394423,35.56399538380312]],[[139.6807811771477,35.56464109628659],[139.67924425282237,35.56621847963909]],[[139.67924425282237,35.56621847963909],[139.68366291025777,35.56861684029201],[139.68423925687978,35.572601808761476]],[[139.68787198710334,35.57126426147427],[139.68626520258135,35.568792105108955]],[[139.7030491148162,35.56265783651591],[139.70013245160786,35.56383856791427],[139.69632507089278,35.56630149981554]],[[139.702909394423,35.56399538380312],[139.7030491148162,35.56265783651591]],[[139.690020188149,35.564318240044855],[139.6901948386405,35.56467799414279]],[[139.69648225633514,35.56487170788783],[139.69688395246564,35.56160624761424]],[[139.70367785658564,35.55379312656416],[139.69831608649608,35.557040137909645],[139.69642986118768,35.55725230058279]],[[139.69707606800628,35.56004731318985],[139.7033285556026,35.56056388317663]],[[139.7033285556026,35.56056388317663],[139.7035905313399,35.558442256445204]],[[139.7035905313399,35.558442256445204],[139.70491787507544,35.55500153135467]],[[139.7030491148162,35.56265783651591],[139.7033285556026,35.56056388317663]],[[139.7088300460854,35.560074986581995],[139.7030491148162,35.56265783651591]],[[139.70846328005322,35.5644750559337],[139.70879511598713,35.5613571870849]],[[139.70879511598713,35.5613571870849],[139.7088300460854,35.560074986581995]],[[139.7111528976226,35.5703233661412],[139.71029711021416,35.57227895251974]],[[139.71838342797142,35.57038793738955],[139.71852314836462,35.56993593865111],[139.7111528976226,35.5703233661412]],[[139.7088300460854,35.560074986581995],[139.7088300460854,35.55879278607909]],[[139.7088300460854,35.55879278607909],[139.7035905313399,35.558442256445204]],[[139.70916188201932,35.55508455153112],[139.7088300460854,35.55879278607909]],[[139.7088300460854,35.560074986581995],[139.71448872201057,35.55958608998736]],[[139.71448872201057,35.55958608998736],[139.71358053945468,35.55689254648485]],[[139.67924425282237,35.56621847963909],[139.6754368721073,35.5733858882057]],[[139.6754368721073,35.5733858882057],[139.67545433715642,35.573413561597846]],[[139.70846328005322,35.5644750559337],[139.71337095886489,35.564318240044855]],[[139.71337095886489,35.564318240044855],[139.71651466771218,35.56409685290766]],[[139.71651466771218,35.56409685290766],[139.71534450941903,35.5615047785097]],[[139.71534450941903,35.5615047785097],[139.70879511598713,35.5613571870849]],[[139.7111528976226,35.5703233661412],[139.70648972949908,35.5689489209978]],[[139.70863793054474,35.53979039013673],[139.70573873238556,35.54013169530657]],[[139.74243280065338,35.55712315808609],[139.7388699306264,35.557086260229894]],[[139.72116037078655,35.56240877598657],[139.71688143374436,35.564936279136184]],[[139.71688143374436,35.564936279136184],[139.718103987185,35.567639047102745]],[[139.718103987185,35.567639047102745],[139.71880258915107,35.569262552775484]],[[139.723168851439,35.56832165744242],[139.72224320383395,35.56553586929941]],[[139.72224320383395,35.56553586929941],[139.72116037078655,35.56240877598657]],[[139.7398130432806,35.55390382013275],[139.7388699306264,35.557086260229894]],[[139.71337095886489,35.564318240044855],[139.71223573067002,35.567869658703984]],[[139.71223573067002,35.567869658703984],[139.718103987185,35.567639047102745]],[[139.71688143374436,35.564936279136184],[139.71651466771218,35.56409685290766]],[[139.7211778358357,35.56240877598657],[139.72116037078655,35.56240877598657]],[[139.72224320383395,35.56553586929941],[139.72353561747119,35.56466876967874],[139.72737792828457,35.56501929931263]],[[139.72737792828457,35.56501929931263],[139.72619030494226,35.56343269149608]],[[139.72619030494226,35.56343269149608],[139.7246533806169,35.56140330940515]],[[139.7246533806169,35.56140330940515],[139.7211778358357,35.56240877598657]],[[139.71840089302057,35.55889425518364],[139.71836596292226,35.55890347964768]],[[139.71836596292226,35.55890347964768],[139.71448872201057,35.55958608998736]],[[139.71448872201057,35.55958608998736],[139.71534450941903,35.5615047785097]],[[139.7211778358357,35.56240877598657],[139.71930907557646,35.56083139263407],[139.71840089302057,35.55889425518364]],[[139.7111528976226,35.5703233661412],[139.71223573067002,35.567869658703984]],[[139.71223573067002,35.567869658703984],[139.70731058680923,35.56703945693951]],[[139.72882752736416,35.56703023247546],[139.72737792828457,35.56501929931263]],[[139.73053910218104,35.56332199792749],[139.72619030494226,35.56343269149608]],[[139.71836596292226,35.55890347964768],[139.71667185315457,35.5555642236617]],[[139.71737045512063,35.54716073691243],[139.71609550653255,35.54599845444217]],[[139.72210348344075,35.55803638002701],[139.71840089302057,35.55889425518364]],[[139.7518639271953,35.5836711656211],[139.74945375041239,35.58887376334513]],[[139.74945375041239,35.58887376334513],[139.7505365834598,35.5897039651096],[139.7552696117799,35.58971318957365],[139.75535693702565,35.58497181505211]],[[139.75535693702565,35.58497181505211],[139.7518639271953,35.5836711656211]],[[139.7652596198947,35.58483344809136],[139.76283197806262,35.5850825086207]],[[139.76283197806262,35.5850825086207],[139.7623604217355,35.59489733836957],[139.76545173543536,35.594731298016676],[139.76737289084207,35.59262812021335]],[[139.76737289084207,35.59262812021335],[139.77058645988598,35.5881819285414]],[[139.77058645988598,35.5881819285414],[139.76648217333533,35.58488879487566],[139.7652596198947,35.58483344809136]],[[139.7716343628351,35.57859771039377],[139.77439384060108,35.57848701682518]],[[139.77439384060108,35.57848701682518],[139.77439384060108,35.57711257168177]],[[139.77439384060108,35.57711257168177],[139.766674288876,35.57714946953797],[139.7653294800913,35.57838554772063]],[[139.7653294800913,35.57838554772063],[139.7653294800913,35.57865305717807]],[[139.7653294800913,35.57865305717807],[139.76780951707084,35.578745301818564]],[[139.76780951707084,35.578745301818564],[139.7716343628351,35.57859771039377]],[[139.75734795262898,35.57724171417847],[139.7542566389291,35.57819183397559],[139.7518639271953,35.5836711656211]],[[139.75535693702565,35.58497181505211],[139.7556713079104,35.58483344809136]],[[139.7556713079104,35.58483344809136],[139.75525214673075,35.584141613287635],[139.75734795262898,35.57724171417847]],[[139.76737289084207,35.59262812021335],[139.77280452112825,35.59536778603611],[139.77374763378245,35.595220194611315]],[[139.77374763378245,35.595220194611315],[139.7757211843366,35.59255432450095]],[[139.7757211843366,35.59255432450095],[139.77058645988598,35.5881819285414]],[[139.7757211843366,35.59255432450095],[139.77718824846534,35.590589513658365],[139.76824614329965,35.5824258629744]],[[139.76824614329965,35.5824258629744],[139.7652596198947,35.58483344809136]],[[139.7716343628351,35.57859771039377],[139.77292677647233,35.579769217328085]],[[139.77292677647233,35.579769217328085],[139.77648964649927,35.58305312652977]],[[139.77648964649927,35.58305312652977],[139.77972068059233,35.58071011266115]],[[139.77972068059233,35.58071011266115],[139.77746768925178,35.57878219967477],[139.77439384060108,35.57848701682518]],[[139.772315499752,35.57280474697057],[139.76615033740146,35.56538827787462]],[[139.76615033740146,35.56538827787462],[139.76064884691866,35.56843235101101],[139.7585705060696,35.57271250233007]],[[139.7585705060696,35.57271250233007],[139.772315499752,35.57280474697057]],[[139.76615033740146,35.56538827787462],[139.7655914558286,35.564890156815935],[139.75846571577466,35.56843235101101],[139.75710344194084,35.57149487307551],[139.75579356325446,35.572537237513124]],[[139.75572370305784,35.572694053401975],[139.75727809243236,35.572537237513124],[139.75808148469335,35.57452972174786]],[[139.75808148469335,35.57452972174786],[139.7585705060696,35.57271250233007]],[[139.77972068059233,35.58071011266115],[139.78309143507863,35.583615818836805]],[[139.78309143507863,35.583615818836805],[139.78728304687505,35.5806639903409],[139.783021574882,35.577075673825576],[139.7817640913431,35.577075673825576]],[[139.7817640913431,35.577075673825576],[139.78305650498032,35.578265629687984],[139.77972068059233,35.58071011266115]],[[139.77648964649927,35.58305312652977],[139.77959842524828,35.58591271038517]],[[139.77959842524828,35.58591271038517],[139.78309143507863,35.583615818836805]],[[139.712462776309,35.54038075583591],[139.71932654062562,35.54275144309668]],[[139.75287690004612,35.54512213035745],[139.7496982611005,35.54412588824008],[139.74505255802615,35.543572420397105],[139.7411578520653,35.54418123502438],[139.73799667816883,35.543867603246696],[139.73195377116232,35.54243781131899],[139.7258759340575,35.542308668822294],[139.7221908086865,35.54096189707104],[139.71482055794448,35.537032275385876],[139.70881258103626,35.53574085041892],[139.70458603914156,35.53589766630776],[139.70001019626378,35.53825912910448],[139.6977222748249,35.54182899669171],[139.6993115942977,35.54571249605663],[139.7031539051111,35.54924546578766],[139.70392236727378,35.550601462002966],[139.70289192937383,35.55316586300878],[139.69775720492322,35.5557118150865],[139.69257008532514,35.55612691596873],[139.6900551182473,35.556800301844355],[139.68471081320686,35.56011188443819],[139.67989045964097,35.56205824635268],[139.6774628178089,35.56395848594691],[139.6735506467989,35.572887767147016]],[[139.6735506467989,35.572887767147016],[139.6754368721073,35.5733858882057]],[[139.74367281914314,35.57130115933047],[139.7426773113415,35.57310915428421],[139.74327112301265,35.57476955781315],[139.74197870937542,35.574907924773896]],[[139.772315499752,35.57280474697057],[139.77411439981464,35.57499094495034],[139.76433397228965,35.575009393878446],[139.76426411209306,35.57457584406811],[139.75808148469335,35.57452972174786]],[[139.73703610046547,35.58801588818851],[139.74087841127886,35.5882003774695],[139.7482137319226,35.59026665741663],[139.74945375041239,35.58887376334513]],[[139.75734795262898,35.57724171417847],[139.76267479262026,35.57733395881896],[139.7653294800913,35.57838554772063]],[[139.77439384060108,35.57711257168177],[139.7817640913431,35.577075673825576]],[[139.77959842524828,35.58591271038517],[139.77816629121784,35.58661376965295],[139.7756163940417,35.585691323247985],[139.7707261802792,35.58134660068058]],[[139.7707261802792,35.58134660068058],[139.76780951707084,35.578745301818564]],[[139.7653294800913,35.57865305717807],[139.76400213635577,35.57865305717807],[139.76824614329965,35.5824258629744]],[[139.77374763378245,35.595220194611315],[139.77921419416694,35.593974891964606],[139.79004252464102,35.59059873812242],[139.82745265992406,35.56490860574404],[139.80651206599111,35.5421979752537]],[[139.7556713079104,35.58483344809136],[139.76283197806262,35.5850825086207]],[[139.77292677647233,35.579769217328085],[139.7707261802792,35.58134660068058]],[[139.6735506467989,35.572887767147016],[139.67178667683456,35.576346941165646],[139.66887001362622,35.585350018078145],[139.66518488825523,35.589205844050916],[139.66380514937222,35.58998992349514],[139.6552822053862,35.59013751491993],[139.65657461902342,35.592379059684006]]]}