{"type":"Topology","bbox":[139.58239891917285,35.590042322210984,139.6865983070505,35.6829687944633],"objects":{"town":{"type":"GeometryCollection","geometries":[{"type":"MultiPolygon","arcs":[[[10,11,12,41,2,45,42,43,44,0,40,-22,-9,-8]]],"properties":{"name":"池尻"}},{"type":"MultiPolygon","arcs":[[[20,4,5,6,7,8,21,22]]],"properties":{"name":"三宿"}},{"type":"MultiPolygon","arcs":[[[-5,-21,-23,-41,-1,-45,47,-39,-38,-28,-58,14,15,16,17,32,-6]]],"properties":{"name":"太子堂"}},{"type":"MultiPolygon","arcs":[[[34,35,36,23,24,25,26,27,37,38,39]]],"properties":{"name":"三軒茶屋"}},{"type":"MultiPolygon","arcs":[[[30,-16,-15,57,-27,91,89,-82,-81,128,160,161,162]]],"properties":{"name":"若林"}},{"type":"MultiPolygon","arcs":[[[226,223,224,141,142,143,144,153,-65,-83,52,53,48,49,243,244,245]]],"properties":{"name":"桜丘"}},{"type":"MultiPolygon","arcs":[[[79,80,81,-90,101,102,99,100,63,58,59,60,75,76]]],"properties":{"name":"世田谷"}},{"type":"MultiPolygon","arcs":[[[103,104,105,106,87,88,85,84,-53,82,64,65,66,70,71]]],"properties":{"name":"経堂"}},{"type":"MultiPolygon","arcs":[[[246,247,248,249,-64,-101,-100,-103,462,463,96,92,93,113,110,109]]],"properties":{"name":"弦巻"}},{"type":"MultiPolygon","arcs":[[[-60,-59,-250,611,-49,-54,-85,-86,-118,154,-76,-61]]],"properties":{"name":"桜"}},{"type":"MultiPolygon","arcs":[[[119,120,115,116,117,-89,-88,-107,-106,-274,-376,500]]],"properties":{"name":"宮坂"}},{"type":"MultiPolygon","arcs":[[[648,473,474,-205,-208,277,-137,-136,-168,255,-242,-241,121,122,-281,425]]],"properties":{"name":"松原"}},{"type":"MultiPolygon","arcs":[[[261,532,-184,531,-204,-203,360,-637,125,126,663,362,264,-166]]],"properties":{"name":"北沢"}},{"type":"MultiPolygon","arcs":[[[-43,132,633,301,-152,-151,-216,622,-35,-40,-48,-44]]],"properties":{"name":"下馬"}},{"type":"MultiPolygon","arcs":[[[-532,-183,-182,-177,-17,-31,-163,-304,628,-169,134,135,136,137,-656,200,201,202,203]]],"properties":{"name":"代田"}},{"type":"MultiPolygon","arcs":[[[-159,-231,212,213,-587,-36,-623,215,150,151,147,269]]],"properties":{"name":"野沢"}},{"type":"MultiPolygon","arcs":[[[-463,-102,-92,-26,-25,-24,-37,586,-214,-213,230,158,159,155,156,227,-628]]],"properties":{"name":"上馬"}},{"type":"MultiPolygon","arcs":[[[-7,-33,-18,176,181,182,183,-533,-262,165,166,-12,-11]]],"properties":{"name":"代沢"}},{"type":"MultiPolygon","arcs":[[[-161,-129,-80,-181,-366,170,167,-135,168,-629,303,-162]]],"properties":{"name":"梅丘"}},{"type":"MultiPolygon","arcs":[[[231,286,-219,-218,282,283,-381,-305,651,234,377,356,354,175,171,-590,-221,-343]]],"properties":{"name":"奥沢"}},{"type":"MultiPolygon","arcs":[[[180,-77,-155,-117,-116,-121,364,-243,-256,-171,365]]],"properties":{"name":"豪徳寺"}},{"type":"MultiPolygon","arcs":[[[367,368,358,359,272,273,-105,270,186,187,366,349,350,351,352]]],"properties":{"name":"桜上水"}},{"type":"MultiPolygon","arcs":[[[-156,371,-318,-317,-316,-406,587,618,-442,-414,194,191,-93,-97,-464,627,-228,-157]]],"properties":{"name":"駒沢"}},{"type":"MultiPolygon","arcs":[[[197,266,267,268,-252,265,195,372,373,-344]]],"properties":{"name":"野毛"}},{"type":"MultiPolygon","arcs":[[[207,204,205,-595,-635,-201,655,-138,-278]]],"properties":{"name":"羽根木"}},{"type":"MultiPolygon","arcs":[[[220,221,222,216,217,218,-287,-232,342]]],"properties":{"name":"玉川田園調布"}},{"type":"MultiPolygon","arcs":[[[-501,375,-273,-360,-359,-369,595,279,280,-123,-122,240,241,242,-365,-120]]],"properties":{"name":"赤堤"}},{"type":"MultiPolygon","arcs":[[[250,251,252,319,320,321]]],"properties":{"name":"玉堤"}},{"type":"MultiPolygon","arcs":[[[346,347,-296,348,-267,-198,343,-374,395,396,256,257,258,397,398,399,400,-323,401]]],"properties":{"name":"上野毛"}},{"type":"MultiPolygon","arcs":[[[-253,-269,-424,-425,-294,289,-298,-627,-484,-404,-423,-444,308,309,304,380,378,605,-657]]],"properties":{"name":"等々力"}},{"type":"MultiPolygon","arcs":[[[423,-268,-349,295,-348,-347,-402,322,323,324,-481,-480,626,297,-290,293,424]]],"properties":{"name":"中町"}},{"type":"MultiPolygon","arcs":[[[-245,-244,-50,-612,-249,-248,617,328,335,331,332,333,566,567,-227,-246]]],"properties":{"name":"上用賀"}},{"type":"Polygon","arcs":[[313,314,315,316,317,318]],"properties":{"name":"駒沢公園"}},{"type":"MultiPolygon","arcs":[[[-618,-447,339,340,464,-324,-401,-456,-439,336,-438,-385,-336,-329]]],"properties":{"name":"用賀"}},{"type":"MultiPolygon","arcs":[[[436,381,382,383,-332,384,437,-337,438,439]]],"properties":{"name":"玉川台"}},{"type":"MultiPolygon","arcs":[[[389,-458,-457,530,560,561,694,-688,-431,-661,-511,484,386,387,409,410,411,412]]],"properties":{"name":"祖師谷"}},{"type":"MultiPolygon","arcs":[[[434,515,516,517,-541,661,662,394,-258,-257,-397]]],"properties":{"name":"玉川"}},{"type":"MultiPolygon","arcs":[[[403,483,479,480,-325,-465,-659,-441,-443,-619,-588,405,-315,-314,654,445,-309,443,422]]],"properties":{"name":"深沢"}},{"type":"MultiPolygon","arcs":[[[440,415,416,408,-114,-94,-192,-195,413,441,442]]],"properties":{"name":"新町"}},{"type":"MultiPolygon","arcs":[[[660,430,431,432,453,448,449,450,451,478,475,476,-514,690,470,417,418,-387,-485,510]]],"properties":{"name":"成城"}},{"type":"MultiPolygon","arcs":[[[-341,-340,446,-247,-110,-111,-409,-417,-416,658]]],"properties":{"name":"桜新町"}},{"type":"MultiPolygon","arcs":[[[-382,-437,-440,455,-400,-399,-398,-259,-395,-663,695,-550,-553,-639,-383]]],"properties":{"name":"瀬田"}},{"type":"MultiPolygon","arcs":[[[572,495,496,497,498,-506,-523,-522,-143,-584,607,-561,-531,456,457,-390,-413,-412,501,502]]],"properties":{"name":"千歳台"}},{"type":"MultiPolygon","arcs":[[[520,490,767,703,512,513,-477,-476,-479,-452,-451,610,665,579,580,-571,-547,736]]],"properties":{"name":"喜多見"}},{"type":"MultiPolygon","arcs":[[[505,-499,-498,576,525,526,527,-187,-271,-104,-72,-71,-67,-66,-154,-145,-144,521,522]]],"properties":{"name":"船橋"}},{"type":"MultiPolygon","arcs":[[[549,-696,-662,-545,533,534,535,536,537,551,552]]],"properties":{"name":"岡本"}},{"type":"MultiPolygon","arcs":[[[630,562,563,574,-569,575,-535,-534,544,540,-518,-517]]],"properties":{"name":"鎌田"}},{"type":"MultiPolygon","arcs":[[[568,-575,-564,719,545,546,570,571]]],"properties":{"name":"宇奈根"}},{"type":"MultiPolygon","arcs":[[[554,555,556,-706,-567,-334,-641,-640,-537,-536,-576,-572,-581,-580,-666,-611,-450,-449,-620,-751]]],"properties":{"name":"大蔵"}},{"type":"MultiPolygon","arcs":[[[583,-142,-225,-224,-568,705,-557,-556,-555,750,619,-454,-433,-432,687,-695,-562,-608]]],"properties":{"name":"砧"}},{"type":"MultiPolygon","arcs":[[[591,-222,589,-172,-176,-355,614]]],"properties":{"name":"東玉川"}},{"type":"MultiPolygon","arcs":[[[634,594,-206,-475,592,635,-126,636,-361,-202]]],"properties":{"name":"大原"}},{"type":"Polygon","arcs":[[-333,-384,638,-552,-538,639,640]],"properties":{"name":"砧公園"}},{"type":"MultiPolygon","arcs":[[[-350,-367,-188,-528,743,673,-670,643,644,771,646,-352,-351]]],"properties":{"name":"上北沢"}},{"type":"MultiPolygon","arcs":[[[-321,-320,656,-606,-379,-284,-283,-217,659]]],"properties":{"name":"尾山台"}},{"type":"MultiPolygon","arcs":[[[-526,-577,-497,675,666,667,668,-644,669,-674,-744,-527]]],"properties":{"name":"八幡山"}},{"type":"MultiPolygon","arcs":[[[678,-724,756,757,-716,-712,680,-411,-410,-388,-419,691,686,772,-710,-709,-721]]],"properties":{"name":"上祖師谷"}},{"type":"MultiPolygon","arcs":[[[-681,711,715,716,717,737,-725,-667,-676,-496,-573,-503,-502]]],"properties":{"name":"粕谷"}},{"type":"MultiPolygon","arcs":[[[729,776,722,723,-679,720,708,709,710,775,727,761,-752]]],"properties":{"name":"給田"}},{"type":"MultiPolygon","arcs":[[[-758,-757,-723,-777,-756,-767,-750,732,733,734,780,726,-668,724,-738,-718,-717]]],"properties":{"name":"南烏山"}},{"type":"MultiPolygon","arcs":[[[755,-730,751,752,768,741,773,779,759,769,-734,-733,749,766]]],"properties":{"name":"北烏山"}}]}},"arcs":[[[139.6791681476789,35.645004534122194],[139.67801141880057,35.64721640534892]],[[139.67801141880057,35.64721640534892],[139.68457663675864,35.65066432226117]],[[139.68457663675864,35.65066432226117],[139.68448284793067,35.646751726519774]],[[139.68448284793067,35.646751726519774],[139.6791681476789,35.645004534122194]],[[139.67229030029424,35.6490751206655],[139.6722486163707,35.649056533512336]],[[139.6722486163707,35.649056533512336],[139.6727488234532,35.65006953335987],[139.67140451691893,35.65235575319926]],[[139.67140451691893,35.65235575319926],[139.67262377168257,35.653777670416446]],[[139.67262377168257,35.653777670416446],[139.6763023779353,35.65384272545252],[139.67890762315673,35.65177025787454]],[[139.67890762315673,35.65177025787454],[139.67747994877539,35.65109182678399]],[[139.67747994877539,35.65109182678399],[139.67465586295532,35.6508130194865],[139.67229030029424,35.6490751206655]],[[139.67262377168257,35.653777670416446],[139.6744370223567,35.65506947756146]],[[139.6744370223567,35.65506947756146],[139.68058540107936,35.655682853615936]],[[139.68058540107936,35.655682853615936],[139.68287801687424,35.65454903727282],[139.6841702185041,35.65166802853213]],[[139.6841702185041,35.65166802853213],[139.68160665720617,35.652392927505595],[139.67890762315673,35.65177025787454]],[[139.66578760822145,35.64587813032099],[139.66577718724056,35.64588742389757]],[[139.66577718724056,35.64588742389757],[139.66466214228578,35.64791342359264],[139.665099823483,35.65036692781052]],[[139.665099823483,35.65036692781052],[139.66513108642565,35.65036692781052]],[[139.66513108642565,35.65036692781052],[139.6673090714308,35.65083160663966]],[[139.6673090714308,35.65083160663966],[139.66946621447417,35.646872543015355]],[[139.66946621447417,35.646872543015355],[139.66578760822145,35.64587813032099]],[[139.67586469673807,35.64610117615898],[139.67229030029424,35.6490751206655]],[[139.67747994877539,35.65109182678399],[139.67792805095348,35.64717923104259]],[[139.67792805095348,35.64717923104259],[139.67586469673807,35.64610117615898]],[[139.66831990657673,35.63987447984844],[139.66822611774873,35.63975366335286]],[[139.66822611774873,35.63975366335286],[139.66680886434827,35.64009752568643],[139.66157753194358,35.63977225050603]],[[139.66157753194358,35.63977225050603],[139.66092101014775,35.64258820421064]],[[139.66092101014775,35.64258820421064],[139.66511024446388,35.64323875457144]],[[139.66511024446388,35.64323875457144],[139.6710502035688,35.643582616905015]],[[139.6710502035688,35.643582616905015],[139.66831990657673,35.63987447984844]],[[139.66069174856827,35.64658444214128],[139.66041038208436,35.65107323963082]],[[139.66041038208436,35.65107323963082],[139.665099823483,35.65036692781052]],[[139.66577718724056,35.64588742389757],[139.66285931259253,35.64731863469133],[139.66069174856827,35.64658444214128]],[[139.6673090714308,35.65083160663966],[139.66976842291984,35.6512498175859],[139.67140451691893,35.65235575319926]],[[139.6722486163707,35.649056533512336],[139.6715608316322,35.64759744198882],[139.66946621447417,35.646872543015355]],[[139.67440575941404,35.63857337912683],[139.67431197058607,35.63839680117176]],[[139.67431197058607,35.63839680117176],[139.6722381953898,35.63894512219015]],[[139.6722381953898,35.63894512219015],[139.66831990657673,35.63987447984844]],[[139.6710502035688,35.643582616905015],[139.6726029297208,35.644223873689235]],[[139.6726029297208,35.644223873689235],[139.6734887130961,35.64132427779537]],[[139.6734887130961,35.64132427779537],[139.67515607003784,35.639920947731355],[139.67440575941404,35.63857337912683]],[[139.67801141880057,35.64721640534892],[139.67792805095348,35.64717923104259]],[[139.6841702185041,35.65166802853213],[139.68457663675864,35.65066432226117]],[[139.68514979070736,35.641352158525116],[139.68110645012365,35.64184471808401]],[[139.68110645012365,35.64184471808401],[139.67940783023926,35.644549148869636]],[[139.67940783023926,35.644549148869636],[139.6791681476789,35.645004534122194]],[[139.68448284793067,35.646751726519774],[139.68514979070736,35.641352158525116]],[[139.6726029297208,35.644223873689235],[139.67586469673807,35.64610117615898]],[[139.67940783023926,35.644549148869636],[139.6734887130961,35.64132427779537]],[[139.63484771597135,35.64285771793155],[139.63405572142403,35.639818718388945],[139.63316993804872,35.63982801196553]],[[139.63316993804872,35.63982801196553],[139.6312107936422,35.63977225050603]],[[139.6312107936422,35.63977225050603],[139.62969975141374,35.64211423180492]],[[139.62969975141374,35.64211423180492],[139.6305230089037,35.64430751587848],[139.62988732906967,35.64547850652792]],[[139.62988732906967,35.64547850652792],[139.63110658383331,35.645013827698776],[139.63536876501564,35.645590029446915]],[[139.63536876501564,35.645590029446915],[139.63484771597135,35.64285771793155]],[[139.6710502035688,35.643582616905015],[139.66946621447417,35.646872543015355]],[[139.66092101014775,35.64258820421064],[139.66072301151092,35.646073295429225]],[[139.66072301151092,35.646073295429225],[139.66069174856827,35.64658444214128]],[[139.66578760822145,35.64587813032099],[139.66511024446388,35.64323875457144]],[[139.64105862057932,35.64032057152442],[139.64008946935692,35.64256032348089]],[[139.64008946935692,35.64256032348089],[139.64164219550892,35.64355473617526]],[[139.64164219550892,35.64355473617526],[139.64286145027256,35.64327592887778],[139.64575848295883,35.64455844244622]],[[139.64575848295883,35.64455844244622],[139.64780099521246,35.642941360120794]],[[139.64780099521246,35.642941360120794],[139.64216324455322,35.64075736962381]],[[139.64216324455322,35.64075736962381],[139.64105862057932,35.64032057152442]],[[139.62859512743984,35.64585954316782],[139.62453094489436,35.6463613963033],[139.62452052391347,35.647346515421084]],[[139.62452052391347,35.647346515421084],[139.62529167649902,35.649363221539566]],[[139.62529167649902,35.649363221539566],[139.62710492717315,35.651370634081474]],[[139.62710492717315,35.651370634081474],[139.63001238084033,35.65075725802701],[139.6312837405084,35.64954909307123]],[[139.6312837405084,35.64954909307123],[139.63129416148928,35.649521212341476]],[[139.63129416148928,35.649521212341476],[139.6287722841149,35.64879631336802],[139.62859512743984,35.64585954316782]],[[139.62710492717315,35.651370634081474],[139.6267818767657,35.65155650561313]],[[139.6267818767657,35.65155650561313],[139.6285430225354,35.65280184487524],[139.62786565877784,35.65399142267785],[139.6301061696683,35.65512523902096]],[[139.6301061696683,35.65512523902096],[139.63078353342587,35.65343380808287],[139.63314909608695,35.65082231306308],[139.63500403068463,35.65065502868459]],[[139.63500403068463,35.65065502868459],[139.6312837405084,35.64954909307123]],[[139.6504375033766,35.6426625528233],[139.64780099521246,35.642941360120794]],[[139.64575848295883,35.64455844244622],[139.6472486832255,35.645171818500685]],[[139.6472486832255,35.645171818500685],[139.64929119547915,35.645701552365914],[139.6507918167267,35.647932010745805]],[[139.6507918167267,35.647932010745805],[139.65144833852253,35.64749521264641],[139.6503645565104,35.64433539660823],[139.6504375033766,35.6426625528233]],[[139.6548664202531,35.64227222260683],[139.6504375033766,35.6426625528233]],[[139.6507918167267,35.647932010745805],[139.65144833852253,35.64896359774651],[139.6540327417822,35.6490751206655]],[[139.6540327417822,35.6490751206655],[139.6530740115407,35.644047295734154],[139.6550644188899,35.64383354347275]],[[139.6550644188899,35.64383354347275],[139.6548664202531,35.64227222260683]],[[139.62988732906967,35.64547850652792],[139.62859512743984,35.64585954316782]],[[139.63129416148928,35.649521212341476],[139.63278436175594,35.64827587307937],[139.63654633585574,35.64772755206098]],[[139.63654633585574,35.64772755206098],[139.63536876501564,35.645590029446915]],[[139.63718201568977,35.64753238695274],[139.63654633585574,35.64772755206098]],[[139.63500403068463,35.65065502868459],[139.6375363290399,35.651370634081474]],[[139.6375363290399,35.651370634081474],[139.6398914707201,35.65068290941434]],[[139.6398914707201,35.65068290941434],[139.63940168461846,35.64772755206098],[139.63718201568977,35.64753238695274]],[[139.65487684123397,35.642253635453656],[139.6548664202531,35.64227222260683]],[[139.6550644188899,35.64383354347275],[139.66072301151092,35.646073295429225]],[[139.66092101014775,35.64258820421064],[139.6578780837291,35.64184471808401],[139.65487684123397,35.642253635453656]],[[139.65501231398548,35.633815067916395],[139.65024992572063,35.63257902223087]],[[139.65024992572063,35.63257902223087],[139.64914530174676,35.63475371915127]],[[139.64914530174676,35.63475371915127],[139.64828036033322,35.636157049215285]],[[139.64828036033322,35.636157049215285],[139.65509568183256,35.63686336103558]],[[139.65509568183256,35.63686336103558],[139.6565546191566,35.6344656182772],[139.65501231398548,35.633815067916395]],[[139.63536876501564,35.645590029446915],[139.63867221595646,35.64524616711335],[139.64164219550892,35.64355473617526]],[[139.64008946935692,35.64256032348089],[139.63906821323013,35.642039883192254],[139.63484771597135,35.64285771793155]],[[139.6461440592516,35.639967415614265],[139.64296566008144,35.640283397218084]],[[139.64296566008144,35.640283397218084],[139.64216324455322,35.64075736962381]],[[139.65487684123397,35.642253635453656],[139.65447042297941,35.639865186271855]],[[139.65447042297941,35.639865186271855],[139.6461440592516,35.639967415614265]],[[139.6301061696683,35.65512523902096],[139.6305334298846,35.65565497288619]],[[139.6305334298846,35.65565497288619],[139.63099195304358,35.65547839493111]],[[139.63099195304358,35.65547839493111],[139.63521245030236,35.65316429436197],[139.63752590805902,35.651379927658056]],[[139.63752590805902,35.651379927658056],[139.6375363290399,35.651370634081474]],[[139.6389327404786,35.63400093944805],[139.64296566008144,35.6402741036415]],[[139.64296566008144,35.6402741036415],[139.6451123821439,35.63427974674554]],[[139.6451123821439,35.63427974674554],[139.64012073229958,35.63303440748343],[139.6389327404786,35.63400093944805]],[[139.6452791178381,35.633815067916395],[139.6451123821439,35.63427974674554]],[[139.64296566008144,35.6402741036415],[139.64296566008144,35.640283397218084]],[[139.6461440592516,35.639967415614265],[139.64828036033322,35.636157049215285]],[[139.64914530174676,35.63475371915127],[139.64720699930197,35.634883829223426],[139.6452791178381,35.633815067916395]],[[139.6398914707201,35.65068290941434],[139.6434971301066,35.65098959744157],[139.64567511511174,35.65050633145926]],[[139.64567511511174,35.65050633145926],[139.64567511511174,35.65049703788268]],[[139.64567511511174,35.65049703788268],[139.64478933173646,35.64732792826792]],[[139.64478933173646,35.64732792826792],[139.6415171437383,35.64619411192481],[139.63734875138397,35.6465751485647],[139.63718201568977,35.64753238695274]],[[139.63752590805902,35.651379927658056],[139.6421736655341,35.65244868896509],[139.6413816709868,35.6535825053082]],[[139.6413816709868,35.6535825053082],[139.64633163690758,35.65406577129051]],[[139.64633163690758,35.65406577129051],[139.64567511511174,35.65050633145926]],[[139.64819699248613,35.660283174024464],[139.64190272003108,35.65983708234849]],[[139.64190272003108,35.65983708234849],[139.64207987670613,35.66344299006265]],[[139.64207987670613,35.66344299006265],[139.64741541891968,35.66308054057591]],[[139.64741541891968,35.66308054057591],[139.64819699248613,35.660283174024464]],[[139.6661210796098,35.668833264480725],[139.6660585537245,35.67158416314926]],[[139.6660585537245,35.67158416314926],[139.67278008639585,35.67211389701448],[139.6728426122812,35.66849869572374]],[[139.6728426122812,35.66849869572374],[139.6661210796098,35.668833264480725]],[[139.6540327417822,35.6490751206655],[139.6540327417822,35.64908441424208]],[[139.6540327417822,35.64908441424208],[139.65599188618876,35.648833487674345],[139.6585346055249,35.64700265308752],[139.66069174856827,35.64658444214128]],[[139.68230486292552,35.637486030666636],[139.6801060359586,35.638582672703414]],[[139.6801060359586,35.638582672703414],[139.6779905768388,35.64053432378582],[139.6797621435894,35.64196553457959],[139.68110645012365,35.64184471808401]],[[139.68514979070736,35.641352158525116],[139.6860147321209,35.63961425970412]],[[139.6860147321209,35.63961425970412],[139.68532694738244,35.638582672703414],[139.68230486292552,35.637486030666636]],[[139.65539789027827,35.65659362412106],[139.65444958101764,35.65660291769764]],[[139.65444958101764,35.65660291769764],[139.6530010646745,35.657225587328696],[139.65418905649548,35.65831293578889],[139.65474136848243,35.66115677022326]],[[139.65474136848243,35.66115677022326],[139.65701314231555,35.662522925980944]],[[139.65701314231555,35.662522925980944],[139.66024364639017,35.66255080671069]],[[139.66024364639017,35.66255080671069],[139.66002480579158,35.65795048630216]],[[139.66002480579158,35.65795048630216],[139.65539789027827,35.65659362412106]],[[139.62504157295777,35.64261608494039],[139.6206751819666,35.64340603894994],[139.6191224558146,35.641881892390344]],[[139.6191224558146,35.641881892390344],[139.61811162066866,35.64560861660008]],[[139.61811162066866,35.64560861660008],[139.61723625827426,35.64889854271043]],[[139.61723625827426,35.64889854271043],[139.61774688633767,35.64860114825977]],[[139.61774688633767,35.64860114825977],[139.62204033046262,35.646807487979274]],[[139.62204033046262,35.646807487979274],[139.6230303236468,35.644967359815865],[139.6256147269065,35.64417740580632]],[[139.6256147269065,35.64417740580632],[139.62504157295777,35.64261608494039]],[[139.6765837444192,35.62747684868686],[139.67250914089283,35.62965154560726]],[[139.67250914089283,35.62965154560726],[139.67026863000237,35.6315846095365]],[[139.67026863000237,35.6315846095365],[139.6730510318989,35.633917297258805]],[[139.6730510318989,35.633917297258805],[139.67660458638096,35.63183553610424]],[[139.67660458638096,35.63183553610424],[139.67830320626535,35.63084112340987],[139.6765837444192,35.62747684868686]],[[139.62969975141374,35.64211423180492],[139.6256147269065,35.64417740580632]],[[139.62204033046262,35.646807487979274],[139.62452052391347,35.647346515421084]],[[139.64478933173646,35.64732792826792],[139.6472486832255,35.645171818500685]],[[139.66160879488623,35.63194705902323],[139.66120237663168,35.63304370106002]],[[139.66120237663168,35.63304370106002],[139.66120237663168,35.6330529946366]],[[139.66120237663168,35.6330529946366],[139.66461003738135,35.63528345301649]],[[139.66461003738135,35.63528345301649],[139.66520403329184,35.63181694895108]],[[139.66520403329184,35.63181694895108],[139.66160879488623,35.63194705902323]],[[139.6540327417822,35.64908441424208],[139.65443916003676,35.64993012971112]],[[139.65443916003676,35.64993012971112],[139.65864923631463,35.64993942328771],[139.65861797337197,35.651435689117555]],[[139.65861797337197,35.651435689117555],[139.66041038208436,35.65107323963082]],[[139.6744370223567,35.65506947756146],[139.67457249510824,35.65598954164317]],[[139.67457249510824,35.65598954164317],[139.6759897485087,35.66000436672698]],[[139.6759897485087,35.66000436672698],[139.67764668446955,35.65983708234849]],[[139.67764668446955,35.65983708234849],[139.68058540107936,35.655682853615936]],[[139.64952045705863,35.65607318383242],[139.65444958101764,35.65660291769764]],[[139.65539789027827,35.65659362412106],[139.6541056886484,35.65234645962268]],[[139.6541056886484,35.65234645962268],[139.64973929765725,35.652755376992324]],[[139.64973929765725,35.652755376992324],[139.64952045705863,35.65607318383242]],[[139.67315524170775,35.59947530244262],[139.67158167359398,35.59954965105528]],[[139.67158167359398,35.59954965105528],[139.67184219811614,35.60376893482391]],[[139.67184219811614,35.60376893482391],[139.6753957525982,35.604688998905615]],[[139.6753957525982,35.604688998905615],[139.67553122534972,35.59916861441538]],[[139.67553122534972,35.59916861441538],[139.67315524170775,35.59947530244262]],[[139.66513108642565,35.65036692781052],[139.66524571721538,35.65473490880448]],[[139.66524571721538,35.65473490880448],[139.6682573806914,35.65439104647091]],[[139.6682573806914,35.65439104647091],[139.67262377168257,35.653777670416446]],[[139.64567511511174,35.65049703788268],[139.6491765646894,35.650422689270016]],[[139.6491765646894,35.650422689270016],[139.64927035351738,35.648359515268616],[139.6507918167267,35.647932010745805]],[[139.66524571721538,35.65473490880448],[139.66448498561073,35.659558275051]],[[139.66448498561073,35.659558275051],[139.66480803601817,35.65985566950165]],[[139.66480803601817,35.65985566950165],[139.66843453736647,35.65895419257311]],[[139.66843453736647,35.65895419257311],[139.66829906461496,35.65761591754518]],[[139.66829906461496,35.65761591754518],[139.6682573806914,35.65439104647091]],[[139.62844923370744,35.6564077525894],[139.6256772527918,35.658861256807285]],[[139.6256772527918,35.658861256807285],[139.62901196667528,35.66307124699933]],[[139.62901196667528,35.66307124699933],[139.6297935402417,35.662680916782854]],[[139.6297935402417,35.662680916782854],[139.63087732225384,35.66080361431311]],[[139.63087732225384,35.66080361431311],[139.629949854955,35.66022741256497],[139.62844923370744,35.6564077525894]],[[139.65063550201342,35.631110637130774],[139.65024992572063,35.63257902223087]],[[139.65501231398548,35.633815067916395],[139.65656504013748,35.63099911421178]],[[139.65656504013748,35.63099911421178],[139.6538139011836,35.63029280239148]],[[139.6538139011836,35.63029280239148],[139.65063550201342,35.631110637130774]],[[139.64285102929168,35.59835077967609],[139.63956842031266,35.60036748579457],[139.63667138762636,35.60318343949919]],[[139.63667138762636,35.60318343949919],[139.6406938862483,35.60683581509627]],[[139.6406938862483,35.60683581509627],[139.64072514919098,35.606826521519686]],[[139.64072514919098,35.606826521519686],[139.64402860013178,35.59954965105528],[139.64285102929168,35.59835077967609]],[[139.66588139704942,35.661825907737224],[139.66027490933283,35.66274597181893]],[[139.66027490933283,35.66274597181893],[139.66077511641535,35.665868613550785]],[[139.66077511641535,35.665868613550785],[139.66275510278368,35.66720688857872],[139.66547497879486,35.66508795311782]],[[139.66547497879486,35.66508795311782],[139.66547497879486,35.66500431092857]],[[139.66547497879486,35.66500431092857],[139.66588139704942,35.661825907737224]],[[139.65399105785866,35.6652087696134],[139.65571051970483,35.66637046668626],[139.65615862188292,35.66790390682244]],[[139.65615862188292,35.66790390682244],[139.65940996791932,35.66896337455288],[139.66038954012257,35.667355585804046]],[[139.66038954012257,35.667355585804046],[139.65725282487594,35.66560839340646],[139.65588767637988,35.66367532947722]],[[139.65588767637988,35.66367532947722],[139.65447042297941,35.66332217356707],[139.65399105785866,35.6652087696134]],[[139.66524571721538,35.65473490880448],[139.6616400578289,35.65443751435383],[139.66003522677246,35.65515311975071]],[[139.66003522677246,35.65515311975071],[139.66002480579158,35.65795048630216]],[[139.66002480579158,35.65795048630216],[139.66448498561073,35.659558275051]],[[139.67026863000237,35.6315846095365],[139.66480803601817,35.635460030971565]],[[139.66480803601817,35.635460030971565],[139.66566255645083,35.63624069140453]],[[139.66566255645083,35.63624069140453],[139.66880969267834,35.63439126966453]],[[139.66880969267834,35.63439126966453],[139.67019568313617,35.63342473769991],[139.6716337784984,35.634939590682926]],[[139.6716337784984,35.634939590682926],[139.6730510318989,35.633917297258805]],[[139.65804481942325,35.59909426580272],[139.65945165184286,35.60170576082251]],[[139.65945165184286,35.60170576082251],[139.6601498575622,35.601557063597184]],[[139.6601498575622,35.601557063597184],[139.66342204556037,35.600925100389546]],[[139.66342204556037,35.600925100389546],[139.668840955621,35.59971693543377]],[[139.668840955621,35.59971693543377],[139.66941410956971,35.59963329324452]],[[139.66941410956971,35.59963329324452],[139.6698622117478,35.599224375874876]],[[139.6698622117478,35.599224375874876],[139.66894516542988,35.59821137602734],[139.66719444064105,35.59952177032553],[139.6650268766168,35.59873181631598],[139.6641306722606,35.59977269689327],[139.6626717349366,35.598592412667244],[139.65964965047968,35.59994927484834],[139.65804481942325,35.59909426580272]],[[139.6212483359153,35.63707711329699],[139.6200082391899,35.63835033328885],[139.61931003347055,35.64072948889407]],[[139.61931003347055,35.64072948889407],[139.6191224558146,35.641881892390344]],[[139.62504157295777,35.64261608494039],[139.62441631410462,35.63809940672111]],[[139.62441631410462,35.63809940672111],[139.6212483359153,35.63707711329699]],[[139.66120237663168,35.6330529946366],[139.65829492296453,35.63840609474834]],[[139.65829492296453,35.63840609474834],[139.66157753194358,35.63977225050603]],[[139.66157753194358,35.63977225050603],[139.66321362594263,35.63676113169317],[139.66480803601817,35.635460030971565]],[[139.66480803601817,35.635460030971565],[139.66461003738135,35.63528345301649]],[[139.667746752628,35.60142695352502],[139.66773633164712,35.60308121015678],[139.66528740113893,35.603099797309945]],[[139.66528740113893,35.603099797309945],[139.66649623492168,35.60655700779878]],[[139.66649623492168,35.60655700779878],[139.66698602102332,35.60674287933044]],[[139.66698602102332,35.60674287933044],[139.67094599375994,35.60736554896149]],[[139.67094599375994,35.60736554896149],[139.67184219811614,35.60376893482391]],[[139.67184219811614,35.60376893482391],[139.66946621447417,35.60312767803969],[139.667746752628,35.60142695352502]],[[139.64540416960872,35.655720027922264],[139.6437993385523,35.657104770833115]],[[139.6437993385523,35.657104770833115],[139.64185061512666,35.65979990804215]],[[139.64185061512666,35.65979990804215],[139.64190272003108,35.65983708234849]],[[139.64819699248613,35.660283174024464],[139.64820741346702,35.66025529329472]],[[139.64820741346702,35.66025529329472],[139.64856172681712,35.655887312300756]],[[139.64856172681712,35.655887312300756],[139.64611279630896,35.65680737638247],[139.64540416960872,35.655720027922264]],[[139.6312107936422,35.63977225050603],[139.62967890945197,35.63957708539779]],[[139.62967890945197,35.63957708539779],[139.62630251164495,35.63868490204583]],[[139.62630251164495,35.63868490204583],[139.62441631410462,35.63809940672111]],[[139.6389327404786,35.63400093944805],[139.63828663966368,35.6329414717176]],[[139.63828663966368,35.6329414717176],[139.63642128408512,35.63640797578302]],[[139.63642128408512,35.63640797578302],[139.63479561106692,35.63805293883819]],[[139.63479561106692,35.63805293883819],[139.63903695028748,35.63911240656864],[139.64105862057932,35.64032057152442]],[[139.64691521183718,35.596045972683534],[139.64412238895977,35.597635174279205]],[[139.64412238895977,35.597635174279205],[139.64537290666607,35.60043254083065]],[[139.64537290666607,35.60043254083065],[139.65018739983532,35.599754109740104]],[[139.65018739983532,35.599754109740104],[139.64691521183718,35.596045972683534]],[[139.64820741346702,35.66025529329472],[139.65474136848243,35.66115677022326]],[[139.64952045705863,35.65607318383242],[139.64856172681712,35.655887312300756]],[[139.6348164530287,35.60935437435023],[139.63251341625292,35.61110156674781]],[[139.63251341625292,35.61110156674781],[139.63385772278718,35.61166847491937]],[[139.63385772278718,35.61166847491937],[139.63460803341098,35.61412197913725],[139.6369527541103,35.61486546526388]],[[139.6369527541103,35.61486546526388],[139.63831790260633,35.61187293360419]],[[139.63831790260633,35.61187293360419],[139.6348164530287,35.60935437435023]],[[139.6759897485087,35.66000436672698],[139.67587511771896,35.66078502715994],[139.67287387522384,35.66111030234034],[139.67137325397627,35.65977202731241],[139.66909105916227,35.66065491708778]],[[139.66909105916227,35.66065491708778],[139.66963295016834,35.6629783112335]],[[139.66963295016834,35.6629783112335],[139.6737075536947,35.665850026397614]],[[139.6737075536947,35.665850026397614],[139.67764668446955,35.65983708234849]],[[139.64412238895977,35.597635174279205],[139.64285102929168,35.59835077967609]],[[139.64072514919098,35.606826521519686],[139.6424029271136,35.6063804298437]],[[139.6424029271136,35.6063804298437],[139.6454979584367,35.60546965933858]],[[139.6454979584367,35.60546965933858],[139.64656089848705,35.60390833847266],[139.64537290666607,35.60043254083065]],[[139.67250914089283,35.62965154560726],[139.66520403329184,35.63181694895108]],[[139.6305334298846,35.65565497288619],[139.62844923370744,35.6564077525894]],[[139.63087732225384,35.66080361431311],[139.63476434812426,35.657318523094524]],[[139.63476434812426,35.657318523094524],[139.63475392714338,35.65730922951794]],[[139.63475392714338,35.65730922951794],[139.63099195304358,35.65547839493111]],[[139.64741541891968,35.66308054057591],[139.6471965783211,35.66356380655822]],[[139.6471965783211,35.66356380655822],[139.6496871927528,35.663684623053804],[139.6496767717719,35.66462327428867],[139.65215696522276,35.664957843045656]],[[139.65215696522276,35.664957843045656],[139.65399105785866,35.6652087696134]],[[139.65588767637988,35.66367532947722],[139.65701314231555,35.662522925980944]],[[139.63898484538302,35.659827788771906],[139.63844295437698,35.66203036642205],[139.6389952663639,35.66590578785711]],[[139.6389952663639,35.66590578785711],[139.6402041001467,35.66627753092043]],[[139.6402041001467,35.66627753092043],[139.64214240259145,35.66528311822606],[139.64207987670613,35.66344299006265]],[[139.64185061512666,35.65979990804215],[139.63898484538302,35.659827788771906]],[[139.65945165184286,35.60170576082251],[139.65663798700368,35.60229125614723]],[[139.65663798700368,35.60229125614723],[139.65778429490112,35.60600868678039]],[[139.65778429490112,35.60600868678039],[139.6615671109627,35.60525590707717]],[[139.6615671109627,35.60525590707717],[139.6601498575622,35.601557063597184]],[[139.66528740113893,35.603099797309945],[139.6641931981459,35.6033414303011],[139.66342204556037,35.600925100389546]],[[139.6615671109627,35.60525590707717],[139.66649623492168,35.60655700779878]],[[139.64893688212902,35.60807186078179],[139.64597732355745,35.608833934061586]],[[139.64597732355745,35.608833934061586],[139.64793646796397,35.61295098848781]],[[139.64793646796397,35.61295098848781],[139.65254254151554,35.61182646572128]],[[139.65254254151554,35.61182646572128],[139.65243833170666,35.61108297959465]],[[139.65243833170666,35.61108297959465],[139.64893688212902,35.60807186078179]],[[139.64597732355745,35.608833934061586],[139.64398691620823,35.609410135809725]],[[139.64398691620823,35.609410135809725],[139.64068346526741,35.610952869522485]],[[139.64068346526741,35.610952869522485],[139.64123577725437,35.613871052569515]],[[139.64123577725437,35.613871052569515],[139.64840541210384,35.614196327749916]],[[139.64840541210384,35.614196327749916],[139.64793646796397,35.61295098848781]],[[139.67660458638096,35.63183553610424],[139.67757373760335,35.63280206806886]],[[139.67757373760335,35.63280206806886],[139.67911604277447,35.634298333898705]],[[139.67911604277447,35.634298333898705],[139.68288843785513,35.63248608646504]],[[139.68288843785513,35.63248608646504],[139.68125234385607,35.629948940057915],[139.67939740925837,35.62504193162215],[139.6765837444192,35.62747684868686]],[[139.65443916003676,35.64993012971112],[139.65463715867358,35.65244868896509]],[[139.65463715867358,35.65244868896509],[139.65861797337197,35.651435689117555]],[[139.66350541340745,35.60976329171988],[139.65921196928247,35.6106183007655]],[[139.65921196928247,35.6106183007655],[139.6547726314251,35.61151048411746]],[[139.6547726314251,35.61151048411746],[139.6536784284321,35.61190081433394]],[[139.6536784284321,35.61190081433394],[139.65855544748666,35.61366659388469],[139.6602853303137,35.6138803461461]],[[139.6602853303137,35.6138803461461],[139.66283847063076,35.61386175899293]],[[139.66283847063076,35.61386175899293],[139.66350541340745,35.60976329171988]],[[139.62798028956757,35.633378269817],[139.62630251164495,35.63868490204583]],[[139.62967890945197,35.63957708539779],[139.6320027881895,35.634242572439206]],[[139.6320027881895,35.634242572439206],[139.62798028956757,35.633378269817]],[[139.66555834664197,35.62205869353904],[139.66275510278368,35.62164977616939],[139.66195268725545,35.62308098696316],[139.65980596519296,35.62317392272899]],[[139.65980596519296,35.62317392272899],[139.65951417772817,35.623099574116324]],[[139.65951417772817,35.623099574116324],[139.65902439162653,35.62515345454114],[139.65711735212443,35.62465160140567],[139.65606483305496,35.62563672052345],[139.65725282487594,35.62748614226345],[139.65606483305496,35.627504729416614]],[[139.65606483305496,35.627504729416614],[139.65628367365355,35.62868501364264]],[[139.65628367365355,35.62868501364264],[139.65844081669692,35.62796011466917],[139.66176510959951,35.62794152751601],[139.66216110687319,35.62901028882304]],[[139.66216110687319,35.62901028882304],[139.6618380564657,35.62796011466917],[139.6634637294839,35.62694711482164],[139.66377635891047,35.62449361060376],[139.66555834664197,35.62205869353904]],[[139.65018739983532,35.599754109740104],[139.6544808439603,35.59868534843307]],[[139.6544808439603,35.59868534843307],[139.65362632352765,35.597272724792475]],[[139.65362632352765,35.597272724792475],[139.65282390799945,35.59598091764745],[139.6581802921748,35.59346235839349],[139.6569818793729,35.59322072540233],[139.6552103126223,35.590042322210984],[139.65017697885443,35.59287686306877],[139.64691521183718,35.596045972683534]],[[139.64147545981476,35.6183319693293],[139.63854716418584,35.62095275792568]],[[139.63854716418584,35.62095275792568],[139.6437263916861,35.62361072082838]],[[139.6437263916861,35.62361072082838],[139.64550837941758,35.619976932384475]],[[139.64550837941758,35.619976932384475],[139.64147545981476,35.6183319693293]],[[139.62909533452236,35.62996752721108],[139.62798028956757,35.633378269817]],[[139.6320027881895,35.634242572439206],[139.63351383041797,35.63091547202254]],[[139.63351383041797,35.63091547202254],[139.62909533452236,35.62996752721108]],[[139.67717774032968,35.637699782928046],[139.67440575941404,35.63857337912683]],[[139.6801060359586,35.638582672703414],[139.67717774032968,35.637699782928046]],[[139.6302416424198,35.6263709130735],[139.6266464040142,35.62704005058747]],[[139.6266464040142,35.62704005058747],[139.62459347077967,35.63263478369037]],[[139.62459347077967,35.63263478369037],[139.6245830497988,35.63263478369037]],[[139.6245830497988,35.63263478369037],[139.62798028956757,35.633378269817]],[[139.62909533452236,35.62996752721108],[139.6302416424198,35.6263709130735]],[[139.63784895846646,35.624103280387274],[139.63307614922076,35.625283564613305]],[[139.63307614922076,35.625283564613305],[139.63579602523197,35.62764413306535]],[[139.63579602523197,35.62764413306535],[139.63983936581567,35.630255628085145]],[[139.63983936581567,35.630255628085145],[139.639901891701,35.6302835088149]],[[139.639901891701,35.6302835088149],[139.64212156062968,35.626027050739935]],[[139.64212156062968,35.626027050739935],[139.63784895846646,35.624103280387274]],[[139.667746752628,35.60142695352502],[139.6689243234681,35.6016035314801],[139.668840955621,35.59971693543377]],[[139.6406938862483,35.60683581509627],[139.64024578407023,35.6077930534843]],[[139.64024578407023,35.6077930534843],[139.63831790260633,35.61187293360419]],[[139.6369527541103,35.61486546526388],[139.63848463830053,35.615989988030414]],[[139.63848463830053,35.615989988030414],[139.63933915873315,35.6152372083272]],[[139.63933915873315,35.6152372083272],[139.64123577725437,35.613871052569515]],[[139.64068346526741,35.610952869522485],[139.6424029271136,35.6063804298437]],[[139.62898070373262,35.66308054057591],[139.6271466110967,35.66380543954938],[139.62651093126266,35.66558051267671]],[[139.62651093126266,35.66558051267671],[139.62763639719833,35.66620318230777],[139.62701113834518,35.668192007696504]],[[139.62701113834518,35.668192007696504],[139.62925164923564,35.66785743893952],[139.62912659746502,35.66881467732756]],[[139.62912659746502,35.66881467732756],[139.63269057292797,35.66821988842625]],[[139.63269057292797,35.66821988842625],[139.63241962742495,35.66728123719138],[139.62898070373262,35.66308054057591]],[[139.68023108772925,35.59809985310835],[139.67553122534972,35.59916861441538]],[[139.6753957525982,35.604688998905615],[139.67936614631572,35.60569270517657]],[[139.67936614631572,35.60569270517657],[139.68017898282483,35.60313697161627],[139.68023108772925,35.59809985310835]],[[139.6297935402417,35.662680916782854],[139.63146089718344,35.66418647618928],[139.6333366737429,35.6627645589721],[139.63588981405994,35.66429799910827]],[[139.63588981405994,35.66429799910827],[139.63620244348652,35.660980192268184],[139.63541044893918,35.66006012818647]],[[139.63541044893918,35.66006012818647],[139.63476434812426,35.657318523094524]],[[139.66547497879486,35.66508795311782],[139.66565213546994,35.66598943004636]],[[139.66565213546994,35.66598943004636],[139.66919526897112,35.66563627413621],[139.6731135577842,35.66726265003822]],[[139.6731135577842,35.66726265003822],[139.6737075536947,35.665850026397614]],[[139.66963295016834,35.6629783112335],[139.66547497879486,35.66500431092857]],[[139.64633163690758,35.65406577129051],[139.64540416960872,35.655720027922264]],[[139.64973929765725,35.652755376992324],[139.6491765646894,35.650422689270016]],[[139.62901196667528,35.66307124699933],[139.62898070373262,35.66308054057591]],[[139.63269057292797,35.66821988842625],[139.636066970735,35.66700242989389]],[[139.636066970735,35.66700242989389],[139.63509781951262,35.66582214566787],[139.63588981405994,35.66429799910827]],[[139.65628367365355,35.62868501364264],[139.65656504013748,35.63099911421178]],[[139.65656504013748,35.63099911421178],[139.66120237663168,35.63304370106002]],[[139.66160879488623,35.63194705902323],[139.66216110687319,35.62901028882304]],[[139.63667138762636,35.60318343949919],[139.63301362333544,35.604846989707525]],[[139.63301362333544,35.604846989707525],[139.6374008562884,35.60737484253807],[139.64024578407023,35.6077930534843]],[[139.6437993385523,35.657104770833115],[139.63536876501564,35.6567330277698]],[[139.63536876501564,35.6567330277698],[139.63475392714338,35.65730922951794]],[[139.63541044893918,35.66006012818647],[139.63898484538302,35.659827788771906]],[[139.67094599375994,35.60736554896149],[139.67326987249749,35.60820197085395],[139.67690679482666,35.60816479654762],[139.67936614631572,35.60569270517657]],[[139.65778429490112,35.60600868678039],[139.65321990527312,35.60709603524059]],[[139.65321990527312,35.60709603524059],[139.6547726314251,35.61151048411746]],[[139.65921196928247,35.6106183007655],[139.65778429490112,35.60600868678039]],[[139.63102321598623,35.621361675295326],[139.62851175959275,35.62284864754859]],[[139.62851175959275,35.62284864754859],[139.62658387812886,35.62704005058747]],[[139.62658387812886,35.62704005058747],[139.6266464040142,35.62704005058747]],[[139.6302416424198,35.6263709130735],[139.63307614922076,35.625264977460134]],[[139.63307614922076,35.625264977460134],[139.63102321598623,35.621361675295326]],[[139.60264688503406,35.6494003958459],[139.60028132237298,35.65270890910941]],[[139.60028132237298,35.65270890910941],[139.60267814797672,35.65234645962268]],[[139.60267814797672,35.65234645962268],[139.60878484277583,35.65400071625443]],[[139.60878484277583,35.65400071625443],[139.6084305294257,35.650050946206704]],[[139.6084305294257,35.650050946206704],[139.60264688503406,35.6494003958459]],[[139.63251341625292,35.61110156674781],[139.62957469964311,35.61220750236117],[139.62885565196197,35.61083205302691],[139.62645882635823,35.61191940148711]],[[139.62645882635823,35.61191940148711],[139.62755302935125,35.61486546526388]],[[139.62755302935125,35.61486546526388],[139.62819913016617,35.61743049240076]],[[139.62819913016617,35.61743049240076],[139.62950175277692,35.614149859867],[139.63385772278718,35.61166847491937]],[[139.63301362333544,35.604846989707525],[139.63216952388368,35.60656630137536]],[[139.63216952388368,35.60656630137536],[139.6348164530287,35.60935437435023]],[[139.6369527541103,35.61486546526388],[139.63603570779233,35.6169193456887]],[[139.63603570779233,35.6169193456887],[139.63457677046833,35.61914980406859]],[[139.63457677046833,35.61914980406859],[139.63825537672102,35.62081335427693]],[[139.63825537672102,35.62081335427693],[139.63854716418584,35.62095275792568]],[[139.64147545981476,35.6183319693293],[139.63848463830053,35.615989988030414]],[[139.66004564775335,35.6187130059692],[139.65422031943817,35.617374730941265]],[[139.65422031943817,35.617374730941265],[139.65301148565538,35.617542015319756]],[[139.65301148565538,35.617542015319756],[139.65406400472486,35.62173341835864]],[[139.65406400472486,35.62173341835864],[139.65951417772817,35.623099574116324]],[[139.65980596519296,35.62317392272899],[139.66004564775335,35.6187130059692]],[[139.65063550201342,35.631110637130774],[139.64603984944276,35.63176118749158]],[[139.64603984944276,35.63176118749158],[139.6452791178381,35.633815067916395]],[[139.60267814797672,35.65234645962268],[139.6028969885753,35.65427952355192],[139.6021779408942,35.65756015608568]],[[139.6021779408942,35.65756015608568],[139.60301161936508,35.658331522942056]],[[139.60301161936508,35.658331522942056],[139.6090245253362,35.654818550993724]],[[139.6090245253362,35.654818550993724],[139.60878484277583,35.65400071625443]],[[139.6538139011836,35.63029280239148],[139.6522611750316,35.629790949256005]],[[139.6522611750316,35.629790949256005],[139.64635247886935,35.6277835367141]],[[139.64635247886935,35.6277835367141],[139.64536248568518,35.628889472327465],[139.64516448704833,35.63170542603208]],[[139.64516448704833,35.63170542603208],[139.64603984944276,35.63176118749158]],[[139.59218422022465,35.64997659759404],[139.59203832649226,35.65160297349605],[139.593247160275,35.65214200093785]],[[139.593247160275,35.65214200093785],[139.60028132237298,35.65270890910941]],[[139.60264688503406,35.6494003958459],[139.6015214190984,35.65007882693645],[139.59665482102469,35.64982790036871]],[[139.59665482102469,35.64982790036871],[139.59218422022465,35.64997659759404]],[[139.66004564775335,35.6187130059692],[139.66017069952397,35.61616656598549]],[[139.66017069952397,35.61616656598549],[139.65420989845725,35.61581341007534],[139.65422031943817,35.617374730941265]],[[139.6454979584367,35.60547895291516],[139.6454979584367,35.60546965933858]],[[139.64398691620823,35.609410135809725],[139.64658174044882,35.60785810852038],[139.6454979584367,35.60547895291516]],[[139.6402041001467,35.66627753092043],[139.64132956608236,35.66758792521862],[139.64481017369823,35.667978255435095]],[[139.64481017369823,35.667978255435095],[139.6471965783211,35.66356380655822]],[[139.59998953490816,35.635515792431065],[139.59769691911328,35.63638938862986],[139.59438304719157,35.638740663505324]],[[139.59438304719157,35.638740663505324],[139.59737386870583,35.63963284685728]],[[139.59737386870583,35.63963284685728],[139.60191741637206,35.64098970903839]],[[139.60191741637206,35.64098970903839],[139.60191741637206,35.64097112188522]],[[139.60191741637206,35.64097112188522],[139.60388698175947,35.638387507595176]],[[139.60388698175947,35.638387507595176],[139.60390782372124,35.63836892044201]],[[139.60390782372124,35.63836892044201],[139.60273025288114,35.638220223216685],[139.59998953490816,35.635515792431065]],[[139.63216952388368,35.60656630137536],[139.6309711110818,35.60741201684441],[139.62474978549295,35.609884108215454]],[[139.62474978549295,35.609884108215454],[139.62645882635823,35.61191940148711]],[[139.63145047620256,35.62112933588075],[139.63102321598623,35.621361675295326]],[[139.63307614922076,35.625264977460134],[139.63307614922076,35.625283564613305]],[[139.63784895846646,35.624103280387274],[139.63398277455784,35.62228173937703]],[[139.63398277455784,35.62228173937703],[139.63145047620256,35.62112933588075]],[[139.64800941483017,35.62520921600064],[139.64635247886935,35.6277835367141]],[[139.6522611750316,35.629790949256005],[139.6524800156302,35.627393206497615],[139.6538243221645,35.62557166548737]],[[139.6538243221645,35.62557166548737],[139.64800941483017,35.62520921600064]],[[139.6602853303137,35.6138803461461],[139.66017069952397,35.61616656598549]],[[139.66004564775335,35.6187130059692],[139.66586055508765,35.62006057457372]],[[139.66586055508765,35.62006057457372],[139.66639202511283,35.61858289589704],[139.6647976150373,35.618378437212215],[139.66474551013286,35.616835703499454],[139.66283847063076,35.61386175899293]],[[139.63983936581567,35.630255628085145],[139.63828663966368,35.6329414717176]],[[139.64516448704833,35.63170542603208],[139.639901891701,35.6302835088149]],[[139.6057731792998,35.6330529946366],[139.60644012207652,35.63277418733911]],[[139.60644012207652,35.63277418733911],[139.6060753877455,35.632597609384035]],[[139.6060753877455,35.632597609384035],[139.60343887958138,35.631696132455495],[139.60028132237298,35.63245820573529]],[[139.60028132237298,35.63245820573529],[139.6002709013921,35.63251396719479]],[[139.6002709013921,35.63251396719479],[139.59998953490816,35.635515792431065]],[[139.60390782372124,35.63836892044201],[139.6043767678611,35.63540426951207],[139.6057731792998,35.6330529946366]],[[139.63457677046833,35.61914980406859],[139.63145047620256,35.62112933588075]],[[139.63398277455784,35.62228173937703],[139.63825537672102,35.62081335427693]],[[139.61453722422482,35.6487498454851],[139.60839926648305,35.64966061599022]],[[139.60839926648305,35.64966061599022],[139.6084305294257,35.650050946206704]],[[139.6090245253362,35.654818550993724],[139.6090870512215,35.65479996384056]],[[139.6090870512215,35.65479996384056],[139.61120251034134,35.65380555114619]],[[139.61120251034134,35.65380555114619],[139.61570437408403,35.650116001242786]],[[139.61570437408403,35.650116001242786],[139.61453722422482,35.6487498454851]],[[139.65447042297941,35.639865186271855],[139.65592936030345,35.63734662701789]],[[139.65592936030345,35.63734662701789],[139.65509568183256,35.63686336103558]],[[139.64212156062968,35.626027050739935],[139.6437263916861,35.62361072082838]],[[139.59438304719157,35.638740663505324],[139.59435178424891,35.638749957081906]],[[139.59435178424891,35.638749957081906],[139.5924551657277,35.64467925894179]],[[139.5924551657277,35.64467925894179],[139.59637345454078,35.64519040565385]],[[139.59637345454078,35.64519040565385],[139.59737386870583,35.63963284685728]],[[139.5924551657277,35.64467925894179],[139.59225716709088,35.64598965323998]],[[139.59225716709088,35.64598965323998],[139.59218422022465,35.64997659759404]],[[139.59665482102469,35.64982790036871],[139.59637345454078,35.64519040565385]],[[139.65215696522276,35.664957843045656],[139.65056255514722,35.667876026092685],[139.65017697885443,35.67008789731941]],[[139.65017697885443,35.67008789731941],[139.65660672406102,35.67125888796886]],[[139.65660672406102,35.67125888796886],[139.65615862188292,35.66790390682244]],[[139.59366399951045,35.63522769155699],[139.59154854039062,35.63791353518945]],[[139.59154854039062,35.63791353518945],[139.59152769842885,35.63793212234261]],[[139.59152769842885,35.63793212234261],[139.59435178424891,35.638749957081906]],[[139.6002709013921,35.63251396719479],[139.59366399951045,35.63522769155699]],[[139.64923909057472,35.615887758688004],[139.64620658513692,35.616835703499454]],[[139.64620658513692,35.616835703499454],[139.64550837941758,35.619976932384475]],[[139.64550837941758,35.619976932384475],[139.65163591617846,35.62122227164658]],[[139.65163591617846,35.62122227164658],[139.65406400472486,35.62173341835864]],[[139.65301148565538,35.617542015319756],[139.65127118184745,35.617792941887494],[139.64923909057472,35.615887758688004]],[[139.6018027855823,35.64611046973556],[139.60264688503406,35.6494003958459]],[[139.60839926648305,35.64966061599022],[139.60847221334924,35.64711417600651]],[[139.60847221334924,35.64711417600651],[139.60854516021544,35.64647291922229]],[[139.60854516021544,35.64647291922229],[139.60353266840937,35.64672384579003],[139.6018027855823,35.64611046973556]],[[139.59640471748344,35.624846766513905],[139.59637345454078,35.624846766513905]],[[139.59637345454078,35.624846766513905],[139.5931116875235,35.62552519760446]],[[139.5931116875235,35.62552519760446],[139.5941537856121,35.627067931317214],[139.59218422022465,35.627504729416614],[139.5928094790778,35.62959578414776],[139.59117338507875,35.63098982063519],[139.5914964354862,35.63289500383469]],[[139.5914964354862,35.63289500383469],[139.5978219708839,35.628350444885655]],[[139.5978219708839,35.628350444885655],[139.5993017501697,35.627411793650786]],[[139.5993017501697,35.627411793650786],[139.59640471748344,35.624846766513905]],[[139.6129219721875,35.654019303407594],[139.61172355938564,35.65900995403261]],[[139.61172355938564,35.65900995403261],[139.6148498536514,35.65929805490668]],[[139.6148498536514,35.65929805490668],[139.61487069561318,35.65929805490668]],[[139.61487069561318,35.65929805490668],[139.6155167964281,35.65554344996719]],[[139.6155167964281,35.65554344996719],[139.61577732095023,35.65448398223674]],[[139.61577732095023,35.65448398223674],[139.6129219721875,35.654019303407594]],[[139.63536876501564,35.6567330277698],[139.63751548707813,35.65502300967855],[139.63755717100167,35.653972835524684],[139.6413816709868,35.6535825053082]],[[139.60301161936508,35.658331522942056],[139.6090870512215,35.658805495347785]],[[139.6090870512215,35.658805495347785],[139.60910789318328,35.65876832104146]],[[139.60910789318328,35.65876832104146],[139.6090870512215,35.65479996384056]],[[139.62144633455213,35.653117826479054],[139.6162358441092,35.65257879903725]],[[139.6162358441092,35.65257879903725],[139.61577732095023,35.65448398223674]],[[139.6155167964281,35.65554344996719],[139.62216538223328,35.656779495652714]],[[139.62216538223328,35.656779495652714],[139.62366600348082,35.65617541317483]],[[139.62366600348082,35.65617541317483],[139.62319705934095,35.65554344996719]],[[139.62319705934095,35.65554344996719],[139.62144633455213,35.653117826479054]],[[139.6018027855823,35.64611046973556],[139.6018027855823,35.646073295429225]],[[139.6018027855823,35.646073295429225],[139.59637345454078,35.64519040565385]],[[139.58649436466098,35.63644515008935],[139.58423301180875,35.641203461299796],[139.58587952678872,35.64200270888592],[139.58727593822744,35.64426104799556]],[[139.58727593822744,35.64426104799556],[139.59152769842885,35.63793212234261]],[[139.59154854039062,35.63791353518945],[139.58649436466098,35.63644515008935]],[[139.62474978549295,35.609884108215454],[139.6228740089335,35.61146401623454]],[[139.6228740089335,35.61146401623454],[139.6239161070221,35.61278370410931],[139.62266558931577,35.613434254470114],[139.6191954026808,35.61748625386026]],[[139.6191954026808,35.61748625386026],[139.61973729368685,35.61792305195965]],[[139.61973729368685,35.61792305195965],[139.62040423646354,35.61805316203181],[139.62755302935125,35.61486546526388]],[[139.59637345454078,35.624846766513905],[139.59475820250347,35.62340626214356],[139.59250727063213,35.61752342816659]],[[139.59250727063213,35.61752342816659],[139.59000623521953,35.618536428014124],[139.5892142406722,35.621408143178236],[139.5898603414871,35.624688775711995],[139.5913505417538,35.62366648228788],[139.5931116875235,35.62552519760446]],[[139.61723625827426,35.64889854271043],[139.6172049953316,35.64891712986359]],[[139.6172049953316,35.64891712986359],[139.6162358441092,35.65257879903725]],[[139.62144633455213,35.653117826479054],[139.61774688633767,35.64860114825977]],[[139.62216538223328,35.656779495652714],[139.61871603756003,35.65942816497884]],[[139.61871603756003,35.65942816497884],[139.62038339450177,35.659446752132006]],[[139.62038339450177,35.659446752132006],[139.62448926097082,35.659558275051],[139.6247914694165,35.66011588964597]],[[139.6247914694165,35.66011588964597],[139.6256772527918,35.658861256807285]],[[139.6256772527918,35.658861256807285],[139.62366600348082,35.65617541317483]],[[139.61379733458193,35.64706770812359],[139.60847221334924,35.64711417600651]],[[139.61453722422482,35.6487498454851],[139.61379733458193,35.64706770812359]],[[139.66480803601817,35.65985566950165],[139.66588139704942,35.661825907737224]],[[139.66909105916227,35.66065491708778],[139.66843453736647,35.65895419257311]],[[139.61506869425,35.62303451908024],[139.6130053400346,35.624363500531594]],[[139.6130053400346,35.624363500531594],[139.61297407709193,35.624363500531594]],[[139.61297407709193,35.624363500531594],[139.61127545720754,35.62784859175018]],[[139.61127545720754,35.62784859175018],[139.6144121724542,35.62849914211098]],[[139.6144121724542,35.62849914211098],[139.6166839462873,35.62838761919199]],[[139.6166839462873,35.62838761919199],[139.61854930186587,35.62489323439682]],[[139.61854930186587,35.62489323439682],[139.61506869425,35.62303451908024]],[[139.62092528550784,35.61887099677111],[139.61973729368685,35.61792305195965]],[[139.6191954026808,35.61748625386026],[139.61350554711711,35.619502959978746]],[[139.61350554711711,35.619502959978746],[139.6124009231432,35.62025573968196]],[[139.6124009231432,35.62025573968196],[139.6130053400346,35.624363500531594]],[[139.61506869425,35.62303451908024],[139.61583984683554,35.62116651018708],[139.62092528550784,35.61887099677111]],[[139.60368898312265,35.61665912554438],[139.59881196406806,35.61856430874387],[139.59616503492305,35.61840631794196]],[[139.59616503492305,35.61840631794196],[139.59914543545642,35.62261630813401],[139.60076068749373,35.62395458316195]],[[139.60076068749373,35.62395458316195],[139.60454350355528,35.62308098696316]],[[139.60454350355528,35.62308098696316],[139.6031366711357,35.620079161726885],[139.60368898312265,35.61665912554438]],[[139.6229573767806,35.622356087989694],[139.62238422283187,35.621398849601654]],[[139.62238422283187,35.621398849601654],[139.6197060307442,35.6232761520714],[139.61854930186587,35.62489323439682]],[[139.6166839462873,35.62838761919199],[139.6231657963983,35.62752331656978]],[[139.6231657963983,35.62752331656978],[139.62239464381275,35.62594340855069],[139.6229573767806,35.622356087989694]],[[139.6109419858192,35.63151026092384],[139.61055640952642,35.63443773754745]],[[139.61055640952642,35.63443773754745],[139.61058767246908,35.6344656182772]],[[139.61058767246908,35.6344656182772],[139.61511037817354,35.635041820025336]],[[139.61511037817354,35.635041820025336],[139.61605868743416,35.635116168638]],[[139.61605868743416,35.635116168638],[139.61567311114138,35.63276489376253]],[[139.61567311114138,35.63276489376253],[139.6109419858192,35.63151026092384]],[[139.6088056847376,35.642987828003704],[139.60854516021544,35.64647291922229]],[[139.61379733458193,35.64706770812359],[139.61366186183042,35.64431680945506]],[[139.61366186183042,35.64431680945506],[139.6088056847376,35.642987828003704]],[[139.61369312477308,35.61444725431765],[139.61208829371665,35.61591563941775],[139.60924336593482,35.61637102467031]],[[139.60924336593482,35.61637102467031],[139.60847221334924,35.6200698681503],[139.60982694086442,35.62164048259281]],[[139.60982694086442,35.62164048259281],[139.6124009231432,35.62025573968196]],[[139.61350554711711,35.619502959978746],[139.61369312477308,35.61444725431765]],[[139.6245830497988,35.63263478369037],[139.62166517515075,35.63651020512543]],[[139.62166517515075,35.63651020512543],[139.6212483359153,35.63707711329699]],[[139.60729464250915,35.62376871163029],[139.60889947356557,35.62212374857512]],[[139.60889947356557,35.62212374857512],[139.60454350355528,35.62308098696316]],[[139.60076068749373,35.62395458316195],[139.60587738910868,35.62592482139752]],[[139.60587738910868,35.62592482139752],[139.60729464250915,35.62376871163029]],[[139.60910789318328,35.65876832104146],[139.61172355938564,35.65900995403261]],[[139.6129219721875,35.654019303407594],[139.61120251034134,35.65380555114619]],[[139.60982694086442,35.62164048259281],[139.60889947356557,35.62212374857512]],[[139.60729464250915,35.62376871163029],[139.60913915612593,35.624948995856315],[139.61297407709193,35.624363500531594]],[[139.61487069561318,35.65929805490668],[139.61871603756003,35.65942816497884]],[[139.60076068749373,35.62395458316195],[139.59640471748344,35.624846766513905]],[[139.5993017501697,35.627411793650786],[139.6057731792998,35.62636161949692]],[[139.6057731792998,35.62636161949692],[139.60587738910868,35.62594340855069]],[[139.60587738910868,35.62594340855069],[139.60587738910868,35.62592482139752]],[[139.61642342176515,35.64046926874975],[139.61546469152367,35.64467925894179],[139.61459975011013,35.64443762595064]],[[139.61459975011013,35.64443762595064],[139.6147664858043,35.64466996536521]],[[139.6147664858043,35.64466996536521],[139.61811162066866,35.64560861660008]],[[139.61931003347055,35.64072948889407],[139.61642342176515,35.64046926874975]],[[139.66566255645083,35.63624069140453],[139.66822611774873,35.63975366335286]],[[139.6722381953898,35.63894512219015],[139.67216524852358,35.63772766365779],[139.66879927169745,35.636798305999505],[139.66880969267834,35.63439126966453]],[[139.65406400472486,35.62173341835864],[139.6556584148004,35.62559954621712]],[[139.6556584148004,35.62559954621712],[139.65606483305496,35.627504729416614]],[[139.66941410956971,35.59963329324452],[139.67158167359398,35.59954965105528]],[[139.67315524170775,35.59947530244262],[139.67861583569194,35.59336942262766]],[[139.67861583569194,35.59336942262766],[139.6759793275278,35.59173375314907],[139.67373881663735,35.59505155998916],[139.6698622117478,35.599224375874876]],[[139.65660672406102,35.67125888796886],[139.66071259053004,35.67258786942021]],[[139.66071259053004,35.67258786942021],[139.6617025837142,35.670060016589666],[139.66106690388017,35.66769944813761]],[[139.66106690388017,35.66769944813761],[139.66038954012257,35.667355585804046]],[[139.636066970735,35.66700242989389],[139.6389952663639,35.66590578785711]],[[139.6149957473838,35.6376161407388],[139.6122758713726,35.639818718388945],[139.6110253536663,35.6396235532807]],[[139.6110253536663,35.6396235532807],[139.61100451170452,35.63963284685728]],[[139.61100451170452,35.63963284685728],[139.61459975011013,35.64443762595064]],[[139.61642342176515,35.64046926874975],[139.6149957473838,35.6376161407388]],[[139.61058767246908,35.6344656182772],[139.6110253536663,35.6396235532807]],[[139.6149957473838,35.6376161407388],[139.61511037817354,35.635041820025336]],[[139.66041038208436,35.65107323963082],[139.66003522677246,35.65515311975071]],[[139.65204233443302,35.60375964124733],[139.6454979584367,35.60547895291516]],[[139.64893688212902,35.60807186078179],[139.65321990527312,35.60709603524059]],[[139.65321990527312,35.60709603524059],[139.65204233443302,35.60375964124733]],[[139.61570437408403,35.650116001242786],[139.6172049953316,35.64891712986359]],[[139.6147664858043,35.64466996536521],[139.61366186183042,35.64431680945506]],[[139.6043142419758,35.628889472327465],[139.60039595316272,35.63119427932002]],[[139.60039595316272,35.63119427932002],[139.60028132237298,35.63245820573529]],[[139.6060753877455,35.632597609384035],[139.60740927329888,35.63035785742756],[139.60514792044665,35.63013481158957],[139.6043142419758,35.628889472327465]],[[139.63479561106692,35.63805293883819],[139.63316993804872,35.63982801196553]],[[139.62529167649902,35.649363221539566],[139.62144633455213,35.653117826479054]],[[139.62319705934095,35.65554344996719],[139.62489567922535,35.65508806471463],[139.6267818767657,35.65155650561313]],[[139.68023108772925,35.59809985310835],[139.6807938206971,35.594828514151175],[139.67861583569194,35.59336942262766]],[[139.67457249510824,35.65598954164317],[139.67040410275388,35.656621504850804],[139.66829906461496,35.65761591754518]],[[139.6320027881895,35.634242572439206],[139.6339098276916,35.63464219623227],[139.63642128408512,35.63640797578302]],[[139.63828663966368,35.6329414717176],[139.6374633821737,35.63128721508585],[139.63351383041797,35.63091547202254]],[[139.6556584148004,35.62559954621712],[139.6538243221645,35.62557166548737]],[[139.6068152773884,35.63416822382654],[139.6057731792998,35.6330529946366]],[[139.60388698175947,35.638387507595176],[139.60636717521032,35.6390287643794],[139.6076385348784,35.637383801324226]],[[139.6076385348784,35.637383801324226],[139.60817000490357,35.63595259053046],[139.6068152773884,35.63416822382654]],[[139.6716337784984,35.634939590682926],[139.67431197058607,35.63839680117176]],[[139.67717774032968,35.637699782928046],[139.6751769119996,35.634196104556295],[139.67757373760335,35.63280206806886]],[[139.68230486292552,35.637486030666636],[139.67911604277447,35.634298333898705]],[[139.63933915873315,35.6152372083272],[139.64018325818492,35.61586917153483],[139.64627953200312,35.616203740291816],[139.64620658513692,35.616835703499454]],[[139.64923909057472,35.615887758688004],[139.64840541210384,35.614196327749916]],[[139.65592936030345,35.63734662701789],[139.65829492296453,35.63840609474834]],[[139.65463715867358,35.65244868896509],[139.6541056886484,35.65234645962268]],[[139.63579602523197,35.62764413306535],[139.63351383041797,35.63091547202254]],[[139.6228740089335,35.61146401623454],[139.61836172420993,35.61369447461444],[139.61567311114138,35.61325767651504],[139.61369312477308,35.61444725431765]],[[139.62819913016617,35.61743049240076],[139.62835544487947,35.617690712545084]],[[139.62835544487947,35.617690712545084],[139.63430582496528,35.616361731093725],[139.63603570779233,35.6169193456887]],[[139.6860147321209,35.63961425970412],[139.68620230977683,35.637960003072365],[139.68288843785513,35.63248608646504]],[[139.66077511641535,35.665868613550785],[139.66106690388017,35.66769944813761]],[[139.66071259053004,35.67258786942021],[139.66168174175243,35.67155628241951],[139.6660585537245,35.67158416314926]],[[139.6661210796098,35.668833264480725],[139.66565213546994,35.66598943004636]],[[139.65301148565538,35.617542015319756],[139.65254254151554,35.61182646572128]],[[139.62658387812886,35.62704005058747],[139.6231657963983,35.62752331656978]],[[139.6144121724542,35.62849914211098],[139.61567311114138,35.63276489376253]],[[139.61567311114138,35.63276489376253],[139.61992487134282,35.63324815974484],[139.6208731806034,35.63213293055489],[139.62459347077967,35.63263478369037]],[[139.62701113834518,35.668192007696504],[139.6213212827815,35.669056310318716]],[[139.6213212827815,35.669056310318716],[139.61652763157403,35.669678979949765]],[[139.61652763157403,35.669678979949765],[139.6164755266696,35.66991131936434]],[[139.6164755266696,35.66991131936434],[139.6164859476505,35.6715098145366]],[[139.6164859476505,35.6715098145366],[139.62312411247476,35.67060833760806]],[[139.62312411247476,35.67060833760806],[139.6248644162827,35.669251475426954],[139.62912659746502,35.66881467732756]],[[139.65243833170666,35.61108297959465],[139.6536784284321,35.61190081433394]],[[139.64481017369823,35.667978255435095],[139.65017697885443,35.67008789731941]],[[139.65663798700368,35.60229125614723],[139.65653377719482,35.6023098433004]],[[139.65653377719482,35.6023098433004],[139.65204233443302,35.60375964124733]],[[139.66350541340745,35.60976329171988],[139.66330741477063,35.60851795245777],[139.66698602102332,35.60674287933044]],[[139.62651093126266,35.66558051267671],[139.62285316697174,35.664948549469074]],[[139.62285316697174,35.664948549469074],[139.6215401233801,35.666509870335],[139.6213212827815,35.669056310318716]],[[139.66555834664197,35.62205869353904],[139.66586055508765,35.62006057457372]],[[139.66027490933283,35.66274597181893],[139.66024364639017,35.66255080671069]],[[139.65018739983532,35.599754109740104],[139.65204233443302,35.60375964124733]],[[139.65653377719482,35.6023098433004],[139.6544808439603,35.59868534843307]],[[139.64635247886935,35.6277835367141],[139.64212156062968,35.626027050739935]],[[139.65804481942325,35.59909426580272],[139.6555958889151,35.59645489005318],[139.65362632352765,35.597272724792475]],[[139.6018027855823,35.646073295429225],[139.6025530962061,35.64472572682471],[139.60191741637206,35.64098970903839]],[[139.62092528550784,35.61887099677111],[139.62204033046262,35.62051595982628]],[[139.62204033046262,35.62051595982628],[139.62448926097082,35.61882452888819],[139.62819913016617,35.61743049240076]],[[139.6728426122812,35.66849869572374],[139.6731135577842,35.66726265003822]],[[139.5978219708839,35.628350444885655],[139.59859312346947,35.63091547202254],[139.60039595316272,35.63119427932002]],[[139.6043142419758,35.628889472327465],[139.6057731792998,35.62636161949692]],[[139.61415164793203,35.66329429283732],[139.6136722828113,35.666296118073596]],[[139.6136722828113,35.666296118073596],[139.61347428417446,35.67048752111248]],[[139.61347428417446,35.67048752111248],[139.6147873277661,35.669158539661126],[139.6164755266696,35.66991131936434]],[[139.61652763157403,35.669678979949765],[139.61988318741928,35.66433517341461]],[[139.61988318741928,35.66433517341461],[139.61825751440108,35.663312879990485]],[[139.61825751440108,35.663312879990485],[139.61415164793203,35.66329429283732]],[[139.62285316697174,35.664948549469074],[139.6226760102967,35.66283890758476]],[[139.6226760102967,35.66283890758476],[139.61988318741928,35.66433517341461]],[[139.62835544487947,35.617690712545084],[139.63102321598623,35.621361675295326]],[[139.6148498536514,35.65929805490668],[139.61415164793203,35.66329429283732]],[[139.61825751440108,35.663312879990485],[139.62038339450177,35.659446752132006]],[[139.59789491775012,35.6571140644097],[139.5985097556224,35.660125183222554],[139.59583156353472,35.66275526539551]],[[139.59583156353472,35.66275526539551],[139.59542514528016,35.663898375315206],[139.59698829241304,35.66452104494626]],[[139.59698829241304,35.66452104494626],[139.59957269567272,35.66293184335059],[139.60260520111052,35.65927017417693]],[[139.60260520111052,35.65927017417693],[139.60301161936508,35.658331522942056]],[[139.6021779408942,35.65756015608568],[139.59789491775012,35.6571140644097]],[[139.62851175959275,35.62284864754859],[139.6278239748543,35.622040106385874],[139.6229573767806,35.622356087989694]],[[139.58969360579295,35.65871255958196],[139.59498746408295,35.657588036815426]],[[139.59498746408295,35.657588036815426],[139.5965818741585,35.657104770833115]],[[139.5965818741585,35.657104770833115],[139.59526883056688,35.655840844417845],[139.5924447447468,35.6553761655887]],[[139.5924447447468,35.6553761655887],[139.5911317011552,35.65521817478679],[139.58969360579295,35.65871255958196]],[[139.60191741637206,35.64097112188522],[139.60878484277583,35.642987828003704]],[[139.60878484277583,35.642987828003704],[139.60803453215206,35.64031127794784]],[[139.60803453215206,35.64031127794784],[139.6076385348784,35.637383801324226]],[[139.58727593822744,35.64426104799556],[139.58825551043068,35.64594318535707],[139.5895164491179,35.64505100200511],[139.59225716709088,35.64598965323998]],[[139.593247160275,35.65214200093785],[139.5924447447468,35.6553761655887]],[[139.5965818741585,35.657104770833115],[139.59789491775012,35.6571140644097]],[[139.59789491775012,35.6571140644097],[139.60028132237298,35.65270890910941]],[[139.6088056847376,35.642987828003704],[139.60878484277583,35.642987828003704]],[[139.62204033046262,35.62051595982628],[139.62238422283187,35.621398849601654]],[[139.60644012207652,35.63277418733911],[139.60860768610078,35.63125004077952]],[[139.60860768610078,35.63125004077952],[139.6093267337819,35.62901958239962],[139.61127545720754,35.62784859175018]],[[139.61127545720754,35.62784859175018],[139.60827421471242,35.62638020665008],[139.60587738910868,35.62594340855069]],[[139.64800941483017,35.62520921600064],[139.6437263916861,35.62361072082838]],[[139.6090870512215,35.658805495347785],[139.6072633795665,35.66281102685501]],[[139.6072633795665,35.66281102685501],[139.609316312801,35.662522925980944],[139.61415164793203,35.66329429283732]],[[139.65163591617846,35.62122227164658],[139.64800941483017,35.62520921600064]],[[139.590964965461,35.63352696704233],[139.58754688373045,35.635134755791164],[139.58649436466098,35.63644515008935]],[[139.59366399951045,35.63522769155699],[139.590964965461,35.63352696704233]],[[139.62166517515075,35.63651020512543],[139.6198623454575,35.6345213797367],[139.61605868743416,35.635116168638]],[[139.5872967801892,35.66312700845883],[139.5895789750032,35.66396343035129]],[[139.5895789750032,35.66396343035129],[139.59542514528016,35.662950430503756]],[[139.59542514528016,35.662950430503756],[139.59592535236268,35.6617329719714],[139.59478946544613,35.660385403366874]],[[139.59478946544613,35.660385403366874],[139.59051686328291,35.66174226554798],[139.59012086600927,35.66122182525934]],[[139.59012086600927,35.66122182525934],[139.5872967801892,35.66312700845883]],[[139.60260520111052,35.65927017417693],[139.60303246132685,35.66285749473793]],[[139.60303246132685,35.66285749473793],[139.6072633795665,35.66281102685501]],[[139.61100451170452,35.63963284685728],[139.60803453215206,35.64031127794784]],[[139.60860768610078,35.63125004077952],[139.6109419858192,35.63151026092384]],[[139.60303246132685,35.66285749473793],[139.6015839449837,35.664809145820335]],[[139.6015839449837,35.664809145820335],[139.60457476649793,35.665329586108975]],[[139.60457476649793,35.665329586108975],[139.60778442861078,35.66436305414435]],[[139.60778442861078,35.66436305414435],[139.6072633795665,35.66281102685501]],[[139.60924336593482,35.61637102467031],[139.60568981145272,35.61558107066077],[139.60368898312265,35.61665912554438]],[[139.59583156353472,35.66275526539551],[139.59542514528016,35.662950430503756]],[[139.5895789750032,35.66396343035129],[139.59668608396734,35.666491283181834]],[[139.59668608396734,35.666491283181834],[139.5967069259291,35.66646340245209]],[[139.5967069259291,35.66646340245209],[139.59698829241304,35.66452104494626]],[[139.6136722828113,35.666296118073596],[139.6082116888271,35.66690949412806]],[[139.6082116888271,35.66690949412806],[139.60922252397305,35.67022730096816]],[[139.60922252397305,35.67022730096816],[139.61347428417446,35.67048752111248]],[[139.5901729709137,35.666389053839424],[139.58831803631602,35.67075703483338]],[[139.58831803631602,35.67075703483338],[139.58891203222652,35.672913144600614],[139.58814087964095,35.67394473160131]],[[139.58814087964095,35.67394473160131],[139.59000623521953,35.67203025482524],[139.5928303210396,35.67156557599609],[139.5939453659944,35.66874962229148]],[[139.5939453659944,35.66874962229148],[139.5901729709137,35.666389053839424]],[[139.60598159891754,35.669799796445346],[139.603199197021,35.67192802548283],[139.60324088094455,35.67272727306896]],[[139.60324088094455,35.67272727306896],[139.60399119156833,35.67283879598795]],[[139.60399119156833,35.67283879598795],[139.6090245253362,35.67273656664554]],[[139.6090245253362,35.67273656664554],[139.6090870512215,35.67066409906755]],[[139.6090870512215,35.67066409906755],[139.60598159891754,35.669799796445346]],[[139.59616503492305,35.61840631794196],[139.59250727063213,35.61752342816659]],[[139.60778442861078,35.66436305414435],[139.6082116888271,35.66690949412806]],[[139.5946644136755,35.67519007086342],[139.59279905809692,35.67480903422352]],[[139.59279905809692,35.67480903422352],[139.59277821613514,35.67480903422352]],[[139.59277821613514,35.67480903422352],[139.59007918208573,35.67892608864974],[139.5883076153351,35.680124960028934]],[[139.5883076153351,35.680124960028934],[139.58530637284,35.68222530833667],[139.59196537962606,35.68174204235436]],[[139.59196537962606,35.68174204235436],[139.5946644136755,35.67519007086342]],[[139.6247914694165,35.66011588964597],[139.6226760102967,35.66283890758476]],[[139.60008332373613,35.67218824562715],[139.60025005943032,35.673823915105736],[139.5981346003105,35.67643541012553]],[[139.5981346003105,35.67643541012553],[139.59814502129137,35.67644470370211]],[[139.59814502129137,35.67644470370211],[139.59970816842426,35.67757852004522]],[[139.59970816842426,35.67757852004522],[139.60199036323826,35.679446528938385]],[[139.60199036323826,35.679446528938385],[139.6022404667795,35.67718818982874],[139.60383487685505,35.675515346043824],[139.60399119156833,35.67283879598795]],[[139.60324088094455,35.67272727306896],[139.60008332373613,35.67218824562715]],[[139.61055640952642,35.63443773754745],[139.6068152773884,35.63416822382654]],[[139.58814087964095,35.67394473160131],[139.5877553033482,35.6741677774393]],[[139.5877553033482,35.6741677774393],[139.58790119708058,35.67432576824121]],[[139.58790119708058,35.67432576824121],[139.59277821613514,35.67480903422352]],[[139.59279905809692,35.67480903422352],[139.59403915482235,35.6731919518981],[139.59751976243822,35.670961493518206]],[[139.59751976243822,35.670961493518206],[139.5939453659944,35.66874962229148]],[[139.5967069259291,35.66646340245209],[139.59927048722705,35.66741134726354]],[[139.59927048722705,35.66741134726354],[139.6015839449837,35.664809145820335]],[[139.59970816842426,35.67757852004522],[139.59803039050163,35.68043164805617],[139.59816586325314,35.68198367534551]],[[139.59816586325314,35.68198367534551],[139.60356393135203,35.68009707929919]],[[139.60356393135203,35.68009707929919],[139.60199036323826,35.679446528938385]],[[139.58831803631602,35.67075703483338],[139.58239891917285,35.67332206197026],[139.58269070663766,35.67443729116021],[139.5877553033482,35.6741677774393]],[[139.60388698175947,35.669056310318716],[139.6014380512513,35.66818271411992]],[[139.6014380512513,35.66818271411992],[139.60008332373613,35.67218824562715]],[[139.60598159891754,35.669799796445346],[139.60388698175947,35.669056310318716]],[[139.5946644136755,35.67519007086342],[139.5981346003105,35.67643541012553]],[[139.60008332373613,35.67218824562715],[139.59751976243822,35.670961493518206]],[[139.5914964354862,35.63289500383469],[139.590964965461,35.63352696704233]],[[139.58790119708058,35.67432576824121],[139.58652562760363,35.677002318297085],[139.58856813985727,35.67888891434341],[139.5883076153351,35.680124960028934]],[[139.60356393135203,35.68009707929919],[139.60848263433013,35.676426116548946],[139.6090245253362,35.67273656664554]],[[139.59498746408295,35.657588036815426],[139.59478946544613,35.660385403366874]],[[139.6164859476505,35.6715098145366],[139.6166839462873,35.67255069511388],[139.61335965338472,35.672820208834786],[139.61022293813807,35.676519052314774],[139.62114412610646,35.672801621681614],[139.62312411247476,35.67060833760806]],[[139.58969360579295,35.65871255958196],[139.59012086600927,35.66122182525934]],[[139.59196537962606,35.68174204235436],[139.58740098999806,35.682253189066415],[139.58637973387124,35.6829687944633],[139.5932575812559,35.68190003315627]],[[139.5932575812559,35.68190003315627],[139.59423715345918,35.67990191419094],[139.59814502129137,35.67644470370211]],[[139.5872967801892,35.66312700845883],[139.586859098992,35.66422365049561],[139.5901729709137,35.666389053839424]],[[139.5939453659944,35.66874962229148],[139.59583156353472,35.66795966828193],[139.59668608396734,35.666491283181834]],[[139.59927048722705,35.66741134726354],[139.6014380512513,35.66818271411992]],[[139.60388698175947,35.669056310318716],[139.60530423515996,35.665757090631786],[139.60457476649793,35.665329586108975]],[[139.5932575812559,35.68190003315627],[139.5945080989622,35.68233683125566],[139.59816586325314,35.68198367534551]],[[139.6090870512215,35.67066409906755],[139.60922252397305,35.67022730096816]]]}