{"type":"Topology","bbox":[139.68896580575446,35.73171460636929,139.77087311345687,35.79856681903177],"objects":{"town":{"type":"GeometryCollection","geometries":[{"type":"MultiPolygon","arcs":[[[-125,149,-118,150,151,-106,92,93,-69,94,-18,14,-17,6,7,8,9,10,0,1,2,3,4,19,20,21,11,22]]],"properties":{"name":"王子"}},{"type":"MultiPolygon","arcs":[[[118,57,81,134,71,120,121,122,-8,-7,16,-15,17,-95,68,-94,-93,105,106]]],"properties":{"name":"豊島"}},{"type":"MultiPolygon","arcs":[[[-43,95,25,26,27,28,-21,-20,-5]]],"properties":{"name":"岸町"}},{"type":"MultiPolygon","arcs":[[[-9,-123,-122,183,31,184,-177,136,137,-10]]],"properties":{"name":"堀船"}},{"type":"MultiPolygon","arcs":[[[160,-151,-117,-154,38,32,33,34,35,108,109,110]]],"properties":{"name":"神谷"}},{"type":"MultiPolygon","arcs":[[[-52,-51,-91,-96,42,-4,43,39,74]]],"properties":{"name":"王子本町"}},{"type":"MultiPolygon","arcs":[[[47,48,49,50,51,44,45,52,53,54]]],"properties":{"name":"十条台"}},{"type":"MultiPolygon","arcs":[[[-50,88,165,166,128,-88,59,60,61,62,63,64,65,66,129,-115,-114,167,-27,-26,90]]],"properties":{"name":"中十条"}},{"type":"MultiPolygon","arcs":[[[145,146,-231,-172,239,-101,247,131,191]]],"properties":{"name":"田端"}},{"type":"MultiPolygon","arcs":[[[-99,83,84,85,-321,126,127,-61,-60,87,-129,-167,-305,-162]]],"properties":{"name":"十条仲原"}},{"type":"MultiPolygon","arcs":[[[-85,-84,98,161,304,-166,-89,-49,-48,-55,-54,96,207,208,-200,-199,-314,-127,320,-86]]],"properties":{"name":"上十条"}},{"type":"MultiPolygon","arcs":[[[102,103,104,100,-240,254,255,-193,256]]],"properties":{"name":"東田端"}},{"type":"MultiPolygon","arcs":[[[-22,-29,-28,-168,113,114,-130,-67,-66,-65,185,-34,-33,-39,153,116,117,-150,124,-23,-12]]],"properties":{"name":"東十条"}},{"type":"MultiPolygon","arcs":[[[273,140,-286,-1,-261,-269,-322,189,-169,190,187,143,274]]],"properties":{"name":"西ヶ原"}},{"type":"MultiPolygon","arcs":[[[-44,-3,-2,285,-141,-274,284,266,286,325,155,324,288,276,-45,-75,-40]]],"properties":{"name":"滝野川"}},{"type":"MultiPolygon","arcs":[[[157,241,242,243,-219,244,-224,-223,-222,295,163]]],"properties":{"name":"浮間"}},{"type":"MultiPolygon","arcs":[[[228,231,-191,168,169,170,171,230,-147]]],"properties":{"name":"中里"}},{"type":"MultiPolygon","arcs":[[[-190,321,268,-262,175,-137,176,177,178,269,-180,270,271,-255,-171,-170]]],"properties":{"name":"上中里"}},{"type":"MultiPolygon","arcs":[[[181,326,-271,179,-270,-179,322]]],"properties":{"name":"昭和町"}},{"type":"MultiPolygon","arcs":[[[-104,-103,-257,192,193,323,233]]],"properties":{"name":"田端新町"}},{"type":"MultiPolygon","arcs":[[[297,-201,298,197,198,199,-209,308,309,310]]],"properties":{"name":"西が丘"}},{"type":"MultiPolygon","arcs":[[[317,-284,-283,312,-290,202,203,210,211,212,214,-63,-62,-128,313,-198,-299,200,-298,-311,-310]]],"properties":{"name":"赤羽西"}},{"type":"MultiPolygon","arcs":[[[314,-293,-213,315,216,217,218,219,-306,-308,-251,319]]],"properties":{"name":"赤羽"}},{"type":"MultiPolygon","arcs":[[[275,225,-304,-300,-280,318,227,221,222,223,-245,-218]]],"properties":{"name":"赤羽北"}},{"type":"MultiPolygon","arcs":[[[249,250,251,-307,-243,328,238,-110,-109,-36,-295,327]]],"properties":{"name":"志茂"}},{"type":"MultiPolygon","arcs":[[[289,-313,-282,-302,-301,303,-226,-276,-217,-316,-212,-211,-204,-203]]],"properties":{"name":"赤羽台"}},{"type":"Polygon","arcs":[[260,-11,-138,-176,261]],"properties":{"name":"栄町"}},{"type":"MultiPolygon","arcs":[[[281,282,283,278,279,299,300,301]]],"properties":{"name":"桐ヶ丘"}},{"type":"MultiPolygon","arcs":[[[294,-35,-186,-64,-215,292,-315,-320,-250,-328]]],"properties":{"name":"赤羽南"}},{"type":"Polygon","arcs":[[305,-220,-244,306,-252,307]],"properties":{"name":"岩淵町"}}]}},"arcs":[[[139.73969607444144,35.75073596300743],[139.7388769194489,35.748970888085644]],[[139.7388769194489,35.748970888085644],[139.7373532911628,35.75079613601613]],[[139.7373532911628,35.75079613601613],[139.73590338682604,35.752347262462536]],[[139.73590338682604,35.752347262462536],[139.73648498687075,35.753055966787194]],[[139.73648498687075,35.753055966787194],[139.73714031086476,35.753156255135025],[139.7348794430854,35.7560713031119]],[[139.7348794430854,35.7560713031119],[139.73865574760092,35.75610473256118]],[[139.73865574760092,35.75610473256118],[139.74149002387506,35.756098046671326]],[[139.74149002387506,35.756098046671326],[139.74244843521632,35.756699776758296]],[[139.74244843521632,35.756699776758296],[139.74257950001513,35.75514865031188]],[[139.74257950001513,35.75514865031188],[139.74145725767536,35.752721672294435],[139.7387130884504,35.752287089453844],[139.74021214208673,35.751030142161056]],[[139.74021214208673,35.751030142161056],[139.73969607444144,35.75073596300743]],[[139.73288889645357,35.75946104926851],[139.7327742147546,35.76064445177288]],[[139.7327742147546,35.76064445177288],[139.73476476138643,35.76056422109462],[139.73800861515684,35.761513617454064],[139.73804138135654,35.763205147587435]],[[139.73804138135654,35.763205147587435],[139.73874585465012,35.763198461697584],[139.73866393915085,35.75907995354676]],[[139.73866393915085,35.75907995354676],[139.738647556051,35.75907995354676]],[[139.738647556051,35.75907995354676],[139.73288889645357,35.75946104926851]],[[139.73865574760092,35.75610473256118],[139.738647556051,35.75907995354676]],[[139.73866393915085,35.75907995354676],[139.7422190718184,35.75895292163951]],[[139.7422190718184,35.75895292163951],[139.7434887620568,35.75882588973226],[139.74149002387506,35.756098046671326]],[[139.7348794430854,35.7560713031119],[139.73287251335373,35.7586854860453]],[[139.73287251335373,35.7586854860453],[139.7321598485102,35.75918692778444]],[[139.7321598485102,35.75918692778444],[139.73288889645357,35.75946104926851]],[[139.7327742147546,35.76064445177288],[139.73285613025385,35.762269123007705]],[[139.73285613025385,35.762269123007705],[139.7380331898066,35.76388710835267]],[[139.7380331898066,35.76388710835267],[139.73804138135654,35.763205147587435]],[[139.73157005691561,35.757515455320636],[139.72739236645373,35.762162148770024]],[[139.72739236645373,35.762162148770024],[139.72758896365193,35.76250312915264]],[[139.72758896365193,35.76250312915264],[139.72885046234043,35.761506931564206]],[[139.72885046234043,35.761506931564206],[139.7321598485102,35.75918692778444]],[[139.73287251335373,35.7586854860453],[139.73157005691561,35.757515455320636]],[[139.7510167964381,35.75360420975532],[139.75026317384498,35.75426611285099],[139.75150828943362,35.7559375853148]],[[139.75150828943362,35.7559375853148],[139.75775025047665,35.75482772759883],[139.7572423743813,35.7531896845843],[139.7510167964381,35.75360420975532]],[[139.7289078031899,35.76802567417306],[139.72681895795895,35.770345677952825]],[[139.72681895795895,35.770345677952825],[139.72571309871907,35.77253196393549]],[[139.72571309871907,35.77253196393549],[139.72615544241503,35.77501911496164]],[[139.72615544241503,35.77501911496164],[139.7296286595833,35.77505254441091]],[[139.7296286595833,35.77505254441091],[139.73015291877854,35.771495651007925],[139.73002185397974,35.768380026335386]],[[139.73002185397974,35.768380026335386],[139.72964504268316,35.768206193199156]],[[139.72964504268316,35.768206193199156],[139.7289078031899,35.76802567417306]],[[139.73037409062653,35.7525478391582],[139.73024302582772,35.75296236432922]],[[139.73024302582772,35.75296236432922],[139.73021025962802,35.75302253733792]],[[139.73021025962802,35.75302253733792],[139.73238921190813,35.75355740852633],[139.73190591046253,35.75514196442202],[139.73331485704966,35.75569020739015]],[[139.73331485704966,35.75569020739015],[139.73648498687075,35.753055966787194]],[[139.73590338682604,35.752347262462536],[139.73362613594685,35.751852506613254],[139.73037409062653,35.7525478391582]],[[139.724623622579,35.75203302563934],[139.72275594919606,35.752006282079925]],[[139.72275594919606,35.752006282079925],[139.7222808393004,35.7533835753901]],[[139.7222808393004,35.7533835753901],[139.7222562646506,35.7568334945554]],[[139.7222562646506,35.7568334945554],[139.72222349845092,35.75766254489745]],[[139.72222349845092,35.75766254489745],[139.7266715100603,35.758063698288765]],[[139.7266715100603,35.758063698288765],[139.729006101789,35.75809712773804],[139.72957951028377,35.7559375853148]],[[139.72957951028377,35.7559375853148],[139.72967780888288,35.75510853497275]],[[139.72967780888288,35.75510853497275],[139.72791662564896,35.75488790060753],[139.72850641724355,35.75351060729735],[139.7249840507757,35.75284870420168],[139.724623622579,35.75203302563934]],[[139.7222808393004,35.7533835753901],[139.72033944196812,35.754961445395935],[139.7211422138608,35.75542277179595],[139.71778367839144,35.75865205659603]],[[139.71778367839144,35.75865205659603],[139.7184471939354,35.75930727380184]],[[139.7184471939354,35.75930727380184],[139.7222562646506,35.7568334945554]],[[139.74943582730253,35.76343915373237],[139.74592984393453,35.76388042246282]],[[139.74592984393453,35.76388042246282],[139.74512707204187,35.76420803106572],[139.74583973688536,35.767123079042605]],[[139.74583973688536,35.767123079042605],[139.7478384750671,35.76709633548318]],[[139.7478384750671,35.76709633548318],[139.74784666661705,35.76480307526284],[139.74943582730253,35.76343915373237]],[[139.72219073225122,35.76646117594694],[139.72216615760144,35.76710302137304]],[[139.72216615760144,35.76710302137304],[139.7220596674524,35.77014510125717]],[[139.7220596674524,35.77014510125717],[139.72203509280263,35.77107443994705]],[[139.72203509280263,35.77107443994705],[139.72202690125272,35.77168954181373]],[[139.72202690125272,35.77168954181373],[139.72220711535107,35.77168954181373]],[[139.72220711535107,35.77168954181373],[139.72341946474,35.76911547421947]],[[139.72341946474,35.76911547421947],[139.7247546873778,35.766855643448395]],[[139.7247546873778,35.766855643448395],[139.72477107047766,35.76681552810926]],[[139.72477107047766,35.76681552810926],[139.72219073225122,35.76646117594694]],[[139.74225183801812,35.75968168363373],[139.7423419450673,35.762155462880166]],[[139.7423419450673,35.762155462880166],[139.74583154533542,35.7621354052106]],[[139.74583154533542,35.7621354052106],[139.74846103286143,35.761506931564206],[139.74933752870342,35.760036035796055]],[[139.74933752870342,35.760036035796055],[139.7488460357079,35.75973517075257]],[[139.7488460357079,35.75973517075257],[139.74225183801812,35.75968168363373]],[[139.72967780888288,35.75510853497275],[139.73021025962802,35.75302253733792]],[[139.73024302582772,35.75296236432922],[139.724623622579,35.75203302563934]],[[139.7571850335318,35.73632118447954],[139.75571055454526,35.738166490079585]],[[139.75571055454526,35.738166490079585],[139.75470299390446,35.73982459076369]],[[139.75470299390446,35.73982459076369],[139.75557948974645,35.74031266072312],[139.75966707315916,35.73757813177233]],[[139.75966707315916,35.73757813177233],[139.75949505061072,35.73666885075202]],[[139.75949505061072,35.73666885075202],[139.7571850335318,35.73632118447954]],[[139.75443267275693,35.7628374236454],[139.74943582730253,35.76343915373237]],[[139.7478384750671,35.76709633548318],[139.75476033475394,35.76827973798756],[139.7579632307747,35.77003144112963],[139.75986367035736,35.76852711591221],[139.7597735633082,35.766039964886055],[139.75820078572252,35.76453563966863],[139.75443267275693,35.7628374236454]],[[139.72223169000083,35.764174601616446],[139.71870113198307,35.76355281385991]],[[139.71870113198307,35.76355281385991],[139.71862740803374,35.76355281385991]],[[139.71862740803374,35.76355281385991],[139.7179638924898,35.76476295992371]],[[139.7179638924898,35.76476295992371],[139.71898783623044,35.76514405564546]],[[139.71898783623044,35.76514405564546],[139.72219073225122,35.76646117594694]],[[139.72219073225122,35.76646117594694],[139.72223169000083,35.764174601616446]],[[139.7266715100603,35.758063698288765],[139.7253035212228,35.76029009961056]],[[139.7253035212228,35.76029009961056],[139.72739236645373,35.762162148770024]],[[139.73157005691561,35.757515455320636],[139.72957951028377,35.7559375853148]],[[139.7380331898066,35.76388710835267],[139.73805776445639,35.763900480132385]],[[139.73805776445639,35.763900480132385],[139.7423501366172,35.76393390958166]],[[139.7423501366172,35.76393390958166],[139.7423419450673,35.762155462880166]],[[139.74225183801812,35.75968168363373],[139.7422190718184,35.75895292163951]],[[139.73331485704966,35.75569020739015],[139.73157005691561,35.757515455320636]],[[139.71778367839144,35.75865205659603],[139.7149494021173,35.76166070703088]],[[139.7149494021173,35.76166070703088],[139.71862740803374,35.76355281385991]],[[139.71870113198307,35.76355281385991],[139.7200445461708,35.76158047635262]],[[139.7200445461708,35.76158047635262],[139.7184471939354,35.75930727380184]],[[139.76350891007408,35.73531830100126],[139.76030601405333,35.73828683609698]],[[139.76030601405333,35.73828683609698],[139.76398401996974,35.740332718392686]],[[139.76398401996974,35.740332718392686],[139.76500796371042,35.738661245928874]],[[139.76500796371042,35.738661245928874],[139.76587626800247,35.73624095380128]],[[139.76587626800247,35.73624095380128],[139.76350891007408,35.73531830100126]],[[139.73805776445639,35.763900480132385],[139.73891787719853,35.76971051841658]],[[139.73891787719853,35.76971051841658],[139.74282524651287,35.76824630853829]],[[139.74282524651287,35.76824630853829],[139.7423501366172,35.76393390958166]],[[139.7296286595833,35.77505254441091],[139.7332902823999,35.77544032602252]],[[139.7332902823999,35.77544032602252],[139.73659147701977,35.774925512503664]],[[139.73659147701977,35.774925512503664],[139.73580508822695,35.771910176178956],[139.73619828262335,35.77076688901371]],[[139.73619828262335,35.77076688901371],[139.73412582049227,35.769476512271645],[139.73002185397974,35.768380026335386]],[[139.73139803436717,35.76503708140777],[139.7282606707458,35.76399408259036],[139.72749066505284,35.76261010339032]],[[139.72749066505284,35.76261010339032],[139.72711385375626,35.76301794267149]],[[139.72711385375626,35.76301794267149],[139.72583597196794,35.76493010717009]],[[139.72583597196794,35.76493010717009],[139.73009557792906,35.7668690152281]],[[139.73009557792906,35.7668690152281],[139.73391284019422,35.767571033662904],[139.73491220928508,35.766354201709255]],[[139.73491220928508,35.766354201709255],[139.73113590476956,35.76567892683387],[139.73139803436717,35.76503708140777]],[[139.74282524651287,35.76824630853829],[139.74583973688536,35.767123079042605]],[[139.74592984393453,35.76388042246282],[139.74583154533542,35.7621354052106]],[[139.7488460357079,35.75973517075257],[139.7482562441133,35.75882588973226]],[[139.7482562441133,35.75882588973226],[139.74615101578252,35.757635801338026]],[[139.74615101578252,35.757635801338026],[139.74244843521632,35.756699776758296]],[[139.72885046234043,35.761506931564206],[139.73207793301097,35.76337229483382]],[[139.73207793301097,35.76337229483382],[139.73285613025385,35.762269123007705]],[[139.72216615760144,35.76710302137304],[139.7212487040098,35.76775823857885],[139.71808676573866,35.76753091832377]],[[139.71808676573866,35.76753091832377],[139.71722665299652,35.768045731842626]],[[139.71722665299652,35.768045731842626],[139.71936464752702,35.769523313500635],[139.7220596674524,35.77014510125717]],[[139.72222349845092,35.76294439788308],[139.72223169000083,35.764174601616446]],[[139.72477107047766,35.76681552810926],[139.72583597196794,35.76493010717009]],[[139.72711385375626,35.76301794267149],[139.72222349845092,35.76294439788308]],[[139.7586103632188,35.732704118067865],[139.75671811518606,35.733586655528754]],[[139.75671811518606,35.733586655528754],[139.7571850335318,35.73632118447954]],[[139.75949505061072,35.73666885075202],[139.7586103632188,35.732704118067865]],[[139.75443267275693,35.7628374236454],[139.74933752870342,35.760036035796055]],[[139.74748623842032,35.75135106487411],[139.7477074102683,35.75117054584802]],[[139.7477074102683,35.75117054584802],[139.74700293697475,35.75117054584802]],[[139.74700293697475,35.75117054584802],[139.7443243001492,35.751143802288595],[139.74186683517163,35.75208651275818],[139.74021214208673,35.751030142161056]],[[139.74257950001513,35.75514865031188],[139.74748623842032,35.75135106487411]],[[139.74025309983634,35.741984133186925],[139.73675530801827,35.74473203391743],[139.7361737079736,35.74622298735515]],[[139.7361737079736,35.74622298735515],[139.73761542076042,35.747386332189954]],[[139.73761542076042,35.747386332189954],[139.73882777014936,35.746336647482686],[139.74388195645324,35.74467186090873]],[[139.74388195645324,35.74467186090873],[139.74257950001513,35.741596351575325]],[[139.74257950001513,35.741596351575325],[139.74025309983634,35.741984133186925]],[[139.74615101578252,35.757635801338026],[139.74792039056638,35.756485828282926],[139.74748623842032,35.75135106487411]],[[139.75220457117726,35.735478762357786],[139.75116424433676,35.73579299918098]],[[139.75116424433676,35.73579299918098],[139.75412139385978,35.739470238601356]],[[139.75412139385978,35.739470238601356],[139.75470299390446,35.73982459076369]],[[139.75571055454526,35.738166490079585],[139.75220457117726,35.735478762357786]],[[139.73207793301097,35.76337229483382],[139.73139803436717,35.76503708140777]],[[139.73491220928508,35.766354201709255],[139.73707477846537,35.76791869993538],[139.73817244615535,35.76986429388325]],[[139.73817244615535,35.76986429388325],[139.73891787719853,35.76971051841658]],[[139.7247546873778,35.766855643448395],[139.7289078031899,35.76802567417306]],[[139.72964504268316,35.768206193199156],[139.73009557792906,35.7668690152281]],[[139.72020018561938,35.746390134601526],[139.7235177633391,35.743448343065225],[139.72619640016464,35.74205099208548]],[[139.72619640016464,35.74205099208548],[139.72405021408423,35.73966412940716],[139.71998720532133,35.74215796632316],[139.72020018561938,35.746390134601526]],[[139.6983942797184,35.787127261489466],[139.6964446908362,35.78739469708368],[139.69015358049361,35.78581682707784]],[[139.69015358049361,35.78581682707784],[139.68896580575446,35.787474927761934],[139.69198848767687,35.791994589304075]],[[139.69198848767687,35.791994589304075],[139.6930288145174,35.79119228252145],[139.69882843186446,35.790463520527226]],[[139.69882843186446,35.790463520527226],[139.6983942797184,35.787127261489466]],[[139.73619828262335,35.77076688901371],[139.73817244615535,35.76986429388325]],[[139.7200445461708,35.76158047635262],[139.72219892380113,35.7613732137671]],[[139.72219892380113,35.7613732137671],[139.72222349845092,35.75766254489745]],[[139.69836970506864,35.78210615820819],[139.69399541740856,35.783002067448784],[139.69015358049361,35.78581682707784]],[[139.6983942797184,35.787127261489466],[139.69836970506864,35.78210615820819]],[[139.7253035212228,35.76029009961056],[139.72398468168484,35.761620591691745],[139.72219892380113,35.76139327143667]],[[139.72219892380113,35.76139327143667],[139.72222349845092,35.76294439788308]],[[139.72749066505284,35.76261010339032],[139.72758896365193,35.76250312915264]],[[139.748837844158,35.7405399809782],[139.7499764695976,35.742298370010126]],[[139.7499764695976,35.742298370010126],[139.75214723032778,35.74358874675218]],[[139.75214723032778,35.74358874675218],[139.75548938269728,35.74177687060141]],[[139.75548938269728,35.74177687060141],[139.75425245865858,35.740071968688326]],[[139.75425245865858,35.740071968688326],[139.75245031767503,35.739142629998454]],[[139.75245031767503,35.739142629998454],[139.748837844158,35.7405399809782]],[[139.74869858780926,35.74893745863637],[139.74663431722811,35.74927175312913]],[[139.74663431722811,35.74927175312913],[139.74700293697475,35.75117054584802]],[[139.7477074102683,35.75117054584802],[139.7495832752012,35.75105019983062]],[[139.7495832752012,35.75105019983062],[139.74963242450073,35.75029469427698]],[[139.74963242450073,35.75029469427698],[139.74869858780926,35.74893745863637]],[[139.75440809810715,35.74671105731458],[139.75131169223542,35.74796131871751]],[[139.75131169223542,35.74796131871751],[139.75228648667652,35.74916477889145]],[[139.75228648667652,35.74916477889145],[139.7552354446496,35.74889065740738],[139.7552026784499,35.7475735371059]],[[139.7552026784499,35.7475735371059],[139.75440809810715,35.74671105731458]],[[139.7482562441133,35.75882588973226],[139.7485183737109,35.757468654091646],[139.75150828943362,35.7559375853148]],[[139.7510167964381,35.75360420975532],[139.7495832752012,35.75105019983062]],[[139.72220711535107,35.77168954181373],[139.72571309871907,35.77253196393549]],[[139.72681895795895,35.770345677952825],[139.72341946474,35.76911547421947]],[[139.7478302835172,35.73918943122744],[139.74405397900165,35.738868508514386],[139.74425057619987,35.74113502517531],[139.74257950001513,35.741596351575325]],[[139.74388195645324,35.74467186090873],[139.74502877344275,35.74425064984785]],[[139.74502877344275,35.74425064984785],[139.74768283561855,35.743729150439144],[139.7499764695976,35.742298370010126]],[[139.748837844158,35.7405399809782],[139.7478302835172,35.73918943122744]],[[139.75671811518606,35.733586655528754],[139.75220457117726,35.735478762357786]],[[139.76399221151968,35.74036614784196],[139.76008484220534,35.7434215995058]],[[139.76008484220534,35.7434215995058],[139.7640905101188,35.74411024616089],[139.76534381725733,35.74192396017823]],[[139.76534381725733,35.74192396017823],[139.76399221151968,35.74036614784196]],[[139.71299162168518,35.763419096062805],[139.711255013101,35.767557661883195]],[[139.711255013101,35.767557661883195],[139.71648122195333,35.76898175642236]],[[139.71648122195333,35.76898175642236],[139.7172184614466,35.768039045952776]],[[139.7172184614466,35.768039045952776],[139.71467088941984,35.76751754654406],[139.71458078237066,35.76554520903677],[139.71347492313078,35.763572871529476]],[[139.71347492313078,35.763572871529476],[139.71299162168518,35.763419096062805]],[[139.71580951485944,35.77201715041664],[139.71330290058233,35.77124827308329],[139.71301619633496,35.77286625842825]],[[139.71301619633496,35.77286625842825],[139.71279502448698,35.77441069898481]],[[139.71279502448698,35.77441069898481],[139.71428588657335,35.77413657750075],[139.7166696276016,35.77545369780223]],[[139.7166696276016,35.77545369780223],[139.71707920509786,35.77578799229499]],[[139.71707920509786,35.77578799229499],[139.7191680503288,35.77423017995872]],[[139.7191680503288,35.77423017995872],[139.7175133572439,35.77240493202824]],[[139.7175133572439,35.77240493202824],[139.71580951485944,35.77201715041664]],[[139.7149494021173,35.76166070703088],[139.71262300193854,35.763305435935266]],[[139.71262300193854,35.763305435935266],[139.71299162168518,35.763419096062805]],[[139.71347492313078,35.763572871529476],[139.7179638924898,35.76476295992371]],[[139.71707920509786,35.77578799229499],[139.71671877690116,35.77695802301965],[139.71897964468053,35.7796390648516],[139.718488151685,35.7805216023125]],[[139.718488151685,35.7805216023125],[139.7186519826835,35.78056840354148]],[[139.7186519826835,35.78056840354148],[139.7218303040545,35.775313294115264]],[[139.7218303040545,35.775313294115264],[139.7191680503288,35.77423017995872]],[[139.7218303040545,35.775313294115264],[139.72202690125272,35.77168954181373]],[[139.72203509280263,35.77107443994705],[139.7184471939354,35.77110118350647],[139.7175133572439,35.77240493202824]],[[139.7181277234883,35.78186546617339],[139.71736590934526,35.784138668724175]],[[139.71736590934526,35.784138668724175],[139.71672696845107,35.787675504457596]],[[139.71672696845107,35.787675504457596],[139.71988890672222,35.787354581744545]],[[139.71988890672222,35.787354581744545],[139.72125689555975,35.78616449335031],[139.72057699691595,35.78371077177344]],[[139.72057699691595,35.78371077177344],[139.7181277234883,35.78186546617339]],[[139.70239994763185,35.78431918775026],[139.70570933380165,35.7870470308112]],[[139.70570933380165,35.7870470308112],[139.71026383556008,35.788397580561956]],[[139.71026383556008,35.788397580561956],[139.7103047933097,35.78821706153587]],[[139.7103047933097,35.78821706153587],[139.71115671450193,35.78498777673579]],[[139.71115671450193,35.78498777673579],[139.70875659037384,35.78431250186041]],[[139.70875659037384,35.78431250186041],[139.70321910262436,35.78216633121688]],[[139.70321910262436,35.78216633121688],[139.70239994763185,35.78431918775026]],[[139.75116424433676,35.73579299918098],[139.74911635685544,35.73752464465348]],[[139.74911635685544,35.73752464465348],[139.75245031767503,35.739142629998454]],[[139.75425245865858,35.740071968688326],[139.75412139385978,35.739470238601356]],[[139.74911635685544,35.73752464465348],[139.7478302835172,35.73918943122744]],[[139.76500796371042,35.738661245928874],[139.76866958652698,35.73924291834628]],[[139.76866958652698,35.73924291834628],[139.77087311345687,35.73795254160422],[139.76587626800247,35.73624095380128]],[[139.7332902823999,35.77544032602252],[139.73270868235522,35.777760329802284]],[[139.73270868235522,35.777760329802284],[139.731635589315,35.77923791146029]],[[139.731635589315,35.77923791146029],[139.7341995444416,35.77965912252117],[139.73688637281708,35.78126373608642]],[[139.73688637281708,35.78126373608642],[139.73722222636403,35.78139745388353]],[[139.73722222636403,35.78139745388353],[139.73823797855474,35.77986638510668],[139.73809053065608,35.77744609297908],[139.73659147701977,35.774925512503664]],[[139.75548938269728,35.74177687060141],[139.76030601405333,35.73828683609698]],[[139.76030601405333,35.73828683609698],[139.75966707315916,35.73757813177233]],[[139.69198848767687,35.791994589304075],[139.69458520900318,35.79565845694474],[139.69698533313127,35.79599943732736],[139.69779629657387,35.79856681903177],[139.70518507460642,35.79377303600557],[139.70769168888356,35.79267655006931],[139.71067341305633,35.79219516599973],[139.71887315453148,35.79208150587219],[139.7227067998965,35.79054375120549],[139.7257622480186,35.78732783818512],[139.72688449035837,35.78750167132136]],[[139.72688449035837,35.78750167132136],[139.72637661426302,35.78651215962278]],[[139.72637661426302,35.78651215962278],[139.71988890672222,35.787354581744545]],[[139.71672696845107,35.787675504457596],[139.7103047933097,35.78821706153587]],[[139.71026383556008,35.788397580561956],[139.71183661314572,35.788711817385156],[139.7080357339804,35.789527495947496],[139.70348123222198,35.79138617332725],[139.70117121514306,35.79277015252728],[139.70031929395083,35.790303059170704]],[[139.70031929395083,35.790303059170704],[139.69882843186446,35.790463520527226]],[[139.76350891007408,35.73531830100126],[139.76434444816647,35.73460291078675],[139.7601094168551,35.73171460636929],[139.7586103632188,35.732704118067865]],[[139.73270868235522,35.777760329802284],[139.72622916636436,35.777486208318216]],[[139.72622916636436,35.777486208318216],[139.72625374101412,35.778315258660264]],[[139.72625374101412,35.778315258660264],[139.72675342555956,35.78247388215022]],[[139.72675342555956,35.78247388215022],[139.7267616171095,35.78246719626037]],[[139.7267616171095,35.78246719626037],[139.72951397788438,35.78113001828932]],[[139.72951397788438,35.78113001828932],[139.731635589315,35.77923791146029]],[[139.75548938269728,35.74177687060141],[139.75745535467934,35.745032898960915]],[[139.75745535467934,35.745032898960915],[139.76008484220534,35.7434215995058]],[[139.76399221151968,35.74036614784196],[139.76398401996974,35.740332718392686]],[[139.72951397788438,35.78113001828932],[139.73235644570843,35.784031694486494],[139.73580508822695,35.782567484608194],[139.73688637281708,35.78126373608642]],[[139.7166696276016,35.77545369780223],[139.7134175822813,35.778402175228386]],[[139.7134175822813,35.778402175228386],[139.71532621341387,35.78107653117048],[139.718488151685,35.7805216023125]],[[139.74498781569312,35.747606966555175],[139.73969607444144,35.75073596300743]],[[139.74663431722811,35.74927175312913],[139.74498781569312,35.747606966555175]],[[139.7278674763494,35.745099757859464],[139.72672065935987,35.748141837743596],[139.72687629880843,35.75020109181901]],[[139.72687629880843,35.75020109181901],[139.72813779749694,35.751892621952386],[139.73037409062653,35.7525478391582]],[[139.73037409062653,35.7525478391582],[139.73159463156537,35.74684477511168]],[[139.73159463156537,35.74684477511168],[139.72907982573832,35.74493929650294]],[[139.72907982573832,35.74493929650294],[139.7278674763494,35.745099757859464]],[[139.75214723032778,35.74358874675218],[139.74671623272735,35.74663751252617]],[[139.74671623272735,35.74663751252617],[139.74498781569312,35.747606966555175]],[[139.74869858780926,35.74893745863637],[139.75131169223542,35.74796131871751]],[[139.75440809810715,35.74671105731458],[139.7572096081816,35.74517998853773]],[[139.7572096081816,35.74517998853773],[139.75745535467934,35.745032898960915]],[[139.7373532911628,35.75079613601613],[139.73159463156537,35.74684477511168]],[[139.73284793870394,35.74493929650294],[139.7361737079736,35.74622298735515]],[[139.74025309983634,35.741984133186925],[139.73545285158016,35.7405399809782],[139.7319550597621,35.74319427925072],[139.73284793870394,35.74493929650294]],[[139.71736590934526,35.784138668724175],[139.7158258979593,35.78543573135609],[139.71115671450193,35.78498777673579]],[[139.7226412674971,35.75080282190598],[139.72275594919606,35.752006282079925]],[[139.72687629880843,35.75020109181901],[139.72367340278768,35.75129089186541],[139.7226412674971,35.75080282190598]],[[139.70463624076143,35.7748452818254],[139.70344846602228,35.77839548933853]],[[139.70344846602228,35.77839548933853],[139.7071264719387,35.77913762311246]],[[139.7071264719387,35.77913762311246],[139.7099525566629,35.779498661164645]],[[139.7099525566629,35.779498661164645],[139.7114352271994,35.776503382509496]],[[139.7114352271994,35.776503382509496],[139.70813403257952,35.77572113339644]],[[139.70813403257952,35.77572113339644],[139.70463624076143,35.7748452818254]],[[139.73284793870394,35.74493929650294],[139.72907982573832,35.74493929650294]],[[139.7388769194489,35.748970888085644],[139.73761542076042,35.747386332189954]],[[139.7278674763494,35.745099757859464],[139.72772002845073,35.744598316120324]],[[139.72772002845073,35.744598316120324],[139.72196956040324,35.74850287579578]],[[139.72196956040324,35.74850287579578],[139.7226412674971,35.75080282190598]],[[139.71279502448698,35.77441069898481],[139.7103703257091,35.77489208305439],[139.71154990889832,35.77652344017906]],[[139.71154990889832,35.77652344017906],[139.7134175822813,35.778402175228386]],[[139.70570933380165,35.7870470308112],[139.70200675323542,35.78988853399968],[139.70031929395083,35.790303059170704]],[[139.7218303040545,35.775313294115264],[139.72246924494866,35.77578799229499]],[[139.72246924494866,35.77578799229499],[139.72604895226598,35.775467069581936]],[[139.72604895226598,35.775467069581936],[139.72615544241503,35.77501911496164]],[[139.70239994763185,35.78431918775026],[139.69836970506864,35.78210615820819]],[[139.711255013101,35.767557661883195],[139.71003447216216,35.77055294053834]],[[139.71003447216216,35.77055294053834],[139.7107880947553,35.77255202160506],[139.71301619633496,35.77286625842825]],[[139.71580951485944,35.77201715041664],[139.71648122195333,35.76898175642236]],[[139.7071264719387,35.77913762311246],[139.7082241396287,35.78072217900815],[139.70827328892824,35.78300875333864],[139.70964946931568,35.78347676562851]],[[139.70964946931568,35.78347676562851],[139.71295066393554,35.7818052931647]],[[139.71295066393554,35.7818052931647],[139.7115662919982,35.779779468538564],[139.7099525566629,35.779498661164645]],[[139.7181277234883,35.78186546617339],[139.71437599362253,35.78401163681693],[139.71295066393554,35.7818052931647]],[[139.70964946931568,35.78347676562851],[139.70875659037384,35.78431250186041]],[[139.72219892380113,35.7613732137671],[139.72219892380113,35.76139327143667]],[[139.72248562804853,35.78336310550097],[139.72057699691595,35.78371077177344]],[[139.72637661426302,35.78651215962278],[139.72539362827197,35.785007834405356],[139.72698278895749,35.784800571819844],[139.7267616171095,35.78246719626037]],[[139.72675342555956,35.78247388215022],[139.72248562804853,35.78336310550097]],[[139.71262300193854,35.763305435935266],[139.7103047933097,35.763412410172954],[139.70917435942002,35.76562543971503],[139.70814222412943,35.76536469001068],[139.70659402119355,35.767016104804924],[139.70616806059746,35.76955674294991]],[[139.70616806059746,35.76955674294991],[139.70883031432317,35.77026544727457]],[[139.70883031432317,35.77026544727457],[139.71003447216216,35.77055294053834]],[[139.70883031432317,35.77026544727457],[139.70813403257952,35.77572113339644]],[[139.7114352271994,35.776503382509496],[139.71154990889832,35.77652344017906]],[[139.71722665299652,35.768045731842626],[139.7172184614466,35.768039045952776]],[[139.72273137454627,35.77799433594721],[139.721445301208,35.77777370158199],[139.72246924494866,35.77578799229499]],[[139.7186519826835,35.78056840354148],[139.7181277234883,35.78186546617339]],[[139.72248562804853,35.78336310550097],[139.72273137454627,35.77799433594721]],[[139.70616806059746,35.76955674294991],[139.70463624076143,35.7748452818254]],[[139.70344846602228,35.77839548933853],[139.70255558708044,35.78137071032411],[139.70321910262436,35.78216633121688]],[[139.72625374101412,35.778315258660264],[139.72273137454627,35.77799433594721]],[[139.71808676573866,35.76753091832377],[139.71898783623044,35.76514405564546]],[[139.74502877344275,35.74425064984785],[139.74671623272735,35.74663751252617]],[[139.74963242450073,35.75029469427698],[139.75228648667652,35.74916477889145]],[[139.76534381725733,35.74192396017823],[139.76820266818126,35.74140246076952],[139.76866958652698,35.73924291834628]],[[139.72020018561938,35.746390134601526],[139.72121593781011,35.746303218033404],[139.72196956040324,35.74850287579578]],[[139.72772002845073,35.744598316120324],[139.72619640016464,35.74205099208548]],[[139.7552026784499,35.7475735371059],[139.75797142232463,35.74745987697836],[139.7572096081816,35.74517998853773]],[[139.72604895226598,35.775467069581936],[139.72622916636436,35.777486208318216]],[[139.72688449035837,35.78750167132136],[139.73203697526134,35.78911297077647],[139.7361818995235,35.78796968361122],[139.7383280856039,35.78514823809232],[139.73722222636403,35.78139745388353]]]}