{"type":"Topology","bbox":[139.83320201500538,35.637331120026666,139.92110578681246,35.75072588171944],"objects":{"town":{"type":"GeometryCollection","geometries":[{"type":"MultiPolygon","arcs":[[[13,14,49,32,54,25,56,34,3,4,5,16]]],"properties":{"name":"平井"}},{"type":"MultiPolygon","arcs":[[[45,46,47,21,42,43,11,12,6,7,8,9,41,17,-14,18,48]]],"properties":{"name":"小松川"}},{"type":"MultiPolygon","arcs":[[[-63,-61,-323,344,345,37,38,39,29,30,31,50,51,52]]],"properties":{"name":"中央"}},{"type":"MultiPolygon","arcs":[[[321,322,60,62,-53,63,64,-48,-47,57,131,-5,132]]],"properties":{"name":"松島"}},{"type":"MultiPolygon","arcs":[[[110,271,269,270,119,113,-86,-85,114,157,-52,-51,-32,164,165,166,120,67,68,69,70,112]]],"properties":{"name":"松江"}},{"type":"MultiPolygon","arcs":[[[72,284,-256,283,237,238,239,154,272,-268,-187,-175,307,308,-278,304,305,104,105]]],"properties":{"name":"南小岩"}},{"type":"MultiPolygon","arcs":[[[290,-265,291,-194,-170,318,77,212,213,214,215]]],"properties":{"name":"瑞江"}},{"type":"MultiPolygon","arcs":[[[85,-114,-120,-271,274,-13,-12,-44,82,-260,-259,-64,-158,-115]]],"properties":{"name":"東小松川"}},{"type":"Polygon","arcs":[[86,87,88,89,90]],"properties":{"name":"二之江町"}},{"type":"MultiPolygon","arcs":[[[280,-113,-71,-70,-330,-103,-102,-143,-337,538,348,-168,-139,-138,-209,95,-208,282]]],"properties":{"name":"一之江"}},{"type":"MultiPolygon","arcs":[[[-166,205,98,99,100,101,102,329,-69,-68,-121,-167]]],"properties":{"name":"西一之江"}},{"type":"MultiPolygon","arcs":[[[-349,-539,336,-142,337,338,108,109,-213,-78,-319,-169]],[[268,-91,-90,206,207,-96,208,-137,209,-227,-250]]],"properties":{"name":"春江町"}},{"type":"MultiPolygon","arcs":[[[-141,-173,535,122,123,160,161,162,163,159,125,536,235,299,298,245,246,247,248,249,-228,-135]]],"properties":{"name":"江戸川"}},{"type":"MultiPolygon","arcs":[[[127,128,129,-189,-273,-155,-240,346,294,295,241,300]]],"properties":{"name":"西小岩"}},{"type":"MultiPolygon","arcs":[[[226,-210,136,137,138,167,168,169,170,171,172,140,134,227]]],"properties":{"name":"西瑞江"}},{"type":"MultiPolygon","arcs":[[[-99,-206,-165,-31,-30,-40,229,230,197,198,199,145,141,142,-101,-100]]],"properties":{"name":"大杉"}},{"type":"MultiPolygon","arcs":[[[186,267,-193,149,150,408,325,326,327,323,-308,174]]],"properties":{"name":"東小岩"}},{"type":"MultiPolygon","arcs":[[[501,412,-264,-253,179,180,-293,-38,-346]]],"properties":{"name":"本一色"}},{"type":"MultiPolygon","arcs":[[[319,183,217,433,191,-150,192,188,-130,-129,558,466]]],"properties":{"name":"北小岩"}},{"type":"MultiPolygon","arcs":[[[-123,-536,-172,-171,193,-292,340,-161,-124]]],"properties":{"name":"東瑞江"}},{"type":"MultiPolygon","arcs":[[[-200,-199,285,286,-377,-303,-376,415,422,-305,277,278,279,223,224,225,219,220,423,424]]],"properties":{"name":"鹿骨"}},{"type":"Polygon","arcs":[[251,-180,252,253,254,255,256,257]],"properties":{"name":"興宮町"}},{"type":"Polygon","arcs":[[-83,-43,-22,-65,258,259]],"properties":{"name":"西小松川町"}},{"type":"MultiPolygon","arcs":[[[-238,-284,-255,-254,263,260,414,-295,-347,-239]]],"properties":{"name":"上一色"}},{"type":"MultiPolygon","arcs":[[[362,363,-404,-485,507,-163,-162,-341,264,-291,-216,401,402]]],"properties":{"name":"南篠崎町"}},{"type":"MultiPolygon","arcs":[[[-198,-231,-230,-39,292,-181,-252,-258,-374,-286]]],"properties":{"name":"松本"}},{"type":"Polygon","arcs":[[302,303]],"properties":{"name":"鹿骨町"}},{"type":"Polygon","arcs":[[-89,309,-283,-207]],"properties":{"name":"一之江町"}},{"type":"MultiPolygon","arcs":[[[-225,370,332,481,482,-440,483,313,314,-342,-367,371,372]]],"properties":{"name":"上篠崎"}},{"type":"MultiPolygon","arcs":[[[429,-226,-373,-372,366,341,-315,342,367,468,469,-358,467,407,403,-364,-363,-403,434,517,431]]],"properties":{"name":"篠崎町"}},{"type":"MultiPolygon","arcs":[[[-463,-548,563,-554,564,-525,-529,494,495,353,354,355,349,-459]]],"properties":{"name":"臨海町"}},{"type":"MultiPolygon","arcs":[[[-508,-486,356,357,358,533,534,-164]]],"properties":{"name":"東篠崎"}},{"type":"MultiPolygon","arcs":[[[-306,-423,-416,375,-304,376,-287,373,-257,-285,-73,-106,-105]]],"properties":{"name":"東松本"}},{"type":"MultiPolygon","arcs":[[[512,453,556,-550,557,-523,-522,-393,-399,-398,-397,456,502,377,-473,-246,-299,539]]],"properties":{"name":"東葛西"}},{"type":"MultiPolygon","arcs":[[[-476,-517,-8,-7,-275,-270,-272,-111,-281,-310,-88,-87,-269,-249,529,381,382,-477]]],"properties":{"name":"船堀"}},{"type":"MultiPolygon","arcs":[[[519,461,462,458,-350,-356,-355,-562,-400,391,392,521,522,-558,-549]]],"properties":{"name":"南葛西"}},{"type":"MultiPolygon","arcs":[[[559,560,508,540,541,-428,-444,-443,543,544,-248,-247,472,-378,-503,-457,396,397,398,-392,399,561,-354]]],"properties":{"name":"中葛西"}},{"type":"MultiPolygon","arcs":[[[441,442,443,427,-542,-541,-509,-561,-560,-496,-528,-527,-572,-571,552,553,554,497,498,499,489,490]]],"properties":{"name":"西葛西"}},{"type":"MultiPolygon","arcs":[[[438,439,436,-328,-327,573]]],"properties":{"name":"北篠崎"}},{"type":"MultiPolygon","arcs":[[[-424,-221,445,-109,-339,-338,-146,-425]]],"properties":{"name":"新堀"}},{"type":"Polygon","arcs":[[473,474,475,476,-383,477,478]],"properties":{"name":"宇喜田町"}},{"type":"Polygon","arcs":[[484,-408,-468,-357,485]],"properties":{"name":"下篠崎町"}},{"type":"MultiPolygon","arcs":[[[-544,-442,-491,-490,-500,-499,566,515,-9,516,-475,-474,-479,-478,-382,-530,-545]]],"properties":{"name":"北葛西"}},{"type":"MultiPolygon","arcs":[[[526,527,-495,528,524,-565,-553,570,571]]],"properties":{"name":"清新町"}},{"type":"MultiPolygon","arcs":[[[-224,-280,-279,-309,-324,-437,-483,-482,-333,-371]]],"properties":{"name":"西篠崎"}},{"type":"Polygon","arcs":[[546,547,-462,-520,548,549]],"properties":{"name":"堀江町"}},{"type":"MultiPolygon","arcs":[[[-215,-214,-110,-446,-220,-430,-432,-518,-435,-402]]],"properties":{"name":"谷河内"}},{"type":"Polygon","arcs":[[-534,-359,-470,572]],"properties":{"name":"東篠崎町"}}]}},"arcs":[[[139.84800649062527,35.702471585189514],[139.84508779353155,35.70483043211741]],[[139.84508779353155,35.70483043211741],[139.84264382427838,35.706803698297485]],[[139.84264382427838,35.706803698297485],[139.84990540198743,35.71179356679882]],[[139.84990540198743,35.71179356679882],[139.8509955177694,35.71070486821671]],[[139.8509955177694,35.71070486821671],[139.85276256028698,35.70843674617065]],[[139.85276256028698,35.70843674617065],[139.85038012982798,35.70695112623048],[139.84800649062527,35.702471585189514]],[[139.85495158310727,35.68919173060983],[139.85367685094283,35.6870483552763]],[[139.85367685094283,35.6870483552763],[139.85140870681582,35.68363483159698]],[[139.85140870681582,35.68363483159698],[139.84898232007527,35.679983155102825]],[[139.84898232007527,35.679983155102825],[139.846133953032,35.681071853684934],[139.84616911805722,35.68353276610491],[139.84775154419236,35.688862852913154],[139.84800649062527,35.69343311883596]],[[139.84800649062527,35.69343311883596],[139.84979990691176,35.69462388291014],[139.85663950431808,35.694340367654384]],[[139.85663950431808,35.694340367654384],[139.85595378632618,35.691936158285564]],[[139.85595378632618,35.691936158285564],[139.85495158310727,35.68919173060983]],[[139.8469691223811,35.6986497995419],[139.84548340006535,35.698207515742915]],[[139.84548340006535,35.698207515742915],[139.84218667895047,35.700294188025296]],[[139.84218667895047,35.700294188025296],[139.84508779353155,35.70483043211741]],[[139.84800649062527,35.702471585189514],[139.8469691223811,35.6986497995419]],[[139.84754055404102,35.695190913421655],[139.84548340006535,35.698207515742915]],[[139.8469691223811,35.6986497995419],[139.84814715072616,35.69896733662835]],[[139.84814715072616,35.69896733662835],[139.85043287736582,35.69952302652963]],[[139.85043287736582,35.69952302652963],[139.8566570868307,35.70101998708003]],[[139.8566570868307,35.70101998708003],[139.85687686823834,35.69866114015213]],[[139.85687686823834,35.69866114015213],[139.8533427832032,35.698366284286145],[139.85052958118519,35.69733428875519],[139.84754055404102,35.695190913421655]],[[139.84062183532794,35.711646138865824],[139.8400328211554,35.71113581140546]],[[139.8400328211554,35.71113581140546],[139.83955809331488,35.71076157126786]],[[139.83955809331488,35.71076157126786],[139.83616466838063,35.71207708205458],[139.83401081058557,35.71360806443567],[139.83326355379953,35.71583082404081],[139.83493389249773,35.71769068411857],[139.83658664868332,35.71804224303571],[139.83901303542387,35.71707829116614],[139.84232733905137,35.719142282228056],[139.84470097825408,35.7168401383513]],[[139.84470097825408,35.7168401383513],[139.8423712953329,35.71528647474975],[139.84199327131174,35.71189563229089],[139.84062183532794,35.711646138865824]],[[139.87085496576543,35.70327676851586],[139.87139123240013,35.70757485979315],[139.87237585310643,35.709820300618745]],[[139.87237585310643,35.709820300618745],[139.87617367583076,35.709638850855065]],[[139.87617367583076,35.709638850855065],[139.8762264233686,35.7095027635323]],[[139.8762264233686,35.7095027635323],[139.8751099338177,35.703095318752176]],[[139.8751099338177,35.703095318752176],[139.87085496576543,35.70327676851586]],[[139.83789654587298,35.70192723589846],[139.8357075230527,35.70301593448057]],[[139.8357075230527,35.70301593448057],[139.8425031641775,35.709139864004925],[139.84841967967165,35.71322248368784]],[[139.84841967967165,35.71322248368784],[139.84990540198743,35.71179356679882]],[[139.84264382427838,35.706803698297485],[139.84005919492432,35.704909816389026],[139.83789654587298,35.70192723589846]],[[139.86907913199155,35.710228562587034],[139.8736154202456,35.71566071488735]],[[139.8736154202456,35.71566071488735],[139.8737560803465,35.715796802210114]],[[139.8737560803465,35.715796802210114],[139.8753912540195,35.71251936585356]],[[139.8753912540195,35.71251936585356],[139.87617367583076,35.709638850855065]],[[139.87237585310643,35.709820300618745],[139.86907913199155,35.710228562587034]],[[139.84800649062527,35.69343311883596],[139.84754055404102,35.695190913421655]],[[139.85687686823834,35.69866114015213],[139.85685049446943,35.695190913421655]],[[139.85685049446943,35.695190913421655],[139.85663950431808,35.694340367654384]],[[139.85043287736582,35.69952302652963],[139.849720785605,35.700362231686675]],[[139.849720785605,35.700362231686675],[139.85295596792574,35.702653034953194],[139.85580433496898,35.70353760255116]],[[139.85580433496898,35.70353760255116],[139.85619994150275,35.70248292579974]],[[139.85619994150275,35.70248292579974],[139.8566570868307,35.70101998708003]],[[139.84814715072616,35.69896733662835],[139.849720785605,35.700362231686675]],[[139.84218667895047,35.700294188025296],[139.83789654587298,35.70192723589846]],[[139.87085496576543,35.70327676851586],[139.8707934269713,35.70327676851586]],[[139.8707934269713,35.70327676851586],[139.8680329724911,35.70335615278748]],[[139.8680329724911,35.70335615278748],[139.86741758454966,35.70835736189904]],[[139.86741758454966,35.70835736189904],[139.86907913199155,35.710228562587034]],[[139.8357075230527,35.70301593448057],[139.83476685862792,35.705714999715376],[139.8396020495964,35.70988834428013],[139.83955809331488,35.71076157126786]],[[139.8400328211554,35.71113581140546],[139.84062183532794,35.711646138865824]],[[139.84470097825408,35.7168401383513],[139.84841967967165,35.71322248368784]],[[139.85580433496898,35.70353760255116],[139.85452960280455,35.706282030226895]],[[139.85452960280455,35.706282030226895],[139.8584944593987,35.708164571525124],[139.8589955610082,35.709139864004925]],[[139.8589955610082,35.709139864004925],[139.8613867827235,35.70858417410364],[139.866652745251,35.70940069804023]],[[139.866652745251,35.70940069804023],[139.86741758454966,35.70836870250927]],[[139.86741758454966,35.70836870250927],[139.86039337076087,35.70316336241356],[139.85619994150275,35.70248292579974]],[[139.86741758454966,35.70836870250927],[139.86741758454966,35.70835736189904]],[[139.8680329724911,35.70335615278748],[139.86593186223388,35.70290252837826]],[[139.86593186223388,35.70290252837826],[139.8566570868307,35.70101998708003]],[[139.8737297065776,35.68734321114229],[139.87130331983707,35.688806149861996]],[[139.87130331983707,35.688806149861996],[139.8730264060731,35.69462388291014]],[[139.8730264060731,35.69462388291014],[139.87410773059878,35.693807358973565]],[[139.87410773059878,35.693807358973565],[139.87768577191545,35.691187678010365]],[[139.87768577191545,35.691187678010365],[139.87768577191545,35.6911649967899]],[[139.87768577191545,35.6911649967899],[139.87660444738978,35.690960865805756],[139.87659565613347,35.68804632897657],[139.8737297065776,35.68734321114229]],[[139.88849901717225,35.71941445687358],[139.88096491051772,35.722567146517605]],[[139.88096491051772,35.722567146517605],[139.8809473280051,35.72258982773806]],[[139.8809473280051,35.72258982773806],[139.88376932127943,35.72528889297288]],[[139.88376932127943,35.72528889297288],[139.88376932127943,35.72526621175241]],[[139.88376932127943,35.72526621175241],[139.88574735394837,35.72265787139945]],[[139.88574735394837,35.72265787139945],[139.88849901717225,35.71941445687358]],[[139.89107485527,35.693988808737245],[139.8922880486403,35.69754976034956]],[[139.8922880486403,35.69754976034956],[139.89430124633444,35.69685798312551]],[[139.89430124633444,35.69685798312551],[139.895092459402,35.69530431952396]],[[139.895092459402,35.69530431952396],[139.89107485527,35.693988808737245]],[[139.86767253098253,35.69143717143543],[139.85912742985278,35.69135778716382],[139.85595378632618,35.691936158285564]],[[139.85685049446943,35.695190913421655],[139.86342635418657,35.69508884792958]],[[139.86342635418657,35.69508884792958],[139.8677516522893,35.69345580005642]],[[139.8677516522893,35.69345580005642],[139.8677516522893,35.69343311883596]],[[139.8677516522893,35.69343311883596],[139.86767253098253,35.69143717143543]],[[139.87348355140102,35.680436779512036],[139.87205057662308,35.68006253937444]],[[139.87205057662308,35.68006253937444],[139.87190112526588,35.68314718535708]],[[139.87190112526588,35.68314718535708],[139.874687953515,35.68245540813303]],[[139.874687953515,35.68245540813303],[139.8745648759267,35.682149211656814]],[[139.8745648759267,35.682149211656814],[139.87348355140102,35.680436779512036]],[[139.87507476879247,35.68360080976629],[139.87904841664295,35.690121660648714]],[[139.87904841664295,35.690121660648714],[139.88267920549745,35.68734321114229]],[[139.88267920549745,35.68734321114229],[139.88283744811096,35.68722980503999]],[[139.88283744811096,35.68722980503999],[139.88140447333305,35.68331729451053]],[[139.88140447333305,35.68331729451053],[139.87803742216772,35.682988416813856],[139.87507476879247,35.68360080976629]],[[139.87727258286907,35.697685847672325],[139.87722862658754,35.69776523194394]],[[139.87722862658754,35.69776523194394],[139.87820445603754,35.69900135845904],[139.87831874236952,35.70284582532711]],[[139.87831874236952,35.70284582532711],[139.87947039694564,35.702755100445266]],[[139.87947039694564,35.702755100445266],[139.88170337604745,35.70263035373274]],[[139.88170337604745,35.70263035373274],[139.8817824973542,35.702573650681586]],[[139.8817824973542,35.702573650681586],[139.88221326891323,35.69776523194394]],[[139.88221326891323,35.69776523194394],[139.88070117282854,35.697617804010946]],[[139.88070117282854,35.697617804010946],[139.87727258286907,35.697685847672325]],[[139.88990561818127,35.71787213388226],[139.88210777383753,35.72078667071145]],[[139.88210777383753,35.72078667071145],[139.88096491051772,35.722567146517605]],[[139.88849901717225,35.71941445687358],[139.88990561818127,35.71787213388226]],[[139.89292981035064,35.701915895288224],[139.8912067241146,35.70202930139053]],[[139.8912067241146,35.70202930139053],[139.89089023888758,35.70323140607494],[139.8932726693466,35.70356028377162]],[[139.8932726693466,35.70356028377162],[139.89292981035064,35.701915895288224]],[[139.87204178536678,35.68415649966757],[139.86975605872715,35.68461012407679]],[[139.86975605872715,35.68461012407679],[139.87130331983707,35.688806149861996]],[[139.8737297065776,35.68734321114229],[139.87204178536678,35.68415649966757]],[[139.86767253098253,35.69101756885691],[139.86767253098253,35.69143717143543]],[[139.8677516522893,35.69345580005642],[139.86787472987757,35.69846834977822]],[[139.86787472987757,35.69846834977822],[139.8699846313911,35.69690334556643]],[[139.8699846313911,35.69690334556643],[139.87145277119427,35.695803306374096]],[[139.87145277119427,35.695803306374096],[139.86924616586137,35.694340367654384],[139.86767253098253,35.69101756885691]],[[139.87130331983707,35.688806149861996],[139.86772527852037,35.690983547026214]],[[139.86772527852037,35.690983547026214],[139.86767253098253,35.69101756885691]],[[139.87145277119427,35.695803306374096],[139.8730264060731,35.69462388291014]],[[139.89588367246958,35.68245540813303],[139.89693862322633,35.684190521498266]],[[139.89693862322633,35.684190521498266],[139.89919797609707,35.686299875001104],[139.89961116514345,35.68780817616173]],[[139.89961116514345,35.68780817616173],[139.90129029509797,35.688522634606244]],[[139.90129029509797,35.688522634606244],[139.9040771233471,35.6871957832093],[139.9075584608444,35.684587442856326]],[[139.9075584608444,35.684587442856326],[139.90365514304438,35.683192547798],[139.89588367246958,35.68245540813303]],[[139.8824682153461,35.73563152950291],[139.8802704012695,35.740394585799635]],[[139.8802704012695,35.740394585799635],[139.87973413463484,35.741539987432894],[139.8817737060979,35.743286441408365]],[[139.8817737060979,35.743286441408365],[139.88473635947315,35.736300625506495]],[[139.88473635947315,35.736300625506495],[139.88470998570423,35.736289284896266]],[[139.88470998570423,35.736289284896266],[139.8824682153461,35.73563152950291]],[[139.85452960280455,35.706282030226895],[139.85276256028698,35.70843674617065]],[[139.8509955177694,35.71070486821671],[139.8566834605996,35.71427716043925],[139.8611230450343,35.71416375433695]],[[139.8611230450343,35.71416375433695],[139.86018238060953,35.7134719771129],[139.8589955610082,35.709139864004925]],[[139.88268799675376,35.67892847835141],[139.88267920549745,35.67892847835141]],[[139.88267920549745,35.67892847835141],[139.88157150720286,35.68286367010132]],[[139.88157150720286,35.68286367010132],[139.88223964268215,35.6833059539003]],[[139.88223964268215,35.6833059539003],[139.88513196600692,35.68546066984406]],[[139.88513196600692,35.68546066984406],[139.88600230038125,35.68480291445071]],[[139.88600230038125,35.68480291445071],[139.88798912430647,35.683271932069616]],[[139.88798912430647,35.683271932069616],[139.88268799675376,35.67892847835141]],[[139.8847978982673,35.70241488213836],[139.8847978982673,35.7023922009179]],[[139.8847978982673,35.7023922009179],[139.8817824973542,35.702573650681586]],[[139.88170337604745,35.70263035373274],[139.8803934788578,35.70730268514762]],[[139.8803934788578,35.70730268514762],[139.88380448630465,35.707529497352226]],[[139.88380448630465,35.707529497352226],[139.8847978982673,35.70241488213836]],[[139.89131221919027,35.728373538955516],[139.88983528813083,35.73102724174941]],[[139.88983528813083,35.73102724174941],[139.8931232179894,35.73411188773205]],[[139.8931232179894,35.73411188773205],[139.89403750864525,35.73493975227886]],[[139.89403750864525,35.73493975227886],[139.89852984061778,35.73301184853971]],[[139.89852984061778,35.73301184853971],[139.8971847784029,35.72913335984095]],[[139.8971847784029,35.72913335984095],[139.89131221919027,35.728373538955516]],[[139.88376932127943,35.72528889297288],[139.8820550262997,35.72737556525525]],[[139.8820550262997,35.72737556525525],[139.88141326458936,35.73085713259595],[139.88179128861051,35.73244481802819],[139.88030556629474,35.732422136807735]],[[139.88030556629474,35.732422136807735],[139.88305722951864,35.73427065627527]],[[139.88305722951864,35.73427065627527],[139.8863627418898,35.72772712417239]],[[139.8863627418898,35.72772712417239],[139.88376932127943,35.72526621175241]],[[139.86787472987757,35.69846834977822],[139.8680329724911,35.70335615278748]],[[139.8707934269713,35.70327676851586],[139.8714967274758,35.6996591138524],[139.8699846313911,35.69690334556643]],[[139.909527702257,35.68650400598525],[139.9075584608444,35.684587442856326]],[[139.90129029509797,35.688522634606244],[139.90260019228762,35.68950926769628]],[[139.90260019228762,35.68950926769628],[139.90629251993627,35.69195883950602]],[[139.90629251993627,35.69195883950602],[139.9093606683872,35.68868140314947]],[[139.9093606683872,35.68868140314947],[139.909527702257,35.68650400598525]],[[139.8751099338177,35.703095318752176],[139.8761033457803,35.70301593448057]],[[139.8761033457803,35.70301593448057],[139.87488136115374,35.6982755594043]],[[139.87488136115374,35.6982755594043],[139.87145277119427,35.695803306374096]],[[139.88600230038125,35.68480291445071],[139.88618691676368,35.686980311614924]],[[139.88618691676368,35.686980311614924],[139.89094298642542,35.69371663409172]],[[139.89094298642542,35.69371663409172],[139.8924374999975,35.690790756652305]],[[139.8924374999975,35.690790756652305],[139.8938704747754,35.68806901019703]],[[139.8938704747754,35.68806901019703],[139.8938704747754,35.6880576695868]],[[139.8938704747754,35.6880576695868],[139.88798912430647,35.683271932069616]],[[139.8914616705475,35.72391667913501],[139.8894220990844,35.7238372948634]],[[139.8894220990844,35.7238372948634],[139.88755835274748,35.72886118519542]],[[139.88755835274748,35.72886118519542],[139.88983528813083,35.73102724174941]],[[139.89131221919027,35.728373538955516],[139.8918836508502,35.7265703819289],[139.8914616705475,35.72391667913501]],[[139.873826410397,35.71587618648173],[139.8708022182276,35.71746387191397]],[[139.8708022182276,35.71746387191397],[139.87256046948886,35.719720653349796],[139.8759626856794,35.72097946108536]],[[139.8759626856794,35.72097946108536],[139.8774747817641,35.719380435042886]],[[139.8774747817641,35.719380435042886],[139.873826410397,35.71587618648173]],[[139.88880671114296,35.74210701794441],[139.88846385214703,35.746768008749065]],[[139.88846385214703,35.746768008749065],[139.8942397075403,35.747618554516336]],[[139.8942397075403,35.747618554516336],[139.89850346684887,35.74558858528511]],[[139.89850346684887,35.74558858528511],[139.89388805728802,35.744998873553136],[139.89485509548174,35.74321839774698],[139.89162870441731,35.742492598692245]],[[139.89162870441731,35.742492598692245],[139.88880671114296,35.74210701794441]],[[139.88755835274748,35.72886118519542],[139.88584405776774,35.73340876989777]],[[139.88584405776774,35.73340876989777],[139.8931232179894,35.73411188773205]],[[139.88512317475062,35.73533667363692],[139.88470998570423,35.736289284896266]],[[139.88473635947315,35.736300625506495],[139.88890341496236,35.73750273019091]],[[139.88890341496236,35.73750273019091],[139.88977374933668,35.73748004897045],[139.89941775750472,35.73432735932643]],[[139.89941775750472,35.73432735932643],[139.89852984061778,35.73301184853971]],[[139.89403750864525,35.73493975227886],[139.89098694270695,35.73599442903028],[139.88739131887766,35.73598308842005],[139.88512317475062,35.73533667363692]],[[139.8924374999975,35.690790756652305],[139.89663972051193,35.69219699232086]],[[139.89663972051193,35.69219699232086],[139.89809027780248,35.689384520983744]],[[139.89809027780248,35.689384520983744],[139.8938704747754,35.68806901019703]],[[139.8803934788578,35.70730268514762],[139.87932973684474,35.711975016562505]],[[139.87932973684474,35.711975016562505],[139.88267920549745,35.71247400341264]],[[139.88267920549745,35.71247400341264],[139.88291656941772,35.71153273276352]],[[139.88291656941772,35.71153273276352],[139.88380448630465,35.707529497352226]],[[139.89251662130425,35.738625450603706],[139.88903528380695,35.73943063393006]],[[139.88903528380695,35.73943063393006],[139.88475394198576,35.741539987432894]],[[139.88475394198576,35.741539987432894],[139.88880671114296,35.74210701794441]],[[139.89162870441731,35.742492598692245],[139.89251662130425,35.738625450603706]],[[139.87722862658754,35.69776523194394],[139.87488136115374,35.6982755594043]],[[139.8761033457803,35.70301593448057],[139.87831874236952,35.70284582532711]],[[139.874687953515,35.68245540813303],[139.87503960376725,35.683510084884446]],[[139.87503960376725,35.683510084884446],[139.87507476879247,35.68360080976629]],[[139.88140447333305,35.68331729451053],[139.88223964268215,35.6833059539003]],[[139.88157150720286,35.68286367010132],[139.8812286482069,35.682648198506946]],[[139.8812286482069,35.682648198506946],[139.8745648759267,35.682149211656814]],[[139.88283744811096,35.68722980503999],[139.88513196600692,35.68546066984406]],[[139.8922880486403,35.69754976034956],[139.89292981035064,35.701915895288224]],[[139.89292981035064,35.701915895288224],[139.89720236091551,35.70168908308362]],[[139.89720236091551,35.70168908308362],[139.8986968744876,35.698944655407885]],[[139.8986968744876,35.698944655407885],[139.89901335971464,35.69846834977822]],[[139.89901335971464,35.69846834977822],[139.89430124633444,35.69685798312551]],[[139.89850346684887,35.74558858528511],[139.90019138805968,35.742617345404774],[139.90071886343807,35.73986157711881],[139.90044633449256,35.73694704028962]],[[139.90044633449256,35.73694704028962],[139.89251662130425,35.738625450603706]],[[139.8971671958903,35.703605646212544],[139.89363311085515,35.70511394737317]],[[139.89363311085515,35.70511394737317],[139.89066166622362,35.7068830825691]],[[139.89066166622362,35.7068830825691],[139.89225288361507,35.71065950577579]],[[139.89225288361507,35.71065950577579],[139.89459135779254,35.71030794685865]],[[139.89459135779254,35.71030794685865],[139.89464410533037,35.710273925027955]],[[139.89464410533037,35.710273925027955],[139.8959012549822,35.70693978562025]],[[139.8959012549822,35.70693978562025],[139.8971671958903,35.703605646212544]],[[139.87518026386815,35.67643354410074],[139.87854731503347,35.681071853684934],[139.8812286482069,35.682648198506946]],[[139.88267920549745,35.67892847835141],[139.87518026386815,35.67643354410074]],[[139.8771934615623,35.707087213553244],[139.8762264233686,35.7095027635323]],[[139.8753912540195,35.71251936585356],[139.87907479041186,35.71308639636507]],[[139.87907479041186,35.71308639636507],[139.87932973684474,35.711975016562505]],[[139.8803934788578,35.70730268514762],[139.8771934615623,35.707087213553244]],[[139.8771934615623,35.707087213553244],[139.87947039694564,35.702755100445266]],[[139.88317151585062,35.67785112037953],[139.88268799675376,35.67892847835141]],[[139.88798912430647,35.683271932069616],[139.88966825426098,35.68223993653866],[139.88965946300468,35.68085638209056]],[[139.88965946300468,35.68085638209056],[139.8867759309362,35.67920065299693],[139.88638032440244,35.67822536051713]],[[139.88638032440244,35.67822536051713],[139.88317151585062,35.67785112037953]],[[139.8766484036713,35.72649099765729],[139.87509235130509,35.72874777909312]],[[139.87509235130509,35.72874777909312],[139.87504839502355,35.7288158227545]],[[139.87504839502355,35.7288158227545],[139.88030556629474,35.732422136807735]],[[139.8820550262997,35.72737556525525],[139.8766484036713,35.72649099765729]],[[139.87244618315688,35.73437272176734],[139.87423080818706,35.736062472691664],[139.87279783340912,35.736640843813404],[139.8766484036713,35.73693569967939],[139.87771214568437,35.738444000840026],[139.87768577191545,35.74108636302368]],[[139.87768577191545,35.74108636302368],[139.88043743513933,35.735041817770934]],[[139.88043743513933,35.735041817770934],[139.87886380026052,35.73456551214126]],[[139.87886380026052,35.73456551214126],[139.87244618315688,35.73437272176734]],[[139.87689455884788,35.673428282389715],[139.87686818507896,35.673428282389715]],[[139.87686818507896,35.673428282389715],[139.87176046516498,35.67419944388537]],[[139.87176046516498,35.67419944388537],[139.86978243249607,35.67478915561735]],[[139.86978243249607,35.67478915561735],[139.8708198007402,35.67637684104959]],[[139.8708198007402,35.67637684104959],[139.87518026386815,35.67643354410074]],[[139.88317151585062,35.67785112037953],[139.883153933338,35.67704593705318],[139.8781429172434,35.6746984307355],[139.87689455884788,35.673428282389715]],[[139.87751873804564,35.71940311626335],[139.8774747817641,35.719380435042886]],[[139.8759626856794,35.72097946108536],[139.87423959944337,35.72279395872221]],[[139.87423959944337,35.72279395872221],[139.87394069672897,35.72312283641889]],[[139.87394069672897,35.72312283641889],[139.8734308038632,35.72506208076827],[139.87709675774292,35.72566313311047]],[[139.87709675774292,35.72566313311047],[139.87950556197086,35.72125163573089]],[[139.87950556197086,35.72125163573089],[139.87950556197086,35.72122895451043]],[[139.87950556197086,35.72122895451043],[139.87751873804564,35.71940311626335]],[[139.86593186223388,35.70290252837826],[139.86501757157802,35.701904554677995],[139.86557142072533,35.69930755493526]],[[139.86557142072533,35.69930755493526],[139.86410328092217,35.698196175132686],[139.86342635418657,35.69508884792958]],[[139.86810330254156,35.7228279805529],[139.86872748173928,35.72408678828847],[139.87089013079066,35.724778565512516],[139.87061760184517,35.72591262653554]],[[139.87061760184517,35.72591262653554],[139.8714791449632,35.726445635216365]],[[139.8714791449632,35.726445635216365],[139.87394069672897,35.72312283641889]],[[139.87423959944337,35.72279395872221],[139.87158464003886,35.72236301553346],[139.86810330254156,35.7228279805529]],[[139.89903094222726,35.69299083503698],[139.89781774885697,35.69633631505492],[139.89959358263084,35.69744769485749]],[[139.89959358263084,35.69744769485749],[139.90224854203535,35.69503214487843]],[[139.90224854203535,35.69503214487843],[139.89903094222726,35.69299083503698]],[[139.88584405776774,35.73340876989777],[139.88512317475062,35.73533667363692]],[[139.8708198007402,35.67637684104959],[139.87348355140102,35.680436779512036]],[[139.86515823167892,35.686243171949954],[139.86517581419153,35.68633389683179]],[[139.86517581419153,35.68633389683179],[139.86772527852037,35.690983547026214]],[[139.86975605872715,35.68461012407679],[139.86515823167892,35.686243171949954]],[[139.88305722951864,35.73427065627527],[139.88512317475062,35.73533667363692]],[[139.88755835274748,35.72886118519542],[139.8863627418898,35.72772712417239]],[[139.86517581419153,35.68633389683179],[139.85495158310727,35.68919173060983]],[[139.89225288361507,35.71065950577579],[139.89222650984615,35.71076157126786]],[[139.89222650984615,35.71076157126786],[139.8905210061227,35.71598959258403]],[[139.8905210061227,35.71598959258403],[139.89167266069884,35.71754325618558]],[[139.89167266069884,35.71754325618558],[139.8935627808047,35.71274617805816]],[[139.8935627808047,35.71274617805816],[139.89459135779254,35.71030794685865]],[[139.8720681591357,35.684133818447116],[139.87204178536678,35.68415649966757]],[[139.87768577191545,35.6911649967899],[139.87904841664295,35.690121660648714]],[[139.87503960376725,35.683510084884446],[139.8720681591357,35.684133818447116]],[[139.87709675774292,35.72566313311047],[139.8766484036713,35.72649099765729]],[[139.8809473280051,35.72258982773806],[139.87950556197086,35.72125163573089]],[[139.88267920549745,35.71247400341264],[139.8819055749425,35.71519574986791]],[[139.8819055749425,35.71519574986791],[139.88419130158215,35.71637517333186]],[[139.88419130158215,35.71637517333186],[139.88587922279297,35.711294579948685]],[[139.88587922279297,35.711294579948685],[139.88291656941772,35.71153273276352]],[[139.89663972051193,35.69219699232086],[139.895092459402,35.69530431952396]],[[139.89901335971464,35.69846834977822],[139.89959358263084,35.69744769485749]],[[139.89903094222726,35.69299083503698],[139.89663972051193,35.69219699232086]],[[139.8737560803465,35.715796802210114],[139.873826410397,35.71587618648173]],[[139.87751873804564,35.71940311626335],[139.87907479041186,35.71308639636507]],[[139.87355388145147,35.73081177015503],[139.872076950392,35.732592245961186]],[[139.872076950392,35.732592245961186],[139.87244618315688,35.73437272176734]],[[139.87886380026052,35.73456551214126],[139.87355388145147,35.73081177015503]],[[139.8714791449632,35.726445635216365],[139.87509235130509,35.72874777909312]],[[139.88568581515423,35.672078749772304],[139.87689455884788,35.673428282389715]],[[139.88638032440244,35.67822536051713],[139.88575614520468,35.67566238260508],[139.88568581515423,35.672078749772304]],[[139.87768577191545,35.74108636302368],[139.8802704012695,35.740394585799635]],[[139.8824682153461,35.73563152950291],[139.88043743513933,35.735041817770934]],[[139.88376932127943,35.717679343508344],[139.88399789394342,35.716987566284295]],[[139.88399789394342,35.716987566284295],[139.88376932127943,35.717679343508344]],[[139.8905210061227,35.71598959258403],[139.89031880722766,35.71662466675693]],[[139.89031880722766,35.71662466675693],[139.88990561818127,35.71787213388226]],[[139.88574735394837,35.72265787139945],[139.88680230470513,35.72403008523731],[139.8894220990844,35.7238372948634]],[[139.8894220990844,35.7238372948634],[139.89169903446776,35.71757727801627]],[[139.89169903446776,35.71757727801627],[139.89167266069884,35.71754325618558]],[[139.87190112526588,35.68314718535708],[139.8720681591357,35.684133818447116]],[[139.90309250264076,35.709366676209534],[139.90110567871554,35.70943471987091]],[[139.90110567871554,35.70943471987091],[139.90095622735834,35.712780199888854]],[[139.90095622735834,35.712780199888854],[139.90470130254482,35.71253070646379],[139.9085430815507,35.71389157969142]],[[139.9085430815507,35.71389157969142],[139.91265738950207,35.711521392153294]],[[139.91265738950207,35.711521392153294],[139.907145271798,35.71090899920085],[139.90469251128852,35.71128323933846],[139.90309250264076,35.709366676209534]],[[139.87904841664295,35.690121660648714],[139.88267920549745,35.69336507517458]],[[139.88267920549745,35.69336507517458],[139.88277590931682,35.692798044663064]],[[139.88277590931682,35.692798044663064],[139.88267920549745,35.68734321114229]],[[139.89094298642542,35.69371663409172],[139.89107485527,35.693988808737245]],[[139.88505284470017,35.746416449831926],[139.88285503062357,35.74833301296085],[139.88031435755104,35.748593846996144],[139.88062205152178,35.74968254557825],[139.8827583268042,35.749376349102036],[139.88595834409972,35.75066917866829],[139.8896946280299,35.75072588171944],[139.89178694703082,35.748763956149595],[139.8942397075403,35.747618554516336]],[[139.88846385214703,35.746768008749065],[139.88505284470017,35.746416449831926]],[[139.8611230450343,35.71416375433695],[139.86353184926224,35.71318846185714]],[[139.86353184926224,35.71318846185714],[139.866652745251,35.70940069804023]],[[139.89170782572407,35.71756593740604],[139.89169903446776,35.71757727801627]],[[139.8914616705475,35.72391667913501],[139.89445948894794,35.723417692284876],[139.8978529138822,35.72468784063067]],[[139.8978529138822,35.72468784063067],[139.89913643730293,35.72293004604497]],[[139.89913643730293,35.72293004604497],[139.89421333377138,35.72092275803421],[139.89237596120336,35.718473186224465]],[[139.89237596120336,35.718473186224465],[139.89170782572407,35.71756593740604]],[[139.87410773059878,35.693807358973565],[139.87727258286907,35.697685847672325]],[[139.88070117282854,35.697617804010946],[139.87930336307582,35.69601877796847],[139.88056930398395,35.694725948402215],[139.8787407226722,35.69143717143543],[139.87768577191545,35.691187678010365]],[[139.88221326891323,35.69776523194394],[139.88238030278305,35.69753841973933]],[[139.88238030278305,35.69753841973933],[139.88267920549745,35.69336507517458]],[[139.89867050071868,35.7097295757369],[139.89720236091551,35.713585383215204]],[[139.89720236091551,35.713585383215204],[139.89947929629886,35.714197776167644],[139.90095622735834,35.712780199888854]],[[139.90110567871554,35.70943471987091],[139.89867050071868,35.7097295757369]],[[139.8922880486403,35.69754976034956],[139.88559790259117,35.69751573851887]],[[139.88559790259117,35.69751573851887],[139.8847978982673,35.7023922009179]],[[139.8847978982673,35.70241488213836],[139.8902484771772,35.70208600444168]],[[139.8902484771772,35.70208600444168],[139.8912067241146,35.70202930139053]],[[139.89961116514345,35.68780817616173],[139.89809027780248,35.689384520983744]],[[139.89903094222726,35.69299083503698],[139.90260019228762,35.68950926769628]],[[139.9034177791241,35.70768826589545],[139.90309250264076,35.709366676209534]],[[139.91265738950207,35.711521392153294],[139.9146705871962,35.70978627878806]],[[139.9146705871962,35.70978627878806],[139.91135628356872,35.708209933966046],[139.9034177791241,35.70768826589545]],[[139.86353184926224,35.71318846185714],[139.86841978776857,35.71327918673899]],[[139.86841978776857,35.71327918673899],[139.8736154202456,35.71566071488735]],[[139.87504839502355,35.7288158227545],[139.87355388145147,35.73081177015503]],[[139.88277590931682,35.692798044663064],[139.88604625666278,35.69223101415155]],[[139.88604625666278,35.69223101415155],[139.88618691676368,35.686980311614924]],[[139.87159343129517,35.64720879153726],[139.87159343129517,35.647197450927024]],[[139.87159343129517,35.647197450927024],[139.87000221390372,35.645587084274325]],[[139.87000221390372,35.645587084274325],[139.86143953026135,35.64873977391835]],[[139.86143953026135,35.64873977391835],[139.86292525257713,35.65005528470506],[139.86364613559422,35.65387707035267]],[[139.86364613559422,35.65387707035267],[139.86662637148208,35.654296672931196]],[[139.86662637148208,35.654296672931196],[139.86672307530145,35.6530265245854]],[[139.86672307530145,35.6530265245854],[139.86659999771317,35.651563585865695],[139.86479779017037,35.65024807507898],[139.87159343129517,35.64720879153726]],[[139.91274530206513,35.696495083598144],[139.91568158167146,35.70124679928464]],[[139.91568158167146,35.70124679928464],[139.9164640034827,35.701723104914315]],[[139.9164640034827,35.701723104914315],[139.91795851705479,35.6983889655066],[139.91585740679758,35.69494141999659]],[[139.91585740679758,35.69494141999659],[139.91274530206513,35.696495083598144]],[[139.90629251993627,35.69195883950602],[139.90226612454796,35.695020804268204]],[[139.90226612454796,35.695020804268204],[139.9063364762178,35.69771986950302]],[[139.9063364762178,35.69771986950302],[139.90638043249933,35.697685847672325]],[[139.90638043249933,35.697685847672325],[139.91055627924484,35.69582598759455]],[[139.91055627924484,35.69582598759455],[139.9093782508998,35.69419293972139],[139.90629251993627,35.69195883950602]],[[139.90530789922997,35.70413865489336],[139.9034177791241,35.70766558467499]],[[139.9034177791241,35.70766558467499],[139.9034177791241,35.70768826589545]],[[139.9146705871962,35.70978627878806],[139.9154793827764,35.70893573302078]],[[139.9154793827764,35.70893573302078],[139.90829692637413,35.705204672255014]],[[139.90829692637413,35.705204672255014],[139.90530789922997,35.70413865489336]],[[139.89464410533037,35.710273925027955],[139.89867050071868,35.7097295757369]],[[139.9034177791241,35.70766558467499],[139.8985474231304,35.70717793843509]],[[139.8985474231304,35.70717793843509],[139.8959012549822,35.70693978562025]],[[139.8819055749425,35.71519574986791],[139.87950556197086,35.72122895451043]],[[139.88210777383753,35.72078667071145],[139.8834352535398,35.718529889275615]],[[139.8834352535398,35.718529889275615],[139.88376932127943,35.717679343508344]],[[139.88399789394342,35.716987566284295],[139.88419130158215,35.71637517333186]],[[139.8736154202456,35.667735296054104],[139.87545279281363,35.670933348139044]],[[139.87545279281363,35.670933348139044],[139.87852094126455,35.67057044861168],[139.87765939814653,35.668710588533905],[139.87896050407988,35.668222942294],[139.88132535202627,35.668994103789665]],[[139.88132535202627,35.668994103789665],[139.8810791968497,35.66646514770831]],[[139.8810791968497,35.66646514770831],[139.8736154202456,35.667735296054104]],[[139.86673186655776,35.67701191522249],[139.86671428404514,35.67703459644295]],[[139.86671428404514,35.67703459644295],[139.86447251368702,35.67867898492634]],[[139.86447251368702,35.67867898492634],[139.86768132223884,35.68154815931461]],[[139.86768132223884,35.68154815931461],[139.8681824238483,35.68116257856678]],[[139.8681824238483,35.68116257856678],[139.8705208980258,35.67925735604808]],[[139.8705208980258,35.67925735604808],[139.86920220957984,35.67915529055601],[139.86673186655776,35.67701191522249]],[[139.87831874236952,35.6516429701373],[139.87640224849474,35.65186978234191]],[[139.87640224849474,35.65186978234191],[139.87270992084606,35.65228938492043]],[[139.87270992084606,35.65228938492043],[139.87255167823255,35.65245949407389]],[[139.87255167823255,35.65245949407389],[139.8727802508965,35.65597508324528]],[[139.8727802508965,35.65597508324528],[139.87280662466543,35.65598642385551]],[[139.87280662466543,35.65598642385551],[139.87499564748572,35.655850336532744],[139.87738686920105,35.65431935415165],[139.87831874236952,35.6516429701373]],[[139.8684461615375,35.654704934899485],[139.8691406707857,35.65933190387345]],[[139.8691406707857,35.65933190387345],[139.87055606305103,35.660851545644306]],[[139.87055606305103,35.660851545644306],[139.87308794486725,35.66046596489648]],[[139.87308794486725,35.66046596489648],[139.87311431863617,35.660454624286245]],[[139.87311431863617,35.660454624286245],[139.8730088235605,35.659082410448384]],[[139.8730088235605,35.659082410448384],[139.87280662466543,35.65598642385551]],[[139.8727802508965,35.65597508324528],[139.87003737892894,35.6556462055486],[139.8684461615375,35.654704934899485]],[[139.90226612454796,35.695020804268204],[139.90224854203535,35.69503214487843]],[[139.8986968744876,35.698944655407885],[139.90262656605654,35.700294188025296]],[[139.90262656605654,35.700294188025296],[139.90544855933086,35.69947766408871],[139.9063364762178,35.69771986950302]],[[139.91086397321558,35.696200227732156],[139.91055627924484,35.69582598759455]],[[139.90638043249933,35.697685847672325],[139.90788373732772,35.69926219249434]],[[139.90788373732772,35.69926219249434],[139.90959803230746,35.70193857650869],[139.90920242577369,35.703435537059086]],[[139.90920242577369,35.703435537059086],[139.91091672075342,35.70319738424425],[139.91300903975431,35.70140556782786]],[[139.91300903975431,35.70140556782786],[139.91086397321558,35.696200227732156]],[[139.8971847784029,35.72913335984095],[139.8978529138822,35.72468784063067]],[[139.90788373732772,35.69926219249434],[139.9053518555115,35.70404793001153]],[[139.9053518555115,35.70404793001153],[139.90530789922997,35.70413865489336]],[[139.90829692637413,35.705204672255014],[139.90920242577369,35.703435537059086]],[[139.8670923080663,35.719675290908874],[139.86810330254156,35.7228279805529]],[[139.8708022182276,35.71746387191397],[139.8670923080663,35.719675290908874]],[[139.87061760184517,35.72591262653554],[139.86994946636588,35.72890654763634],[139.87168134385823,35.72938285326602],[139.872076950392,35.732592245961186]],[[139.8834352535398,35.718529889275615],[139.88733857133982,35.7175886186265]],[[139.88733857133982,35.7175886186265],[139.88893857998758,35.711124470795234]],[[139.88893857998758,35.711124470795234],[139.88587922279297,35.711294579948685]],[[139.86672307530145,35.6530265245854],[139.87255167823255,35.65245949407389]],[[139.87270992084606,35.65228938492043],[139.87176046516498,35.64739024130094]],[[139.87176046516498,35.64739024130094],[139.87159343129517,35.64720879153726]],[[139.89222650984615,35.71076157126786],[139.88893857998758,35.711124470795234]],[[139.88733857133982,35.7175886186265],[139.89031880722766,35.71662466675693]],[[139.89066166622362,35.7068830825691],[139.88902649255064,35.70614594290413]],[[139.88902649255064,35.70614594290413],[139.88380448630465,35.707529497352226]],[[139.85897797849557,35.66478673739422],[139.85940875005457,35.66651051014923],[139.86107908875277,35.66827964534516]],[[139.86107908875277,35.66827964534516],[139.86490328524604,35.665342427295506]],[[139.86490328524604,35.665342427295506],[139.86451646996855,35.6642537287134]],[[139.86451646996855,35.6642537287134],[139.85897797849557,35.66478673739422]],[[139.8978617051385,35.70174578613477],[139.8971671958903,35.703605646212544]],[[139.8985474231304,35.70717793843509],[139.9003760044421,35.702528288240664]],[[139.9003760044421,35.702528288240664],[139.8978617051385,35.70174578613477]],[[139.88890341496236,35.73750273019091],[139.88903528380695,35.73943063393006]],[[139.90044633449256,35.73694704028962],[139.89941775750472,35.73432735932643]],[[139.90262656605654,35.700294188025296],[139.9014397464552,35.702698397394116]],[[139.9014397464552,35.702698397394116],[139.9053518555115,35.70404793001153]],[[139.89412542120832,35.715785461599886],[139.89170782572407,35.71756593740604]],[[139.89237596120336,35.718473186224465],[139.8957781773939,35.71969797212934],[139.90078040223221,35.722215587600466]],[[139.90078040223221,35.722215587600466],[139.90397162827142,35.719618587857724]],[[139.90397162827142,35.719618587857724],[139.89903973348356,35.71718035665821],[139.89412542120832,35.715785461599886]],[[139.86107908875277,35.66827964534516],[139.85877577960053,35.66999207748993]],[[139.85877577960053,35.66999207748993],[139.86627472122984,35.66886935707713]],[[139.86627472122984,35.66886935707713],[139.8663538425366,35.6688580164669]],[[139.8663538425366,35.6688580164669],[139.86490328524604,35.665342427295506]],[[139.8902484771772,35.70208600444168],[139.88902649255064,35.70614594290413]],[[139.89363311085515,35.70511394737317],[139.8932726693466,35.70356028377162]],[[139.86768132223884,35.68154815931461],[139.8641472372037,35.68437197126195]],[[139.8641472372037,35.68437197126195],[139.86515823167892,35.686243171949954]],[[139.86975605872715,35.68461012407679],[139.8681824238483,35.68116257856678]],[[139.88154513343395,35.65918447594046],[139.88150996840872,35.65918447594046]],[[139.88150996840872,35.65918447594046],[139.88180007986682,35.6633918423359]],[[139.88180007986682,35.6633918423359],[139.88264404047223,35.66620431367301]],[[139.88264404047223,35.66620431367301],[139.8851143834943,35.66580739231495],[139.88698692108755,35.663743401253036]],[[139.88698692108755,35.663743401253036],[139.88709241616323,35.658401973834565]],[[139.88709241616323,35.658401973834565],[139.88154513343395,35.65918447594046]],[[139.88150996840872,35.65918447594046],[139.87311431863617,35.660454624286245]],[[139.87308794486725,35.66046596489648],[139.87334289130013,35.663754741863265]],[[139.87334289130013,35.663754741863265],[139.88180007986682,35.6633918423359]],[[139.87185716898435,35.64186736411879],[139.86895605440327,35.64409012372393],[139.87187475149696,35.645700490376626],[139.87159343129517,35.647197450927024]],[[139.87176046516498,35.64739024130094],[139.8759275206542,35.64708404482472]],[[139.8759275206542,35.64708404482472],[139.8756462004524,35.64477056033774],[139.87670994246545,35.64260450378376]],[[139.87670994246545,35.64260450378376],[139.87259563451408,35.64145910215049]],[[139.87259563451408,35.64145910215049],[139.87185716898435,35.64186736411879]],[[139.8641472372037,35.68437197126195],[139.86371646564467,35.68357812854583]],[[139.86371646564467,35.68357812854583],[139.85367685094283,35.6870483552763]],[[139.88475394198576,35.741539987432894],[139.88210777383753,35.743343144459516]],[[139.88210777383753,35.743343144459516],[139.88202865253078,35.74423905266771],[139.88490339334297,35.74559992589534],[139.88505284470017,35.746416449831926]],[[139.91568158167146,35.70124679928464],[139.91300903975431,35.70140556782786]],[[139.9154793827764,35.70893573302078],[139.91875852137866,35.705669637274454]],[[139.91875852137866,35.705669637274454],[139.91621784830613,35.702312816646284],[139.9164640034827,35.701723104914315]],[[139.8736154202456,35.667735296054104],[139.87161101380778,35.66807551436101]],[[139.87161101380778,35.66807551436101],[139.87223519300554,35.67117150095388],[139.87176046516498,35.67419944388537]],[[139.87686818507896,35.673428282389715],[139.87545279281363,35.670933348139044]],[[139.86078897729467,35.67196534367],[139.8598658953825,35.672804548827045],[139.86228349086676,35.67500462721172],[139.86010325930278,35.67688716850996]],[[139.86010325930278,35.67688716850996],[139.86201096192124,35.680493482563186]],[[139.86201096192124,35.680493482563186],[139.86201975317755,35.68050482317342]],[[139.86201975317755,35.68050482317342],[139.86447251368702,35.67867898492634]],[[139.86671428404514,35.67703459644295],[139.86338239790504,35.674176762664914]],[[139.86338239790504,35.674176762664914],[139.86078897729467,35.67196534367]],[[139.88154513343395,35.65918447594046],[139.881087988106,35.656632838638636]],[[139.881087988106,35.656632838638636],[139.87543521030102,35.65808443674811],[139.8730088235605,35.659082410448384]],[[139.89720236091551,35.713585383215204],[139.89715840463398,35.713574042604975]],[[139.89715840463398,35.713574042604975],[139.89412542120832,35.715785461599886]],[[139.90397162827142,35.719618587857724],[139.9085430815507,35.71389157969142]],[[139.91164639502685,35.69557649416949],[139.91086397321558,35.696200227732156]],[[139.91274530206513,35.696495083598144],[139.91164639502685,35.69557649416949]],[[139.85897797849557,35.66478673739422],[139.854169161296,35.66505891203975]],[[139.854169161296,35.66505891203975],[139.8569559895451,35.67028693335592]],[[139.8569559895451,35.67028693335592],[139.85852962442394,35.67003743993085]],[[139.85852962442394,35.67003743993085],[139.85853841568024,35.67002609932062]],[[139.85853841568024,35.67002609932062],[139.85877577960053,35.66999207748993]],[[139.86143953026135,35.64873977391835],[139.85854720693655,35.64675516712804]],[[139.85854720693655,35.64675516712804],[139.85625268904062,35.64694795750196]],[[139.85625268904062,35.64694795750196],[139.8565340092424,35.65053159033474],[139.85791423648251,35.651631629527074],[139.85829226050367,35.65446678208465]],[[139.85829226050367,35.65446678208465],[139.85907468231494,35.65480700039156]],[[139.85907468231494,35.65480700039156],[139.86364613559422,35.65387707035267]],[[139.87205057662308,35.68006253937444],[139.8705208980258,35.67925735604808]],[[139.8468372535365,35.67139831315849],[139.84716253001986,35.674619046463896]],[[139.84716253001986,35.674619046463896],[139.85213838108925,35.67443759670021],[139.85716697969647,35.67111479790273]],[[139.85716697969647,35.67111479790273],[139.85852962442394,35.67003743993085]],[[139.8569559895451,35.67028693335592],[139.85178673083698,35.67105809485158],[139.8468372535365,35.67139831315849]],[[139.86841978776857,35.71327918673899],[139.86853407410055,35.71395962335281],[139.86627472122984,35.71823503340963],[139.8670923080663,35.719675290908874]],[[139.87334289130013,35.663754741863265],[139.8736154202456,35.667735296054104]],[[139.8810791968497,35.66646514770831],[139.88264404047223,35.66620431367301]],[[139.8676373659573,35.664083619559946],[139.86451646996855,35.6642537287134]],[[139.8663538425366,35.6688580164669],[139.86890330686543,35.66847243571907]],[[139.86890330686543,35.66847243571907],[139.8676373659573,35.664083619559946]],[[139.91164639502685,35.69557649416949],[139.91080243442144,35.69458986107945],[139.9093606683872,35.68868140314947]],[[139.86404174212802,35.6587535327517],[139.8644549311744,35.661747453852506]],[[139.8644549311744,35.661747453852506],[139.87055606305103,35.660851545644306]],[[139.8691406707857,35.65933190387345],[139.8670659342974,35.65854940176756],[139.86404174212802,35.6587535327517]],[[139.88132535202627,35.668994103789665],[139.88409459776278,35.67028693335592],[139.88581768399882,35.67184059695747]],[[139.88581768399882,35.67184059695747],[139.88707483365062,35.66902812562036],[139.88698692108755,35.663743401253036]],[[139.86201975317755,35.68050482317342],[139.86371646564467,35.68357812854583]],[[139.86010325930278,35.67688716850996],[139.85787028020096,35.67880373163887],[139.85307904551402,35.67722738681686],[139.84811198570094,35.67780575793861]],[[139.84811198570094,35.67780575793861],[139.84898232007527,35.679983155102825]],[[139.85140870681582,35.68363483159698],[139.8551274082334,35.68272758277856],[139.86201096192124,35.680493482563186]],[[139.9014397464552,35.702698397394116],[139.9003760044421,35.702528288240664]],[[139.86557142072533,35.69930755493526],[139.86787472987757,35.69846834977822]],[[139.87976050840376,35.64428291409784],[139.87670994246545,35.64260450378376]],[[139.8759275206542,35.64708404482472],[139.87640224849474,35.65186978234191]],[[139.87831874236952,35.6516429701373],[139.8801033673997,35.65086046803141]],[[139.8801033673997,35.65086046803141],[139.88020886247537,35.65087180864165]],[[139.88020886247537,35.65087180864165],[139.8794264406641,35.64471385728659],[139.87976050840376,35.64428291409784]],[[139.85020430470183,35.654761637950635],[139.8503977123406,35.65727925342176]],[[139.8503977123406,35.65727925342176],[139.855144990746,35.65729059403199],[139.85590103878835,35.658526720547094],[139.85772962010006,35.658855598243775]],[[139.85772962010006,35.658855598243775],[139.85809885286494,35.65822052407088]],[[139.85809885286494,35.65822052407088],[139.85907468231494,35.65480700039156]],[[139.85829226050367,35.65446678208465],[139.85020430470183,35.654761637950635]],[[139.86978243249607,35.67478915561735],[139.86673186655776,35.67701191522249]],[[139.89715840463398,35.713574042604975],[139.8935627808047,35.71274617805816]],[[139.87185716898435,35.64186736411879],[139.8677516522893,35.643489071381715]],[[139.8677516522893,35.643489071381715],[139.87000221390372,35.645587084274325]],[[139.91585740679758,35.69494141999659],[139.9163233433818,35.694204280331626]],[[139.9163233433818,35.694204280331626],[139.9136771752336,35.690631988109075],[139.909527702257,35.68650400598525]],[[139.8938704747754,35.6880576695868],[139.89573422111238,35.68485961750186],[139.89693862322633,35.684190521498266]],[[139.89588367246958,35.68245540813303],[139.8928770628128,35.68202446494428],[139.88965946300468,35.68085638209056]],[[139.88238030278305,35.69753841973933],[139.88559790259117,35.69751573851887]],[[139.88559790259117,35.69751573851887],[139.88604625666278,35.69223101415155]],[[139.88568581515423,35.672078749772304],[139.88581768399882,35.67184059695747]],[[139.8644549311744,35.661747453852506],[139.8642878973046,35.66189488178549]],[[139.8642878973046,35.66189488178549],[139.86451646996855,35.6642537287134]],[[139.8676373659573,35.664083619559946],[139.87334289130013,35.663754741863265]],[[139.86627472122984,35.66886935707713],[139.86738241952443,35.67176121268586]],[[139.86738241952443,35.67176121268586],[139.86978243249607,35.67478915561735]],[[139.87161101380778,35.66807551436101],[139.86890330686543,35.66847243571907]],[[139.8850968009817,35.64982847250046],[139.88332975846413,35.645870599530085],[139.8786000625713,35.642967403311125],[139.87519784638076,35.64026833807631],[139.86994067510958,35.637331120026666]],[[139.86994067510958,35.637331120026666],[139.8708285919965,35.63883942118729],[139.8735802552204,35.64012091014332],[139.87259563451408,35.64145910215049]],[[139.87976050840376,35.64428291409784],[139.8827407442916,35.646800529568964],[139.8837341562542,35.650146009586905]],[[139.8837341562542,35.650146009586905],[139.8850968009817,35.64982847250046]],[[139.8978617051385,35.70174578613477],[139.89720236091551,35.70168908308362]],[[139.854169161296,35.66505891203975],[139.85292959415682,35.66513829631136]],[[139.85292959415682,35.66513829631136],[139.8513823330469,35.66539913034666]],[[139.8513823330469,35.66539913034666],[139.84627461313292,35.665750689263795]],[[139.84627461313292,35.665750689263795],[139.8468372535365,35.67139831315849]],[[139.8801033673997,35.65086046803141],[139.881087988106,35.656632838638636]],[[139.88709241616323,35.658401973834565],[139.8869165910371,35.65460286940741],[139.8850968009817,35.64982847250046]],[[139.8837341562542,35.650146009586905],[139.88252096288394,35.6497717694493],[139.88020886247537,35.65087180864165]],[[139.8817737060979,35.743286441408365],[139.88210777383753,35.743343144459516]],[[139.86364613559422,35.65387707035267],[139.86403295087172,35.65876487336193]],[[139.86403295087172,35.65876487336193],[139.86404174212802,35.6587535327517]],[[139.8684461615375,35.654704934899485],[139.86662637148208,35.654296672931196]],[[139.85854720693655,35.64675516712804],[139.8677516522893,35.643489071381715]],[[139.86994067510958,35.637331120026666],[139.86908792324786,35.638816739966835],[139.86403295087172,35.63805691908141],[139.8596988615127,35.63828373128601],[139.85547026722935,35.639621923293184],[139.851241672946,35.641776639236944],[139.8490174851005,35.64209417632339],[139.84929880530228,35.64630154271883],[139.84520207986353,35.64652835492344],[139.8456943902167,35.65895766373585],[139.84627461313292,35.665750689263795]],[[139.8513823330469,35.66539913034666],[139.85109222158877,35.66047730550671],[139.8503977123406,35.65727925342176]],[[139.85020430470183,35.654761637950635],[139.8497119943487,35.64731085702933],[139.85625268904062,35.64694795750196]],[[139.84716253001986,35.674619046463896],[139.84811198570094,35.67780575793861]],[[139.86010325930278,35.67688716850996],[139.85716697969647,35.67111479790273]],[[139.86738241952443,35.67176121268586],[139.86338239790504,35.674176762664914]],[[139.85809885286494,35.65822052407088],[139.86403295087172,35.65876487336193]],[[139.85292959415682,35.66513829631136],[139.85689445075096,35.66306296463922]],[[139.85689445075096,35.66306296463922],[139.85772962010006,35.658855598243775]],[[139.91875852137866,35.705669637274454],[139.92110578681246,35.70316336241356],[139.91897830278631,35.69785595682578],[139.9163233433818,35.694204280331626]],[[139.89913643730293,35.72293004604497],[139.90078040223221,35.722215587600466]],[[139.86078897729467,35.67196534367],[139.85853841568024,35.67002609932062]],[[139.85689445075096,35.66306296463922],[139.8642878973046,35.66189488178549]]]}