{"type":"Topology","bbox":[139.56287443042973,35.71173858611741,139.6811332790044,35.779956290030626],"objects":{"town":{"type":"GeometryCollection","geometries":[{"type":"MultiPolygon","arcs":[[[15,16,-15,17,1,2,18]]],"properties":{"name":"旭丘"}},{"type":"MultiPolygon","arcs":[[[-56,-77,-30,-26,4,5,6,7,8,-41,80,77,-65,-64,72,-57]]],"properties":{"name":"豊玉中"}},{"type":"Polygon","arcs":[[9,10,11,12,13,14]],"properties":{"name":"栄町"}},{"type":"MultiPolygon","arcs":[[[21,-2,-18,-14,19,-39,-72,74]]],"properties":{"name":"小竹町"}},{"type":"MultiPolygon","arcs":[[[-32,46,47,48,49,-10,-17,22,23,-28]]],"properties":{"name":"豊玉上"}},{"type":"MultiPolygon","arcs":[[[50,51,52,53,75,-47,31,27,-24,-23,-16,61,-7,-6,-5,25,29,76,55,56]]],"properties":{"name":"豊玉北"}},{"type":"MultiPolygon","arcs":[[[-73,-44,57,35,36,32,33,58,79,-51]]],"properties":{"name":"中村"}},{"type":"MultiPolygon","arcs":[[[70,71,38,-20,-13,-12,66,67,68,83,84,85,86]]],"properties":{"name":"羽沢"}},{"type":"MultiPolygon","arcs":[[[-78,-81,40,-9,41,173,62,-45,63,64]]],"properties":{"name":"豊玉南"}},{"type":"MultiPolygon","arcs":[[[-36,-58,43,44,45,82,208]]],"properties":{"name":"中村南"}},{"type":"MultiPolygon","arcs":[[[99,100,-184,-108,-185,264,90,91,92,87,131,102,-96]]],"properties":{"name":"向山"}},{"type":"MultiPolygon","arcs":[[[108,94,95,-103,-133,-136,-52,-80,-59,-34,-33,109]]],"properties":{"name":"中村北"}},{"type":"MultiPolygon","arcs":[[[141,110,-172,-130,-148,-151,-84,-69,-68,-67,-11,-50,-49]]],"properties":{"name":"桜台"}},{"type":"MultiPolygon","arcs":[[[-100,-95,-109,174,123,118,119,176,177,105,106,107,183,-101]]],"properties":{"name":"貫井"}},{"type":"MultiPolygon","arcs":[[[-137,364,-155,207,-127,205,114,115,228,-138]]],"properties":{"name":"平和台"}},{"type":"MultiPolygon","arcs":[[[198,165,166,-205,363,-115,-206,126,127,128,129,-171,-182]]],"properties":{"name":"早宮"}},{"type":"MultiPolygon","arcs":[[[170,171,-111,-142,-48,-76,-54,-53,135,132,-132,-88,-93,180,181]]],"properties":{"name":"練馬"}},{"type":"MultiPolygon","arcs":[[[-365,136,137,138,139,-503,520,-164,-156]]],"properties":{"name":"錦"}},{"type":"MultiPolygon","arcs":[[[292,144,243,157,158,298,160,161,244,196,197,193,293]]],"properties":{"name":"南大泉"}},{"type":"MultiPolygon","arcs":[[[154,155,163,164,-86,-85,150,147,-129,-128,-208]]],"properties":{"name":"氷川台"}},{"type":"MultiPolygon","arcs":[[[-106,-178,-359,-474,-478,-477,-481,448,-419,449,450,-529,-468,-398,-533,534,484,-425,-235,187,188,184,-107]]],"properties":{"name":"高松"}},{"type":"MultiPolygon","arcs":[[[-197,-245,-162,289,290,315,316,222,223,224,225,226,227,233,-271,383,192,-351]]],"properties":{"name":"東大泉"}},{"type":"MultiPolygon","arcs":[[[-199,-181,-92,-91,-265,-189,-188,234,235,236,260,261,262,202,203,204,-167,-166]]],"properties":{"name":"春日町"}},{"type":"MultiPolygon","arcs":[[[-159,346,265,246,217,218,219,212,213,348,-290,-161,-299]]],"properties":{"name":"西大泉"}},{"type":"MultiPolygon","arcs":[[[371,303,-294,-194,304,305,372,-249,240,241,242,331,332,368,369]]],"properties":{"name":"関町北"}},{"type":"MultiPolygon","arcs":[[[275,-242,-241,248,249,250,276,277]]],"properties":{"name":"関町東"}},{"type":"MultiPolygon","arcs":[[[334,-298,-321,335,336,253,447,-286,-354,-390,-278,-277,-251,-338]]],"properties":{"name":"上石神井"}},{"type":"MultiPolygon","arcs":[[[256,257,258,-515,-523,-454,-225,-224,-223,-317,540,-555,457,-540,-546,553]]],"properties":{"name":"大泉町"}},{"type":"MultiPolygon","arcs":[[[406,407,342,343,344,345,326,327,328,-426,-361,-320,-319,268,269,270,-234,-228,321]]],"properties":{"name":"石神井町"}},{"type":"MultiPolygon","arcs":[[[350,-193,-384,-270,-269,318,319,320,297,-335,337,-250,-373,-306,-305,-198]]],"properties":{"name":"石神井台"}},{"type":"Polygon","arcs":[[284,285,286,287]],"properties":{"name":"上石神井南町"}},{"type":"MultiPolygon","arcs":[[[-369,-333,-332,-243,-276,389,353,-285,354,299,300,-367,-366,516]]],"properties":{"name":"関町南"}},{"type":"Polygon","arcs":[[307]],"properties":{"name":"西大泉町"}},{"type":"MultiPolygon","arcs":[[[-287,-448,-254,-337,-336,360,425,-380,426,386,387,384,314,479]]],"properties":{"name":"下石神井"}},{"type":"MultiPolygon","arcs":[[[-381,-328,-327,-346,-345,508,-374,-379,-475,357,358,359,-439,462,-403]]],"properties":{"name":"高野台"}},{"type":"Polygon","arcs":[[365,366,-301,367]],"properties":{"name":"立野町"}},{"type":"MultiPolygon","arcs":[[[-344,-443,-456,491,492,417,418,-449,480,476,477,473,-358,474,378,373,-509]]],"properties":{"name":"谷原"}},{"type":"MultiPolygon","arcs":[[[429,430,413,414,-388,-387,-427,379,-329,380,402,403,404]]],"properties":{"name":"南田中"}},{"type":"MultiPolygon","arcs":[[[463,464,503,391,504,505,466,-399,467]]],"properties":{"name":"旭町"}},{"type":"MultiPolygon","arcs":[[[-508,-473,435,436,437,498,499,-203,-263,-262,-261,-237,393,394,487,-496]]],"properties":{"name":"田柄"}},{"type":"MultiPolygon","arcs":[[[397,398,-467,-506,506,471,-436,472,507,495,-488,-395,-394,-236,424,-485,-535,532]]],"properties":{"name":"光が丘"}},{"type":"MultiPolygon","arcs":[[[-120,-119,496,432,-414,-431,-430,-405,-404,-463,438,-360,-177]]],"properties":{"name":"富士見台"}},{"type":"MultiPolygon","arcs":[[[-226,453,454,455,442,-343,-408,-407,-322,-227]]],"properties":{"name":"三原台"}},{"type":"MultiPolygon","arcs":[[[547,555,544,545,539,-458,554,-541,-316,-291,-349,-214,-213,-220,-219,443,556]]],"properties":{"name":"大泉学園町"}},{"type":"MultiPolygon","arcs":[[[-116,-364,-204,-500,-499,-438,523,557,550,501,502,-140,-139,-229]]],"properties":{"name":"北町"}},{"type":"MultiPolygon","arcs":[[[-450,-418,-493,-492,-455,522,514,-259,-258,512,527,-464,528,-451]]],"properties":{"name":"土支田"}}]}},"arcs":[[[139.67912267751848,35.73327706909111],[139.67317366253369,35.7376570836838]],[[139.67317366253369,35.7376570836838],[139.68022259480196,35.738598582147645]],[[139.68022259480196,35.738598582147645],[139.6804354820181,35.736749697483134],[139.67850767000513,35.734443708491966],[139.67912267751848,35.73327706909111]],[[139.66095630173984,35.728849297329965],[139.66092082053714,35.73228099100617]],[[139.66092082053714,35.73228099100617],[139.66335719645537,35.73224005629035]],[[139.66335719645537,35.73224005629035],[139.6654978956845,35.73215136440607]],[[139.6654978956845,35.73215136440607],[139.66539145207642,35.7315032314056]],[[139.66539145207642,35.7315032314056],[139.66312065510408,35.72785321924503]],[[139.66312065510408,35.72785321924503],[139.66095630173984,35.728849297329965]],[[139.6722038429934,35.73634035032494],[139.666515023495,35.738523535168646]],[[139.666515023495,35.738523535168646],[139.6683009106972,35.74098644057045]],[[139.6683009106972,35.74098644057045],[139.66877399339978,35.741163824339004]],[[139.66877399339978,35.741163824339004],[139.66941265504826,35.74034513002261],[139.67272423396625,35.74005858701188]],[[139.67272423396625,35.74005858701188],[139.67235759487176,35.7378617572629]],[[139.67235759487176,35.7378617572629],[139.6722038429934,35.73634035032494]],[[139.6723457678042,35.73370688360722],[139.6723102866015,35.734027538881136]],[[139.6723102866015,35.734027538881136],[139.6722038429934,35.73634035032494]],[[139.67235759487176,35.7378617572629],[139.67317366253369,35.7376570836838]],[[139.67912267751848,35.73327706909111],[139.67784535422155,35.730650424826024],[139.6748176249251,35.7331065077752],[139.6723457678042,35.73370688360722]],[[139.67272423396625,35.74005858701188],[139.6727715422365,35.740938683402]],[[139.6727715422365,35.740938683402],[139.6775615046,35.742180369781856],[139.67964306849132,35.741545881686655]],[[139.67964306849132,35.741545881686655],[139.67903988804554,35.740154101348786],[139.68022259480196,35.738598582147645]],[[139.6723102866015,35.734027538881136],[139.66800523400812,35.73511913130299]],[[139.66800523400812,35.73511913130299],[139.66472913629283,35.73599922769311]],[[139.66472913629283,35.73599922769311],[139.666515023495,35.738523535168646]],[[139.66092082053714,35.73228099100617],[139.65970263257802,35.73312015268047]],[[139.65970263257802,35.73312015268047],[139.66053052730751,35.73383651020731],[139.6609681288074,35.73669511786204]],[[139.6609681288074,35.73669511786204],[139.66472913629283,35.73599922769311]],[[139.66472913629283,35.73599922769311],[139.66335719645537,35.73224005629035]],[[139.65970263257802,35.73312015268047],[139.65668673034915,35.73317473230156]],[[139.65668673034915,35.73317473230156],[139.6565684596735,35.73743876519943]],[[139.6565684596735,35.73743876519943],[139.6609681288074,35.73669511786204]],[[139.63475934708507,35.73339987323857],[139.63880420419204,35.734068473596956]],[[139.63880420419204,35.734068473596956],[139.64137067785347,35.73420492264969]],[[139.64137067785347,35.73420492264969],[139.64154808386695,35.73054126558384]],[[139.64154808386695,35.73054126558384],[139.63718389593575,35.730193320499374]],[[139.63718389593575,35.730193320499374],[139.63624955759818,35.732431084964176],[139.63475934708507,35.73339987323857]],[[139.66877399339978,35.741163824339004],[139.67239307607443,35.74378364615145]],[[139.67239307607443,35.74378364615145],[139.6727715422365,35.740938683402]],[[139.65807049725416,35.72575190383296],[139.65885108371342,35.72945649561463]],[[139.65885108371342,35.72945649561463],[139.66095630173984,35.728849297329965]],[[139.66312065510408,35.72785321924503],[139.65807049725416,35.72575190383296]],[[139.6449306251903,35.72536984648531],[139.64412638459595,35.727136861718186],[139.64542736202802,35.730650424826024]],[[139.64542736202802,35.730650424826024],[139.64864432440547,35.730834631047216]],[[139.64864432440547,35.730834631047216],[139.64921202364857,35.728139762255765],[139.65027645972933,35.726829851349535]],[[139.65027645972933,35.726829851349535],[139.64749709885174,35.726618355317804],[139.6474734447166,35.725363024032674],[139.6449306251903,35.72536984648531]],[[139.6565684596735,35.73743876519943],[139.65604806870067,35.73763661632589]],[[139.65604806870067,35.73763661632589],[139.6573608732003,35.737929981789264]],[[139.6573608732003,35.737929981789264],[139.66131111376677,35.738148300273636]],[[139.66131111376677,35.738148300273636],[139.666515023495,35.738523535168646]],[[139.64980337702679,35.73345445285966],[139.64977972289165,35.7347097841448]],[[139.64977972289165,35.7347097841448],[139.64994530183753,35.73693390370432]],[[139.64994530183753,35.73693390370432],[139.65100973791832,35.73703624049387]],[[139.65100973791832,35.73703624049387],[139.65274831685025,35.737131754830784]],[[139.65274831685025,35.737131754830784],[139.65350524917437,35.73400024907059]],[[139.65350524917437,35.73400024907059],[139.65238167775578,35.73361136927031]],[[139.65238167775578,35.73361136927031],[139.64980337702679,35.73345445285966]],[[139.64542736202802,35.730650424826024],[139.64154808386695,35.73054126558384]],[[139.64137067785347,35.73420492264969],[139.6452026477443,35.73441641868142]],[[139.6452026477443,35.73441641868142],[139.64542736202802,35.730650424826024]],[[139.6654978956845,35.73215136440607],[139.66621934680592,35.73211042969026],[139.66800523400812,35.73511913130299]],[[139.6723457678042,35.73370688360722],[139.6682062941567,35.73219912157453],[139.667981579873,35.73134631499496],[139.66539145207642,35.7315032314056]],[[139.65391919653914,35.72630452249652],[139.65027645972933,35.726829851349535]],[[139.64864432440547,35.730834631047216],[139.6526300461746,35.73039117162583]],[[139.6526300461746,35.73039117162583],[139.6542858356336,35.73024790012047]],[[139.6542858356336,35.73024790012047],[139.65391919653914,35.72630452249652]],[[139.6683009106972,35.74098644057045],[139.667981579873,35.741423077539196]],[[139.667981579873,35.741423077539196],[139.6697319858725,35.74508673460504]],[[139.6697319858725,35.74508673460504],[139.66960188812928,35.74803403414405]],[[139.66960188812928,35.74803403414405],[139.67152970014226,35.74820459545996],[139.67294894824997,35.749528151271456],[139.67388328658754,35.74866852223925]],[[139.67388328658754,35.74866852223925],[139.6723102866015,35.74451364858357]],[[139.6723102866015,35.74451364858357],[139.67239307607443,35.74378364615145]],[[139.64864432440547,35.730834631047216],[139.64980337702679,35.73345445285966]],[[139.65238167775578,35.73361136927031],[139.6526300461746,35.73039117162583]],[[139.6723102866015,35.74451364858357],[139.67576379033025,35.74555748383696],[139.68094404592338,35.743933740109455],[139.67964306849132,35.741545881686655]],[[139.65274831685025,35.737131754830784],[139.65604806870067,35.73763661632589]],[[139.65668673034915,35.73317473230156],[139.65350524917437,35.73400024907059]],[[139.656935098768,35.72996135710973],[139.6542858356336,35.73024790012047]],[[139.65668673034915,35.73317473230156],[139.656935098768,35.72996135710973]],[[139.6452026477443,35.73441641868142],[139.64977972289165,35.7347097841448]],[[139.65885108371342,35.72945649561463],[139.656935098768,35.72996135710973]],[[139.6412050989076,35.72592928760151],[139.64154808386695,35.73054126558384]],[[139.6449306251903,35.72536984648531],[139.6412050989076,35.72592928760151]],[[139.66960188812928,35.74803403414405],[139.669554579859,35.749732824850554]],[[139.669554579859,35.749732824850554],[139.67109209864236,35.75008759238766],[139.67218018885828,35.75228442213664]],[[139.67218018885828,35.75228442213664],[139.67328010614176,35.754699570369986]],[[139.67328010614176,35.754699570369986],[139.674983203871,35.75181367290471],[139.67388328658754,35.74866852223925]],[[139.64694122667623,35.74009269927506],[139.64687026427083,35.739983540032874]],[[139.64687026427083,35.739983540032874],[139.64086211394823,35.7418528920553],[139.64031806884026,35.74251466996105]],[[139.64031806884026,35.74251466996105],[139.63986864027282,35.74407701161483],[139.64081480567796,35.7456393532686]],[[139.64081480567796,35.7456393532686],[139.64109865529952,35.74563253081597]],[[139.64109865529952,35.74563253081597],[139.6426243470153,35.74559841855278],[139.6455692868388,35.74409747897273],[139.64826585824343,35.74466374254157]],[[139.64826585824343,35.74466374254157],[139.64694122667623,35.74009269927506]],[[139.63880420419204,35.734068473596956],[139.63810640720575,35.7368929689885]],[[139.63810640720575,35.7368929689885],[139.63870958765153,35.73694072615696]],[[139.63870958765153,35.73694072615696],[139.64062557259695,35.737165867093964]],[[139.64062557259695,35.737165867093964],[139.64137067785347,35.73420492264969]],[[139.66131111376677,35.738148300273636],[139.6619261212801,35.74138896527601]],[[139.6619261212801,35.74138896527601],[139.66299055736087,35.7420575656344],[139.667981579873,35.741423077539196]],[[139.63870958765153,35.73694072615696],[139.6385913169759,35.737547924441614]],[[139.6385913169759,35.737547924441614],[139.63952565531346,35.7395400806115]],[[139.63952565531346,35.7395400806115],[139.64454033196068,35.73790951443135]],[[139.64454033196068,35.73790951443135],[139.64062557259695,35.737165867093964]],[[139.63781073051666,35.74029737285416],[139.6336594298016,35.742262239213495]],[[139.6336594298016,35.742262239213495],[139.62834907646527,35.7451344917735]],[[139.62834907646527,35.7451344917735],[139.62988659524862,35.74510720196295]],[[139.62988659524862,35.74510720196295],[139.63323365536928,35.74523000611041]],[[139.63323365536928,35.74523000611041],[139.63429809145006,35.7447251446153],[139.63781073051666,35.74029737285416]],[[139.63341106138276,35.73551483355591],[139.63810640720575,35.7368929689885]],[[139.63475934708507,35.73339987323857],[139.63341106138276,35.73551483355591]],[[139.65652115140324,35.740918216044086],[139.65553950479543,35.74531187554205]],[[139.65553950479543,35.74531187554205],[139.66044773783457,35.74602823306889],[139.66260026413127,35.74574851251079]],[[139.66260026413127,35.74574851251079],[139.66028215888866,35.74293766202452],[139.6615358280505,35.741962051297484]],[[139.6615358280505,35.741962051297484],[139.65652115140324,35.740918216044086]],[[139.65705336944364,35.75594125674985],[139.65317409128258,35.75824724574101]],[[139.65317409128258,35.75824724574101],[139.65746731680838,35.760457720395266]],[[139.65746731680838,35.760457720395266],[139.66066062505072,35.758267713098924]],[[139.66066062505072,35.758267713098924],[139.65705336944364,35.75594125674985]],[[139.62775772308706,35.73509866394508],[139.6264212644523,35.73604698486157]],[[139.6264212644523,35.73604698486157],[139.62580625693897,35.74125933867592]],[[139.62580625693897,35.74125933867592],[139.62892860277591,35.741498124518195],[139.63067900877542,35.738639516863465]],[[139.63067900877542,35.738639516863465],[139.63063170050518,35.738380263663274]],[[139.63063170050518,35.738380263663274],[139.63069083584298,35.73543296412427]],[[139.63069083584298,35.73543296412427],[139.62775772308706,35.73509866394508]],[[139.6557050837413,35.74863440997606],[139.6548535348767,35.75224348742082]],[[139.6548535348767,35.75224348742082],[139.65883925664585,35.75463134584362]],[[139.65883925664585,35.75463134584362],[139.66081437692907,35.75306900418985]],[[139.66081437692907,35.75306900418985],[139.66452807614422,35.7501694618193]],[[139.66452807614422,35.7501694618193],[139.66330988818513,35.749146093923805]],[[139.66330988818513,35.749146093923805],[139.6581887679298,35.74936441240818],[139.6557050837413,35.74863440997606]],[[139.63952565531346,35.7395400806115],[139.64031806884026,35.74251466996105]],[[139.64687026427083,35.739983540032874],[139.64454033196068,35.73790951443135]],[[139.64567573044687,35.73769801839962],[139.64454033196068,35.73790951443135]],[[139.64694122667623,35.74009269927506],[139.65063127175625,35.74005176455924]],[[139.65063127175625,35.74005176455924],[139.65100973791832,35.73703624049387]],[[139.64994530183753,35.73693390370432],[139.64567573044687,35.73769801839962]],[[139.6680407152108,35.760075663047616],[139.6648355799009,35.76093529207983]],[[139.6648355799009,35.76093529207983],[139.66204439195573,35.76266819504952]],[[139.66204439195573,35.76266819504952],[139.6635109483337,35.764271471419114]],[[139.6635109483337,35.764271471419114],[139.66812350468376,35.76294791560762]],[[139.66812350468376,35.76294791560762],[139.6680407152108,35.760075663047616]],[[139.6573608732003,35.737929981789264],[139.65652115140324,35.740918216044086]],[[139.6615358280505,35.741962051297484],[139.6619261212801,35.74138896527601]],[[139.57335321229164,35.73977204400114],[139.56833853564441,35.74067260774917]],[[139.56833853564441,35.74067260774917],[139.56818478376607,35.743101400887795],[139.5665171672395,35.74757692981739],[139.56907181383338,35.747808893207036]],[[139.56907181383338,35.747808893207036],[139.57305753560252,35.743735888983]],[[139.57305753560252,35.743735888983],[139.57413379875086,35.741914294129025],[139.57335321229164,35.73977204400114]],[[139.66346364006344,35.749146093923805],[139.66330988818513,35.749146093923805]],[[139.66452807614422,35.7501694618193],[139.66880947460248,35.75404461491688]],[[139.66880947460248,35.75404461491688],[139.67218018885828,35.75228442213664]],[[139.669554579859,35.749732824850554],[139.6664558881572,35.749023289776346],[139.66346364006344,35.749146093923805]],[[139.66260026413127,35.74574851251079],[139.66346364006344,35.749146093923805]],[[139.6697319858725,35.74508673460504],[139.66759128664336,35.74441131179402],[139.66367652727962,35.74502533253131],[139.66260026413127,35.74574851251079]],[[139.66880947460248,35.75404461491688],[139.6648000986982,35.756084528255215]],[[139.6648000986982,35.756084528255215],[139.6678041738595,35.75859519082548],[139.66846648964312,35.758138086498825]],[[139.66846648964312,35.758138086498825],[139.6719081663043,35.75719658803498]],[[139.6719081663043,35.75719658803498],[139.66880947460248,35.75404461491688]],[[139.56872882887401,35.74832739960742],[139.56792458827965,35.7501694618193],[139.56939114465763,35.74995796578756],[139.56923739277929,35.75139750329388]],[[139.56923739277929,35.75139750329388],[139.57014807698172,35.75173180347307]],[[139.57014807698172,35.75173180347307],[139.57234791154866,35.75236629156828],[139.57714970097976,35.7525573202421]],[[139.57714970097976,35.7525573202421],[139.58094618966786,35.7518682525258]],[[139.58094618966786,35.7518682525258],[139.57905385885758,35.74939852467136]],[[139.57905385885758,35.74939852467136],[139.56872882887401,35.74832739960742]],[[139.6719081663043,35.75719658803498],[139.67351664749305,35.75883397666776]],[[139.67351664749305,35.75883397666776],[139.67328010614176,35.754699570369986]],[[139.64819489583803,35.744991220268126],[139.6477809484733,35.7488459060078],[139.64921202364857,35.75345788399013]],[[139.64921202364857,35.75345788399013],[139.6499571289051,35.753567043232316]],[[139.6499571289051,35.753567043232316],[139.65359986571488,35.75369666983241],[139.6548535348767,35.75224348742082]],[[139.6548535348767,35.75224348742082],[139.65025280559422,35.749064224492166],[139.64819489583803,35.744991220268126]],[[139.65108070032372,35.74013363399088],[139.65086781310754,35.74327196220371],[139.65252360256653,35.7453596327105]],[[139.65252360256653,35.7453596327105],[139.6557050837413,35.74863440997606]],[[139.6557050837413,35.74863440997606],[139.65553950479543,35.74531187554205]],[[139.65652115140324,35.740918216044086],[139.65108070032372,35.74013363399088]],[[139.65807049725416,35.72575190383296],[139.65391919653914,35.72630452249652]],[[139.63341106138276,35.73551483355591],[139.63069083584298,35.73543296412427]],[[139.63063170050518,35.738380263663274],[139.63377770047725,35.738557647431826],[139.6344518433284,35.739601482685224],[139.63740861021947,35.738680451579285],[139.6385913169759,35.737547924441614]],[[139.62580625693897,35.74125933867592],[139.6256288509255,35.746000943258345]],[[139.6256288509255,35.746000943258345],[139.62834907646527,35.7451344917735]],[[139.6336594298016,35.742262239213495],[139.63067900877542,35.738639516863465]],[[139.64567573044687,35.73769801839962],[139.6452026477443,35.73441641868142]],[[139.64826585824343,35.74466374254157],[139.64828951237854,35.74468420989948]],[[139.64828951237854,35.74468420989948],[139.65252360256653,35.7453596327105]],[[139.65108070032372,35.74013363399088],[139.65063127175625,35.74005176455924]],[[139.63781073051666,35.74029737285416],[139.63952565531346,35.7395400806115]],[[139.63695918165203,35.74475243442585],[139.63323365536928,35.74523000611041]],[[139.63323365536928,35.74523000611041],[139.6318735425994,35.74615103721635],[139.63305624935583,35.74901646732371],[139.63186171553184,35.751090492925236]],[[139.63186171553184,35.751090492925236],[139.63313903882877,35.75105638066205]],[[139.63313903882877,35.75105638066205],[139.63479482828777,35.75089946425141]],[[139.63479482828777,35.75089946425141],[139.63628503880088,35.750033012766565],[139.63695918165203,35.74475243442585]],[[139.5818332197352,35.73992896041178],[139.5806386859112,35.74303999881406],[139.58075695658684,35.74588496156352],[139.58264928739712,35.74980787182956]],[[139.58264928739712,35.74980787182956],[139.58527489639636,35.74979422692429]],[[139.58527489639636,35.74979422692429],[139.5860200016529,35.74855254054442],[139.5864221219501,35.743640374646084],[139.58710809186883,35.74245326788732]],[[139.58710809186883,35.74245326788732],[139.5818332197352,35.73992896041178]],[[139.57652286639885,35.73607427467211],[139.572501663427,35.73479847602907]],[[139.572501663427,35.73479847602907],[139.57335321229164,35.73977204400114]],[[139.57305753560252,35.743735888983],[139.57684219722307,35.74369495426718]],[[139.57684219722307,35.74369495426718],[139.57573045287205,35.742255416760855],[139.57923126487105,35.73850306781073]],[[139.57923126487105,35.73850306781073],[139.57652286639885,35.73607427467211]],[[139.64828951237854,35.74468420989948],[139.64819489583803,35.744991220268126]],[[139.64921202364857,35.75345788399013],[139.6442091740689,35.75325321041103]],[[139.6442091740689,35.75325321041103],[139.64416186579865,35.75351246361122]],[[139.64416186579865,35.75351246361122],[139.64325118159618,35.756207332402674],[139.6449306251903,35.75643247333968],[139.64394897858247,35.7583018253621]],[[139.64394897858247,35.7583018253621],[139.6476508507301,35.759577624005146],[139.6493657755269,35.75939341778396]],[[139.6493657755269,35.75939341778396],[139.64924750485125,35.75622779976058]],[[139.64924750485125,35.75622779976058],[139.6499571289051,35.753567043232316]],[[139.65883925664585,35.75463134584362],[139.65705336944364,35.75594125674985]],[[139.66066062505072,35.758267713098924],[139.6648000986982,35.756084528255215]],[[139.6648000986982,35.756084528255215],[139.66081437692907,35.75306900418985]],[[139.6412050989076,35.72592928760151],[139.6397030613269,35.72616807344379],[139.6393127680973,35.72790097641348],[139.63718389593575,35.730193320499374]],[[139.58396209189675,35.75409919453797],[139.5803311821545,35.75387405360096]],[[139.5803311821545,35.75387405360096],[139.57762278368233,35.75859519082548],[139.57524554310191,35.76055323473218]],[[139.57524554310191,35.76055323473218],[139.5791839566008,35.76232024996505]],[[139.5791839566008,35.76232024996505],[139.5799763701276,35.76262043788106],[139.5807687836544,35.758144908951465]],[[139.5807687836544,35.758144908951465],[139.5815966783839,35.75669172653987],[139.58369006934277,35.755920789391936],[139.58396209189675,35.75409919453797]],[[139.57524554310191,35.76055323473218],[139.57524554310191,35.76056005718481]],[[139.57524554310191,35.76056005718481],[139.57486707693985,35.76092846962719]],[[139.57486707693985,35.76092846962719],[139.57149636268406,35.763439132197455]],[[139.57149636268406,35.763439132197455],[139.57068029502213,35.76528119440933],[139.572312430346,35.76622951532582],[139.5744886107778,35.766249982683725],[139.57446495664266,35.767211948505484]],[[139.57446495664266,35.767211948505484],[139.5793495355467,35.765035586114415]],[[139.5793495355467,35.765035586114415],[139.5791839566008,35.76232024996505]],[[139.59626224216353,35.74834104451269],[139.59260767828619,35.75073572538813]],[[139.59260767828619,35.75073572538813],[139.5924066181376,35.75476779489635]],[[139.5924066181376,35.75476779489635],[139.59833197898726,35.757223877845526]],[[139.59833197898726,35.757223877845526],[139.5984265955278,35.757305747277165]],[[139.5984265955278,35.757305747277165],[139.60099306918923,35.75652798767659]],[[139.60099306918923,35.75652798767659],[139.6008747985136,35.75643247333968]],[[139.6008747985136,35.75643247333968],[139.5993136255951,35.754863309233265],[139.59751591132533,35.75058563143013]],[[139.59751591132533,35.75058563143013],[139.59626224216353,35.74834104451269]],[[139.65746731680838,35.760457720395266],[139.66204439195573,35.76266819504952]],[[139.6648355799009,35.76093529207983],[139.66066062505072,35.758267713098924]],[[139.59503222713684,35.74636253324808],[139.59311624219146,35.746792347764185],[139.5863866407474,35.749657777871555],[139.58527489639636,35.74979422692429]],[[139.58527489639636,35.74979422692429],[139.58568884376112,35.751329278767514]],[[139.58568884376112,35.751329278767514],[139.59260767828619,35.75073572538813]],[[139.59626224216353,35.74834104451269],[139.59503222713684,35.74636253324808]],[[139.63313903882877,35.75105638066205],[139.63156603884275,35.75355339832704]],[[139.63156603884275,35.75355339832704],[139.63193267793724,35.75455629886462]],[[139.63193267793724,35.75455629886462],[139.6371247605979,35.75548415242319]],[[139.6371247605979,35.75548415242319],[139.63930094102975,35.75176591573626]],[[139.63930094102975,35.75176591573626],[139.63479482828777,35.75089946425141]],[[139.57738624233104,35.72311843711524],[139.57730345285808,35.72745069453947],[139.57816682879027,35.72750527416056]],[[139.57816682879027,35.72750527416056],[139.5799763701276,35.727341535297285]],[[139.5799763701276,35.727341535297285],[139.58160850545147,35.72326853107324]],[[139.58160850545147,35.72326853107324],[139.57738624233104,35.72311843711524]],[[139.56907181383338,35.747808893207036],[139.56872882887401,35.74832739960742]],[[139.57905385885758,35.74939852467136],[139.57714970097976,35.74653309456399],[139.57684219722307,35.74369495426718]],[[139.57486707693985,35.76092846962719],[139.56954489653594,35.76142650866966],[139.56387973117268,35.76029398153199]],[[139.56387973117268,35.76029398153199],[139.56287443042973,35.76151520055394],[139.56359588155115,35.76282511146016],[139.56528715221282,35.76185632318577],[139.56915460330634,35.76352782408173],[139.57149636268406,35.763439132197455]],[[139.58376103174814,35.72705499228655],[139.5799763701276,35.727341535297285]],[[139.57816682879027,35.72750527416056],[139.5778948062363,35.728562754319235]],[[139.5778948062363,35.728562754319235],[139.58212889642428,35.730322947099474]],[[139.58212889642428,35.730322947099474],[139.58197514454596,35.72816022961367],[139.58376103174814,35.72705499228655]],[[139.59137766325952,35.72638639192816],[139.59153141513784,35.73025472257311]],[[139.59153141513784,35.73025472257311],[139.599479204541,35.72944967316199]],[[139.599479204541,35.72944967316199],[139.5995501669464,35.72545853836959]],[[139.5995501669464,35.72545853836959],[139.59137766325952,35.72638639192816]],[[139.6022230842159,35.765874747788715],[139.60280261052654,35.76725970567394],[139.60011786618946,35.76949747013874]],[[139.60011786618946,35.76949747013874],[139.60315742255347,35.77114850367679],[139.6040444526208,35.770172892949766],[139.6063507307958,35.77129177518216],[139.60707218191723,35.76929279655965],[139.60869249017352,35.769108590338455],[139.6110460766188,35.771168971034704],[139.61118800142958,35.76927915165437]],[[139.61118800142958,35.76927915165437],[139.609792407457,35.7665433481471],[139.61088049767292,35.764312406134934]],[[139.61088049767292,35.764312406134934],[139.60967413678136,35.7637461425661]],[[139.60967413678136,35.7637461425661],[139.60739151274146,35.76413502236638],[139.60663458041736,35.765451755725245],[139.6022230842159,35.765874747788715]],[[139.6371247605979,35.75548415242319],[139.63682908390882,35.75635060390804]],[[139.63682908390882,35.75635060390804],[139.64157173800209,35.75762640255108]],[[139.64157173800209,35.75762640255108],[139.64394897858247,35.7583018253621]],[[139.64416186579865,35.75351246361122],[139.63930094102975,35.75176591573626]],[[139.63695918165203,35.74475243442585],[139.64081480567796,35.7456393532686]],[[139.56716765595553,35.7554295728021],[139.56387973117268,35.76029398153199]],[[139.57524554310191,35.76056005718481],[139.57239521981893,35.7595503341946],[139.57082221983288,35.75755135557208],[139.57070394915723,35.755450040160014]],[[139.57070394915723,35.755450040160014],[139.56716765595553,35.7554295728021]],[[139.59680628727148,35.741757377718386],[139.59601387374468,35.74148447961292]],[[139.59601387374468,35.74148447961292],[139.59440539255596,35.745079912152406]],[[139.59440539255596,35.745079912152406],[139.59503222713684,35.74636253324808]],[[139.59503222713684,35.74636253324808],[139.6037369488641,35.744438601604564]],[[139.6037369488641,35.744438601604564],[139.6044110917153,35.74426121783601]],[[139.6044110917153,35.74426121783601],[139.60147797895937,35.74327196220371]],[[139.60147797895937,35.74327196220371],[139.59680628727148,35.741757377718386]],[[139.58618558059882,35.72224516317775],[139.58160850545147,35.72326853107324]],[[139.58376103174814,35.72705499228655],[139.58609096405831,35.72681620644426]],[[139.58609096405831,35.72681620644426],[139.58618558059882,35.72224516317775]],[[139.58385564828868,35.73400024907059],[139.58256649792415,35.73764343877853]],[[139.58256649792415,35.73764343877853],[139.58824349035498,35.73912391100067]],[[139.58824349035498,35.73912391100067],[139.5894971595168,35.734982682250255]],[[139.5894971595168,35.734982682250255],[139.58385564828868,35.73400024907059]],[[139.64109865529952,35.74563253081597],[139.6413588507859,35.74656038437454]],[[139.6413588507859,35.74656038437454],[139.64444571542018,35.74732449906984],[139.6442091740689,35.75325321041103]],[[139.5957773323934,35.72203366714602],[139.59473655044775,35.72140600150345],[139.5918152647594,35.722299742798846],[139.59156689634054,35.72342544748388]],[[139.59156689634054,35.72342544748388],[139.5962385880284,35.724783115558566],[139.5995856481491,35.725233397432575]],[[139.5995856481491,35.725233397432575],[139.6000114225814,35.72388937426317]],[[139.6000114225814,35.72388937426317],[139.5957773323934,35.72203366714602]],[[139.58264928739712,35.74980787182956],[139.57905385885758,35.74939852467136]],[[139.58094618966786,35.7518682525258],[139.58403305430213,35.75393545567469]],[[139.58403305430213,35.75393545567469],[139.5859253851124,35.75421517623279],[139.58790050539562,35.75683499804524]],[[139.58790050539562,35.75683499804524],[139.58568884376112,35.751329278767514]],[[139.56945027999544,35.734027538881136],[139.567345061969,35.736162966556385],[139.56838584391465,35.73797773895772],[139.56833853564441,35.74067260774917]],[[139.572501663427,35.73479847602907],[139.56945027999544,35.734027538881136]],[[139.59069169334077,35.73253342175372],[139.5894971595168,35.734982682250255]],[[139.58824349035498,35.73912391100067],[139.5924066181376,35.74030419530679]],[[139.5924066181376,35.74030419530679],[139.59414519706954,35.73679745465159],[139.5943580842857,35.73398660416532],[139.5956117534475,35.733474920217574]],[[139.5956117534475,35.733474920217574],[139.59214642265118,35.73349538757548],[139.59069169334077,35.73253342175372]],[[139.57014807698172,35.75173180347307],[139.57089318223828,35.754324335474976],[139.5745595731832,35.754324335474976],[139.57714970097976,35.7525573202421]],[[139.59386134744798,35.71802888744834],[139.5902186106382,35.72027347436578],[139.58607913699075,35.71912730232283],[139.58510931745047,35.71633691919447],[139.58695433999048,35.71303485211836]],[[139.58695433999048,35.71303485211836],[139.58342987385635,35.71471317546696],[139.58260197912685,35.720328053986876]],[[139.58260197912685,35.720328053986876],[139.58747473096332,35.721835816019556]],[[139.58747473096332,35.721835816019556],[139.5911174677731,35.72022571719732],[139.59386134744798,35.71802888744834]],[[139.56831488150928,35.73153734366878],[139.56945027999544,35.734027538881136]],[[139.57652286639885,35.73607427467211],[139.57679488895283,35.73341351814384]],[[139.57679488895283,35.73341351814384],[139.57722066338513,35.731448651784504]],[[139.57722066338513,35.731448651784504],[139.56831488150928,35.73153734366878]],[[139.5670139040772,35.763555113892274],[139.5670139040772,35.763555113892274]],[[139.6413588507859,35.74656038437454],[139.63930094102975,35.75176591573626]],[[139.60859787363302,35.728132939803125],[139.60309828721566,35.72921770977234]],[[139.60309828721566,35.72921770977234],[139.60554649020145,35.73214454195344]],[[139.60554649020145,35.73214454195344],[139.60619697891747,35.73258117892218]],[[139.60619697891747,35.73258117892218],[139.6090709563356,35.73329071399638]],[[139.6090709563356,35.73329071399638],[139.60980423452457,35.72860368903505]],[[139.60980423452457,35.72860368903505],[139.60859787363302,35.728132939803125]],[[139.58790050539562,35.75683499804524],[139.58989927981398,35.75720341048761]],[[139.58989927981398,35.75720341048761],[139.5924066181376,35.75476779489635]],[[139.5924066181376,35.74030419530679],[139.59601387374468,35.74148447961292]],[[139.59680628727148,35.741757377718386],[139.5985803474061,35.738305216684275]],[[139.5985803474061,35.738305216684275],[139.60003507671652,35.735453431482185]],[[139.60003507671652,35.735453431482185],[139.59906525717625,35.73454604528152],[139.5956117534475,35.733474920217574]],[[139.59751591132533,35.75058563143013],[139.6007683549055,35.750415070114215]],[[139.6007683549055,35.750415070114215],[139.6027553022563,35.7472426296382],[139.6037369488641,35.744438601604564]],[[139.6086688360384,35.73981297871696],[139.6083731593493,35.740283727948885]],[[139.6083731593493,35.740283727948885],[139.60728506913338,35.74178466752893],[139.60779363303865,35.74340841125644]],[[139.60779363303865,35.74340841125644],[139.61153098638894,35.74256924958214]],[[139.61153098638894,35.74256924958214],[139.61530382094193,35.74155270413929]],[[139.61530382094193,35.74155270413929],[139.61480708410423,35.739103443642755]],[[139.61480708410423,35.739103443642755],[139.6086688360384,35.73981297871696]],[[139.57309301680522,35.72301610032569],[139.57284464838636,35.727976023392486]],[[139.57284464838636,35.727976023392486],[139.57816682879027,35.72750527416056]],[[139.57738624233104,35.72311843711524],[139.57697229496628,35.72309114730469]],[[139.57697229496628,35.72309114730469],[139.57309301680522,35.72301610032569]],[[139.59153141513784,35.73025472257311],[139.58961543019245,35.731250800658046]],[[139.58961543019245,35.731250800658046],[139.59069169334077,35.73253342175372]],[[139.60003507671652,35.735453431482185],[139.59966843762203,35.73239015024836]],[[139.59966843762203,35.73239015024836],[139.599479204541,35.72944967316199]],[[139.58961543019245,35.731250800658046],[139.58212889642428,35.730322947099474]],[[139.58212889642428,35.730322947099474],[139.58153754304607,35.73359090191239]],[[139.58153754304607,35.73359090191239],[139.58385564828868,35.73400024907059]],[[139.60779363303865,35.74340841125644],[139.6064571744039,35.743810935961996]],[[139.6064571744039,35.743810935961996],[139.6049314826881,35.75026497615621]],[[139.6049314826881,35.75026497615621],[139.60743882101173,35.7501899291772]],[[139.60743882101173,35.7501899291772],[139.60799469318724,35.750148994461384]],[[139.60799469318724,35.750148994461384],[139.60989885106508,35.7459736534478]],[[139.60989885106508,35.7459736534478],[139.6115428134565,35.74441131179402],[139.61153098638894,35.74256924958214]],[[139.56923739277929,35.75139750329388],[139.56716765595553,35.7554295728021]],[[139.57070394915723,35.755450040160014],[139.57225329500815,35.75628237938167],[139.57693681376358,35.75453583150671],[139.5803311821545,35.75387405360096]],[[139.58396209189675,35.75409919453797],[139.58403305430213,35.75393545567469]],[[139.58256649792415,35.73764343877853],[139.58105263327593,35.73725455897824],[139.57923126487105,35.73850306781073]],[[139.57923126487105,35.73850306781073],[139.5818332197352,35.73992896041178]],[[139.58710809186883,35.74245326788732],[139.58824349035498,35.73912391100067]],[[139.58747473096332,35.721835816019556],[139.58732097908498,35.721883573188016]],[[139.58732097908498,35.721883573188016],[139.59156689634054,35.72342544748388]],[[139.5957773323934,35.72203366714602],[139.59386134744798,35.71802888744834]],[[139.62021205398108,35.74464327518366],[139.61720797881978,35.74576215741606]],[[139.61720797881978,35.74576215741606],[139.6200701291703,35.74905740203953]],[[139.6200701291703,35.74905740203953],[139.6256998133309,35.746376178153355]],[[139.6256998133309,35.746376178153355],[139.6256288509255,35.746000943258345]],[[139.6256288509255,35.746000943258345],[139.62203342238598,35.74631477607962],[139.62021205398108,35.74464327518366]],[[139.60003507671652,35.735453431482185],[139.6048723473503,35.736326705419664],[139.60561745260682,35.736879324083226]],[[139.60561745260682,35.736879324083226],[139.6062206330526,35.73642904220922],[139.60619697891747,35.73258117892218]],[[139.60554649020145,35.73214454195344],[139.6024241443645,35.732935946459286],[139.59966843762203,35.73239015024836]],[[139.64924750485125,35.75622779976058],[139.65317409128258,35.75824724574101]],[[139.6680407152108,35.760075663047616],[139.66846648964312,35.758138086498825]],[[139.57506813708844,35.71879300214364],[139.57703143030412,35.71957758419685]],[[139.57703143030412,35.71957758419685],[139.58260197912685,35.720328053986876]],[[139.58695433999048,35.71303485211836],[139.5867177986392,35.71173858611741],[139.58137196410019,35.71417420170867],[139.57506813708844,35.71879300214364]],[[139.57309301680522,35.72301610032569],[139.56568927251,35.72305021258887]],[[139.56568927251,35.72305021258887],[139.56538176875335,35.724305543874],[139.56686015219887,35.7285013522455]],[[139.56686015219887,35.7285013522455],[139.57284464838636,35.727976023392486]],[[139.56686015219887,35.7285013522455],[139.56831488150928,35.73153734366878]],[[139.57722066338513,35.731448651784504],[139.5778948062363,35.728562754319235]],[[139.61421573072602,35.74947357165036],[139.6134706254695,35.749555441082]],[[139.6134706254695,35.749555441082],[139.61401467057743,35.75269376929483]],[[139.61401467057743,35.75269376929483],[139.6154457457527,35.75224348742082]],[[139.6154457457527,35.75224348742082],[139.61920675323813,35.75111778273578]],[[139.61920675323813,35.75111778273578],[139.61865088106262,35.749187028639625]],[[139.61865088106262,35.749187028639625],[139.61421573072602,35.74947357165036]],[[139.60908278340315,35.73617661146166],[139.6086688360384,35.73981297871696]],[[139.61480708410423,35.739103443642755],[139.61493718184744,35.73912391100067]],[[139.61493718184744,35.73912391100067],[139.614759775834,35.73606062976684]],[[139.614759775834,35.73606062976684],[139.60908278340315,35.73617661146166]],[[139.59440539255596,35.745079912152406],[139.59251306174568,35.74479336914167],[139.58710809186883,35.74245326788732]],[[139.61466515929345,35.729947712204456],[139.60980423452457,35.72860368903505]],[[139.6090709563356,35.73329071399638],[139.61076222699728,35.73327706909111]],[[139.61076222699728,35.73327706909111],[139.61459419688808,35.73075276161558]],[[139.61459419688808,35.73075276161558],[139.61466515929345,35.729947712204456]],[[139.58153754304607,35.73359090191239],[139.57679488895283,35.73341351814384]],[[139.58618558059882,35.72224516317775],[139.58732097908498,35.721883573188016]],[[139.57703143030412,35.71957758419685],[139.57697229496628,35.72309114730469]],[[139.62432787349343,35.7739661766157],[139.6245052795069,35.779956290030626],[139.62567615919576,35.779314979482784],[139.62528586596613,35.77779357254483],[139.62957909149196,35.77699534558635],[139.62935437720822,35.773481782478505]],[[139.62935437720822,35.773481782478505],[139.62432787349343,35.7739661766157]],[[139.63193267793724,35.75455629886462],[139.63235845236954,35.75682135313997],[139.6316843095184,35.75882715421512]],[[139.6316843095184,35.75882715421512],[139.63222835462633,35.760819310385],[139.63553993354432,35.76086706755346]],[[139.63553993354432,35.76086706755346],[139.63682908390882,35.75635060390804]],[[139.6253568283715,35.75871799497293],[139.62530952010127,35.760996694153555]],[[139.62530952010127,35.760996694153555],[139.62530952010127,35.763309505597356]],[[139.62530952010127,35.763309505597356],[139.62538048250664,35.764319228587574]],[[139.62538048250664,35.764319228587574],[139.62895225691105,35.76252492354415]],[[139.62895225691105,35.76252492354415],[139.6289995651813,35.75875210723612]],[[139.6289995651813,35.75875210723612],[139.6253568283715,35.75871799497293]],[[139.61493718184744,35.73912391100067],[139.61824876076543,35.739901670601235]],[[139.61824876076543,35.739901670601235],[139.62145389607534,35.73816194517891]],[[139.62145389607534,35.73816194517891],[139.61803587354927,35.73558988053492]],[[139.61803587354927,35.73558988053492],[139.614759775834,35.73606062976684]],[[139.6007683549055,35.750415070114215],[139.60221125714833,35.75034002313521]],[[139.60221125714833,35.75034002313521],[139.6049314826881,35.75026497615621]],[[139.6064571744039,35.743810935961996],[139.6044110917153,35.74426121783601]],[[139.60147797895937,35.74327196220371],[139.6035831969858,35.741996163560664],[139.6044110917153,35.74035195247525]],[[139.6044110917153,35.74035195247525],[139.60042536994615,35.7395400806115],[139.5985803474061,35.738305216684275]],[[139.61459419688808,35.73075276161558],[139.61471246756372,35.73181706422688]],[[139.61471246756372,35.73181706422688],[139.62114639231865,35.73296323626983]],[[139.62114639231865,35.73296323626983],[139.62226996373727,35.73277903004864],[139.62182053516983,35.73042528388902]],[[139.62182053516983,35.73042528388902],[139.61986906902172,35.730193320499374],[139.6202357081162,35.731455474237144],[139.61466515929345,35.729947712204456]],[[139.61401467057743,35.75269376929483],[139.61205137736178,35.753307790032125]],[[139.61205137736178,35.753307790032125],[139.61252446006435,35.75786518839336]],[[139.61252446006435,35.75786518839336],[139.61409746005037,35.758526966299115]],[[139.61409746005037,35.758526966299115],[139.61457054275294,35.75613910787631],[139.61675855025234,35.756002658823576]],[[139.61675855025234,35.756002658823576],[139.61649835476592,35.75359433304286],[139.6154457457527,35.75224348742082]],[[139.6083731593493,35.740283727948885],[139.60626794132287,35.73971746438005],[139.6044110917153,35.74035195247525]],[[139.62650405392526,35.75362844530604],[139.626456745655,35.75665079182405],[139.62525038476343,35.75871799497293]],[[139.62525038476343,35.75871799497293],[139.6253568283715,35.75871799497293]],[[139.6289995651813,35.75875210723612],[139.6316843095184,35.75882715421512]],[[139.63156603884275,35.75355339832704],[139.62650405392526,35.75362844530604]],[[139.60561745260682,35.736879324083226],[139.6086688360384,35.73981297871696]],[[139.60908278340315,35.73617661146166],[139.6093666330247,35.73441641868142],[139.61076222699728,35.73327706909111]],[[139.59137766325952,35.72638639192816],[139.58609096405831,35.72681620644426]],[[139.61471246756372,35.73181706422688],[139.614759775834,35.73606062976684]],[[139.61803587354927,35.73558988053492],[139.61816597129248,35.73556259072437]],[[139.61816597129248,35.73556259072437],[139.62114639231865,35.73296323626983]],[[139.61816597129248,35.73556259072437],[139.62477730206086,35.733427163049114],[139.6265513621955,35.73379557549149]],[[139.6265513621955,35.73379557549149],[139.6244343171015,35.730077338804556],[139.62182053516983,35.73042528388902]],[[139.64875076801354,35.76325492597626],[139.64300281317733,35.762060996764866]],[[139.64300281317733,35.762060996764866],[139.64217491844784,35.766516058336556],[139.64101586582655,35.767478024158315]],[[139.64101586582655,35.767478024158315],[139.6409922116914,35.7687811126119]],[[139.6409922116914,35.7687811126119],[139.64269530942067,35.77071868916069],[139.64555745977123,35.769074478075275]],[[139.64555745977123,35.769074478075275],[139.64831316651367,35.76548586798843],[139.64875076801354,35.76325492597626]],[[139.61859174572479,35.7414435448971],[139.62021205398108,35.74464327518366]],[[139.62580625693897,35.74125933867592],[139.61859174572479,35.7414435448971]],[[139.60221125714833,35.75034002313521],[139.60177365564846,35.75308264909512],[139.6043756105126,35.755450040160014]],[[139.6043756105126,35.755450040160014],[139.6076398811603,35.75449489679089]],[[139.6076398811603,35.75449489679089],[139.60743882101173,35.7501899291772]],[[139.57446495664266,35.767211948505484],[139.57407466341306,35.768187559232516],[139.57697229496628,35.767928306032324]],[[139.57697229496628,35.767928306032324],[139.57837971600642,35.76744391189513],[139.587048956531,35.76849456960116]],[[139.587048956531,35.76849456960116],[139.58788867832806,35.7637461425661]],[[139.58788867832806,35.7637461425661],[139.5793495355467,35.765035586114415]],[[139.5995501669464,35.72545853836959],[139.5995856481491,35.725233397432575]],[[139.6204367682648,35.755784340339204],[139.61675855025234,35.756002658823576]],[[139.61409746005037,35.758526966299115],[139.61640373822542,35.75951622193142]],[[139.61640373822542,35.75951622193142],[139.61816597129248,35.75920921156277],[139.61791760287363,35.76204052940695],[139.6200464750352,35.76186996809104]],[[139.6200464750352,35.76186996809104],[139.62064965548097,35.75808350687773],[139.6204367682648,35.755784340339204]],[[139.6043756105126,35.755450040160014],[139.6008747985136,35.75643247333968]],[[139.60099306918923,35.75652798767659],[139.6025542421077,35.757687804624815]],[[139.6025542421077,35.757687804624815],[139.60786459544403,35.75770827198272]],[[139.60786459544403,35.75770827198272],[139.6076398811603,35.75449489679089]],[[139.59930179852753,35.75841098460429],[139.5967944602039,35.7604645428479],[139.59254854294838,35.76266819504952]],[[139.59254854294838,35.76266819504952],[139.59472472338018,35.76708232190539]],[[139.59472472338018,35.76708232190539],[139.5967353248661,35.76523343724087],[139.59672349779854,35.76348688936591],[139.59959747521665,35.76269548486007],[139.6013360541486,35.7630366074919]],[[139.6013360541486,35.7630366074919],[139.60160807670258,35.76002790587916],[139.59930179852753,35.75841098460429]],[[139.61530382094193,35.74155270413929],[139.6166402795767,35.74501851007867]],[[139.6166402795767,35.74501851007867],[139.61720797881978,35.74576215741606]],[[139.61859174572479,35.7414435448971],[139.61824876076543,35.739901670601235]],[[139.6200464750352,35.761883612996314],[139.61969166300827,35.76670026455774]],[[139.61969166300827,35.76670026455774],[139.62319247500727,35.766672974747195]],[[139.62319247500727,35.766672974747195],[139.6251675952905,35.76680942379993]],[[139.6251675952905,35.76680942379993],[139.62538048250664,35.764319228587574]],[[139.62530952010127,35.763309505597356],[139.62316882087214,35.761917725259494],[139.6200464750352,35.761883612996314]],[[139.5807687836544,35.758144908951465],[139.5848018136938,35.75980276494215],[139.58820800915228,35.76194501507004]],[[139.58820800915228,35.76194501507004],[139.5887993625305,35.75854061120439],[139.58790050539562,35.75683499804524]],[[139.63550445234162,35.76746437925304],[139.63535070046328,35.768767467706624]],[[139.63535070046328,35.768767467706624],[139.6409922116914,35.7687811126119]],[[139.64101586582655,35.767478024158315],[139.63550445234162,35.76746437925304]],[[139.62399671560163,35.75056516407222],[139.62567615919576,35.748648054881336],[139.6256998133309,35.746376178153355]],[[139.6200701291703,35.74905740203953],[139.61865088106262,35.749187028639625]],[[139.61920675323813,35.75111778273578],[139.62011743744057,35.754317513022336]],[[139.62011743744057,35.754317513022336],[139.62095715923763,35.75232535685246],[139.6229914148587,35.7513633910307]],[[139.6229914148587,35.7513633910307],[139.62399671560163,35.75056516407222]],[[139.599479204541,35.72944967316199],[139.60309828721566,35.72921770977234]],[[139.60859787363302,35.728132939803125],[139.6017973097836,35.72577237119087],[139.6000114225814,35.72388937426317]],[[139.6204367682648,35.755784340339204],[139.62011743744057,35.754317513022336]],[[139.63186171553184,35.751090492925236],[139.62881033210027,35.75130881140961]],[[139.62881033210027,35.75130881140961],[139.62399671560163,35.75056516407222]],[[139.6229914148587,35.7513633910307],[139.62462355018255,35.753607977948135]],[[139.62462355018255,35.753607977948135],[139.62650405392526,35.75362844530604]],[[139.6166402795767,35.74501851007867],[139.6145823698205,35.74768608905958]],[[139.6145823698205,35.74768608905958],[139.61421573072602,35.74947357165036]],[[139.63553993354432,35.76086706755346],[139.63549262527405,35.76241576430196]],[[139.63549262527405,35.76241576430196],[139.6418910688263,35.76191090280686]],[[139.6418910688263,35.76191090280686],[139.64236415152888,35.7599801487107],[139.64157173800209,35.75762640255108]],[[139.6264212644523,35.73604698486157],[139.62145389607534,35.73816194517891]],[[139.60786459544403,35.75770827198272],[139.61127079090252,35.757872010846]],[[139.61127079090252,35.757872010846],[139.61252446006435,35.75786518839336]],[[139.61205137736178,35.753307790032125],[139.6076398811603,35.75449489679089]],[[139.62895225691105,35.76252492354415],[139.63057256516734,35.762634082786334],[139.6331035576261,35.7647149308405]],[[139.6331035576261,35.7647149308405],[139.6362022493279,35.76421006934539],[139.63549262527405,35.76241576430196]],[[139.62775772308706,35.73509866394508],[139.6265513621955,35.73379557549149]],[[139.6418910688263,35.76191090280686],[139.64300281317733,35.762060996764866]],[[139.64875076801354,35.76325492597626],[139.64944856499986,35.759407062689235]],[[139.64944856499986,35.759407062689235],[139.6493657755269,35.75939341778396]],[[139.6635109483337,35.764271471419114],[139.66436249719834,35.768146624516696]],[[139.66436249719834,35.768146624516696],[139.66889226407542,35.76734157510558],[139.6706899783452,35.762252025438684]],[[139.6706899783452,35.762252025438684],[139.66812350468376,35.76294791560762]],[[139.62319247500727,35.766672974747195],[139.62432787349343,35.77182392648782],[139.62532134716884,35.772690377972665],[139.62432787349343,35.7739661766157]],[[139.62935437720822,35.773481782478505],[139.63351750499083,35.7701046684234]],[[139.63351750499083,35.7701046684234],[139.62682338474949,35.77007055616021],[139.6251675952905,35.76816026942197],[139.6251675952905,35.76680942379993]],[[139.63351750499083,35.7701046684234],[139.63535070046328,35.768767467706624]],[[139.63550445234162,35.76746437925304],[139.63563455008483,35.766338674568004],[139.63254768545056,35.76618858061],[139.6331035576261,35.7647149308405]],[[139.60799469318724,35.750148994461384],[139.6134706254695,35.749555441082]],[[139.6145823698205,35.74768608905958],[139.60989885106508,35.7459736534478]],[[139.61768106152235,35.76660475022083],[139.6140619788477,35.76547222308316]],[[139.6140619788477,35.76547222308316],[139.61088049767292,35.764312406134934]],[[139.61118800142958,35.76927915165437],[139.61228791871306,35.77052083803423],[139.61556401642835,35.77072551161333],[139.61686499386042,35.77001597653912],[139.61768106152235,35.76660475022083]],[[139.61127079090252,35.757872010846],[139.61250080592922,35.7615834250803],[139.60967413678136,35.763691562945006]],[[139.60967413678136,35.763691562945006],[139.60967413678136,35.7637461425661]],[[139.6140619788477,35.76547222308316],[139.61567046003643,35.763814367092465],[139.61640373822542,35.75951622193142]],[[139.57506813708844,35.71879300214364],[139.56538176875335,35.72148104848246],[139.56568927251,35.72305021258887]],[[139.65746731680838,35.760457720395266],[139.65592979802503,35.76185632318577]],[[139.65592979802503,35.76185632318577],[139.65615451230875,35.76479680027214],[139.65700606117338,35.76603166419935]],[[139.65700606117338,35.76603166419935],[139.6635109483337,35.764271471419114]],[[139.6706899783452,35.762252025438684],[139.67351664749305,35.75883397666776]],[[139.62988659524862,35.74510720196295],[139.62902321931642,35.74690832945901],[139.62881033210027,35.75130881140961]],[[139.6025542421077,35.757687804624815],[139.60967413678136,35.763691562945006]],[[139.64555745977123,35.769074478075275],[139.64740248231124,35.76855597167489]],[[139.64740248231124,35.76855597167489],[139.65218061760717,35.767314285295036]],[[139.65218061760717,35.767314285295036],[139.6530676476745,35.764530724619306]],[[139.6530676476745,35.764530724619306],[139.6522042717423,35.7637461425661],[139.64875076801354,35.76325492597626]],[[139.61768106152235,35.76660475022083],[139.61969166300827,35.76670026455774]],[[139.6200464750352,35.761883612996314],[139.6200464750352,35.76186996809104]],[[139.6530676476745,35.764530724619306],[139.65592979802503,35.76185632318577]],[[139.65592979802503,35.76185632318577],[139.65079685070216,35.75933201571023],[139.64944856499986,35.759407062689235]],[[139.65218061760717,35.767314285295036],[139.65700606117338,35.76603166419935]],[[139.62196245998058,35.75874528478348],[139.62165495622392,35.76075790831128],[139.62530952010127,35.760996694153555]],[[139.62525038476343,35.75871799497293],[139.62196245998058,35.75874528478348]],[[139.62196245998058,35.75874528478348],[139.62208073065622,35.75355339832704],[139.62462355018255,35.753607977948135]],[[139.58788867832806,35.7637461425661],[139.58820800915228,35.76194501507004]],[[139.59254854294838,35.76266819504952],[139.58788867832806,35.7637461425661]],[[139.587048956531,35.76849456960116],[139.59235930986733,35.76910176788582]],[[139.59235930986733,35.76910176788582],[139.59479568578556,35.76938148844392]],[[139.59479568578556,35.76938148844392],[139.59472472338018,35.76708232190539]],[[139.58989927981398,35.75720341048761],[139.58999389635449,35.75789930065655]],[[139.58999389635449,35.75789930065655],[139.59833197898726,35.757223877845526]],[[139.59235930986733,35.76910176788582],[139.59127121965142,35.77519421809029],[139.5905852497327,35.776497306543874]],[[139.5905852497327,35.776497306543874],[139.59487847525853,35.77540571412202],[139.60021248272997,35.77339309059423]],[[139.60021248272997,35.77339309059423],[139.59738581358212,35.7712985976348]],[[139.59738581358212,35.7712985976348],[139.59635685870404,35.771967197993185],[139.59479568578556,35.76938148844392]],[[139.587048956531,35.76849456960116],[139.58585442270703,35.775241975258744]],[[139.58585442270703,35.775241975258744],[139.58691885878778,35.77523515280611],[139.58843272343603,35.77812787272402]],[[139.58843272343603,35.77812787272402],[139.5905852497327,35.776497306543874]],[[139.65700606117338,35.76603166419935],[139.65798770778122,35.767471201705675],[139.65556315893056,35.76812615715879],[139.65639105366003,35.76912905769637]],[[139.65639105366003,35.76912905769637],[139.66436249719834,35.768146624516696]],[[139.5984265955278,35.757305747277165],[139.59930179852753,35.75841098460429]],[[139.6013360541486,35.7630366074919],[139.6022230842159,35.765874747788715]],[[139.59738581358212,35.7712985976348],[139.60011786618946,35.76949747013874]],[[139.59254854294838,35.76266819504952],[139.59343557301568,35.75862930308866],[139.58999389635449,35.75789930065655]],[[139.58843272343603,35.77812787272402],[139.58875205426025,35.77881011798768],[139.59389682865068,35.77728871104972],[139.59441721962352,35.77900114666151],[139.59704282862276,35.77860544440858],[139.59681811433904,35.776633755596606],[139.6026843398509,35.7756444999643],[139.60021248272997,35.77339309059423]],[[139.57697229496628,35.767928306032324],[139.5780603851822,35.77123719556107],[139.5822235129648,35.77105981179252],[139.58184504680275,35.77253346156202],[139.5844115204642,35.77320206192041],[139.58444700166686,35.77509188130074],[139.58585442270703,35.775241975258744]],[[139.64740248231124,35.76855597167489],[139.65063127175625,35.769026720906815],[139.65639105366003,35.76912905769637]]]}