{"type":"Topology","bbox":[139.73579089986714,35.73868270055793,139.8586734372967,35.817531729834364],"objects":{"town":{"type":"GeometryCollection","geometries":[{"type":"MultiPolygon","arcs":[[[29,30,31,32,33,7,8,9,10,13,14,-119,-17,137,0,1,80,81,82]]],"properties":{"name":"青井"}},{"type":"MultiPolygon","arcs":[[[18,19,20,106,107,27,225,226,23,43,41,224,-206,16,118,-15,119,120]]],"properties":{"name":"綾瀬"}},{"type":"MultiPolygon","arcs":[[[94,95,96,-76,97,98,108,109,110,38,39,40,35,50,51]]],"properties":{"name":"足立"}},{"type":"MultiPolygon","arcs":[[[90,91,92,93,88,59,72,111,112,140,141,142,175,176,177,-88,173,490]]],"properties":{"name":"入谷"}},{"type":"MultiPolygon","arcs":[[[100,101,-256,-289,-361,161,162,-132,-131,-77,-97,-96,-95,-52,169,54,104]]],"properties":{"name":"梅田"}},{"type":"MultiPolygon","arcs":[[[180,181,182,183,64,-542,590,591,66,69,70,283,-220,282,185]]],"properties":{"name":"伊興"}},{"type":"MultiPolygon","arcs":[[[191,192,193,79,75,76,130,131,132,133,134,135]]],"properties":{"name":"梅島"}},{"type":"Polygon","arcs":[[83,84,85,86,87]],"properties":{"name":"入谷町，舎人町"}},{"type":"MultiPolygon","arcs":[[[171,172,124,-120,-14,-11,121,200,201,202]]],"properties":{"name":"加平"}},{"type":"MultiPolygon","arcs":[[[188,189,190,186,125,126,127,194,195,196,197,198,199]]],"properties":{"name":"扇"}},{"type":"MultiPolygon","arcs":[[[560,-336,217,218,219,220,221,222,214,215,216,145,146,-134,561,562]]],"properties":{"name":"栗原"}},{"type":"MultiPolygon","arcs":[[[-377,536,537,149,150,151,152,-446,535,381,-232,379,157,158]]],"properties":{"name":"大谷田"}},{"type":"MultiPolygon","arcs":[[[-742,-465,-360,-359,-579,-436,-447,346,297,-196,-195,-128,-127,164,165,314,315,316,317]]],"properties":{"name":"江北"}},{"type":"MultiPolygon","arcs":[[[-110,-366,-81,-2,-1,-138,205,206,207,203,-650]]],"properties":{"name":"弘道"}},{"type":"MultiPolygon","arcs":[[[-153,-152,208,209,210,442,443,444,445]]],"properties":{"name":"佐野"}},{"type":"MultiPolygon","arcs":[[[269,270,271,432,433,-192,-136,-135,-147,-146,-217,400]]],"properties":{"name":"島根"}},{"type":"MultiPolygon","arcs":[[[-260,-689,-380,231,232,731,673,334,671,729,743]]],"properties":{"name":"中川"}},{"type":"MultiPolygon","arcs":[[[726,727,385,386,387,388,-745,-656,745,403,369,370,-222,366,367,234,235,239,240,241]]],"properties":{"name":"竹の塚"}},{"type":"MultiPolygon","arcs":[[[481,243,244,245,246,247,-308,482,483]]],"properties":{"name":"神明南"}},{"type":"MultiPolygon","arcs":[[[-209,-151,251,249,721,-483,-307,-611,-210]]],"properties":{"name":"辰沼"}},{"type":"MultiPolygon","arcs":[[[-584,253,284,285,286,287,288,255,-102,-101,-455]]],"properties":{"name":"関原"}},{"type":"MultiPolygon","arcs":[[[470,471,472,-499,520,374,375,376,-159,-158,688,259,260,474]]],"properties":{"name":"東和"}},{"type":"Polygon","arcs":[[261,262,263,264,265,266]],"properties":{"name":"千住寿町"}},{"type":"MultiPolygon","arcs":[[[274,275,276,277,272,396,397,398,399]]],"properties":{"name":"千住桜木"}},{"type":"MultiPolygon","arcs":[[[304,305,306,307,-248,278,279,485,486,487]]],"properties":{"name":"神明"}},{"type":"MultiPolygon","arcs":[[[-197,-298,-347,446,-435,447,448,291,292,311,-286,312,313,383,382,-199,-198]]],"properties":{"name":"西新井本町"}},{"type":"MultiPolygon","arcs":[[[-208,-207,-225,-42,299,-40,-39,-111,649,-204]]],"properties":{"name":"西綾瀬"}},{"type":"MultiPolygon","arcs":[[[-92,412,413,414,324,320,321,659,-468,-566,-428,-93]]],"properties":{"name":"皿沼"}},{"type":"MultiPolygon","arcs":[[[327,328,-692,724,325,710,-278,-477]]],"properties":{"name":"千住緑町"}},{"type":"MultiPolygon","arcs":[[[-141,-113,723,511,508,509,557,332,-176,-143,-142]]],"properties":{"name":"舎人"}},{"type":"MultiPolygon","arcs":[[[-449,-448,434,435,436,437,715,763,-753,-181,-186,-283,-219,-218,335,-561,577,-292]]],"properties":{"name":"西新井"}},{"type":"MultiPolygon","arcs":[[[-549,-548,-267,-266,-265,339,340,341,342,484,440,735,742,-681,-603]]],"properties":{"name":"千住"}},{"type":"MultiPolygon","arcs":[[[450,-165,-126,-187,451,452,453,454,-105,-55,-170,-51,-36,455,456,457,458,459,349,350,351,405,466,467,468,469,357,358,359,464,465,463,479,480]]],"properties":{"name":"鹿浜"}},{"type":"MultiPolygon","arcs":[[[-562,-133,-163,-162,360,-288,-287,-312,-293,-578,-563]]],"properties":{"name":"西新井栄町"}},{"type":"MultiPolygon","arcs":[[[-193,-434,493,494,-31,-30,-83,-82,365,-109,-99,-98,-80,-194]]],"properties":{"name":"中央本町"}},{"type":"MultiPolygon","arcs":[[[-85,373,371,-539,570,571,572,-414,573,-86]]],"properties":{"name":"古千谷"}},{"type":"MultiPolygon","arcs":[[[-707,-654,-597,393,394,772,-624,-240,-236,-577,771,-709,-708]]],"properties":{"name":"東伊興"}},{"type":"MultiPolygon","arcs":[[[416,417,418,677,678,679,-604,680,681]]],"properties":{"name":"千住東"}},{"type":"MultiPolygon","arcs":[[[698,419,674,-459,675]]],"properties":{"name":"新田"}},{"type":"Polygon","arcs":[[-275,-400,422,423,424,425]],"properties":{"name":"千住元町"}},{"type":"MultiPolygon","arcs":[[[-352,-351,426,-94,427,565,-467,-406]]],"properties":{"name":"加賀"}},{"type":"Polygon","arcs":[[460,-276,-426,461,462]],"properties":{"name":"千住龍田町"}},{"type":"Polygon","arcs":[[475,-328,476,-277,-461,477,478]],"properties":{"name":"千住宮元町"}},{"type":"MultiPolygon","arcs":[[[-472,-471,774,-226,-28,-108,-107,-21,-20,497,498,-473]]],"properties":{"name":"東綾瀬"}},{"type":"Polygon","arcs":[[-482,499,-172,-203,500,501,-244]],"properties":{"name":"北加平町"}},{"type":"MultiPolygon","arcs":[[[-32,-495,642,-556,-523,-531,614,504,505,-8,-34,-33]]],"properties":{"name":"一ツ家"}},{"type":"MultiPolygon","arcs":[[[697,-444,-443,-211,610,-306,-305,-488,-487,776]]],"properties":{"name":"六木"}},{"type":"MultiPolygon","arcs":[[[-528,-671,-706,663,660,661,516,517,518,544,-279,-247,-246,563,-553,-552]]],"properties":{"name":"南花畑"}},{"type":"Polygon","arcs":[[522,523,524,525,526,527,528,529,530]],"properties":{"name":"保塚町"}},{"type":"MultiPolygon","arcs":[[[-433,-272,-271,532,533,554,-524,555,-643,-494]]],"properties":{"name":"平野"}},{"type":"MultiPolygon","arcs":[[[541,-65,-184,-183,-182,752,751,-325,-415,-573,-741,738,-571,538,-372,539,651,652,-593,653,-591]]],"properties":{"name":"西伊興"}},{"type":"Polygon","arcs":[[-463,546,-262,547,548,549,-478]],"properties":{"name":"千住中居町"}},{"type":"MultiPolygon","arcs":[[[-505,-615,-530,-529,551,552,-564,-245,-502,-501,-202,749,-733,667]]],"properties":{"name":"六町"}},{"type":"MultiPolygon","arcs":[[[-318,-317,558,-649,-466,741]]],"properties":{"name":"椿"}},{"type":"MultiPolygon","arcs":[[[569,566,567,600,-398,601]]],"properties":{"name":"小台"}},{"type":"MultiPolygon","arcs":[[[-284,-71,575,576,-235,-368,-367,-221]]],"properties":{"name":"西竹の塚"}},{"type":"MultiPolygon","arcs":[[[-321,-752,-764,-716,-438,-437,578,-358,-470,-469,-660,-322]]],"properties":{"name":"谷在家"}},{"type":"MultiPolygon","arcs":[[[583,-454,581,-634,695,-646,-313,-285,-254]]],"properties":{"name":"本木"}},{"type":"MultiPolygon","arcs":[[[587,588,700,-661,701,-705,-704,-669,-526,-657,744,-389,-388,-387,699,584,585,-757,-636,-626,765,-637,-747]]],"properties":{"name":"保木間"}},{"type":"MultiPolygon","arcs":[[[-540,-374,-84,-178,-177,-333,-558,-510,622,595,-394,596,592,-653,-652]]],"properties":{"name":"古千谷本町"}},{"type":"Polygon","arcs":[[597,-342,598,599]],"properties":{"name":"日ノ出町"}},{"type":"Polygon","arcs":[[-479,-550,602,603,604]],"properties":{"name":"千住仲町"}},{"type":"MultiPolygon","arcs":[[[-701,-589,-588,746,636,637,758,690,759,775,608,-518,-517,-662]]],"properties":{"name":"花畑"}},{"type":"MultiPolygon","arcs":[[[-252,-150,-538,-537,-376,-375,-521,-498,-19,-121,-125,-173,-500,-484,-722,-250]]],"properties":{"name":"谷中"}},{"type":"MultiPolygon","arcs":[[[619,620,-189,-200,-383,-384,-314,645,646]]],"properties":{"name":"興野"}},{"type":"MultiPolygon","arcs":[[[756,-586,-585,-700,-386,-728,-727,-242,-241,623,624,625,635]]],"properties":{"name":"西保木間"}},{"type":"Polygon","arcs":[[-191,629,630,-452]],"properties":{"name":"本木西町"}},{"type":"Polygon","arcs":[[-453,-631,631,632,633,-582]],"properties":{"name":"本木南町"}},{"type":"MultiPolygon","arcs":[[[-451,-481,-480,-464,648,-559,-316,-315,-166]]],"properties":{"name":"堀之内"}},{"type":"Polygon","arcs":[[-555,-534,654,655,656,-525]],"properties":{"name":"東六月町"}},{"type":"MultiPolygon","arcs":[[[-223,-371,-370,-404,-746,-655,-533,-270,-401,-216,-215]]],"properties":{"name":"六月"}},{"type":"MultiPolygon","arcs":[[[670,-527,668,703,704,-702,-664,705]]],"properties":{"name":"東保木間"}},{"type":"Polygon","arcs":[[-264,682,-424,683,-340]],"properties":{"name":"千住大川町"}},{"type":"Polygon","arcs":[[691,692,693,694]],"properties":{"name":"千住橋戸町"}},{"type":"MultiPolygon","arcs":[[[-70,-67,-592,706,707,708,-772,-576]]],"properties":{"name":"伊興本町"}},{"type":"Polygon","arcs":[[717,-678,-419,718,719,720]],"properties":{"name":"千住曙町"}},{"type":"Polygon","arcs":[[-693,-329,-476,-605,-680,722]],"properties":{"name":"千住河原町"}},{"type":"Polygon","arcs":[[-694,-723,-679,-718,728]],"properties":{"name":"千住関屋町"}},{"type":"MultiPolygon","arcs":[[[-9,-506,-668,732,-750,-201,-122,-10]]],"properties":{"name":"西加平"}},{"type":"Polygon","arcs":[[736,-620,-647,-696,-633]],"properties":{"name":"本木東町"}},{"type":"Polygon","arcs":[[740,-572,-739]],"properties":{"name":"西伊興町"}},{"type":"Polygon","arcs":[[-547,-462,-425,-683,-263]],"properties":{"name":"千住柳町"}},{"type":"Polygon","arcs":[[-682,-743,-736,-441,-485,-343,-598,753,754,-417]],"properties":{"name":"千住旭町"}},{"type":"Polygon","arcs":[[-621,-737,-632,-630,-190]],"properties":{"name":"本木北町"}},{"type":"MultiPolygon","arcs":[[[767,-720,768,769,-599,-341,-684,-423,-399,-601,-568,-567,762,770,-457]]],"properties":{"name":"宮城"}},{"type":"MultiPolygon","arcs":[[[-719,-418,-755,-754,-600,-770,-769]]],"properties":{"name":"柳原"}},{"type":"Polygon","arcs":[[-87,-574,-413,-91,-491,-174]],"properties":{"name":"舎人公園"}}]}},"arcs":[[[139.81671714338884,35.76993369595972],[139.81489829995056,35.77019392377912]],[[139.81489829995056,35.77019392377912],[139.81042492825094,35.77086420755634]],[[139.81042492825094,35.77086420755634],[139.8156725373601,35.77518556649659]],[[139.8156725373601,35.77518556649659],[139.81585687960046,35.77533539463502]],[[139.81585687960046,35.77533539463502],[139.81616411666775,35.7734270572928]],[[139.81616411666775,35.7734270572928],[139.81671714338884,35.76993369595972]],[[139.81585687960046,35.77536693740101],[139.81572169529085,35.77849755692524]],[[139.81572169529085,35.77849755692524],[139.81740535441955,35.778308300329314]],[[139.81740535441955,35.778308300329314],[139.81934709268478,35.7781032723504]],[[139.81934709268478,35.7781032723504],[139.8243612016228,35.77777207330753]],[[139.8243612016228,35.77777207330753],[139.8240539645555,35.77664441942349]],[[139.8240539645555,35.77664441942349],[139.817626565108,35.77676270479594],[139.81585687960046,35.77536693740101]],[[139.81585687960046,35.77533539463502],[139.81585687960046,35.77536693740101]],[[139.8240539645555,35.77664441942349],[139.82385733283246,35.775974135646265]],[[139.82385733283246,35.775974135646265],[139.82311996387097,35.77329300053736]],[[139.82311996387097,35.77329300053736],[139.81906443458288,35.77375825633567],[139.81616411666775,35.7734270572928]],[[139.82195246301532,35.76915301250154],[139.8230708059402,35.773087972558436]],[[139.8230708059402,35.773087972558436],[139.82530749179003,35.77214957527032],[139.82976857400692,35.77212591819583]],[[139.82976857400692,35.77212591819583],[139.82958423176657,35.7699967814917]],[[139.82958423176657,35.7699967814917],[139.82952278435312,35.768892784682144]],[[139.82952278435312,35.768892784682144],[139.82949820538772,35.76888489899065]],[[139.82949820538772,35.76888489899065],[139.82452096489777,35.768727185160714]],[[139.82452096489777,35.768727185160714],[139.82195246301532,35.76915301250154]],[[139.82696657195334,35.76228457520783],[139.82421372783048,35.76199280462245]],[[139.82421372783048,35.76199280462245],[139.82413999093436,35.761984918930956]],[[139.82413999093436,35.761984918930956],[139.82399251714205,35.76603027866881]],[[139.82399251714205,35.76603027866881],[139.82927699469928,35.76631416356269]],[[139.82927699469928,35.76631416356269],[139.82906807349352,35.762529031644235]],[[139.82906807349352,35.762529031644235],[139.82696657195334,35.76228457520783]],[[139.8110516918682,35.77544579431598],[139.8111745866951,35.777330474583714]],[[139.8111745866951,35.777330474583714],[139.81113771824704,35.77853698538272]],[[139.81113771824704,35.77853698538272],[139.81122374462586,35.77853698538272]],[[139.81122374462586,35.77853698538272],[139.81564795839472,35.77849755692524]],[[139.81564795839472,35.77849755692524],[139.81572169529085,35.77849755692524]],[[139.8156725373601,35.77518556649659],[139.8110516918682,35.77544579431598]],[[139.81334982513147,35.75749796046928],[139.8078564263685,35.76011601004621]],[[139.8078564263685,35.76011601004621],[139.80769666309348,35.76178777664354]],[[139.80769666309348,35.76178777664354],[139.81365706219873,35.762048004462926]],[[139.81365706219873,35.762048004462926],[139.8137062201295,35.76069166552548]],[[139.8137062201295,35.76069166552548],[139.81332524616607,35.7594062978115]],[[139.81332524616607,35.7594062978115],[139.81334982513147,35.75749796046928]],[[139.81976493509626,35.76044720908908],[139.8198755404405,35.761519663132646]],[[139.8198755404405,35.761519663132646],[139.82413999093436,35.761984918930956]],[[139.82421372783048,35.76199280462245],[139.82346406938632,35.755865622329445],[139.82028109336932,35.755928707861415],[139.81976493509626,35.76044720908908]],[[139.76569121125488,35.801949603436704],[139.76185689265523,35.801949603436704]],[[139.76185689265523,35.801949603436704],[139.7603698652496,35.801981146202685],[139.75985370697654,35.80368445556599]],[[139.75985370697654,35.80368445556599],[139.75985370697654,35.80371599833198]],[[139.75985370697654,35.80371599833198],[139.7636019991974,35.80560856429121]],[[139.7636019991974,35.80560856429121],[139.76365115712815,35.80562433567421]],[[139.76365115712815,35.80562433567421],[139.76569121125488,35.801949603436704]],[[139.8078564263685,35.76011601004621],[139.80344450208233,35.761401377760194]],[[139.80344450208233,35.761401377760194],[139.80385005501114,35.76450834020993]],[[139.80385005501114,35.76450834020993],[139.80801618964347,35.76435062637999]],[[139.80801618964347,35.76435062637999],[139.80769666309348,35.76178777664354]],[[139.79882365659043,35.761913947707484],[139.79505078540421,35.76178777664354]],[[139.79505078540421,35.76178777664354],[139.7953457329888,35.76658227707358]],[[139.7953457329888,35.76658227707358],[139.79838123521355,35.765809479306895]],[[139.79838123521355,35.765809479306895],[139.79881136710773,35.76450834020993]],[[139.79881136710773,35.76450834020993],[139.79882365659043,35.761913947707484]],[[139.75577359872307,35.80199691758568],[139.75410222907706,35.80409451152383]],[[139.75410222907706,35.80409451152383],[139.7529224387387,35.80526947955685],[139.75706399440566,35.80797427174025],[139.75875994301703,35.80829758509162]],[[139.75875994301703,35.80829758509162],[139.75985370697654,35.80371599833198]],[[139.75985370697654,35.80368445556599],[139.75577359872307,35.80199691758568]],[[139.78265069736878,35.79471053864265],[139.77944314238636,35.795648935930764]],[[139.77944314238636,35.795648935930764],[139.779418563421,35.79693430364474]],[[139.779418563421,35.79693430364474],[139.78070895910358,35.79663464736786],[139.78354782960523,35.798038300454294],[139.785108593907,35.79794367215633],[139.78545269942236,35.79947349630671]],[[139.78545269942236,35.79947349630671],[139.78827928044134,35.796019563431116]],[[139.78827928044134,35.796019563431116],[139.7854404099397,35.79590916375016],[139.78265069736878,35.79471053864265]],[[139.7830439608149,35.791753404331345],[139.78265069736878,35.79471053864265]],[[139.78827928044134,35.796019563431116],[139.7883775963029,35.79589339236716]],[[139.7883775963029,35.79589339236716],[139.78712406906837,35.79213980321469]],[[139.78712406906837,35.79213980321469],[139.7830439608149,35.791753404331345]],[[139.75410222907706,35.80409451152383],[139.7508209371985,35.80618421977048],[139.75035393685624,35.809243868071235],[139.7509929899562,35.810568664242695],[139.7550116507962,35.81046615025324],[139.7554294932077,35.812705686638324],[139.75910404853238,35.81208271701008]],[[139.75910404853238,35.81208271701008],[139.75879681146512,35.808329127857604]],[[139.75879681146512,35.808329127857604],[139.75875994301703,35.80829758509162]],[[139.8036288443227,35.76933438340596],[139.80361655484,35.769342269097464]],[[139.80361655484,35.769342269097464],[139.79757012935593,35.77274888782408]],[[139.79757012935593,35.77274888782408],[139.79764386625206,35.77494899575168]],[[139.79764386625206,35.77494899575168],[139.80339534415157,35.7746572251663]],[[139.80339534415157,35.7746572251663],[139.8036288443227,35.76933438340596]],[[139.81042492825094,35.77086420755634],[139.81037577032018,35.770879978939334]],[[139.81037577032018,35.770879978939334],[139.81080590221438,35.773537456973756]],[[139.81080590221438,35.773537456973756],[139.8110516918682,35.77544579431598]],[[139.77120918898325,35.801649947159824],[139.77130750484477,35.80164206146833]],[[139.77130750484477,35.80164206146833],[139.77120918898325,35.79959966737066]],[[139.77120918898325,35.79959966737066],[139.7701400039891,35.79961543875365]],[[139.7701400039891,35.79961543875365],[139.77011542502373,35.80174457545778]],[[139.77011542502373,35.80174457545778],[139.77120918898325,35.801649947159824]],[[139.76023468094,35.79620093433554],[139.76054191800728,35.79750207343251],[139.75577359872307,35.80199691758568]],[[139.76185689265523,35.801949603436704],[139.76322102523395,35.796894875187256]],[[139.76322102523395,35.796894875187256],[139.76345452540508,35.79602744912261]],[[139.76345452540508,35.79602744912261],[139.76322102523395,35.79602744912261]],[[139.76322102523395,35.79602744912261],[139.76169712938025,35.7960432205056]],[[139.76169712938025,35.7960432205056],[139.76023468094,35.79620093433554]],[[139.80385005501114,35.76450834020993],[139.80383776552844,35.76450834020993]],[[139.80383776552844,35.76450834020993],[139.80361655484,35.768395986117845]],[[139.80361655484,35.768395986117845],[139.80361655484,35.769342269097464]],[[139.8036288443227,35.76933438340596],[139.8055705825879,35.76825404367091]],[[139.8055705825879,35.76825404367091],[139.80913453256835,35.76628262079671]],[[139.80913453256835,35.76628262079671],[139.80801618964347,35.76435062637999]],[[139.7903439135335,35.76110960717481],[139.7914130985276,35.76245017472927],[139.79120417732187,35.76435062637999]],[[139.79120417732187,35.76435062637999],[139.79164659869875,35.766408791860655]],[[139.79164659869875,35.766408791860655],[139.79446089023503,35.76700810441441]],[[139.79446089023503,35.76700810441441],[139.7953457329888,35.76658227707358]],[[139.79505078540421,35.76178777664354],[139.7903439135335,35.76110960717481]],[[139.82399251714205,35.76603027866881],[139.82452096489777,35.768727185160714]],[[139.82949820538772,35.76888489899065],[139.82927699469928,35.76632993494569]],[[139.82927699469928,35.76632993494569],[139.82927699469928,35.76631416356269]],[[139.80913453256835,35.76628262079671],[139.80915911153375,35.76632204925419]],[[139.80915911153375,35.76632204925419],[139.80940490118758,35.766211649573236]],[[139.80940490118758,35.766211649573236],[139.8118996661739,35.76474491095483],[139.81365706219873,35.762048004462926]],[[139.75910404853238,35.81208271701008],[139.76124241852065,35.8127687721703]],[[139.76124241852065,35.8127687721703],[139.76136531334757,35.811231062328424],[139.76306126195897,35.81122317663693]],[[139.76306126195897,35.81122317663693],[139.76303668299357,35.80866821259197]],[[139.76303668299357,35.80866821259197],[139.75879681146512,35.808329127857604]],[[139.79838123521355,35.765809479306895],[139.80104805295753,35.766361477711676]],[[139.80104805295753,35.766361477711676],[139.80361655484,35.768395986117845]],[[139.80383776552844,35.76450834020993],[139.79881136710773,35.76450834020993]],[[139.8230708059402,35.773087972558436],[139.82311996387097,35.77329300053736]],[[139.82385733283246,35.775974135646265],[139.82599570282073,35.775776993358846],[139.8257622026496,35.77475185346426],[139.82992833728193,35.774160426602]],[[139.82992833728193,35.774160426602],[139.82976857400692,35.77212591819583]],[[139.8243612016228,35.77777207330753],[139.82438578058816,35.7778667016055]],[[139.82438578058816,35.7778667016055],[139.8275687566052,35.777693216392564]],[[139.8275687566052,35.777693216392564],[139.83021099538382,35.777543388254124]],[[139.83021099538382,35.777543388254124],[139.82992833728193,35.774160426602]],[[139.77102484674288,35.76002138174825],[139.76731342297012,35.761251549621754],[139.7649661317761,35.76270251685716],[139.76312270937242,35.76483953925279]],[[139.76312270937242,35.76483953925279],[139.76571579022027,35.76541519473206]],[[139.76571579022027,35.76541519473206],[139.76707992279898,35.76488685340178],[139.7686283976181,35.76688193335046],[139.7683211605508,35.76892432744813],[139.77070532019292,35.76893221313963]],[[139.77070532019292,35.76893221313963],[139.77090195191596,35.76460296850789]],[[139.77090195191596,35.76460296850789],[139.77102484674288,35.76002138174825]],[[139.79757012935593,35.77274888782408],[139.79757012935593,35.77274100213258]],[[139.79757012935593,35.77274100213258],[139.79290012593324,35.77527230910305]],[[139.79290012593324,35.77527230910305],[139.78959425508933,35.778308300329314]],[[139.78959425508933,35.778308300329314],[139.79148683542377,35.77823732910584]],[[139.79148683542377,35.77823732910584],[139.797606997804,35.77846601415925]],[[139.797606997804,35.77846601415925],[139.79770531366552,35.77846601415925]],[[139.79770531366552,35.77846601415925],[139.79764386625206,35.77494899575168]],[[139.82195246301532,35.76915301250154],[139.81671714338884,35.76993369595972]],[[139.7675100546932,35.805498164610256],[139.76365115712815,35.80562433567421]],[[139.7636019991974,35.80560856429121],[139.76303668299357,35.80866821259197]],[[139.76306126195897,35.81122317663693],[139.76605989573562,35.812098488393076]],[[139.76605989573562,35.812098488393076],[139.76543313211837,35.80865244120898],[139.76743631779703,35.807919071899775]],[[139.76743631779703,35.807919071899775],[139.76841947641233,35.80678353232423],[139.7675100546932,35.805498164610256]],[[139.78959425508933,35.778308300329314],[139.78676767407035,35.78142314847055]],[[139.78676767407035,35.78142314847055],[139.7890535178509,35.78236154575867],[139.79151141438916,35.78230634591819]],[[139.79151141438916,35.78230634591819],[139.79136394059685,35.78132063448109]],[[139.79136394059685,35.78132063448109],[139.79148683542377,35.77823732910584]],[[139.84259879393656,35.78158086230049],[139.83948955481569,35.78156509091749]],[[139.83948955481569,35.78156509091749],[139.83698250034666,35.781557205225994]],[[139.83698250034666,35.781557205225994],[139.8365277894871,35.78464051060124]],[[139.8365277894871,35.78464051060124],[139.83715455310434,35.78478245304818]],[[139.83715455310434,35.78478245304818],[139.84177539859624,35.78580759294277]],[[139.84177539859624,35.78580759294277],[139.84216866204238,35.78367057054714]],[[139.84216866204238,35.78367057054714],[139.84259879393656,35.78158086230049]],[[139.83899797550805,35.77682579032792],[139.83948955481569,35.78156509091749]],[[139.84259879393656,35.78158086230049],[139.84277084669424,35.78067400777835]],[[139.84277084669424,35.78067400777835],[139.843655689448,35.77603722117824]],[[139.843655689448,35.77603722117824],[139.84338532082882,35.775958364263275]],[[139.84338532082882,35.775958364263275],[139.83899797550805,35.77682579032792]],[[139.79757012935593,35.770533008513475],[139.79637804953487,35.77099037862029]],[[139.79637804953487,35.77099037862029],[139.79305988920825,35.77231517479175]],[[139.79305988920825,35.77231517479175],[139.79266662576214,35.774909567294195]],[[139.79266662576214,35.774909567294195],[139.79290012593324,35.77527230910305]],[[139.79757012935593,35.77274100213258],[139.79757012935593,35.770533008513475]],[[139.76312270937242,35.76483953925279],[139.761906050586,35.7685142714903],[139.75835439008821,35.771991861440384]],[[139.75835439008821,35.771991861440384],[139.76041902318036,35.77151083425908]],[[139.76041902318036,35.77151083425908],[139.76126699748605,35.77050146574749],[139.7632701831647,35.771234835056696]],[[139.7632701831647,35.771234835056696],[139.7666497909048,35.770935178779816]],[[139.7666497909048,35.770935178779816],[139.76685871211055,35.769373811863446],[139.76571579022027,35.76541519473206]],[[139.80344450208233,35.761401377760194],[139.79882365659043,35.761913947707484]],[[139.8275687566052,35.777693216392564],[139.8280234674648,35.782732173259014]],[[139.8280234674648,35.782732173259014],[139.83059196934724,35.78209343224778]],[[139.83059196934724,35.78209343224778],[139.83021099538382,35.777543388254124]],[[139.77011542502373,35.80174457545778],[139.76802621296622,35.80188651790473]],[[139.76802621296622,35.80188651790473],[139.76569121125488,35.801949603436704]],[[139.7675100546932,35.805498164610256],[139.77204487380624,35.80510388003542]],[[139.77204487380624,35.80510388003542],[139.77205716328893,35.80403142599185]],[[139.77205716328893,35.80403142599185],[139.77120918898325,35.801649947159824]],[[139.79446089023503,35.76700810441441],[139.79637804953487,35.77099037862029]],[[139.79757012935593,35.770533008513475],[139.80104805295753,35.766361477711676]],[[139.77933253704214,35.79010529480852],[139.77932024755947,35.790128951883005]],[[139.77932024755947,35.790128951883005],[139.7793816949729,35.792881058215386]],[[139.7793816949729,35.792881058215386],[139.779418563421,35.79559373609029]],[[139.779418563421,35.79559373609029],[139.77944314238636,35.795648935930764]],[[139.7830439608149,35.791753404331345],[139.78325288202063,35.79034975124492]],[[139.78325288202063,35.79034975124492],[139.77933253704214,35.79010529480852]],[[139.77834937842684,35.75950881180096],[139.77563340275208,35.759414183503],[139.77102484674288,35.76002138174825]],[[139.77090195191596,35.76460296850789],[139.77167618932552,35.76712638978686],[139.77465024413678,35.76770204526613]],[[139.77465024413678,35.76770204526613],[139.7772924829154,35.76585679345588]],[[139.7772924829154,35.76585679345588],[139.77895156307872,35.76461085419939],[139.77828793101338,35.76343588616636]],[[139.77828793101338,35.76343588616636],[139.7775751410173,35.76280503084662],[139.77834937842684,35.75950881180096]],[[139.79770531366552,35.77846601415925],[139.80326015984195,35.77841870001027]],[[139.80326015984195,35.77841870001027],[139.8033216072554,35.777086018147315]],[[139.8033216072554,35.777086018147315],[139.80339534415157,35.7746572251663]],[[139.77070532019292,35.76893221313963],[139.77050868846985,35.77327722915436]],[[139.77050868846985,35.77327722915436],[139.77050868846985,35.773285114845855]],[[139.77050868846985,35.773285114845855],[139.77428155965606,35.77557196537993]],[[139.77428155965606,35.77557196537993],[139.77431842810412,35.774381225963914]],[[139.77431842810412,35.774381225963914],[139.77425698069067,35.771810490535955]],[[139.77425698069067,35.771810490535955],[139.77465024413678,35.76770204526613]],[[139.82438578058816,35.7778667016055],[139.8250371231708,35.78032703735249]],[[139.8250371231708,35.78032703735249],[139.82570075523614,35.78264543065255]],[[139.82570075523614,35.78264543065255],[139.8280234674648,35.782732173259014]],[[139.81488601046786,35.7665349629246],[139.81478769460634,35.76652707723311]],[[139.81478769460634,35.76652707723311],[139.81489829995056,35.77019392377912]],[[139.82195246301532,35.76915301250154],[139.8217189628442,35.76836444335186]],[[139.8217189628442,35.76836444335186],[139.8183393551041,35.76721313239333]],[[139.8183393551041,35.76721313239333],[139.81488601046786,35.7665349629246]],[[139.83715455310434,35.78478245304818],[139.8363926051775,35.786966789592796]],[[139.8363926051775,35.786966789592796],[139.83542173604488,35.79003432358505]],[[139.83542173604488,35.79003432358505],[139.8412961087713,35.78840198544521]],[[139.8412961087713,35.78840198544521],[139.84177539859624,35.78580759294277]],[[139.78676767407035,35.78142314847055],[139.78659562131267,35.78237731714166]],[[139.78659562131267,35.78237731714166],[139.78764022734143,35.78579182155977]],[[139.78764022734143,35.78579182155977],[139.79286325748518,35.785539479431876]],[[139.79286325748518,35.785539479431876],[139.79250686248713,35.785042680867576]],[[139.79250686248713,35.785042680867576],[139.79151141438916,35.78230634591819]],[[139.78367072443214,35.78250348820561],[139.7837321718456,35.78625707735808]],[[139.7837321718456,35.78625707735808],[139.78407627736095,35.78776324443397]],[[139.78407627736095,35.78776324443397],[139.78603030510885,35.7879367296469]],[[139.78603030510885,35.7879367296469],[139.78846362268172,35.78801558656187]],[[139.78846362268172,35.78801558656187],[139.78830385940674,35.787573987838044]],[[139.78830385940674,35.787573987838044],[139.78764022734143,35.78579182155977]],[[139.78659562131267,35.78237731714166],[139.78367072443214,35.78250348820561]],[[139.8198755404405,35.761519663132646],[139.8217189628442,35.76836444335186]],[[139.82906807349352,35.762529031644235],[139.83085004848377,35.76271828824016]],[[139.83085004848377,35.76271828824016],[139.8309483643453,35.75877544249176],[139.8276916514321,35.75739544647982],[139.82588509747652,35.75798687334208],[139.82527062334194,35.759327440896534],[139.82592196592458,35.761732576803055],[139.82696657195334,35.76228457520783]],[[139.79136394059685,35.78132063448109],[139.79442402178697,35.7805714937889],[139.79765615573476,35.78177011889641]],[[139.79765615573476,35.78177011889641],[139.79764386625206,35.78088692144877]],[[139.79764386625206,35.78088692144877],[139.797606997804,35.77846601415925]],[[139.8509433526839,35.77132157766316],[139.8498618782071,35.77270157367509],[139.847158192015,35.77193666159991],[139.84428245306526,35.776187049316675]],[[139.84428245306526,35.776187049316675],[139.85070985251278,35.778213672031356]],[[139.85070985251278,35.778213672031356],[139.85478996076625,35.77394751293159]],[[139.85478996076625,35.77394751293159],[139.85426151301053,35.77263060245163],[139.8509433526839,35.77132157766316]],[[139.79083549284113,35.79398505502494],[139.79211359904102,35.79758093034748]],[[139.79211359904102,35.79758093034748],[139.79223649386793,35.79809350029477]],[[139.79223649386793,35.79809350029477],[139.79446089023503,35.79831429965668]],[[139.79446089023503,35.79831429965668],[139.79422739006392,35.79290471528988]],[[139.79422739006392,35.79290471528988],[139.79083549284113,35.79398505502494]],[[139.79223649386793,35.79809350029477],[139.7934162842063,35.80142914779791]],[[139.7934162842063,35.80142914779791],[139.79433799540814,35.80092446354212],[139.79744723452902,35.8016972613088]],[[139.79744723452902,35.8016972613088],[139.7976192872867,35.798834755295466]],[[139.7976192872867,35.798834755295466],[139.79446089023503,35.79831429965668]],[[139.83086233796644,35.78624130597509],[139.82654872954183,35.785752393102285]],[[139.82654872954183,35.785752393102285],[139.82657330850722,35.785886449857735]],[[139.82657330850722,35.785886449857735],[139.8275687566052,35.78952963932925]],[[139.8275687566052,35.78952963932925],[139.82794973056863,35.79115409177759]],[[139.82794973056863,35.79115409177759],[139.83109583813757,35.791840146937815]],[[139.83109583813757,35.791840146937815],[139.83086233796644,35.78624130597509]],[[139.83334481347006,35.783899255600545],[139.83341855036622,35.78635959134754]],[[139.83341855036622,35.78635959134754],[139.8363926051775,35.786966789592796]],[[139.8365277894871,35.78464051060124],[139.83334481347006,35.783899255600545]],[[139.79120417732187,35.76435062637999],[139.78663248976073,35.76472125388034]],[[139.78663248976073,35.76472125388034],[139.78548956787046,35.76938169755495]],[[139.78548956787046,35.76938169755495],[139.7926912047275,35.769492097235904]],[[139.7926912047275,35.769492097235904],[139.79164659869875,35.766408791860655]],[[139.84010402895024,35.76628262079671],[139.83982137084834,35.76991003888523]],[[139.83982137084834,35.76991003888523],[139.840988871704,35.770320094843065]],[[139.840988871704,35.770320094843065],[139.8446634270287,35.7712111779822]],[[139.8446634270287,35.7712111779822],[139.8450812694402,35.769192440959024]],[[139.8450812694402,35.769192440959024],[139.84167708273472,35.76632204925419],[139.84010402895024,35.76628262079671]],[[139.799954288998,35.75092917945245],[139.79736120815016,35.75232494684738]],[[139.79736120815016,35.75232494684738],[139.79849184055777,35.75532150961617]],[[139.79849184055777,35.75532150961617],[139.801269263646,35.754856253817856]],[[139.801269263646,35.754856253817856],[139.80128155312866,35.75480893966887]],[[139.80128155312866,35.75480893966887],[139.80072852640757,35.753176601529034]],[[139.80072852640757,35.753176601529034],[139.799954288998,35.75092917945245]],[[139.8032355808766,35.77956212527731],[139.80051960520183,35.780800178842306],[139.79764386625206,35.78088692144877]],[[139.79765615573476,35.78177011889641],[139.79769302418285,35.78508210932506]],[[139.79769302418285,35.78508210932506],[139.8030635281189,35.785074223633565]],[[139.8030635281189,35.785074223633565],[139.8031864229458,35.781612405066475]],[[139.8031864229458,35.781612405066475],[139.8032355808766,35.77956212527731]],[[139.7912902037007,35.7488315855143],[139.79098296663344,35.75077935131401],[139.78925014957397,35.75243534652834]],[[139.78925014957397,35.75243534652834],[139.79094609818534,35.75491145365833]],[[139.79094609818534,35.75491145365833],[139.7922856517987,35.75336585812496]],[[139.7922856517987,35.75336585812496],[139.7943625743735,35.750724151473534]],[[139.7943625743735,35.750724151473534],[139.79444860075236,35.74898141365274]],[[139.79444860075236,35.74898141365274],[139.7912902037007,35.7488315855143]],[[139.82794973056863,35.79115409177759],[139.8275810460879,35.793780027046026]],[[139.8275810460879,35.793780027046026],[139.83043220607226,35.79445031082325]],[[139.83043220607226,35.79445031082325],[139.83114499606833,35.79314917172628]],[[139.83114499606833,35.79314917172628],[139.83109583813757,35.791840146937815]],[[139.78407627736095,35.78776324443397],[139.78325288202063,35.79034975124492]],[[139.78712406906837,35.79213980321469],[139.78603030510885,35.7879367296469]],[[139.78548956787046,35.76938169755495],[139.78460472511668,35.77188934745092]],[[139.78460472511668,35.77188934745092],[139.78456785666862,35.77406579830404]],[[139.78456785666862,35.77406579830404],[139.78465388304744,35.77402636984656]],[[139.78465388304744,35.77402636984656],[139.79291241541594,35.77202340420637]],[[139.79291241541594,35.77202340420637],[139.7926912047275,35.769492097235904]],[[139.77790695704996,35.77346648575028],[139.77680090360775,35.777086018147315]],[[139.77680090360775,35.777086018147315],[139.778423115323,35.77807172958441]],[[139.778423115323,35.77807172958441],[139.78210996013036,35.77800075836094]],[[139.78210996013036,35.77800075836094],[139.78188874944192,35.77614762085919]],[[139.78188874944192,35.77614762085919],[139.78158151237463,35.77529596617754]],[[139.78158151237463,35.77529596617754],[139.77955374773057,35.77506728112414],[139.779418563421,35.77335608606933],[139.77790695704996,35.77346648575028]],[[139.7632701831647,35.771234835056696],[139.76420418384924,35.77622647777416]],[[139.76420418384924,35.77622647777416],[139.76982047743914,35.775776993358846],[139.77037350416023,35.775256537720054]],[[139.77037350416023,35.775256537720054],[139.77050868846985,35.773285114845855]],[[139.77050868846985,35.77327722915436],[139.7666497909048,35.770935178779816]],[[139.81976493509626,35.76044720908908],[139.81701209097344,35.76051029462106],[139.81332524616607,35.7594062978115]],[[139.8137062201295,35.76069166552548],[139.81566024787742,35.76095977903637]],[[139.81566024787742,35.76095977903637],[139.81853598682716,35.761385606377196]],[[139.81853598682716,35.761385606377196],[139.8198755404405,35.761519663132646]],[[139.83114499606833,35.79314917172628],[139.83647863155633,35.796823903963784]],[[139.83647863155633,35.796823903963784],[139.8376338429293,35.79325957140723]],[[139.8376338429293,35.79325957140723],[139.83640489466018,35.792967800821856]],[[139.83640489466018,35.792967800821856],[139.83271804985282,35.792187117363675]],[[139.83271804985282,35.792187117363675],[139.83109583813757,35.791840146937815]],[[139.77790695704996,35.77346648575028],[139.77431842810412,35.774381225963914]],[[139.77428155965606,35.77557196537993],[139.77680090360775,35.777086018147315]],[[139.781089933067,35.771644891014525],[139.78158151237463,35.77529596617754]],[[139.78188874944192,35.77614762085919],[139.78456785666862,35.77406579830404]],[[139.78460472511668,35.77188934745092],[139.78426061960133,35.77184991899344]],[[139.78426061960133,35.77184991899344],[139.781089933067,35.771644891014525]],[[139.76041902318036,35.77151083425908],[139.7593375487035,35.7726936879836]],[[139.7593375487035,35.7726936879836],[139.75919007491123,35.775012081283656],[139.76014865456114,35.77700716123235]],[[139.76014865456114,35.77700716123235],[139.76098433938415,35.77820578633986]],[[139.76098433938415,35.77820578633986],[139.76108265524567,35.77822944341435]],[[139.76108265524567,35.77822944341435],[139.76505215815496,35.77820578633986]],[[139.76505215815496,35.77820578633986],[139.76420418384924,35.77622647777416]],[[139.77033663571217,35.79018415172349],[139.77025060933335,35.79013683757451]],[[139.77025060933335,35.79013683757451],[139.76507673712032,35.790475922308865]],[[139.76507673712032,35.790475922308865],[139.76420418384924,35.79290471528988]],[[139.76420418384924,35.79290471528988],[139.77022603036795,35.79255774486402]],[[139.77022603036795,35.79255774486402],[139.77033663571217,35.79018415172349]],[[139.78899207043744,35.74434462705263],[139.7883407278548,35.7463870211503]],[[139.7883407278548,35.7463870211503],[139.7946452324754,35.74633970700132]],[[139.7946452324754,35.74633970700132],[139.79599707557145,35.745235710191764]],[[139.79599707557145,35.745235710191764],[139.79498933799076,35.74332737284954]],[[139.79498933799076,35.74332737284954],[139.79174491456027,35.74484931130842],[139.78899207043744,35.74434462705263]],[[139.76743631779703,35.807919071899775],[139.76994337226606,35.8093227249862]],[[139.76994337226606,35.8093227249862],[139.77355648017726,35.80772981530385]],[[139.77355648017726,35.80772981530385],[139.77204487380624,35.80510388003542]],[[139.85175445854154,35.76748124590422],[139.858661147814,35.767978044468514]],[[139.858661147814,35.767978044468514],[139.85826788436788,35.76638513478616],[139.85638759351613,35.76419291255006],[139.85217230095304,35.76571485100894],[139.85175445854154,35.76748124590422]],[[139.78367072443214,35.78250348820561],[139.78367072443214,35.782471945439625]],[[139.78367072443214,35.782471945439625],[139.77923422118062,35.78260600219507]],[[139.77923422118062,35.78260600219507],[139.77929566859407,35.78607570645366]],[[139.77929566859407,35.78607570645366],[139.7837321718456,35.78625707735808]],[[139.801269263646,35.754856253817856],[139.80204350105552,35.75711944727743]],[[139.80204350105552,35.75711944727743],[139.80736484706082,35.755053396105275]],[[139.80736484706082,35.755053396105275],[139.8074017155089,35.75320814429502]],[[139.8074017155089,35.75320814429502],[139.80622192517055,35.75411499881715]],[[139.80622192517055,35.75411499881715],[139.80128155312866,35.75480893966887]],[[139.76505215815496,35.77820578633986],[139.76528565832606,35.77820578633986]],[[139.76528565832606,35.77820578633986],[139.7701891619199,35.77803230112693]],[[139.7701891619199,35.77803230112693],[139.77037350416023,35.775256537720054]],[[139.75605625682496,35.78337091427026],[139.75128793754078,35.78392291267503]],[[139.75128793754078,35.78392291267503],[139.74756422428533,35.78464051060124],[139.74854738290063,35.78613879198563]],[[139.74854738290063,35.78613879198563],[139.75359836028673,35.786304391507066],[139.75549094062117,35.787329531401646],[139.75583504613653,35.7906336361388]],[[139.75583504613653,35.7906336361388],[139.7573097840595,35.78897764092448]],[[139.7573097840595,35.78897764092448],[139.75667073095954,35.786698676081905]],[[139.75667073095954,35.786698676081905],[139.75616686216918,35.78397811251551]],[[139.75616686216918,35.78397811251551],[139.75605625682496,35.78337091427026]],[[139.76095976041876,35.78307914368487],[139.76100891834952,35.78356805655768]],[[139.76100891834952,35.78356805655768],[139.76167255041486,35.78703776081627]],[[139.76167255041486,35.78703776081627],[139.76324560419934,35.78550793666589],[139.76572807970297,35.78628862012407]],[[139.76572807970297,35.78628862012407],[139.7653839741876,35.783181657674334]],[[139.7653839741876,35.783181657674334],[139.7652365003953,35.78307914368487]],[[139.7652365003953,35.78307914368487],[139.76095976041876,35.78307914368487]],[[139.79305988920825,35.77231517479175],[139.79291241541594,35.77202340420637]],[[139.78465388304744,35.77402636984656],[139.7847153304609,35.775871621656805]],[[139.7847153304609,35.775871621656805],[139.78958196560663,35.776171277933685],[139.79266662576214,35.774909567294195]],[[139.8055705825879,35.76825404367091],[139.8055951615533,35.771581805482555]],[[139.8055951615533,35.771581805482555],[139.81037577032018,35.770879978939334]],[[139.81037577032018,35.770879978939334],[139.80915911153375,35.76632204925419]],[[139.78846362268172,35.78801558656187],[139.79055283473923,35.79324380002424]],[[139.79055283473923,35.79324380002424],[139.79083549284113,35.79398505502494]],[[139.79422739006392,35.79290471528988],[139.7939816004101,35.78837832837072]],[[139.7939816004101,35.78837832837072],[139.79360062644665,35.78837832837072]],[[139.79360062644665,35.78837832837072],[139.7912902037007,35.787573987838044],[139.78830385940674,35.787573987838044]],[[139.77641992964433,35.80112949152103],[139.77528929723672,35.799528696147185]],[[139.77528929723672,35.799528696147185],[139.77120918898325,35.79959966737066]],[[139.77130750484477,35.80164206146833],[139.77641992964433,35.80112949152103]],[[139.83593789431794,35.77334031468634],[139.83531113070066,35.77487802452821]],[[139.83531113070066,35.77487802452821],[139.83689647396784,35.77703870399833]],[[139.83689647396784,35.77703870399833],[139.83899797550805,35.77682579032792]],[[139.84338532082882,35.775958364263275],[139.83926834412725,35.774531054102354]],[[139.83926834412725,35.774531054102354],[139.83593789431794,35.77334031468634]],[[139.84428245306526,35.776187049316675],[139.843655689448,35.77603722117824]],[[139.84277084669424,35.78067400777835],[139.8458923752978,35.78043743703345],[139.84847316666298,35.78100520682122]],[[139.84847316666298,35.78100520682122],[139.85070985251278,35.778213672031356]],[[139.78097932772278,35.770138723938636],[139.77806672032494,35.77126637782268],[139.77425698069067,35.771810490535955]],[[139.781089933067,35.771644891014525],[139.78097932772278,35.770138723938636]],[[139.79779134004437,35.79273123007695],[139.79782820849243,35.795152137366465]],[[139.79782820849243,35.795152137366465],[139.80239989605357,35.7948130526321]],[[139.80239989605357,35.7948130526321],[139.80239989605357,35.79479728124911]],[[139.80239989605357,35.79479728124911],[139.80258423829395,35.792849515449404]],[[139.80258423829395,35.792849515449404],[139.80257194881125,35.792747001459944]],[[139.80257194881125,35.792747001459944],[139.79779134004437,35.79273123007695]],[[139.81853598682716,35.761385606377196],[139.8183393551041,35.76721313239333]],[[139.7913270721488,35.80314822854422],[139.78585825235118,35.80489096636501]],[[139.78585825235118,35.80489096636501],[139.7833266189168,35.80541142200379]],[[139.7833266189168,35.80541142200379],[139.78287190805722,35.80720935966506]],[[139.78287190805722,35.80720935966506],[139.79092151921998,35.80574262104666]],[[139.79092151921998,35.80574262104666],[139.7913270721488,35.80314822854422]],[[139.78925014957397,35.75243534652834],[139.7857107785589,35.75361820025286],[139.78257696047262,35.753988827753204]],[[139.78257696047262,35.753988827753204],[139.78254009202456,35.75516379578623]],[[139.78254009202456,35.75516379578623],[139.7890535178509,35.756244135521285]],[[139.7890535178509,35.756244135521285],[139.79094609818534,35.75491145365833]],[[139.79250686248713,35.785042680867576],[139.79571441746955,35.78451433953729],[139.79769302418285,35.78508210932506]],[[139.79422739006392,35.79290471528988],[139.79779134004437,35.79273123007695]],[[139.79779134004437,35.79273123007695],[139.79769302418285,35.788488728051675]],[[139.79769302418285,35.788488728051675],[139.7939816004101,35.78837832837072]],[[139.76100891834952,35.78356805655768],[139.75616686216918,35.78397811251551]],[[139.75667073095954,35.786698676081905],[139.7613038659341,35.78922209736088],[139.76209039282637,35.78919055459489]],[[139.76209039282637,35.78919055459489],[139.76167255041486,35.78703776081627]],[[139.76605989573562,35.812098488393076],[139.76641629073367,35.815410478821725]],[[139.76641629073367,35.815410478821725],[139.77074218864098,35.81484270903396]],[[139.77074218864098,35.81484270903396],[139.77076676760637,35.81481905195947]],[[139.77076676760637,35.81481905195947],[139.76994337226606,35.8093227249862]],[[139.76420418384924,35.79290471528988],[139.76322102523395,35.79602744912261]],[[139.76345452540508,35.79602744912261],[139.77009084605834,35.795767221303215]],[[139.77009084605834,35.795767221303215],[139.77032434622947,35.79440299667427]],[[139.77032434622947,35.79440299667427],[139.77022603036795,35.79255774486402]],[[139.81036348083748,35.74443925535059],[139.80790558429925,35.7441711418397],[139.80607445137824,35.74488085407441],[139.80484550310914,35.74689170540609]],[[139.80484550310914,35.74689170540609],[139.81037577032018,35.74683650556562]],[[139.81037577032018,35.74683650556562],[139.81241582444693,35.74475468301046]],[[139.81241582444693,35.74475468301046],[139.81036348083748,35.74443925535059]],[[139.7414809303532,35.76888489899065],[139.73619645279595,35.77076169356688]],[[139.73619645279595,35.77076169356688],[139.74247637845116,35.77506728112414],[139.74420919551062,35.77370305649519]],[[139.74420919551062,35.77370305649519],[139.7414809303532,35.76888489899065]],[[139.7890535178509,35.756244135521285],[139.7942519690293,35.75718253280941]],[[139.7942519690293,35.75718253280941],[139.79453462713118,35.75510859594575]],[[139.79453462713118,35.75510859594575],[139.79498933799076,35.75288483094366]],[[139.79498933799076,35.75288483094366],[139.7922856517987,35.75336585812496]],[[139.75583504613653,35.7906336361388],[139.7592638118074,35.794040254865415],[139.76023468094,35.79620093433554]],[[139.76169712938025,35.7960432205056],[139.7620289454129,35.79073615012826]],[[139.7620289454129,35.79073615012826],[139.7603575757669,35.790625750447305],[139.7573097840595,35.78897764092448]],[[139.75605625682496,35.77837138586129],[139.75088238461197,35.7785842995317]],[[139.75088238461197,35.7785842995317],[139.75128793754078,35.78392291267503]],[[139.75605625682496,35.78337091427026],[139.75605625682496,35.77837138586129]],[[139.8032355808766,35.77956212527731],[139.80326015984195,35.77846601415925]],[[139.80326015984195,35.77846601415925],[139.80326015984195,35.77841870001027]],[[139.7740726384503,35.77816635788238],[139.7701891619199,35.77822155772285]],[[139.7701891619199,35.77822155772285],[139.77012771450643,35.782834687248474]],[[139.77012771450643,35.782834687248474],[139.7702751882987,35.782937201237935]],[[139.7702751882987,35.782937201237935],[139.77272079535427,35.78285834432297]],[[139.77272079535427,35.78285834432297],[139.7740726384503,35.77816635788238]],[[139.80072852640757,35.753176601529034],[139.804612002938,35.75213569025146],[139.80564431948406,35.75269557434773]],[[139.80564431948406,35.75269557434773],[139.8045997134553,35.75025100998373]],[[139.8045997134553,35.75025100998373],[139.799954288998,35.75092917945245]],[[139.8412961087713,35.78840198544521],[139.84092742429056,35.79037340831941]],[[139.84092742429056,35.79037340831941],[139.84441763737487,35.7906336361388]],[[139.84441763737487,35.7906336361388],[139.84638395460547,35.784624739218245]],[[139.84638395460547,35.784624739218245],[139.84216866204238,35.78367057054714]],[[139.7701891619199,35.77803230112693],[139.7701891619199,35.77822155772285]],[[139.7740726384503,35.77816635788238],[139.7784354048057,35.77807961527591]],[[139.7784354048057,35.77807961527591],[139.778423115323,35.77807172958441]],[[139.75088238461197,35.7785842995317],[139.74683914480656,35.77793767282897],[139.7513616744369,35.77505150974114]],[[139.7513616744369,35.77505150974114],[139.75835439008821,35.771991861440384]],[[139.77834937842684,35.75950881180096],[139.78070895910358,35.759627097173414]],[[139.78070895910358,35.759627097173414],[139.78265069736878,35.75988732499281]],[[139.78265069736878,35.75988732499281],[139.78851278061248,35.76082572228093]],[[139.78851278061248,35.76082572228093],[139.7903439135335,35.76110960717481]],[[139.81334982513147,35.75749796046928],[139.8134235620276,35.75536093807365],[139.8154021687409,35.75353145764639],[139.81465251029672,35.75247477498582]],[[139.81465251029672,35.75247477498582],[139.81032661238942,35.75650436334068],[139.80305123863621,35.759295898130546],[139.7977298926309,35.7599030963758],[139.7834249347783,35.75778973105466],[139.77775948325768,35.75710367589444],[139.77103713622557,35.757687217065204],[139.76780500227778,35.75852310036386],[139.76311041988973,35.76116480701529],[139.76083686559184,35.76357782861331],[139.75976768059772,35.7660381643603]],[[139.75976768059772,35.7660381643603],[139.76024697042268,35.76736296053177],[139.75928839077275,35.76918455526753],[139.75721146819794,35.769657696757335]],[[139.75721146819794,35.769657696757335],[139.74959198892938,35.77349802851627],[139.7454995911932,35.77619493500818],[139.74289422086267,35.779025898255526],[139.74149321983586,35.78141526277905]],[[139.74149321983586,35.78141526277905],[139.74390195844336,35.78220383192873],[139.74617551274122,35.78404119804748],[139.74666709204888,35.78673810453939],[139.74854738290063,35.78613879198563]],[[139.795935628158,35.7490918133337],[139.7943625743735,35.750724151473534]],[[139.79498933799076,35.75288483094366],[139.79736120815016,35.752332832538876]],[[139.79736120815016,35.752332832538876],[139.795935628158,35.7490918133337]],[[139.75690423113068,35.77833195740381],[139.75605625682496,35.77837138586129]],[[139.76095976041876,35.78307914368487],[139.76082457610917,35.7815493195345]],[[139.76082457610917,35.7815493195345],[139.76073854973032,35.78043743703345],[139.7569656785441,35.77989332432017],[139.75690423113068,35.77833195740381]],[[139.76209039282637,35.78919055459489],[139.76212726127443,35.790578436298325]],[[139.76212726127443,35.790578436298325],[139.76506444763763,35.790475922308865]],[[139.76506444763763,35.790475922308865],[139.76575265866833,35.786304391507066]],[[139.76575265866833,35.786304391507066],[139.76572807970297,35.78628862012407]],[[139.83545860449297,35.763238743878944],[139.8355692098372,35.766424563243646]],[[139.8355692098372,35.766424563243646],[139.8356675256987,35.76897164159711]],[[139.8356675256987,35.76897164159711],[139.8356675256987,35.768995298671605]],[[139.8356675256987,35.768995298671605],[139.83982137084834,35.76991003888523]],[[139.84010402895024,35.76628262079671],[139.83770757982546,35.765612337019476],[139.83759697448124,35.76329394371942],[139.83545860449297,35.763238743878944]],[[139.7977421821136,35.74439982689311],[139.79599707557145,35.745235710191764]],[[139.7946452324754,35.74633970700132],[139.79444860075236,35.74898141365274]],[[139.795935628158,35.7490918133337],[139.79847955107508,35.74669456311867]],[[139.79847955107508,35.74669456311867],[139.7977421821136,35.74439982689311]],[[139.75605625682496,35.77837138586129],[139.75622830958264,35.777661673626575]],[[139.75622830958264,35.777661673626575],[139.75485188752123,35.77771687346706],[139.75426199235204,35.77610819240171],[139.75158288512537,35.7766128766575],[139.7513616744369,35.77505150974114]],[[139.83109583813757,35.786249191666585],[139.83086233796644,35.78624130597509]],[[139.83271804985282,35.792187117363675],[139.83341855036622,35.78678541868837]],[[139.83341855036622,35.78678541868837],[139.83109583813757,35.786249191666585]],[[139.80622192517055,35.75411499881715],[139.80564431948406,35.75269557434773]],[[139.83043220607226,35.79445031082325],[139.83286552364513,35.79568836438825],[139.83672442121016,35.800325150988364],[139.83937894947147,35.80076674971218]],[[139.83937894947147,35.80076674971218],[139.83937894947147,35.79819601428423]],[[139.83937894947147,35.79819601428423],[139.83647863155633,35.796823903963784]],[[139.82952278435312,35.768892784682144],[139.8356675256987,35.76897164159711]],[[139.8355692098372,35.766424563243646],[139.82927699469928,35.76632993494569]],[[139.76802621296622,35.80188651790473],[139.76796476555276,35.79675293274031],[139.76322102523395,35.796894875187256]],[[139.77272079535427,35.78285834432297],[139.77923422118062,35.78260600219507]],[[139.77923422118062,35.78260600219507],[139.7784354048057,35.77807961527591]],[[139.80326015984195,35.77846601415925],[139.8082496898146,35.778560642457215]],[[139.8082496898146,35.778560642457215],[139.81113771824704,35.77853698538272]],[[139.8111745866951,35.777330474583714],[139.80549684569175,35.77722796059425]],[[139.80549684569175,35.77722796059425],[139.8033216072554,35.777086018147315]],[[139.82958423176657,35.7699967814917],[139.8355446308718,35.77315105809041]],[[139.8355446308718,35.77315105809041],[139.8356675256987,35.768995298671605]],[[139.83109583813757,35.786249191666585],[139.83059196934724,35.78209343224778]],[[139.82570075523614,35.78264543065255],[139.8260079923034,35.783812512994075]],[[139.8260079923034,35.783812512994075],[139.82654872954183,35.785752393102285]],[[139.81564795839472,35.77849755692524],[139.81604122184083,35.78188051857736]],[[139.81604122184083,35.78188051857736],[139.81604122184083,35.78191206134335]],[[139.81604122184083,35.78191206134335],[139.81868346061944,35.781975146875325]],[[139.81868346061944,35.781975146875325],[139.8191627504444,35.780200866288546],[139.8172087226965,35.779987952618136],[139.81740535441955,35.778308300329314]],[[139.77510495499638,35.80915712546477],[139.77076676760637,35.81481905195947]],[[139.77074218864098,35.81484270903396],[139.77096339932942,35.81717687371701]],[[139.77096339932942,35.81717687371701],[139.77739079877693,35.8105607785512]],[[139.77739079877693,35.8105607785512],[139.77510495499638,35.80915712546477]],[[139.76641629073367,35.815410478821725],[139.76590013246064,35.81588362031153]],[[139.76590013246064,35.81588362031153],[139.76630568538945,35.81741344446191],[139.77096339932942,35.81717687371701]],[[139.83937894947147,35.79819601428423],[139.84022692377715,35.793827341195005]],[[139.84022692377715,35.793827341195005],[139.8376338429293,35.79325957140723]],[[139.82229656853067,35.79273123007695],[139.8170489594215,35.7940875690144]],[[139.8170489594215,35.7940875690144],[139.81702438045613,35.79822755705022]],[[139.81702438045613,35.79822755705022],[139.81758969665992,35.80081406386116]],[[139.81758969665992,35.80081406386116],[139.81966661923474,35.79918961141282]],[[139.81966661923474,35.79918961141282],[139.82057604095388,35.79750995912401],[139.82323056921518,35.79533350827089]],[[139.82323056921518,35.79533350827089],[139.82229656853067,35.79273123007695]],[[139.8355446308718,35.77315105809041],[139.83593789431794,35.77334031468634]],[[139.83926834412725,35.774531054102354],[139.840988871704,35.770320094843065]],[[139.81071987583553,35.78486919565465],[139.8102160070452,35.78491650980363]],[[139.8102160070452,35.78491650980363],[139.80972442773754,35.78643844826251]],[[139.80972442773754,35.78643844826251],[139.80897476929337,35.78874895587107]],[[139.80897476929337,35.78874895587107],[139.8106338494567,35.78810232916833]],[[139.8106338494567,35.78810232916833],[139.81178906082968,35.78764495906152],[139.81685232769846,35.78759764491254]],[[139.81685232769846,35.78759764491254],[139.81685232769846,35.78754244507206]],[[139.81685232769846,35.78754244507206],[139.81645906425234,35.78448279677131]],[[139.81645906425234,35.78448279677131],[139.81644677476964,35.78445125400532]],[[139.81644677476964,35.78445125400532],[139.81071987583553,35.78486919565465]],[[139.80561974051867,35.78216440347125],[139.8031864229458,35.781612405066475]],[[139.8030635281189,35.785074223633565],[139.80303894915352,35.785933764006714]],[[139.80303894915352,35.785933764006714],[139.80549684569175,35.78613090629413]],[[139.80549684569175,35.78613090629413],[139.80561974051867,35.78216440347125]],[[139.84638395460547,35.784624739218245],[139.84847316666298,35.78100520682122]],[[139.83689647396784,35.77703870399833],[139.83620826293713,35.7771096752218]],[[139.83620826293713,35.7771096752218],[139.83698250034666,35.781557205225994]],[[139.77522784982327,35.795814535452195],[139.77528929723672,35.799528696147185]],[[139.77641992964433,35.80112949152103],[139.77860745756337,35.80087714939314]],[[139.77860745756337,35.80087714939314],[139.77946772135175,35.800758864020686]],[[139.77946772135175,35.800758864020686],[139.779418563421,35.79693430364474]],[[139.779418563421,35.79559373609029],[139.77522784982327,35.795814535452195]],[[139.8222474105999,35.78952963932925],[139.82229656853067,35.79273123007695]],[[139.82323056921518,35.79533350827089],[139.82618004506108,35.793362085396694],[139.8275810460879,35.793780027046026]],[[139.8275687566052,35.78952963932925],[139.8222474105999,35.78952963932925]],[[139.79736120815016,35.752332832538876],[139.79736120815016,35.75232494684738]],[[139.799954288998,35.75092917945245],[139.79933981486346,35.74917067024867]],[[139.79933981486346,35.74917067024867],[139.79850413004044,35.74670244881017]],[[139.79850413004044,35.74670244881017],[139.79847955107508,35.74669456311867]],[[139.82058833043658,35.78418314049443],[139.81645906425234,35.78448279677131]],[[139.81685232769846,35.78754244507206],[139.82079725164235,35.78750301661458]],[[139.82079725164235,35.78750301661458],[139.82089556750387,35.7867065617734]],[[139.82089556750387,35.7867065617734],[139.82058833043658,35.78418314049443]],[[139.80549684569175,35.78613090629413],[139.80570576689752,35.78661981916694],[139.80972442773754,35.78643844826251]],[[139.8102160070452,35.78491650980363],[139.80903621670683,35.78480611012267],[139.80874126912224,35.78206188948179]],[[139.80874126912224,35.78206188948179],[139.80561974051867,35.78216440347125]],[[139.77510495499638,35.80915712546477],[139.77355648017726,35.80772981530385]],[[139.76014865456114,35.77700716123235],[139.75746954733447,35.77715698937078],[139.7576784685402,35.77830041463782]],[[139.7576784685402,35.77830041463782],[139.76098433938415,35.77820578633986]],[[139.78212224961305,35.778008644052434],[139.78367072443214,35.782471945439625]],[[139.78959425508933,35.778308300329314],[139.78476448839166,35.77811904373339]],[[139.78476448839166,35.77811904373339],[139.78212224961305,35.778008644052434]],[[139.82657330850722,35.785886449857735],[139.82089556750387,35.7867065617734]],[[139.82079725164235,35.78750301661458],[139.82223512111722,35.787660730444514],[139.8222474105999,35.78952963932925]],[[139.7620289454129,35.79073615012826],[139.76212726127443,35.790578436298325]],[[139.75626517803073,35.755100710254254],[139.75879681146512,35.76170103403707]],[[139.75879681146512,35.76170103403707],[139.76166026093216,35.75900412754517]],[[139.76166026093216,35.75900412754517],[139.76276631437437,35.755668480042026],[139.76254510368594,35.75418597004062]],[[139.76254510368594,35.75418597004062],[139.75626517803073,35.755100710254254]],[[139.77522784982327,35.795814535452195],[139.7741832437945,35.7943320254508]],[[139.7741832437945,35.7943320254508],[139.7711354520871,35.79437933959978]],[[139.7711354520871,35.79437933959978],[139.77032434622947,35.79440299667427]],[[139.77009084605834,35.795767221303215],[139.7701400039891,35.79961543875365]],[[139.79055283473923,35.79324380002424],[139.7883775963029,35.79589339236716]],[[139.7883775963029,35.79589339236716],[139.78926243905664,35.7984956705611]],[[139.78926243905664,35.7984956705611],[139.79211359904102,35.79758093034748]],[[139.78212224961305,35.778008644052434],[139.78210996013036,35.77800075836094]],[[139.77012771450643,35.782834687248474],[139.7653839741876,35.783181657674334]],[[139.76575265866833,35.786304391507066],[139.77010313554104,35.786201877517605]],[[139.77010313554104,35.786201877517605],[139.7702751882987,35.782937201237935]],[[139.78265069736878,35.75988732499281],[139.78464159356474,35.76337280063439]],[[139.78464159356474,35.76337280063439],[139.78663248976073,35.76472125388034]],[[139.78663248976073,35.76472125388034],[139.78851278061248,35.76082572228093]],[[139.8022401327786,35.79666619013385],[139.80212952743437,35.79824332843321]],[[139.80212952743437,35.79824332843321],[139.80198205364206,35.80038035082884]],[[139.80198205364206,35.80038035082884],[139.8078564263685,35.80064846433973]],[[139.8078564263685,35.80064846433973],[139.80888874291455,35.80071154987171]],[[139.80888874291455,35.80071154987171],[139.81008082273559,35.79810927167776]],[[139.81008082273559,35.79810927167776],[139.8022401327786,35.79666619013385]],[[139.77946772135175,35.800758864020686],[139.7841623037398,35.80079829247817]],[[139.7841623037398,35.80079829247817],[139.78545269942236,35.79947349630671]],[[139.7808072749651,35.80457553870513],[139.7795414582479,35.805427193386784]],[[139.7795414582479,35.805427193386784],[139.7768746405039,35.806539075887834]],[[139.7768746405039,35.806539075887834],[139.7795414582479,35.80836067062359]],[[139.7795414582479,35.80836067062359],[139.78156922289196,35.80698067461166],[139.78287190805722,35.80720935966506]],[[139.7833266189168,35.80541142200379],[139.7808072749651,35.80457553870513]],[[139.81041263876824,35.74930472700411],[139.80931887480872,35.751189407271845],[139.80678724137434,35.75110266466538],[139.8074017155089,35.75320814429502]],[[139.80736484706082,35.755053396105275],[139.81133434997008,35.75200951918751],[139.81277221944498,35.75036929535618]],[[139.81277221944498,35.75036929535618],[139.81041263876824,35.74930472700411]],[[139.76166026093216,35.75900412754517],[139.7671905281432,35.75605487892537],[139.77272079535427,35.754966653498805],[139.77903758945754,35.75483259674336],[139.78254009202456,35.75516379578623]],[[139.78257696047262,35.753988827753204],[139.7715532944986,35.75360242886986],[139.76254510368594,35.75418597004062]],[[139.79850413004044,35.74670244881017],[139.80373944966692,35.74685227694861]],[[139.80373944966692,35.74685227694861],[139.80269484363816,35.743295830083554]],[[139.80269484363816,35.743295830083554],[139.7977421821136,35.74439982689311]],[[139.81758969665992,35.80081406386116],[139.81448045753905,35.801003320457085]],[[139.81448045753905,35.801003320457085],[139.8138659834045,35.801862860830234],[139.81519324753515,35.80419702551329]],[[139.81519324753515,35.80419702551329],[139.81883093441175,35.803045714554756],[139.8204285671616,35.8039131406194]],[[139.8204285671616,35.8039131406194],[139.81966661923474,35.79918961141282]],[[139.82992833728193,35.774160426602],[139.83531113070066,35.77487802452821]],[[139.83542173604488,35.79003432358505],[139.83502847259876,35.79123294869256],[139.83684731603708,35.7916193475759],[139.83640489466018,35.792967800821856]],[[139.84022692377715,35.793827341195005],[139.84023921325985,35.79381945550351]],[[139.84023921325985,35.79381945550351],[139.84092742429056,35.79037340831941]],[[139.8109042180759,35.78166760490695],[139.81071987583553,35.78486919565465]],[[139.81644677476964,35.78445125400532],[139.81604122184083,35.78191206134335]],[[139.81604122184083,35.78188051857736],[139.8109042180759,35.78166760490695]],[[139.8260079923034,35.783812512994075],[139.82064977785004,35.78418314049443]],[[139.82064977785004,35.78418314049443],[139.82058833043658,35.78418314049443]],[[139.78097932772278,35.770138723938636],[139.7805246168632,35.7672919893083]],[[139.7805246168632,35.7672919893083],[139.78054919582857,35.767236789467816]],[[139.78054919582857,35.767236789467816],[139.7772924829154,35.76585679345588]],[[139.7768746405039,35.806539075887834],[139.77355648017726,35.80772981530385]],[[139.77739079877693,35.8105607785512],[139.7795414582479,35.80836067062359]],[[139.7934162842063,35.80142914779791],[139.79490331161193,35.80532467939733]],[[139.79490331161193,35.80532467939733],[139.80001573641147,35.80657061865382],[139.8018100008844,35.80833701354911]],[[139.8018100008844,35.80833701354911],[139.80157650071325,35.80677564663274]],[[139.80157650071325,35.80677564663274],[139.7979019453886,35.80439416780071],[139.79757012935593,35.80306148593775]],[[139.79757012935593,35.80306148593775],[139.79744723452902,35.8016972613088]],[[139.77929566859407,35.78607570645366],[139.77933253704214,35.79010529480852]],[[139.77828793101338,35.76343588616636],[139.78096703824008,35.76330182941092]],[[139.78096703824008,35.76330182941092],[139.78070895910358,35.759627097173414]],[[139.78096703824008,35.76330182941092],[139.78123740685928,35.76445314036945]],[[139.78123740685928,35.76445314036945],[139.78336348736488,35.76394057042216]],[[139.78336348736488,35.76394057042216],[139.78464159356474,35.76337280063439]],[[139.80182229036708,35.80273817258638],[139.79757012935593,35.80306148593775]],[[139.80157650071325,35.80677564663274],[139.80182229036708,35.80273817258638]],[[139.80408355518227,35.80560856429121],[139.80247363294973,35.80817141402767],[139.8035059494958,35.808747069506936]],[[139.8035059494958,35.808747069506936],[139.80485779259183,35.808896897645376],[139.8118627977258,35.80817929971917],[139.81419779943715,35.808534155836526]],[[139.81419779943715,35.808534155836526],[139.81486143150246,35.80847107030455]],[[139.81486143150246,35.80847107030455],[139.81476311564094,35.80648387604736]],[[139.81476311564094,35.80648387604736],[139.81419779943715,35.80573473535516],[139.81071987583553,35.80577416381264]],[[139.81071987583553,35.80577416381264],[139.81073216531823,35.80657061865382],[139.80666434654742,35.8066258184943],[139.80665205706472,35.80559279290822],[139.80408355518227,35.80560856429121]],[[139.8082496898146,35.778560642457215],[139.8092205589472,35.78011412368208],[139.80874126912224,35.78206188948179]],[[139.8109042180759,35.78166760490695],[139.81122374462586,35.77853698538272]],[[139.78476448839166,35.77811904373339],[139.7847153304609,35.775871621656805]],[[139.78426061960133,35.77184991899344],[139.7837444613283,35.76908204127807],[139.7843097775321,35.768198843830426]],[[139.7843097775321,35.768198843830426],[139.7805246168632,35.7672919893083]],[[139.7593375487035,35.7726936879836],[139.75695338906144,35.77463356809181],[139.75622830958264,35.777661673626575]],[[139.75690423113068,35.77833195740381],[139.7576784685402,35.77830041463782]],[[139.80940490118758,35.766211649573236],[139.81478769460634,35.76652707723311]],[[139.81488601046786,35.7665349629246],[139.81561108994663,35.763956341805155],[139.81566024787742,35.76095977903637]],[[139.77860745756337,35.80087714939314],[139.77860745756337,35.80350308466157]],[[139.77860745756337,35.80350308466157],[139.7795414582479,35.805427193386784]],[[139.7808072749651,35.80457553870513],[139.7841623037398,35.80079829247817]],[[139.80303894915352,35.785933764006714],[139.8029037648439,35.78887512693502]],[[139.8029037648439,35.78887512693502],[139.802940633292,35.78887512693502]],[[139.802940633292,35.78887512693502],[139.80897476929337,35.78874895587107]],[[139.79286325748518,35.785539479431876],[139.79360062644665,35.78837832837072]],[[139.79769302418285,35.788488728051675],[139.79769302418285,35.78508210932506]],[[139.76507673712032,35.790475922308865],[139.76506444763763,35.790475922308865]],[[139.81073216531823,35.794939223696055],[139.81065842842207,35.79816447151824]],[[139.81065842842207,35.79816447151824],[139.81702438045613,35.79822755705022]],[[139.8170489594215,35.7940875690144],[139.81703666993883,35.79405602624841]],[[139.81703666993883,35.79405602624841],[139.81320235133916,35.79492345231306],[139.81073216531823,35.794939223696055]],[[139.8055951615533,35.771581805482555],[139.8055828720706,35.77380557048465]],[[139.8055828720706,35.77380557048465],[139.81080590221438,35.773537456973756]],[[139.82064977785004,35.78418314049443],[139.82037940923084,35.78188051857736]],[[139.82037940923084,35.78188051857736],[139.81868346061944,35.781975146875325]],[[139.8106338494567,35.78810232916833],[139.8104863756644,35.79085443550071]],[[139.8104863756644,35.79085443550071],[139.81699980149074,35.79124872007555]],[[139.81699980149074,35.79124872007555],[139.81685232769846,35.78759764491254]],[[139.85175445854154,35.76748124590422],[139.8515209583704,35.7687587279267]],[[139.8515209583704,35.7687587279267],[139.8577025681641,35.770832664790355]],[[139.8577025681641,35.770832664790355],[139.858661147814,35.767978044468514]],[[139.73619645279595,35.77076169356688],[139.73603668952097,35.77371094218668],[139.73839627019768,35.77837138586129],[139.73803987519963,35.78020875198004],[139.74149321983586,35.78141526277905]],[[139.75721146819794,35.769657696757335],[139.75477815062507,35.76828558643689]],[[139.75477815062507,35.76828558643689],[139.74855967238332,35.77091940739682],[139.74420919551062,35.77370305649519]],[[139.81036348083748,35.74443925535059],[139.8106092704913,35.744179027531196]],[[139.8106092704913,35.744179027531196],[139.8062587936186,35.74327217300907],[139.80267026467277,35.74324063024308]],[[139.80267026467277,35.74324063024308],[139.80269484363816,35.743295830083554]],[[139.80373944966692,35.74685227694861],[139.80378860759768,35.746860162640104]],[[139.80378860759768,35.746860162640104],[139.80484550310914,35.74689170540609]],[[139.79849184055777,35.75532150961617],[139.79453462713118,35.75510859594575]],[[139.7942519690293,35.75718253280941],[139.7973120502194,35.757490074777785],[139.80204350105552,35.75711944727743]],[[139.81012998066635,35.800790406786675],[139.81071987583553,35.80577416381264]],[[139.81476311564094,35.80648387604736],[139.81519324753515,35.80419702551329]],[[139.81448045753905,35.801003320457085],[139.81012998066635,35.800790406786675]],[[139.77205716328893,35.80403142599185],[139.77539990258094,35.803376913597624],[139.77860745756337,35.80350308466157]],[[139.843655689448,35.77603722117824],[139.8446634270287,35.7712111779822]],[[139.82232114749604,35.80821084248515],[139.82077267267695,35.811333576317885]],[[139.82077267267695,35.811333576317885],[139.8201459090597,35.81281608631928],[139.82123967301922,35.81503196562988],[139.82320599024982,35.81446419584211],[139.82513543903235,35.81100237727502],[139.82232114749604,35.80821084248515]],[[139.79291241541594,35.74054372375117],[139.79498933799076,35.74332737284954]],[[139.79498933799076,35.74332737284954],[139.79775447159628,35.74260977492333],[139.79865160383275,35.74161617779474],[139.80204350105552,35.7412140075284]],[[139.80204350105552,35.7412140075284],[139.80133071105945,35.738722129015414]],[[139.80133071105945,35.738722129015414],[139.79559152264264,35.73969206906952],[139.79291241541594,35.74054372375117]],[[139.78336348736488,35.76394057042216],[139.7843097775321,35.768198843830426]],[[139.84023921325985,35.79381945550351],[139.84483547978638,35.794805166940606]],[[139.84483547978638,35.794805166940606],[139.84415955823835,35.79287317252389],[139.84441763737487,35.7906336361388]],[[139.75477815062507,35.76828558643689],[139.7509929899562,35.76741027468075],[139.74584369670856,35.767118504095365],[139.7414809303532,35.76888489899065]],[[139.80239989605357,35.7948130526321],[139.8022401327786,35.79666619013385]],[[139.81008082273559,35.79810927167776],[139.81065842842207,35.79816447151824]],[[139.81073216531823,35.794939223696055],[139.81011769118365,35.79479728124911]],[[139.81011769118365,35.79479728124911],[139.80751232085314,35.79508116614299],[139.80239989605357,35.79479728124911]],[[139.8104863756644,35.79085443550071],[139.81037577032018,35.792037289225235]],[[139.81037577032018,35.792037289225235],[139.81011769118365,35.79479728124911]],[[139.81703666993883,35.79405602624841],[139.81699980149074,35.79124872007555]],[[139.7841623037398,35.80079829247817],[139.78636212114154,35.80124777689349],[139.78615319993577,35.80280125811836]],[[139.78615319993577,35.80280125811836],[139.78956967612393,35.802430630618005],[139.79063886111808,35.80153954747887]],[[139.79063886111808,35.80153954747887],[139.789606544572,35.79962332444515]],[[139.789606544572,35.79962332444515],[139.78545269942236,35.79947349630671]],[[139.7883407278548,35.7463870211503],[139.7912902037007,35.7488315855143]],[[139.83620826293713,35.7771096752218],[139.83383639277773,35.777330474583714]],[[139.83383639277773,35.777330474583714],[139.8339961560527,35.78143103416205]],[[139.8339961560527,35.78143103416205],[139.83698250034666,35.781557205225994]],[[139.81037577032018,35.792037289225235],[139.805287924486,35.791737632948355],[139.8044645291457,35.792817972683416],[139.80258423829395,35.792849515449404]],[[139.77272079535427,35.78285834432297],[139.77162703139476,35.78524770884649],[139.77242584776968,35.785373879910445]],[[139.77242584776968,35.785373879910445],[139.77929566859407,35.78607570645366]],[[139.81100253393743,35.74123766460289],[139.8106092704913,35.744179027531196]],[[139.81241582444693,35.74475468301046],[139.8172210121792,35.74361914343492]],[[139.8172210121792,35.74361914343492],[139.81800753907143,35.74262554630633]],[[139.81800753907143,35.74262554630633],[139.81457877340057,35.73904544236678],[139.81365706219873,35.7404727525277],[139.81100253393743,35.74123766460289]],[[139.83341855036622,35.78635959134754],[139.83341855036622,35.78678541868837]],[[139.80267026467277,35.74324063024308],[139.80204350105552,35.7412140075284]],[[139.76124241852065,35.8127687721703],[139.76590013246064,35.81588362031153]],[[139.79291241541594,35.74054372375117],[139.79095838766804,35.74180543439066],[139.78899207043744,35.74434462705263]],[[139.8055828720706,35.77380557048465],[139.80549684569175,35.77722796059425]],[[139.7976192872867,35.798834755295466],[139.79771760314821,35.79807772891178]],[[139.79771760314821,35.79807772891178],[139.79782820849243,35.795152137366465]],[[139.81100253393743,35.74123766460289],[139.8026333962247,35.73871424332392],[139.80133071105945,35.738722129015414]],[[139.8515209583704,35.7687587279267],[139.85118914233774,35.7697365536723]],[[139.85118914233774,35.7697365536723],[139.8509433526839,35.77132157766316]],[[139.85478996076625,35.77394751293159],[139.8577025681641,35.770832664790355]],[[139.82037940923084,35.78188051857736],[139.8226652530114,35.781722804747425],[139.82189101560186,35.780051038150106]],[[139.82189101560186,35.780051038150106],[139.81934709268478,35.7781032723504]],[[139.8041818710438,35.74838210109898],[139.79933981486346,35.74917067024867]],[[139.8045997134553,35.75025100998373],[139.8041818710438,35.74838210109898]],[[139.78123740685928,35.76445314036945],[139.78054919582857,35.767236789467816]],[[139.76528565832606,35.77820578633986],[139.7652365003953,35.78307914368487]],[[139.7741832437945,35.79295991513036],[139.7741832437945,35.7943320254508]],[[139.7793816949729,35.792881058215386],[139.7741832437945,35.79295991513036]],[[139.7741832437945,35.79295991513036],[139.7711231626044,35.79294414374736],[139.7711354520871,35.79437933959978]],[[139.76082457610917,35.7815493195345],[139.7621887086879,35.781360062938575],[139.76108265524567,35.77822944341435]],[[139.8041818710438,35.74838210109898],[139.80378860759768,35.746860162640104]],[[139.85118914233774,35.7697365536723],[139.8450812694402,35.769192440959024]],[[139.802940633292,35.78887512693502],[139.80257194881125,35.792747001459944]],[[139.8029037648439,35.78887512693502],[139.79769302418285,35.788488728051675]],[[139.8078564263685,35.80064846433973],[139.80770895257618,35.80236754508603],[139.80618505672248,35.80239120216052],[139.80408355518227,35.80560856429121]],[[139.81012998066635,35.800790406786675],[139.80888874291455,35.80071154987171]],[[139.79771760314821,35.79807772891178],[139.80212952743437,35.79824332843321]],[[139.8250371231708,35.78032703735249],[139.82189101560186,35.780051038150106]],[[139.78585825235118,35.80489096636501],[139.78615319993577,35.80280125811836]],[[139.77063158329676,35.79016838034049],[139.77033663571217,35.79018415172349]],[[139.77932024755947,35.790128951883005],[139.77063158329676,35.79016838034049]],[[139.81041263876824,35.74930472700411],[139.81037577032018,35.74684439125711]],[[139.81037577032018,35.74684439125711],[139.81037577032018,35.74683650556562]],[[139.7913270721488,35.80314822854422],[139.79063886111808,35.80153954747887]],[[139.80182229036708,35.80273817258638],[139.80198205364206,35.80038035082884]],[[139.83021099538382,35.777543388254124],[139.83383639277773,35.777330474583714]],[[139.81419779943715,35.808534155836526],[139.81756511769456,35.81012706551888],[139.81949456647706,35.81175940365871],[139.82077267267695,35.811333576317885]],[[139.82232114749604,35.80821084248515],[139.8218418576711,35.807516901633434]],[[139.8218418576711,35.807516901633434],[139.81976493509626,35.80812409987869],[139.81486143150246,35.80847107030455]],[[139.7507103318543,35.756196821372306],[139.75311907046176,35.76005292451424],[139.755736730275,35.761882404941495],[139.75879681146512,35.76170103403707]],[[139.75626517803073,35.755100710254254],[139.7507103318543,35.756196821372306]],[[139.77242584776968,35.785373879910445],[139.77063158329676,35.79016838034049]],[[139.8339961560527,35.78143103416205],[139.83334481347006,35.783899255600545]],[[139.8018100008844,35.80833701354911],[139.8035059494958,35.808747069506936]],[[139.77025060933335,35.79013683757451],[139.77010313554104,35.786201877517605]],[[139.81465251029672,35.75247477498582],[139.81831477613872,35.74780644561972],[139.82057604095388,35.74357182928594],[139.81800753907143,35.74262554630633]],[[139.8172210121792,35.74361914343492],[139.81526698443128,35.7471203904595]],[[139.81526698443128,35.7471203904595],[139.81277221944498,35.75036929535618]],[[139.7507103318543,35.756196821372306],[139.74821556686797,35.75812881578902],[139.74884233048522,35.75972961116287],[139.75482730855583,35.76308103004901],[139.75820691629593,35.764531997284415],[139.75976768059772,35.7660381643603]],[[139.78926243905664,35.7984956705611],[139.789606544572,35.79962332444515]],[[139.79092151921998,35.80574262104666],[139.79490331161193,35.80532467939733]],[[139.81526698443128,35.7471203904595],[139.81037577032018,35.74684439125711]],[[139.83545860449297,35.763238743878944],[139.8316242858933,35.76378285659222],[139.83085004848377,35.76271828824016]],[[139.8218418576711,35.807516901633434],[139.8204285671616,35.8039131406194]],[[139.83937894947147,35.80076674971218],[139.84291832048655,35.79996240917951],[139.84671577063813,35.79631921970799],[139.84483547978638,35.794805166940606]]]}