{"type":"Topology","bbox":[139.8132605804083,35.71067398689677,139.8946617971796,35.796878319811135],"objects":{"town":{"type":"GeometryCollection","geometries":[{"type":"MultiPolygon","arcs":[[[-146,-308,-414,-157,31,32,27,28,29,23,24,6,7,0,-45,-22,-152,-147]]],"properties":{"name":"立石"}},{"type":"MultiPolygon","arcs":[[[-289,-270,-62,-407,83,-46,14,-8,-7,-25,-275,-290]]],"properties":{"name":"東立石"}},{"type":"MultiPolygon","arcs":[[[35,36,143,-72,144,145,146,151,21,22,17,18,268,-209]]],"properties":{"name":"四つ木"}},{"type":"MultiPolygon","arcs":[[[88,195,41,200,201,-76,199,43,39,193,194,-124,90]]],"properties":{"name":"亀有"}},{"type":"MultiPolygon","arcs":[[[-61,-60,-352,402,163,-18,-23,44,-1,-15,45,-84,406]]],"properties":{"name":"東四つ木"}},{"type":"MultiPolygon","arcs":[[[173,414,415,51,198,-149,-67,-66,-274,207,-36,208,205,152,316,-93,-107,-109,48,49,-220,175,-111,176,177,178]]],"properties":{"name":"堀切"}},{"type":"MultiPolygon","arcs":[[[59,60,61,62,63,55,56,-300,-166,386,202,350,351]]],"properties":{"name":"西新小岩"}},{"type":"MultiPolygon","arcs":[[[-37,-208,273,65,66,67,68,69,70,71,-144]]],"properties":{"name":"宝町"}},{"type":"MultiPolygon","arcs":[[[74,75,76,114,-103,-102,250,244,245,246,272,-28,-33,-32,156,157,321,322]]],"properties":{"name":"青戸"}},{"type":"MultiPolygon","arcs":[[[79,80,335,336,-240,337,305,303,95,96,-412,331,332,333,334,-29,-273,-247,-246,-245,-251,101,102,103,104,-218,266]]],"properties":{"name":"高砂"}},{"type":"MultiPolygon","arcs":[[[-292,-319,-279,-285,-284,369,-141,-140,-254,-167,299,-57,-56,-64,-63,269,270]]],"properties":{"name":"東新小岩"}},{"type":"MultiPolygon","arcs":[[[106,92,93,218,109,110,-176,219,-50,-49,108]]],"properties":{"name":"小菅"}},{"type":"MultiPolygon","arcs":[[[348,-356,120,190,191,192,187,247,248,189,116,117,118,-133,-230,-229,-228,285,286]]],"properties":{"name":"東水元"}},{"type":"MultiPolygon","arcs":[[[404,353,122,-91,123,-195,-194,-186,-128,300,-179,-178]]],"properties":{"name":"西亀有"}},{"type":"MultiPolygon","arcs":[[[-151,236,125,126,127,128,-185,249,-69]]],"properties":{"name":"お花茶屋"}},{"type":"MultiPolygon","arcs":[[[226,227,228,229,132,-119,-118,324,-418,-315,-182,-433,419]]],"properties":{"name":"水元"}},{"type":"MultiPolygon","arcs":[[[-333,-332,411,-97,-96,-304,-391,393,-430,435,137,134,-257,-410]]],"properties":{"name":"細田"}},{"type":"MultiPolygon","arcs":[[[165,166,253,139,140,141,221,252,168]]],"properties":{"name":"新小岩"}},{"type":"MultiPolygon","arcs":[[[-126,-237,150,-68,148,-199,-52,-416,-415,-174,-301,-127]]],"properties":{"name":"東堀切"}},{"type":"MultiPolygon","arcs":[[[179,170,377,424,293,294,-286,-227,-420,432,181,182]]],"properties":{"name":"西水元"}},{"type":"MultiPolygon","arcs":[[[-145,-71,-70,-250,184,-129,185,-40,-44,-200,-75,-323,-322,-158,413,307]]],"properties":{"name":"白鳥"}},{"type":"MultiPolygon","arcs":[[[-192,210,-355,363,385,400,-343,-374,357,-373,380,381,344,345,-248,-188,-193]]],"properties":{"name":"東金町"}},{"type":"MultiPolygon","arcs":[[[-77,-202,427,436,434,-266,-408,-345,-382,-421,224,215,216,217,-105,-104,-115]]],"properties":{"name":"新宿"}},{"type":"MultiPolygon","arcs":[[[429,-394,390,-306,-338,239,240,361,362,430]]],"properties":{"name":"鎌倉"}},{"type":"MultiPolygon","arcs":[[[282,283,284,278,318,291,-271,288,289,274,-24,-30,-335,-334,409,256,-135,257,367]]],"properties":{"name":"奥戸"}},{"type":"MultiPolygon","arcs":[[[417,-325,-117,-190,-249,-346,407,265,261,313,-183,314]]],"properties":{"name":"南水元"}},{"type":"Polygon","arcs":[[308,309,310,311,312]],"properties":{"name":"金町浄水場"}},{"type":"MultiPolygon","arcs":[[[-336,-81,-80,-267,-217,395,-390,-311,-310,328,398,425,-362,-241,-337]]],"properties":{"name":"柴又"}},{"type":"MultiPolygon","arcs":[[[-396,-216,-225,420,-381,372,-358,373,342,343,-313,-312,389]]],"properties":{"name":"金町"}},{"type":"Polygon","arcs":[[354,-211,-191,-121,355,-349,-287,-295,356]],"properties":{"name":"水元公園"}}]}},"arcs":[[[139.8411351444872,35.735874033412294],[139.8409967485791,35.73605508061613]],[[139.8409967485791,35.73605508061613],[139.8430808281364,35.73718447031628]],[[139.8430808281364,35.73718447031628],[139.84636976618776,35.73785693135912]],[[139.84636976618776,35.73785693135912],[139.8492760802579,35.738365587788955]],[[139.8492760802579,35.738365587788955],[139.85014716038538,35.73858112017448]],[[139.85014716038538,35.73858112017448],[139.85052978436659,35.73733103233844]],[[139.85052978436659,35.73733103233844],[139.84791654398418,35.73681375461318]],[[139.84791654398418,35.73681375461318],[139.8411351444872,35.735874033412294]],[[139.8430808281364,35.73718447031628],[139.84215276145852,35.74150373932219]],[[139.84215276145852,35.74150373932219],[139.84550682699606,35.741900318911554]],[[139.84550682699606,35.741900318911554],[139.84636976618776,35.73785693135912]],[[139.84550682699606,35.741900318911554],[139.84838057732313,35.742245170728395]],[[139.84838057732313,35.742245170728395],[139.84838057732313,35.742236549432974]],[[139.84838057732313,35.742236549432974],[139.8492760802579,35.738365587788955]],[[139.8427470497698,35.73407218266931],[139.8411351444872,35.735874033412294]],[[139.84791654398418,35.73681375461318],[139.84897486563437,35.73471015853046]],[[139.84897486563437,35.73471015853046],[139.8427470497698,35.73407218266931]],[[139.83491546955838,35.73188237363238],[139.8314881355989,35.729502896096186]],[[139.8314881355989,35.729502896096186],[139.82900515018883,35.731856509746116]],[[139.82900515018883,35.731856509746116],[139.83353965141313,35.73514122330151]],[[139.83353965141313,35.73514122330151],[139.84079322518483,35.736106808388655]],[[139.84079322518483,35.736106808388655],[139.84092348015716,35.7360033528436]],[[139.84092348015716,35.7360033528436],[139.83491546955838,35.73188237363238]],[[139.85935455874204,35.73727930456591],[139.85480377564622,35.738313860016426],[139.85272783702467,35.73734827492928]],[[139.85272783702467,35.73734827492928],[139.85052978436659,35.73733103233844]],[[139.85014716038538,35.73858112017448],[139.853143024749,35.74158133098098]],[[139.853143024749,35.74158133098098],[139.85373731306026,35.74235724756887]],[[139.85373731306026,35.74235724756887],[139.856977405497,35.74074506532514],[139.8581171365049,35.74221068554671]],[[139.8581171365049,35.74221068554671],[139.8600058336037,35.73939152194405]],[[139.8600058336037,35.73939152194405],[139.85935455874204,35.73727930456591]],[[139.84838057732313,35.742245170728395],[139.84661399426088,35.746460984189255]],[[139.84661399426088,35.746460984189255],[139.8534686621798,35.74434014551569],[139.85530037272824,35.744443601060745]],[[139.85530037272824,35.744443601060745],[139.85373731306026,35.74235724756887]],[[139.853143024749,35.74158133098098],[139.8511729182925,35.74257277995439],[139.84838057732313,35.742236549432974]],[[139.83353965141313,35.73514122330151],[139.83168351805742,35.7392449599219]],[[139.83168351805742,35.7392449599219],[139.83467938242103,35.741667543935186]],[[139.83467938242103,35.741667543935186],[139.83705653566608,35.739167368263104]],[[139.83705653566608,35.739167368263104],[139.8378543473716,35.738451800743164]],[[139.8378543473716,35.738451800743164],[139.83353965141313,35.73514122330151]],[[139.8457754778765,35.753401127003144],[139.84422870008007,35.75709104144332]],[[139.84422870008007,35.75709104144332],[139.8462476521512,35.76309146305632]],[[139.8462476521512,35.76309146305632],[139.84764789310375,35.76282420289827]],[[139.84764789310375,35.76282420289827],[139.84770487965415,35.759004969026776],[139.84932492587254,35.75629788226459]],[[139.84932492587254,35.75629788226459],[139.8457754778765,35.753401127003144]],[[139.84092348015716,35.7360033528436],[139.8409967485791,35.73605508061613]],[[139.8427470497698,35.73407218266931],[139.84365069364034,35.73304624851421]],[[139.84365069364034,35.73304624851421],[139.8416887281196,35.730985758908595]],[[139.8416887281196,35.730985758908595],[139.8373007637392,35.731994450472854],[139.83491546955838,35.73188237363238]],[[139.82784099637362,35.75118545407995],[139.82744209052086,35.7537114936383]],[[139.82744209052086,35.7537114936383],[139.82745023145665,35.7537546001154]],[[139.82745023145665,35.7537546001154],[139.8338001613578,35.75404772415971]],[[139.8338001613578,35.75404772415971],[139.83322215491808,35.750797495786]],[[139.83322215491808,35.750797495786],[139.82784099637362,35.75118545407995]],[[139.8504972206235,35.7179589815275],[139.8495528720741,35.723321427279345]],[[139.8495528720741,35.723321427279345],[139.85299648790513,35.723286942097666]],[[139.85299648790513,35.723286942097666],[139.8570588148547,35.719252175840644]],[[139.8570588148547,35.719252175840644],[139.85707509672625,35.7192349332498]],[[139.85707509672625,35.7192349332498],[139.85595164758988,35.71841591018481]],[[139.85595164758988,35.71841591018481],[139.8504972206235,35.7179589815275]],[[139.84298313690715,35.7237955985275],[139.84401703575003,35.726795809334]],[[139.84401703575003,35.726795809334],[139.84842942293776,35.72770966664863]],[[139.84842942293776,35.72770966664863],[139.8485515369743,35.727778637011994]],[[139.8485515369743,35.727778637011994],[139.8508065761828,35.72551123631628]],[[139.8508065761828,35.72551123631628],[139.85299648790513,35.723286942097666]],[[139.8495528720741,35.723321427279345],[139.84723270537947,35.7238387050046],[139.84298313690715,35.7237955985275]],[[139.83553418067694,35.74397805110801],[139.8338571479082,35.74509881951274],[139.83292094029454,35.747702450729875],[139.83181377302975,35.747702450729875]],[[139.83181377302975,35.747702450729875],[139.83186261864435,35.74778004238866]],[[139.83186261864435,35.74778004238866],[139.83641340174017,35.747952468297086]],[[139.83641340174017,35.747952468297086],[139.84100488951486,35.74748691834435]],[[139.84100488951486,35.74748691834435],[139.8409967485791,35.747452433162664]],[[139.8409967485791,35.747452433162664],[139.84041060120362,35.74572817407847]],[[139.84041060120362,35.74572817407847],[139.83980817195658,35.74421082608438]],[[139.83980817195658,35.74421082608438],[139.83553418067694,35.74397805110801]],[[139.85113221361362,35.75336664182146],[139.85112407267786,35.75336664182146]],[[139.85112407267786,35.75336664182146],[139.8493330668083,35.75630650356001]],[[139.8493330668083,35.75630650356001],[139.8523126493004,35.75990158375056],[139.85471422535272,35.76013435872692]],[[139.85471422535272,35.76013435872692],[139.85677388210271,35.75859976814199]],[[139.85677388210271,35.75859976814199],[139.85451070195847,35.75719449698837],[139.85113221361362,35.75336664182146]],[[139.86514276407502,35.753064896481725],[139.8685619570987,35.756789296103584]],[[139.8685619570987,35.756789296103584],[139.86935162786847,35.75544437401791]],[[139.86935162786847,35.75544437401791],[139.8711751974811,35.75255624005189]],[[139.8711751974811,35.75255624005189],[139.86514276407502,35.753064896481725]],[[139.85118105922825,35.732373787471374],[139.8444159416028,35.73216687638127]],[[139.8444159416028,35.73216687638127],[139.84365069364034,35.73304624851421]],[[139.84897486563437,35.73471015853046],[139.85118105922825,35.732373787471374]],[[139.8508065761828,35.72551123631628],[139.85234521304346,35.72608886310948],[139.85745772070746,35.726640626016426]],[[139.85745772070746,35.726640626016426],[139.85777521720252,35.723657657800764]],[[139.85777521720252,35.723657657800764],[139.85299648790513,35.723286942097666]],[[139.84220160707315,35.76660033029266],[139.8451160620791,35.76921258280522],[139.8510019586413,35.769772967007576],[139.85173464286066,35.76759177926607],[139.84908883873518,35.76720382097213],[139.84581618255535,35.765789928523084]],[[139.84581618255535,35.765789928523084],[139.84490439774905,35.76528989338867]],[[139.84490439774905,35.76528989338867],[139.8428854456779,35.765367485047456],[139.84220160707315,35.76660033029266]],[[139.82061184540925,35.751961370667836],[139.82057928166617,35.75084060226311]],[[139.82057928166617,35.75084060226311],[139.82077466412466,35.74916807095144],[139.81834052432922,35.74777142109324]],[[139.81834052432922,35.74777142109324],[139.8146526804251,35.752478648393094],[139.815401646516,35.75353044643445],[139.81341525818794,35.755366782359125],[139.8132605804083,35.75934982084362],[139.8170135517986,35.76051369572545],[139.81975704715333,35.76044472536208],[139.82031063078574,35.755927166561484]],[[139.82031063078574,35.755927166561484],[139.82061184540925,35.751961370667836]],[[139.87068674133485,35.745409186147896],[139.86868407113528,35.74552988428379]],[[139.86868407113528,35.74552988428379],[139.8674547898339,35.745219517648636]],[[139.8674547898339,35.745219517648636],[139.8670070383665,35.74778004238866],[139.86773972258587,35.750866466149375]],[[139.86773972258587,35.750866466149375],[139.87108564718764,35.750797495786]],[[139.87108564718764,35.750797495786],[139.87068674133485,35.745409186147896]],[[139.86286330205922,35.7514096077609],[139.86109671899698,35.75050437174169]],[[139.86109671899698,35.75050437174169],[139.8590859078616,35.75384943436503]],[[139.8590859078616,35.75384943436503],[139.85881725698118,35.75506503701939]],[[139.85881725698118,35.75506503701939],[139.86225273187642,35.75662549149059]],[[139.86225273187642,35.75662549149059],[139.86226901374795,35.75652203594554]],[[139.86226901374795,35.75652203594554],[139.86286330205922,35.7514096077609]],[[139.82797125134596,35.74974569774464],[139.82057928166617,35.75084060226311]],[[139.82061184540925,35.751961370667836],[139.82371354193788,35.752151039167096],[139.82351001854363,35.753401127003144],[139.82744209052086,35.7537114936383]],[[139.82784099637362,35.75118545407995],[139.82797125134596,35.74974569774464]],[[139.82336348169974,35.75577198324391],[139.82421827995566,35.76198793724244],[139.82591973553176,35.76173791967523],[139.8252684606701,35.75932395695735],[139.82588717178865,35.7579876561671],[139.82848413029953,35.757418650669315]],[[139.82848413029953,35.757418650669315],[139.8282399022264,35.75674618962648]],[[139.8282399022264,35.75674618962648],[139.82336348169974,35.75577198324391]],[[139.85495031249008,35.752633831710675],[139.85226380368576,35.75162514014642]],[[139.85226380368576,35.75162514014642],[139.85113221361362,35.75336664182146]],[[139.85677388210271,35.75859976814199],[139.85881725698118,35.75506503701939]],[[139.8590859078616,35.75384943436503],[139.85495031249008,35.752633831710675]],[[139.86740594421926,35.78039440296622],[139.8667872331007,35.78094616587317]],[[139.8667872331007,35.78094616587317],[139.86551724712047,35.78473091456298]],[[139.86551724712047,35.78473091456298],[139.8651753278181,35.78603273017154]],[[139.8651753278181,35.78603273017154],[139.86852939335563,35.78637758198838]],[[139.86852939335563,35.78637758198838],[139.86924579570345,35.78397224056593]],[[139.86924579570345,35.78397224056593],[139.86782113194357,35.782420407390156],[139.86740594421926,35.78039440296622]],[[139.8375531327481,35.76351390653195],[139.83769966959196,35.76561750261467],[139.84220160707315,35.76660033029266]],[[139.84490439774905,35.76528989338867],[139.84122469478066,35.763927728712154]],[[139.84122469478066,35.763927728712154],[139.8375531327481,35.76351390653195]],[[139.83909991054452,35.75284074280078],[139.83905920586568,35.7528493640962]],[[139.83905920586568,35.7528493640962],[139.8411921310376,35.756263397082904]],[[139.8411921310376,35.756263397082904],[139.84417985446544,35.75696172201201]],[[139.84417985446544,35.75696172201201],[139.84270634509093,35.752202766939625]],[[139.84270634509093,35.752202766939625],[139.83909991054452,35.75284074280078]],[[139.86023377980527,35.7842050155423],[139.8596150686867,35.78842945029858]],[[139.8596150686867,35.78842945029858],[139.86408444242483,35.789024319682625]],[[139.86408444242483,35.789024319682625],[139.8651753278181,35.78603273017154]],[[139.86551724712047,35.78473091456298],[139.86023377980527,35.7842050155423]],[[139.8732267132953,35.73652063056887],[139.870930969408,35.73620164263829],[139.8687899033003,35.740089846873154]],[[139.8687899033003,35.740089846873154],[139.87191602263624,35.74055539682588]],[[139.87191602263624,35.74055539682588],[139.8752293834949,35.73724481938423]],[[139.8752293834949,35.73724481938423],[139.8732267132953,35.73652063056887]],[[139.86451591202066,35.71768310007403],[139.86085249092386,35.7184935018436]],[[139.86085249092386,35.7184935018436],[139.86565564302856,35.72172648762647]],[[139.86565564302856,35.72172648762647],[139.87072744601372,35.72545950854375]],[[139.87072744601372,35.72545950854375],[139.86872477581412,35.724088722571814],[139.86743850796236,35.72142474228673],[139.86649415941295,35.71785552598245]],[[139.86649415941295,35.71785552598245],[139.86451591202066,35.71768310007403]],[[139.83705653566608,35.739167368263104],[139.83980817195658,35.74421082608438]],[[139.84041060120362,35.74572817407847],[139.84378094861268,35.74423668997064]],[[139.84378094861268,35.74423668997064],[139.84094790296447,35.741374419890874]],[[139.84094790296447,35.741374419890874],[139.8378543473716,35.738451800743164]],[[139.84984594576184,35.762962143625],[139.84984594576184,35.762962143625]],[[139.83186261864435,35.74778004238866],[139.8332628595969,35.750763010604324]],[[139.8332628595969,35.750763010604324],[139.8375449918123,35.75045264396917]],[[139.8375449918123,35.75045264396917],[139.83641340174017,35.747952468297086]],[[139.8378543473716,35.738451800743164],[139.84079322518483,35.736106808388655]],[[139.82250868344383,35.74011571075941],[139.82041646295076,35.74387459556296]],[[139.82041646295076,35.74387459556296],[139.82569993026593,35.7458230083281]],[[139.82569993026593,35.7458230083281],[139.83042167301295,35.74616786014494],[139.8326604303499,35.743762518722484]],[[139.8326604303499,35.743762518722484],[139.83045423675603,35.74229689850092],[139.82250868344383,35.74011571075941]],[[139.84661399426088,35.746460984189255],[139.84582432349112,35.74663341009767]],[[139.84582432349112,35.74663341009767],[139.84636976618776,35.74737484150388]],[[139.84636976618776,35.74737484150388],[139.85319187036362,35.74836629047729]],[[139.85319187036362,35.74836629047729],[139.8539734001976,35.74642649900757],[139.85634241250688,35.74713344523209]],[[139.85634241250688,35.74713344523209],[139.857083237662,35.746736865642724]],[[139.857083237662,35.746736865642724],[139.8564482446719,35.745779901850995]],[[139.8564482446719,35.745779901850995],[139.85530037272824,35.744443601060745]],[[139.835851677172,35.72538191688496],[139.8314881355989,35.729502896096186]],[[139.8416887281196,35.730985758908595],[139.84063854740518,35.72920115075645],[139.835851677172,35.72538191688496]],[[139.8498866504407,35.71181199789234],[139.85857302890804,35.717734827846556]],[[139.85857302890804,35.717734827846556],[139.85909404879737,35.7174675676885]],[[139.85909404879737,35.7174675676885],[139.86353899972818,35.7131914051597]],[[139.86353899972818,35.7131914051597],[139.86080364530923,35.71445011429116],[139.85987557863137,35.713760410657486],[139.85668433180925,35.714277688382744],[139.8510263814486,35.71067398689677],[139.8498866504407,35.71181199789234]],[[139.8533302662717,35.7845757312454],[139.84868993288242,35.78413604517893],[139.84695591356325,35.78348944802236]],[[139.84695591356325,35.78348944802236],[139.8455231088676,35.787153498576274]],[[139.8455231088676,35.787153498576274],[139.8528906557401,35.787877687391635]],[[139.8528906557401,35.787877687391635],[139.8533302662717,35.7845757312454]],[[139.83520854324613,35.756556521127216],[139.83491546955838,35.755703012880545]],[[139.83491546955838,35.755703012880545],[139.83406881223823,35.75652203594554],[139.82806080163945,35.756263397082904]],[[139.82806080163945,35.756263397082904],[139.8282399022264,35.75674618962648]],[[139.82848413029953,35.757418650669315],[139.83074731044377,35.758565282960305]],[[139.83074731044377,35.758565282960305],[139.83588424091508,35.758961862549675]],[[139.83588424091508,35.758961862549675],[139.83520854324613,35.756556521127216]],[[139.8506356165316,35.778299428178926],[139.84695591356325,35.78348944802236]],[[139.8533302662717,35.7845757312454],[139.85364776276677,35.78254972682147]],[[139.85364776276677,35.78254972682147],[139.85242662240117,35.779506409537866]],[[139.85242662240117,35.779506409537866],[139.8506356165316,35.778299428178926]],[[139.8473873831591,35.74973707644923],[139.84207135210082,35.75013365603859]],[[139.84207135210082,35.75013365603859],[139.84270634509093,35.752202766939625]],[[139.84417985446544,35.75696172201201],[139.84422870008007,35.75709104144332]],[[139.8457754778765,35.753401127003144],[139.8473873831591,35.74973707644923]],[[139.87219281445243,35.77550612846253],[139.87196486825087,35.775721660848056]],[[139.87196486825087,35.775721660848056],[139.86743036702657,35.78017024928528]],[[139.86743036702657,35.78017024928528],[139.86740594421926,35.78039440296622]],[[139.86924579570345,35.78397224056593],[139.8703203992252,35.78110134919074],[139.8737070285058,35.77995471689975]],[[139.8737070285058,35.77995471689975],[139.87316158580916,35.7763165302321]],[[139.87316158580916,35.7763165302321],[139.87219281445243,35.77550612846253]],[[139.84422870008007,35.75709104144332],[139.84314595562256,35.75960845970624]],[[139.84314595562256,35.75960845970624],[139.84122469478066,35.763927728712154]],[[139.84581618255535,35.765789928523084],[139.8462476521512,35.76309146305632]],[[139.83181377302975,35.747702450729875],[139.8271815805762,35.74756451000314]],[[139.8271815805762,35.74756451000314],[139.82797125134596,35.74974569774464]],[[139.83322215491808,35.750797495786],[139.8332628595969,35.750763010604324]],[[139.8493330668083,35.75630650356001],[139.84932492587254,35.75629788226459]],[[139.84764789310375,35.76282420289827],[139.85519454056322,35.76301387139753]],[[139.85519454056322,35.76301387139753],[139.85471422535272,35.76013435872692]],[[139.84856781884585,35.713079328319225],[139.84586502816998,35.715708823422624]],[[139.84586502816998,35.715708823422624],[139.84897486563437,35.71783828339161],[139.8504972206235,35.7179589815275]],[[139.85595164758988,35.71841591018481],[139.84856781884585,35.713079328319225]],[[139.82594415833907,35.73494293350683],[139.82250868344383,35.74011571075941]],[[139.8326604303499,35.743762518722484],[139.8337675976147,35.742615886431494]],[[139.8337675976147,35.742615886431494],[139.83467938242103,35.741667543935186]],[[139.83168351805742,35.7392449599219],[139.82954245194972,35.73710687865749],[139.82594415833907,35.73494293350683]],[[139.8787951133625,35.77612686173284],[139.87617373204432,35.77727349402383],[139.87316158580916,35.7763165302321]],[[139.8737070285058,35.77995471689975],[139.87761467767572,35.7800150659677],[139.88132694438718,35.78171346116564]],[[139.88132694438718,35.78171346116564],[139.88327262803637,35.778299428178926]],[[139.88327262803637,35.778299428178926],[139.8787951133625,35.77612686173284]],[[139.86225273187642,35.75662549149059],[139.86125953771239,35.76121202065455]],[[139.86125953771239,35.76121202065455],[139.86379950967284,35.76267764087611]],[[139.86379950967284,35.76267764087611],[139.86599756233093,35.76022919297655]],[[139.86599756233093,35.76022919297655],[139.8681793331175,35.757470378441845]],[[139.8681793331175,35.757470378441845],[139.86226901374795,35.75652203594554]],[[139.82031063078574,35.755927166561484],[139.82336348169974,35.75577198324391]],[[139.82806080163945,35.756263397082904],[139.82745023145665,35.7537546001154]],[[139.86360412721436,35.713329345886436],[139.86451591202066,35.71768310007403]],[[139.86649415941295,35.71785552598245],[139.8685375342914,35.71395870045217],[139.86773972258587,35.71207063675497],[139.86665697812836,35.712898281115386],[139.86360412721436,35.713329345886436]],[[139.8597290417875,35.76034989111245],[139.85902892131122,35.76285868807995]],[[139.85902892131122,35.76285868807995],[139.85963949149402,35.76416050368852],[139.86243997339915,35.765669230387196]],[[139.86243997339915,35.765669230387196],[139.86379950967284,35.76267764087611]],[[139.86125953771239,35.76121202065455],[139.8597290417875,35.76034989111245]],[[139.85699368736854,35.788213917913055],[139.85941154529243,35.79235213971512]],[[139.85941154529243,35.79235213971512],[139.86168286637246,35.790800306539346]],[[139.86168286637246,35.790800306539346],[139.8636448318932,35.789369171499466]],[[139.8636448318932,35.789369171499466],[139.86408444242483,35.789024319682625]],[[139.8596150686867,35.78842945029858],[139.85699368736854,35.788213917913055]],[[139.85777521720252,35.723657657800764],[139.8593708406136,35.723812841118345]],[[139.8593708406136,35.723812841118345],[139.8570588148547,35.719252175840644]],[[139.85319187036362,35.74836629047729],[139.85226380368576,35.75162514014642]],[[139.85495031249008,35.752633831710675],[139.85632613063532,35.7488232191346],[139.85634241250688,35.74713344523209]],[[139.84207135210082,35.75013365603859],[139.8375449918123,35.75045264396917]],[[139.8375449918123,35.75045264396917],[139.83909991054452,35.75284074280078]],[[139.88166072275376,35.74350387985986],[139.87927542857295,35.74513330469442]],[[139.87927542857295,35.74513330469442],[139.87439086711055,35.74853009509029]],[[139.87439086711055,35.74853009509029],[139.87386170628542,35.75188377900905]],[[139.87386170628542,35.75188377900905],[139.87923472389411,35.74997847272101]],[[139.87923472389411,35.74997847272101],[139.88166072275376,35.74350387985986]],[[139.8583043780276,35.744064264062224],[139.8564482446719,35.745779901850995]],[[139.857083237662,35.746736865642724],[139.85868700200885,35.748271456227656],[139.86170728917978,35.74945257370033]],[[139.86170728917978,35.74945257370033],[139.86177241666593,35.74945257370033]],[[139.86177241666593,35.74945257370033],[139.86235042310565,35.747986953478765]],[[139.86235042310565,35.747986953478765],[139.86202478567483,35.746892048960305],[139.8583043780276,35.744064264062224]],[[139.87196486825087,35.775721660848056],[139.86677095122914,35.776152725619106]],[[139.86677095122914,35.776152725619106],[139.86743036702657,35.78017024928528]],[[139.84207135210082,35.75013365603859],[139.84100488951486,35.74748691834435]],[[139.86109671899698,35.75050437174169],[139.86170728917978,35.74945257370033]],[[139.84094790296447,35.741374419890874],[139.84215276145852,35.74150373932219]],[[139.86360412721436,35.713329345886436],[139.86353899972818,35.7131914051597]],[[139.85909404879737,35.7174675676885],[139.86085249092386,35.7184935018436]],[[139.87214396883783,35.732813473537846],[139.87069488227064,35.73416701691894]],[[139.87069488227064,35.73416701691894],[139.86671396467875,35.73954670526163]],[[139.86671396467875,35.73954670526163],[139.8687899033003,35.740089846873154]],[[139.8732267132953,35.73652063056887],[139.87214396883783,35.732813473537846]],[[139.87647494666783,35.77126445111541],[139.87219281445243,35.77550612846253]],[[139.8787951133625,35.77612686173284],[139.87808685195043,35.775040578509795]],[[139.87808685195043,35.775040578509795],[139.87647494666783,35.77126445111541]],[[139.85659478151578,35.77194553345367],[139.8536966083814,35.775135412759425]],[[139.8536966083814,35.775135412759425],[139.85503986278357,35.77687691443447],[139.86054313536457,35.777394192159726],[139.86068153127266,35.777868363407876]],[[139.86068153127266,35.777868363407876],[139.86254580556417,35.77673035241231]],[[139.86254580556417,35.77673035241231],[139.86301797983884,35.77531645996327]],[[139.86301797983884,35.77531645996327],[139.85777521720252,35.77338528978897],[139.85659478151578,35.77194553345367]],[[139.8681793331175,35.757470378441845],[139.8685619570987,35.756789296103584]],[[139.86514276407502,35.753064896481725],[139.86286330205922,35.7514096077609]],[[139.82900515018883,35.731856509746116],[139.82594415833907,35.73494293350683]],[[139.8485515369743,35.727778637011994],[139.8495610130099,35.72886492023504]],[[139.8495610130099,35.72886492023504],[139.85367218557408,35.728123488828835],[139.8553899230217,35.72898561837093],[139.85851604235765,35.72813211012426]],[[139.85851604235765,35.72813211012426],[139.85745772070746,35.726640626016426]],[[139.8583043780276,35.744064264062224],[139.8581171365049,35.74221068554671]],[[139.8337675976147,35.742615886431494],[139.83553418067694,35.74397805110801]],[[139.85466537973812,35.732796230947],[139.85244290427272,35.73504638905188],[139.85272783702467,35.73734827492928]],[[139.85935455874204,35.73727930456591],[139.86310753013234,35.73593438248024],[139.86257836930724,35.73483947796178]],[[139.86257836930724,35.73483947796178],[139.85918359909084,35.73145130886133]],[[139.85918359909084,35.73145130886133],[139.85823110960567,35.73391699935173],[139.85466537973812,35.732796230947]],[[139.86163402075783,35.72799416939752],[139.86208177222522,35.72875284339457]],[[139.86208177222522,35.72875284339457],[139.8634494494347,35.73083919688644]],[[139.8634494494347,35.73083919688644],[139.8651183412677,35.72965807941377],[139.8689282992084,35.73038226822913]],[[139.8689282992084,35.73038226822913],[139.8700354664732,35.728589038781564]],[[139.8700354664732,35.728589038781564],[139.87010873489515,35.728261429555566]],[[139.87010873489515,35.728261429555566],[139.86618480385366,35.72557158538422]],[[139.86618480385366,35.72557158538422],[139.8649229588092,35.72729584446842],[139.86367739563627,35.726735460266056],[139.86163402075783,35.72799416939752]],[[139.85941154529243,35.79235213971512],[139.85959878681516,35.79289528132664]],[[139.85959878681516,35.79289528132664],[139.8619759400602,35.79408502009474],[139.8632866307193,35.79378327475501]],[[139.8632866307193,35.79378327475501],[139.86353085879242,35.79259353598691],[139.86168286637246,35.790800306539346]],[[139.8495610130099,35.72886492023504],[139.85098567676974,35.729994309935186]],[[139.85098567676974,35.729994309935186],[139.85467352067388,35.73025294879781],[139.85466537973812,35.732796230947]],[[139.85918359909084,35.73145130886133],[139.8589719347608,35.72929598500608]],[[139.8589719347608,35.72929598500608],[139.85851604235765,35.72813211012426]],[[139.8528906557401,35.787877687391635],[139.85254059550195,35.79219695639755]],[[139.85254059550195,35.79219695639755],[139.85512941307704,35.79086927690271],[139.8577263715879,35.792127986034174],[139.8595906458794,35.795628231975094],[139.86016865231912,35.79552477643004]],[[139.86016865231912,35.79552477643004],[139.85959878681516,35.79289528132664]],[[139.85699368736854,35.788213917913055],[139.8528906557401,35.787877687391635]],[[139.85707509672625,35.7192349332498],[139.86351457692086,35.723718006868715]],[[139.86351457692086,35.723718006868715],[139.8635878453428,35.72376973464124]],[[139.8635878453428,35.72376973464124],[139.86565564302856,35.72172648762647]],[[139.85857302890804,35.717734827846556],[139.85707509672625,35.7192349332498]],[[139.8411921310376,35.756263397082904],[139.83520854324613,35.756556521127216]],[[139.83588424091508,35.758961862549675],[139.8372437771888,35.75907393939014]],[[139.8372437771888,35.75907393939014],[139.84314595562256,35.75960845970624]],[[139.873096458323,35.74554712687463],[139.87068674133485,35.745409186147896]],[[139.87108564718764,35.750797495786],[139.87425247120242,35.74862492933992]],[[139.87425247120242,35.74862492933992],[139.87439086711055,35.74579714444184],[139.873096458323,35.74554712687463]],[[139.8409967485791,35.747452433162664],[139.84576733694072,35.746555818438885]],[[139.84576733694072,35.746555818438885],[139.84378094861268,35.74423668997064]],[[139.87995112624193,35.76599683961319],[139.88262135317473,35.762212090923384]],[[139.88262135317473,35.762212090923384],[139.8755957256046,35.75897910514051]],[[139.8755957256046,35.75897910514051],[139.87341395481806,35.762970764920425]],[[139.87341395481806,35.762970764920425],[139.8726812705987,35.76418636757479]],[[139.8726812705987,35.76418636757479],[139.87995112624193,35.76599683961319]],[[139.8536966083814,35.775135412759425],[139.8506356165316,35.778299428178926]],[[139.85242662240117,35.779506409537866],[139.85855674703652,35.78004955114938]],[[139.85855674703652,35.78004955114938],[139.86068153127266,35.777868363407876]],[[139.82041646295076,35.74387459556296],[139.81834052432922,35.74777142109324]],[[139.8271815805762,35.74756451000314],[139.82569993026593,35.7458230083281]],[[139.86208177222522,35.72875284339457],[139.8589719347608,35.72929598500608]],[[139.86257836930724,35.73483947796178],[139.86493109974498,35.73449462614494]],[[139.86493109974498,35.73449462614494],[139.8634494494347,35.73083919688644]],[[139.84636976618776,35.74737484150388],[139.84790840304842,35.749521544063704]],[[139.84790840304842,35.749521544063704],[139.85112407267786,35.75336664182146]],[[139.8607547996946,35.78032543260286],[139.86023377980527,35.7842050155423]],[[139.8667872331007,35.78094616587317],[139.8607547996946,35.78032543260286]],[[139.8765970607044,35.75672032574022],[139.87544918876074,35.75707379885248]],[[139.87544918876074,35.75707379885248],[139.87560386654036,35.757763502486156]],[[139.87560386654036,35.757763502486156],[139.8755957256046,35.75897910514051]],[[139.88262135317473,35.762212090923384],[139.88337846020138,35.75816870337094]],[[139.88337846020138,35.75816870337094],[139.8765970607044,35.75672032574022]],[[139.86235042310565,35.747986953478765],[139.86446706640604,35.74355560763238]],[[139.86446706640604,35.74355560763238],[139.86526487811156,35.742098608706236]],[[139.86526487811156,35.742098608706236],[139.86415771084677,35.740753686620565]],[[139.86415771084677,35.740753686620565],[139.86310753013234,35.739986391328095]],[[139.86310753013234,35.739986391328095],[139.8600058336037,35.73939152194405]],[[139.8711751974811,35.75255624005189],[139.87159038520542,35.75240967802973]],[[139.87159038520542,35.75240967802973],[139.87386170628542,35.75188377900905]],[[139.87439086711055,35.74853009509029],[139.87425247120242,35.74862492933992]],[[139.86773972258587,35.750866466149375],[139.86566378396435,35.75074576801348],[139.86177241666593,35.74945257370033]],[[139.8726812705987,35.76418636757479],[139.8710937881234,35.76682448397361]],[[139.8710937881234,35.76682448397361],[139.87111006999493,35.76683310526902]],[[139.87111006999493,35.76683310526902],[139.87513983320144,35.768824624511275],[139.87579924899887,35.76965226887169]],[[139.87579924899887,35.76965226887169],[139.87986971688423,35.76926431057774]],[[139.87986971688423,35.76926431057774],[139.87995112624193,35.76599683961319]],[[139.86580217987245,35.77225590008882],[139.86584288455128,35.772367976929296]],[[139.86584288455128,35.772367976929296],[139.86677095122914,35.776152725619106]],[[139.87219281445243,35.77550612846253],[139.87114263373803,35.774600892443324]],[[139.87114263373803,35.774600892443324],[139.8687084939426,35.77198001863535],[139.86636390444062,35.770350593800785],[139.86580217987245,35.77225590008882]],[[139.8632866307193,35.79378327475501],[139.86569634770743,35.79392121548174],[139.86830144715404,35.79115377965161],[139.86830958808983,35.79034337788203]],[[139.86830958808983,35.79034337788203],[139.86584288455128,35.79032613529119],[139.8636448318932,35.789369171499466]],[[139.84586502816998,35.715708823422624],[139.84049201056132,35.72096781362942]],[[139.84049201056132,35.72096781362942],[139.8432762105949,35.72286449862204],[139.84298313690715,35.7237955985275]],[[139.8372437771888,35.75907393939014],[139.8363238514467,35.76315181212427]],[[139.8363238514467,35.76315181212427],[139.8375531327481,35.76351390653195]],[[139.88111528005714,35.78206693427789],[139.88132694438718,35.78171346116564]],[[139.86852939335563,35.78637758198838],[139.86830958808983,35.79034337788203]],[[139.86016865231912,35.79552477643004],[139.86300983890308,35.79459367652458],[139.86483340851572,35.79473161725131],[139.8676420313566,35.796067918041565],[139.8714845530404,35.79686107722029],[139.87438272617476,35.79629207172251],[139.87758211393265,35.79399018584511],[139.87607604081506,35.79190383235323],[139.8722335191313,35.7891795030002],[139.87116705654535,35.787291439303004],[139.87132173432497,35.78482574881261],[139.8732267132953,35.78238592220847],[139.8752049606876,35.781308260280845],[139.87781006013424,35.78123928991748],[139.88111528005714,35.78206693427789]],[[139.87577482619156,35.76965226887169],[139.87282780744255,35.76987642255263]],[[139.87282780744255,35.76987642255263],[139.87114263373803,35.774600892443324]],[[139.87647494666783,35.77126445111541],[139.87577482619156,35.76965226887169]],[[139.88192937363422,35.74332283265602],[139.88166072275376,35.74350387985986]],[[139.87923472389411,35.74997847272101],[139.8806268239109,35.74967672738128]],[[139.8806268239109,35.74967672738128],[139.88031746835162,35.748599065453654],[139.88285744031208,35.74834042659103],[139.88490895612628,35.745598854647156],[139.88202706486345,35.74423668997064],[139.88192937363422,35.74332283265602]],[[139.88111528005714,35.78206693427789],[139.8876036058664,35.78419639424688],[139.89378257611637,35.78277388050241],[139.89439314629917,35.77939433269739],[139.89012729595532,35.77639412189089]],[[139.89012729595532,35.77639412189089],[139.88823045792074,35.77885119108587],[139.88550324443756,35.77937709010655],[139.88327262803637,35.778299428178926]],[[139.8689282992084,35.73038226822913],[139.86657556877066,35.7343135789411]],[[139.86657556877066,35.7343135789411],[139.87069488227064,35.73416701691894]],[[139.87214396883783,35.732813473537846],[139.87161480801274,35.72929598500608],[139.8700354664732,35.728589038781564]],[[139.8635878453428,35.72376973464124],[139.86618480385366,35.72557158538422]],[[139.87010873489515,35.728261429555566],[139.87072744601372,35.72545950854375]],[[139.87111006999493,35.76683310526902],[139.87051578168368,35.768859109692954],[139.86571262957895,35.768531500466956]],[[139.86571262957895,35.768531500466956],[139.86565564302856,35.76897118653343]],[[139.86565564302856,35.76897118653343],[139.87282780744255,35.76987642255263]],[[139.87577482619156,35.76965226887169],[139.87579924899887,35.76965226887169]],[[139.87159038520542,35.75240967802973],[139.87544918876074,35.75707379885248]],[[139.8765970607044,35.75672032574022],[139.8776228186115,35.75376322141082]],[[139.8776228186115,35.75376322141082],[139.87923472389411,35.74997847272101]],[[139.8455231088676,35.787153498576274],[139.84423684101583,35.79192969623949]],[[139.84423684101583,35.79192969623949],[139.85254059550195,35.79219695639755]],[[139.85677388210271,35.75859976814199],[139.8597290417875,35.76034989111245]],[[139.86565564302856,35.76897118653343],[139.86392162370942,35.768678062489116]],[[139.86392162370942,35.768678062489116],[139.86580217987245,35.77225590008882]],[[139.86310753013234,35.739986391328095],[139.86657556877066,35.7343135789411]],[[139.86657556877066,35.7343135789411],[139.86493109974498,35.73449462614494]],[[139.88200264205614,35.77262661579192],[139.88008138121427,35.7734370175615],[139.88092803853442,35.77446295171659],[139.87808685195043,35.775040578509795]],[[139.89012729595532,35.77639412189089],[139.88581259999683,35.77479056094259],[139.88200264205614,35.77262661579192]],[[139.8498866504407,35.71181199789234],[139.84856781884585,35.713079328319225]],[[139.86919695008882,35.761263748427076],[139.8676501722924,35.7648502073222]],[[139.8676501722924,35.7648502073222],[139.8710937881234,35.76682448397361]],[[139.87341395481806,35.762970764920425],[139.86919695008882,35.761263748427076]],[[139.87487932325678,35.7433573178377],[139.873096458323,35.74554712687463]],[[139.87927542857295,35.74513330469442],[139.8792917104445,35.74424531126606],[139.87487932325678,35.7433573178377]],[[139.87191602263624,35.74055539682588],[139.86857823897026,35.74466775474169],[139.86868407113528,35.74552988428379]],[[139.87487932325678,35.7433573178377],[139.8763772554386,35.74102956807404]],[[139.8763772554386,35.74102956807404],[139.87191602263624,35.74055539682588]],[[139.86599756233093,35.76022919297655],[139.86919695008882,35.761263748427076]],[[139.86919695008882,35.761263748427076],[139.87111006999493,35.758332507983944]],[[139.87111006999493,35.758332507983944],[139.86935162786847,35.75544437401791]],[[139.88337846020138,35.75816870337094],[139.88553580818063,35.75540126754081]],[[139.88553580818063,35.75540126754081],[139.8796580525542,35.75312524554967],[139.8776228186115,35.75376322141082]],[[139.88200264205614,35.77262661579192],[139.87986971688423,35.76926431057774]],[[139.85098567676974,35.729994309935186],[139.85118105922825,35.732373787471374]],[[139.84049201056132,35.72096781362942],[139.835851677172,35.72538191688496]],[[139.8416887281196,35.730985758908595],[139.842527244504,35.728933890598405],[139.84414729072236,35.729020103552614],[139.84401703575003,35.726795809334]],[[139.83074731044377,35.758565282960305],[139.83070660576493,35.76246210849059],[139.83261158473528,35.76386737964421],[139.8363238514467,35.76315181212427]],[[139.84790840304842,35.749521544063704],[139.8473873831591,35.74973707644923]],[[139.8444159416028,35.73216687638127],[139.84842942293776,35.72770966664863]],[[139.86584288455128,35.772367976929296],[139.86301797983884,35.77531645996327]],[[139.86254580556417,35.77673035241231],[139.86246439620646,35.77756661806814],[139.86677095122914,35.776152725619106]],[[139.86415771084677,35.740753686620565],[139.86473571728646,35.738960457173],[139.86671396467875,35.73954670526163]],[[139.86671396467875,35.73954670526163],[139.86526487811156,35.742098608706236]],[[139.86446706640604,35.74355560763238],[139.8652811599831,35.74548677780668],[139.8674547898339,35.745219517648636]],[[139.87560386654036,35.757763502486156],[139.87111006999493,35.758332507983944]],[[139.84582432349112,35.74663341009767],[139.84576733694072,35.746555818438885]],[[139.83491546955838,35.755703012880545],[139.83384086603664,35.75404772415971]],[[139.83384086603664,35.75404772415971],[139.8338001613578,35.75404772415971]],[[139.83905920586568,35.7528493640962],[139.83666577074908,35.753927026023824],[139.83384086603664,35.75404772415971]],[[139.85855674703652,35.78004955114938],[139.8607547996946,35.78032543260286]],[[139.86023377980527,35.7842050155423],[139.85433974230727,35.783653252635354]],[[139.85433974230727,35.783653252635354],[139.85699368736854,35.788213917913055]],[[139.86243997339915,35.765669230387196],[139.86392162370942,35.768678062489116]],[[139.86571262957895,35.768531500466956],[139.8665104412845,35.764263959233574]],[[139.8665104412845,35.764263959233574],[139.86379950967284,35.76267764087611]],[[139.8665104412845,35.764263959233574],[139.8676501722924,35.7648502073222]],[[139.84423684101583,35.79192969623949],[139.8443833778597,35.794145369162685],[139.84668726268282,35.79629207172251],[139.85254059550195,35.79219695639755]],[[139.88553580818063,35.75540126754081],[139.889997040983,35.75072852542264],[139.8859591368407,35.750668176354694],[139.88278417189014,35.74941808851865],[139.8806268239109,35.74967672738128]],[[139.86163402075783,35.72799416939752],[139.8593708406136,35.723812841118345]],[[139.85519454056322,35.76301387139753],[139.85777521720252,35.76557439613756]],[[139.85777521720252,35.76557439613756],[139.85902892131122,35.76285868807995]],[[139.8767354566125,35.7410554319603],[139.8763772554386,35.74102956807404]],[[139.88192937363422,35.74332283265602],[139.8797394619119,35.74153822450388],[139.88000811279232,35.74027089407699],[139.8767354566125,35.7410554319603]],[[139.86351457692086,35.723718006868715],[139.8593708406136,35.723812841118345]],[[139.85433974230727,35.783653252635354],[139.85364776276677,35.78254972682147]],[[139.86392162370942,35.768678062489116],[139.8586707201373,35.76826424030891]],[[139.8586707201373,35.76826424030891],[139.8578973312391,35.77066096043594],[139.85659478151578,35.77194553345367]],[[139.8767354566125,35.7410554319603],[139.8775169864465,35.740236408895306],[139.8766540472548,35.736934452749075],[139.8752293834949,35.73724481938423]],[[139.85777521720252,35.76557439613756],[139.8586707201373,35.76826424030891]]]}