{"type":"Topology","bbox":[139.63530000600923,35.434541091396945,139.7297294736149,35.540885470885094],"objects":{"town":{"type":"GeometryCollection","geometries":[{"type":"MultiPolygon","arcs":[[[49,44,45,-35,46,47,50,17,18,19,0,1,2,-15,-58]]],"properties":{"name":"生麦"}},{"type":"MultiPolygon","arcs":[[[11,58,59,7,8,9,56,-45,-50,57,14,-3]]],"properties":{"name":"岸谷"}},{"type":"MultiPolygon","arcs":[[[-57,-10,60,24,20,21,22,-36,-46]]],"properties":{"name":"鶴見"}},{"type":"MultiPolygon","arcs":[[[29,30,26,27,28,31,-22,32]]],"properties":{"name":"寺谷"}},{"type":"Polygon","arcs":[[33,34,35,-23,-32,-29,36,37]],"properties":{"name":"豊岡町"}},{"type":"Polygon","arcs":[[-31,38,39,40,41,42,-27]],"properties":{"name":"諏訪坂"}},{"type":"Polygon","arcs":[[-28,-43,51,52,53,54,55,-37]],"properties":{"name":"佃野町"}},{"type":"MultiPolygon","arcs":[[[212,-351,355,148,149,-88,150,180,72,73,-98,110,64,65,61,214]]],"properties":{"name":"馬場"}},{"type":"Polygon","arcs":[[66,67,68,69,70,71]],"properties":{"name":"市場下町"}},{"type":"MultiPolygon","arcs":[[[-124,161,-271,-282,363,366,-53,-52,-42,-41,76,77,-176,-187,206,-119]]],"properties":{"name":"下末吉"}},{"type":"MultiPolygon","arcs":[[[-77,-40,168,197,196,-65,-111,97,-74,-73,-181,-151,87,81,82,83,84,85,-164,95,111,-168,174,175,-78]]],"properties":{"name":"北寺尾"}},{"type":"MultiPolygon","arcs":[[[91,261,-239,-236,260,93,88,89,-118,226,227]]],"properties":{"name":"尻手"}},{"type":"MultiPolygon","arcs":[[[-348,-184,-136,-107,-252,-173,98,99,100,101,102,369]]],"properties":{"name":"平安町"}},{"type":"MultiPolygon","arcs":[[[251,106,135,136,132,133,134,104,250,171,-160,-99,172]]],"properties":{"name":"栄町通"}},{"type":"MultiPolygon","arcs":[[[-280,-279,293,365,286,-227,117,-90,280,281,-270,-243,-277]]],"properties":{"name":"矢向"}},{"type":"MultiPolygon","arcs":[[[125,126,127,128,129,130,241,242,269,270,-162,123,118,119,176]]],"properties":{"name":"上末吉"}},{"type":"MultiPolygon","arcs":[[[-258,-225,207,208,-205,139,140,141,142,-155,209,308,-254,-186,219,220]]],"properties":{"name":"潮田町"}},{"type":"MultiPolygon","arcs":[[[-96,163,-86,-85,-84,144,145,211,-199,-193,165,166,167,-112]]],"properties":{"name":"獅子ケ谷"}},{"type":"MultiPolygon","arcs":[[[253,-309,-210,154,-143,152,338,-134,-133,-137,183,184,185]]],"properties":{"name":"向井町"}},{"type":"Polygon","arcs":[[155,-72,156,157,158,-100,159]],"properties":{"name":"菅沢町"}},{"type":"Polygon","arcs":[[178,-101,-159]],"properties":{"name":"市場富士見町"}},{"type":"Polygon","arcs":[[186,-175,-167,187,188]],"properties":{"name":"三ツ池公園"}},{"type":"MultiPolygon","arcs":[[[190,-129,-128,252,195,-188,-166,192,198,199,307]]],"properties":{"name":"駒岡"}},{"type":"MultiPolygon","arcs":[[[-140,204,-209,-230,-229,264,265,262,275,202,231,232,233,-141]]],"properties":{"name":"本町通"}},{"type":"Polygon","arcs":[[-71,215,216,217,-157]],"properties":{"name":"市場西中町"}},{"type":"MultiPolygon","arcs":[[[228,229,-208,224,257,258,259,255,256,221,222,230]]],"properties":{"name":"仲通"}},{"type":"Polygon","arcs":[[-217,234,235,236,237]],"properties":{"name":"市場東中町"}},{"type":"Polygon","arcs":[[-237,238,239,240]],"properties":{"name":"市場上町"}},{"type":"MultiPolygon","arcs":[[[248,249,244,245,246,-350,356]]],"properties":{"name":"朝日町"}},{"type":"MultiPolygon","arcs":[[[-260,-259,-221,267,-246,-245,327]]],"properties":{"name":"浜町"}},{"type":"MultiPolygon","arcs":[[[-127,-126,-177,-120,-207,-189,-196,-253]]],"properties":{"name":"梶山"}},{"type":"Polygon","arcs":[[271,272,-250,273,274]],"properties":{"name":"寛政町"}},{"type":"Polygon","arcs":[[276,-242,-131,277,278,279]],"properties":{"name":"江ケ崎町"}},{"type":"MultiPolygon","arcs":[[[290,291,288,344,345]]],"properties":{"name":"末広町"}},{"type":"Polygon","arcs":[[-158,-218,-238,-241,292,-102,-179]],"properties":{"name":"市場大和町"}},{"type":"Polygon","arcs":[[-292,295,296,297,298,299,300,301]],"properties":{"name":"小野町"}},{"type":"Polygon","arcs":[[302,303,304,305,306]],"properties":{"name":"大黒町"}},{"type":"MultiPolygon","arcs":[[[352,350,-213,-215,-62,-66,-197,-325,-344,341,-8,-60,312,368]]],"properties":{"name":"東寺尾"}},{"type":"MultiPolygon","arcs":[[[322,-266,-265,-231,-223,-222,-257,339,313,323,-301]]],"properties":{"name":"汐入町"}},{"type":"MultiPolygon","arcs":[[[-67,-156,-172,-251,-105,-135,-339,-153,-142,-234,-233,334,335,-47,-34,-38,-56,-55,-68]]],"properties":{"name":"鶴見中央"}},{"type":"Polygon","arcs":[[324,325,-33,-21,326]],"properties":{"name":"東寺尾中台"}},{"type":"MultiPolygon","arcs":[[[-203,-276,-263,-323,-300,-299,-298,-297,346,-335,-232]]],"properties":{"name":"下野谷町"}},{"type":"MultiPolygon","arcs":[[[337,330,-145,-83,-82,-150]]],"properties":{"name":"上の宮"}},{"type":"Polygon","arcs":[[-9,-342,343,-327,-25,-61]],"properties":{"name":"東寺尾東台"}},{"type":"Polygon","arcs":[[-198,-169,-39,-30,-326]],"properties":{"name":"東寺尾北台"}},{"type":"Polygon","arcs":[[-268,-220,-185,347,348,349,-247]],"properties":{"name":"大東町"}},{"type":"Polygon","arcs":[[353,354]],"properties":{"name":"扇島"}},{"type":"MultiPolygon","arcs":[[[359,-275,360,357,361]]],"properties":{"name":"安善町"}},{"type":"MultiPolygon","arcs":[[[-54,-367,-364,-281,-89,-94,-261,-235,-216,-70,-69]]],"properties":{"name":"元宮"}},{"type":"Polygon","arcs":[[367,-345,-289,-302,-324,-314,-340,-256,-328,-273]],"properties":{"name":"弁天町"}},{"type":"Polygon","arcs":[[-306,370]],"properties":{"name":"大黒ふ頭"}},{"type":"Polygon","arcs":[[-307,-371,-305,-304,371,-1,-20,372,-18,-51,-48,-336,-347,-296,-291,-346,-368,-272,-360,-362,-358,373,-354,374]],"properties":{"name":"公有水面調査区"}}]}},"arcs":[[[139.6686747173322,35.49035620326351],[139.66902414130473,35.488867233053654],[139.66425497627415,35.486857123270354]],[[139.66425497627415,35.486857123270354],[139.66092128269833,35.490824165329464]],[[139.66092128269833,35.490824165329464],[139.66603042781028,35.49551442149051]],[[139.66603042781028,35.49551442149051],[139.66832529335966,35.492089790007846]],[[139.66832529335966,35.492089790007846],[139.6686747173322,35.49035620326351]],[[139.66463273192014,35.49852426841472],[139.66335780661493,35.497992493339765]],[[139.66335780661493,35.497992493339765],[139.66216787633007,35.49890714646868]],[[139.66216787633007,35.49890714646868],[139.66219620800354,35.501332040810446]],[[139.66219620800354,35.501332040810446],[139.66311226544505,35.50145966682843],[139.66658761738813,35.504161084209166],[139.66824029833933,35.503065627554776]],[[139.66824029833933,35.503065627554776],[139.6684291761623,35.50057692020402]],[[139.6684291761623,35.50057692020402],[139.66560545270855,35.49993879011408],[139.66463273192014,35.49852426841472]],[[139.66092128269833,35.490824165329464],[139.66063796596382,35.493163975659236]],[[139.66063796596382,35.493163975659236],[139.66213954465664,35.49468485237359],[139.66335780661493,35.497992493339765]],[[139.66463273192014,35.49852426841472],[139.667210914204,35.496301448601436]],[[139.667210914204,35.496301448601436],[139.66603042781028,35.49551442149051]],[[139.66832529335966,35.492089790007846],[139.6731605656283,35.49401481577915]],[[139.6731605656283,35.49401481577915],[139.67564430900066,35.495578234499504]],[[139.67564430900066,35.495578234499504],[139.67630538138116,35.495737767021986],[139.67682479539437,35.49212169651234],[139.6748887977087,35.49129212739542]],[[139.6748887977087,35.49129212739542],[139.67526655335467,35.49057954879499]],[[139.67526655335467,35.49057954879499],[139.6747754710149,35.491270856392426],[139.6692980141481,35.48893104606265],[139.6686747173322,35.49035620326351]],[[139.66571877940237,35.504777943296105],[139.6671542508571,35.50785160322931],[139.66915635578084,35.509946797024604]],[[139.66915635578084,35.509946797024604],[139.6719045281054,35.50859608833424]],[[139.6719045281054,35.50859608833424],[139.6735383212743,35.50775588371582],[139.6733494434513,35.50602229697149],[139.674907685491,35.50606483897748],[139.67484157825294,35.50445887825114]],[[139.67484157825294,35.50445887825114],[139.67088458786122,35.504022822689684]],[[139.67088458786122,35.504022822689684],[139.66797586938713,35.50526717636506],[139.66571877940237,35.504777943296105]],[[139.67266003939736,35.51068064662803],[139.6689013707198,35.512743933918834],[139.66819307888358,35.51399892309571]],[[139.66819307888358,35.51399892309571],[139.67133789463642,35.51575378084304]],[[139.67133789463642,35.51575378084304],[139.6719045281054,35.51367985805074]],[[139.6719045281054,35.51367985805074],[139.67266003939736,35.51068064662803]],[[139.6656904477289,35.509851077511115],[139.66655928571467,35.51255249489185],[139.66797586938713,35.5140946426092]],[[139.66797586938713,35.5140946426092],[139.66819307888358,35.51399892309571]],[[139.67266003939736,35.51068064662803],[139.6719045281054,35.50859608833424]],[[139.66915635578084,35.509946797024604],[139.66637985178284,35.51047857209955],[139.6656904477289,35.509851077511115]],[[139.67533266059274,35.50578831593851],[139.6747376954503,35.50323579557876]],[[139.6747376954503,35.50323579557876],[139.67461492486535,35.50323579557876]],[[139.67461492486535,35.50323579557876],[139.67484157825294,35.50445887825114]],[[139.6719045281054,35.51367985805074],[139.67461492486535,35.51357350303575],[139.67692867819702,35.51164847726444]],[[139.67692867819702,35.51164847726444],[139.67533266059274,35.50578831593851]],[[139.66797586938713,35.5140946426092],[139.66489716087233,35.51466895969015]],[[139.66489716087233,35.51466895969015],[139.66718258253056,35.51687050850043]],[[139.66718258253056,35.51687050850043],[139.66742812370046,35.51706194752741]],[[139.66742812370046,35.51706194752741],[139.66949633586222,35.517795797130844],[139.67083736840547,35.5171789380439]],[[139.67083736840547,35.5171789380439],[139.67133789463642,35.51575378084304]],[[139.67626760581655,35.49674813966439],[139.67356665294773,35.49734372774833],[139.67115846070456,35.49958781856461]],[[139.67115846070456,35.49958781856461],[139.67290558056726,35.50116187278646]],[[139.67290558056726,35.50116187278646],[139.67461492486535,35.50323579557876]],[[139.6747376954503,35.50323579557876],[139.6749265732733,35.50171491886441],[139.67650370309528,35.500385481177034]],[[139.67650370309528,35.500385481177034],[139.67626760581655,35.49674813966439]],[[139.6731605656283,35.49401481577915],[139.6715078846771,35.49428070331663],[139.66857083452956,35.49740754075732]],[[139.66857083452956,35.49740754075732],[139.67115846070456,35.49958781856461]],[[139.67626760581655,35.49674813966439],[139.67564430900066,35.495578234499504]],[[139.67083736840547,35.5171789380439],[139.67232950320712,35.51744482558138],[139.67373664298844,35.51626428491499]],[[139.67373664298844,35.51626428491499],[139.67711755602002,35.51660462096296]],[[139.67711755602002,35.51660462096296],[139.67812805237304,35.515222005768095]],[[139.67812805237304,35.515222005768095],[139.67697589765277,35.511786738783925]],[[139.67697589765277,35.511786738783925],[139.67692867819702,35.51164847726444]],[[139.6684291761623,35.50057692020402],[139.67290558056726,35.50116187278646]],[[139.66857083452956,35.49740754075732],[139.667210914204,35.496301448601436]],[[139.66063796596382,35.493163975659236],[139.65944803567896,35.49271728459628],[139.6581636664826,35.49429133881813]],[[139.6581636664826,35.49429133881813],[139.66154457951419,35.4976415217903],[139.66216787633007,35.49890714646868]],[[139.66824029833933,35.503065627554776],[139.669987418202,35.50289545953079],[139.67088458786122,35.504022822689684]],[[139.65768202803397,35.50537353138005],[139.6551416213147,35.50524590536206]],[[139.6551416213147,35.50524590536206],[139.6553682747023,35.507373005661854],[139.656926516742,35.509106592406184],[139.656359883273,35.51063810462204]],[[139.656359883273,35.51063810462204],[139.65839976376134,35.513041727960804]],[[139.65839976376134,35.513041727960804],[139.65979745965151,35.512403597870865]],[[139.65979745965151,35.512403597870865],[139.6592497139648,35.507670799703824],[139.6602885419913,35.50660724955393],[139.65768202803397,35.50537353138005]],[[139.6839360454301,35.51335015750428],[139.68390771375664,35.51332888650128]],[[139.68390771375664,35.51332888650128],[139.67812805237304,35.515222005768095]],[[139.67812805237304,35.515222005768095],[139.68082900524183,35.51854028223577],[139.68134841925507,35.51832757220579]],[[139.68134841925507,35.51832757220579],[139.682226701132,35.51902951530472]],[[139.682226701132,35.51902951530472],[139.68508820015035,35.51523264126959]],[[139.68508820015035,35.51523264126959],[139.6839360454301,35.51335015750428]],[[139.64994748118238,35.511020982676],[139.6507879874947,35.51336079300577]],[[139.6507879874947,35.51336079300577],[139.65371559375112,35.51375430656123]],[[139.65371559375112,35.51375430656123],[139.65347949647236,35.50958518997364]],[[139.65347949647236,35.50958518997364],[139.65171348882737,35.509532012466146],[139.64994748118238,35.511020982676]],[[139.66718258253056,35.51687050850043],[139.66442496631484,35.516179200903],[139.66231897858847,35.51770007761735]],[[139.66231897858847,35.51770007761735],[139.66230009080618,35.51772134862035]],[[139.66230009080618,35.51772134862035],[139.66759811374115,35.521326783628496],[139.66969465757637,35.521369325634495]],[[139.66969465757637,35.521369325634495],[139.669987418202,35.519486841869174]],[[139.669987418202,35.519486841869174],[139.66742812370046,35.51706194752741]],[[139.64200516872552,35.511191150699986],[139.64107966739283,35.5120313553184]],[[139.64107966739283,35.5120313553184],[139.64127798910698,35.51537090278908]],[[139.64127798910698,35.51537090278908],[139.64338397683335,35.51487103421863],[139.6445550193359,35.51626428491499]],[[139.6445550193359,35.51626428491499],[139.64732207944277,35.51692368600793]],[[139.64732207944277,35.51692368600793],[139.64736929889852,35.51689177950343]],[[139.64736929889852,35.51689177950343],[139.64701987492597,35.51491357622462],[139.64465890213856,35.51296727945031],[139.6454805206686,35.51171229027344]],[[139.6454805206686,35.51171229027344],[139.6452916428456,35.51051047860405],[139.64200516872552,35.511191150699986]],[[139.68007349394986,35.524400443561696],[139.67992239169146,35.524942854138146]],[[139.67992239169146,35.524942854138146],[139.68132008758164,35.52548526471459]],[[139.68132008758164,35.52548526471459],[139.6835016264372,35.52680406690047],[139.6851543073884,35.52993090434116]],[[139.6851543073884,35.52993090434116],[139.6867314372104,35.52873972817328],[139.68587204311578,35.52780380404137]],[[139.68587204311578,35.52780380404137],[139.68522041462646,35.52818668209533],[139.68494654178312,35.524464256570695]],[[139.68494654178312,35.524464256570695],[139.68007349394986,35.524400443561696]],[[139.6507879874947,35.51336079300577],[139.6492108576727,35.51562615482505]],[[139.6492108576727,35.51562615482505],[139.65410279328825,35.514956118230614]],[[139.65410279328825,35.514956118230614],[139.6574553746464,35.51364795154625]],[[139.6574553746464,35.51364795154625],[139.65650154164027,35.51268012090984],[139.65371559375112,35.51375430656123]],[[139.69087730542512,35.513222531486285],[139.69060343258175,35.51405210060321]],[[139.69060343258175,35.51405210060321],[139.69009346245969,35.51573250984004]],[[139.69009346245969,35.51573250984004],[139.68928128782082,35.51890188928673]],[[139.68928128782082,35.51890188928673],[139.6892624000385,35.51898697329872]],[[139.6892624000385,35.51898697329872],[139.69177447508432,35.51958256138267],[139.69354992662048,35.51385002607473]],[[139.69354992662048,35.51385002607473],[139.69087730542512,35.513222531486285]],[[139.68809135753594,35.50844719131325],[139.68826134757666,35.5099999745321]],[[139.68826134757666,35.5099999745321],[139.69171781173742,35.51053174960705]],[[139.69171781173742,35.51053174960705],[139.69244499135596,35.50822384578177]],[[139.69244499135596,35.50822384578177],[139.68809135753594,35.50844719131325]],[[139.656359883273,35.51063810462204],[139.6540933493971,35.509670273985634]],[[139.6540933493971,35.509670273985634],[139.65347949647236,35.50958518997364]],[[139.6574553746464,35.51364795154625],[139.65839976376134,35.513041727960804]],[[139.65410279328825,35.514956118230614],[139.65479219734218,35.51808295567131],[139.65613322988543,35.51900824430172]],[[139.65613322988543,35.51900824430172],[139.66053408316117,35.516094116891004]],[[139.66053408316117,35.516094116891004],[139.65839976376134,35.513041727960804]],[[139.67992239169146,35.524942854138146],[139.67830748630487,35.531132716010546]],[[139.67830748630487,35.531132716010546],[139.68102732695598,35.530888099476066]],[[139.68102732695598,35.530888099476066],[139.68315220246467,35.53109017400455],[139.68302943187973,35.52973946531418]],[[139.68302943187973,35.52973946531418],[139.68182061381256,35.530483950419104],[139.68092344415334,35.52862273765679],[139.68132008758164,35.52548526471459]],[[139.6690524729782,35.52397502350174],[139.6658415499873,35.52297528636084],[139.66491604865465,35.52378358447476]],[[139.66491604865465,35.52378358447476],[139.66575655496695,35.52507048015613],[139.66448162966174,35.52778253303837]],[[139.66448162966174,35.52778253303837],[139.6687691562437,35.52796333656385]],[[139.6687691562437,35.52796333656385],[139.66879748791715,35.527973972065354]],[[139.66879748791715,35.527973972065354],[139.67073348560282,35.52468760210217]],[[139.67073348560282,35.52468760210217],[139.6690524729782,35.52397502350174]],[[139.66700314859872,35.53081365096558],[139.66455718079095,35.53039886640711]],[[139.66455718079095,35.53039886640711],[139.66380166949898,35.531185893518035]],[[139.66380166949898,35.531185893518035],[139.66311226544505,35.53220690166194],[139.66115737997706,35.531526229566005],[139.66026021031783,35.53241961169192]],[[139.66026021031783,35.53241961169192],[139.66205454963628,35.5346105250007]],[[139.66205454963628,35.5346105250007],[139.66048686370544,35.53532310360114],[139.66053408316117,35.53704605484397]],[[139.66053408316117,35.53704605484397],[139.66693704136065,35.53313219029235]],[[139.66693704136065,35.53313219029235],[139.66892025850208,35.53167512658699]],[[139.66892025850208,35.53167512658699],[139.66700314859872,35.53081365096558]],[[139.69100007601006,35.50696885660489],[139.68901685886863,35.50704330511539]],[[139.68901685886863,35.50704330511539],[139.68709974896524,35.50745808967385]],[[139.68709974896524,35.50745808967385],[139.68809135753594,35.50844719131325]],[[139.69244499135596,35.50822384578177],[139.69288885423998,35.5069156790974]],[[139.69288885423998,35.5069156790974],[139.69100007601006,35.50696885660489]],[[139.669987418202,35.519486841869174],[139.6720745181461,35.52149695165248]],[[139.6720745181461,35.52149695165248],[139.67373664298844,35.51626428491499]],[[139.68444601555217,35.503342150593745],[139.68187727715946,35.503288973086256]],[[139.68187727715946,35.503288973086256],[139.67951630437204,35.50403345819118]],[[139.67951630437204,35.50403345819118],[139.68120676088785,35.50525654086356],[139.68390771375664,35.50594784846099]],[[139.68390771375664,35.50594784846099],[139.68491821010966,35.50474603679161]],[[139.68491821010966,35.50474603679161],[139.68444601555217,35.503342150593745]],[[139.64127798910698,35.51537090278908],[139.6384731534355,35.515977126374516]],[[139.6384731534355,35.515977126374516],[139.64098522848133,35.5181999461878],[139.64252458273873,35.518476469226776],[139.64279845558207,35.52006115895012],[139.6405035900327,35.52160330666747],[139.64160852529722,35.52272003432486],[139.6432612062484,35.52195427821694],[139.6438845030643,35.52323053839681],[139.64721819664013,35.52324117389831]],[[139.64721819664013,35.52324117389831],[139.6467743337561,35.521050260589526],[139.64386561528198,35.52046530800708],[139.64557495958007,35.5192422253347],[139.64426225871028,35.51830630120279],[139.6445550193359,35.51626428491499]],[[139.64604715413756,35.5080005002503],[139.64417726368993,35.50860672383573],[139.6429590017316,35.506873137091404],[139.64066413618224,35.505596876911525]],[[139.64066413618224,35.505596876911525],[139.63921922083634,35.50632009101346],[139.63952142535314,35.50831956529527]],[[139.63952142535314,35.50831956529527],[139.6423451488069,35.507989864748794],[139.64200516872552,35.511191150699986]],[[139.6454805206686,35.51171229027344],[139.64747318170117,35.51088272115651]],[[139.64747318170117,35.51088272115651],[139.64604715413756,35.5080005002503]],[[139.68390771375664,35.50594784846099],[139.68653311549625,35.50702203411239]],[[139.68653311549625,35.50702203411239],[139.68743972904662,35.506554072046434],[139.68634423767327,35.50454396226313]],[[139.68634423767327,35.50454396226313],[139.68491821010966,35.50474603679161]],[[139.68672199331925,35.512084532825895],[139.6839360454301,35.51335015750428]],[[139.68508820015035,35.51523264126959],[139.68541873634058,35.51576441634454]],[[139.68541873634058,35.51576441634454],[139.6867881005573,35.5151369217561]],[[139.6867881005573,35.5151369217561],[139.69009346245969,35.51573250984004]],[[139.69060343258175,35.51405210060321],[139.68758138741387,35.513541596531255],[139.68672199331925,35.512084532825895]],[[139.66969465757637,35.521369325634495],[139.6690524729782,35.52397502350174]],[[139.67073348560282,35.52468760210217],[139.67080903673204,35.524581247087184]],[[139.67080903673204,35.524581247087184],[139.6720745181461,35.52149695165248]],[[139.6492108576727,35.51562615482505],[139.64736929889852,35.51689177950343]],[[139.64732207944277,35.51692368600793],[139.64933362825766,35.51806168466832],[139.6502307979169,35.52137996113599]],[[139.6502307979169,35.52137996113599],[139.65109963590265,35.51934858034969],[139.65341338923432,35.52047594350858],[139.65404612994135,35.52254986630088],[139.65676597059246,35.521167251106014]],[[139.65676597059246,35.521167251106014],[139.65699262398005,35.521007718583526]],[[139.65699262398005,35.521007718583526],[139.65613322988543,35.51900824430172]],[[139.66489716087233,35.51466895969015],[139.6642077568184,35.51380748406873]],[[139.6642077568184,35.51380748406873],[139.66184678403098,35.514541333672156],[139.66053408316117,35.516094116891004]],[[139.66053408316117,35.516094116891004],[139.66231897858847,35.51770007761735]],[[139.68687309557765,35.5119994488139],[139.68672199331925,35.512084532825895]],[[139.69087730542512,35.513222531486285],[139.69118895383303,35.51219088784089]],[[139.69118895383303,35.51219088784089],[139.68687309557765,35.5119994488139]],[[139.65699262398005,35.521007718583526],[139.65910805559759,35.52108216709402],[139.66067574152842,35.51928476734069]],[[139.66067574152842,35.51928476734069],[139.66230009080618,35.51772134862035]],[[139.66448162966174,35.52778253303837],[139.66455718079095,35.53039886640711]],[[139.66700314859872,35.53081365096558],[139.6687691562437,35.52796333656385]],[[139.6867881005573,35.5151369217561],[139.68928128782082,35.51890188928673]],[[139.6488897653736,35.50569259642502],[139.64604715413756,35.5080005002503]],[[139.64747318170117,35.51088272115651],[139.64994748118238,35.511020982676]],[[139.6540933493971,35.509670273985634],[139.6530261896972,35.50846846231625],[139.6488897653736,35.50569259642502]],[[139.69152893391444,35.50393773867769],[139.69100007601006,35.50696885660489]],[[139.69288885423998,35.5069156790974],[139.69321939043022,35.5058521289475]],[[139.69321939043022,35.5058521289475],[139.69382379946381,35.5038739256687]],[[139.69382379946381,35.5038739256687],[139.69152893391444,35.50393773867769]],[[139.6644910735529,35.52378358447476],[139.66356557222022,35.523762313471764],[139.66282894871054,35.521071531592526],[139.66067574152842,35.51928476734069]],[[139.65676597059246,35.521167251106014],[139.65642599051108,35.52265622131587],[139.65770091581626,35.523443248426794]],[[139.65770091581626,35.523443248426794],[139.65993911801874,35.52393248149574],[139.6616390184257,35.526676440882476],[139.66499159978383,35.52507048015613],[139.6644910735529,35.52378358447476]],[[139.6525351073574,35.53126034202853],[139.65222345894946,35.53395112390777],[139.6555004891784,35.538790277089795]],[[139.6555004891784,35.538790277089795],[139.66053408316117,35.53704605484397]],[[139.66205454963628,35.5346105250007],[139.65856975380206,35.533759684880785],[139.65520772855277,35.531302884034524],[139.6525351073574,35.53126034202853]],[[139.6502307979169,35.52137996113599],[139.64939029160456,35.525219377177116]],[[139.64939029160456,35.525219377177116],[139.65224234673175,35.52516619966963]],[[139.65224234673175,35.52516619966963],[139.65814477870032,35.52470887310517]],[[139.65814477870032,35.52470887310517],[139.65770091581626,35.523443248426794]],[[139.66298005096894,35.51154212224945],[139.65979745965151,35.512403597870865]],[[139.6642077568184,35.51380748406873],[139.66298005096894,35.51154212224945]],[[139.64939029160456,35.525219377177116],[139.64726541609588,35.525240648180116]],[[139.64726541609588,35.525240648180116],[139.64721819664013,35.53024996938613],[139.64785093734716,35.53126034202853]],[[139.64785093734716,35.53126034202853],[139.6525351073574,35.53126034202853]],[[139.6525351073574,35.53126034202853],[139.65282786798304,35.53017552087564],[139.65224234673175,35.52516619966963]],[[139.6825100178665,35.500630097711515],[139.68138619481968,35.501225685795454]],[[139.68138619481968,35.501225685795454],[139.68187727715946,35.503288973086256]],[[139.68444601555217,35.503342150593745],[139.6846065617017,35.50303372105028]],[[139.6846065617017,35.50303372105028],[139.6825100178665,35.500630097711515]],[[139.6644910735529,35.52378358447476],[139.66491604865465,35.52378358447476]],[[139.68782692858375,35.50241686196334],[139.6848332150893,35.50301245004728]],[[139.6848332150893,35.50301245004728],[139.6846065617017,35.50303372105028]],[[139.68634423767327,35.50454396226313],[139.68824245979434,35.503863290167196]],[[139.68824245979434,35.503863290167196],[139.68782692858375,35.50241686196334]],[[139.64721819664013,35.52324117389831],[139.64726541609588,35.525240648180116]],[[139.65323395530248,35.50413981320617],[139.6478603812383,35.50517145685157]],[[139.6478603812383,35.50517145685157],[139.6488897653736,35.50569259642502]],[[139.6551416213147,35.50524590536206],[139.65323395530248,35.50413981320617]],[[139.682226701132,35.51902951530472],[139.68292554907708,35.51969955189916]],[[139.68292554907708,35.51969955189916],[139.68397382099468,35.51940175785718],[139.68601370148303,35.51674288248245]],[[139.68601370148303,35.51674288248245],[139.68541873634058,35.51576441634454]],[[139.69166114839052,35.50231050694835],[139.69152893391444,35.50393773867769]],[[139.69382379946381,35.5038739256687],[139.69411656008944,35.50223605843786]],[[139.69411656008944,35.50223605843786],[139.69166114839052,35.50231050694835]],[[139.69026345250037,35.500630097711515],[139.68865799100493,35.50064073321301]],[[139.68865799100493,35.50064073321301],[139.68778915301917,35.50066200421601]],[[139.68778915301917,35.50066200421601],[139.68782692858375,35.50241686196334]],[[139.68782692858375,35.50241686196334],[139.69014068191544,35.50235304895435]],[[139.69014068191544,35.50235304895435],[139.69026345250037,35.500630097711515]],[[139.68302943187973,35.52973946531418],[139.68437046442298,35.53013297886964]],[[139.68437046442298,35.53013297886964],[139.6851543073884,35.52993090434116]],[[139.6866369982989,35.50045992968753],[139.68463489337518,35.50105551777147]],[[139.68463489337518,35.50105551777147],[139.6848332150893,35.50301245004728]],[[139.68778915301917,35.50066200421601],[139.6866369982989,35.50045992968753]],[[139.68138619481968,35.501225685795454],[139.67846803245442,35.50268274950081]],[[139.67846803245442,35.50268274950081],[139.679450197134,35.50405472919418]],[[139.679450197134,35.50405472919418],[139.67951630437204,35.50403345819118]],[[139.68292554907708,35.51969955189916],[139.68413436714422,35.520826915058045]],[[139.68413436714422,35.520826915058045],[139.68421936216458,35.52077373755055]],[[139.68421936216458,35.52077373755055],[139.68644812047592,35.51958256138267],[139.68691087114223,35.51832757220579]],[[139.68691087114223,35.51832757220579],[139.68601370148303,35.51674288248245]],[[139.68421936216458,35.52077373755055],[139.6876474946519,35.52361341645077]],[[139.6876474946519,35.52361341645077],[139.68891297606598,35.5202845044816]],[[139.68891297606598,35.5202845044816],[139.68691087114223,35.51832757220579]],[[139.66892025850208,35.53167512658699],[139.6707618172763,35.53062221193859]],[[139.6707618172763,35.53062221193859],[139.67234839098944,35.52942040026921]],[[139.67234839098944,35.52942040026921],[139.66879748791715,35.527973972065354]],[[139.69510816866017,35.500406752180034],[139.69475874468762,35.50106615327297]],[[139.69475874468762,35.50106615327297],[139.69515538811592,35.50237431995734]],[[139.69515538811592,35.50237431995734],[139.69569368991145,35.50309753405927]],[[139.69569368991145,35.50309753405927],[139.69867795951475,35.503501683116234]],[[139.69867795951475,35.503501683116234],[139.6988573934466,35.50233177795135]],[[139.6988573934466,35.50233177795135],[139.69510816866017,35.500406752180034]],[[139.68826134757666,35.5099999745321],[139.68687309557765,35.5119994488139]],[[139.69118895383303,35.51219088784089],[139.69171781173742,35.51053174960705]],[[139.66026021031783,35.53241961169192],[139.65736093573489,35.52935658726022],[139.65628433214383,35.52653817936299],[139.653961134921,35.525995768786544],[139.65814477870032,35.52470887310517]],[[139.69152893391444,35.50393773867769],[139.68892241995712,35.504841756305105]],[[139.68892241995712,35.504841756305105],[139.68901685886863,35.50704330511539]],[[139.69308717595413,35.49946019254663],[139.69200112847193,35.49898159497917]],[[139.69200112847193,35.49898159497917],[139.69026345250037,35.500630097711515]],[[139.69014068191544,35.50235304895435],[139.69166114839052,35.50231050694835]],[[139.69166114839052,35.50231050694835],[139.6926433130701,35.50007705163357]],[[139.6926433130701,35.50007705163357],[139.69308717595413,35.49946019254663]],[[139.68413436714422,35.520826915058045],[139.68494654178312,35.524464256570695]],[[139.68587204311578,35.52780380404137],[139.68872409824297,35.52658072136899],[139.6876474946519,35.52361341645077]],[[139.68566427751048,35.498853968961186],[139.68362439702216,35.50004514512907]],[[139.68362439702216,35.50004514512907],[139.68463489337518,35.50105551777147]],[[139.6866369982989,35.50045992968753],[139.6870336417272,35.49960908956761]],[[139.6870336417272,35.49960908956761],[139.68566427751048,35.498853968961186]],[[139.69475874468762,35.50106615327297],[139.6926433130701,35.50007705163357]],[[139.69411656008944,35.50223605843786],[139.69515538811592,35.50237431995734]],[[139.65814477870032,35.52470887310517],[139.66003355693024,35.52576178775357],[139.66380166949898,35.531185893518035]],[[139.67234839098944,35.52942040026921],[139.67503045607594,35.526389282342]],[[139.67503045607594,35.526389282342],[139.67364220407694,35.5254108162041],[139.67090347564354,35.52559161972958],[139.67080903673204,35.524581247087184]],[[139.69676084961137,35.49793931583228],[139.69610922112204,35.498853968961186]],[[139.69610922112204,35.498853968961186],[139.69510816866017,35.500406752180034]],[[139.6988573934466,35.50233177795135],[139.7033243539604,35.50453332676163],[139.70468427428594,35.501108695278965]],[[139.70468427428594,35.501108695278965],[139.69676084961137,35.49793931583228]],[[139.68362439702216,35.50004514512907],[139.6825100178665,35.500630097711515]],[[139.67812805237304,35.531632584581],[139.6713567824187,35.532249443667936],[139.6707618172763,35.53062221193859]],[[139.66693704136065,35.53313219029235],[139.66825918612162,35.53484450603368],[139.67031795439226,35.535238019589144],[139.67037461773916,35.536833344813985],[139.67266948328853,35.53682270931249],[139.67579541125906,35.53810960499386],[139.67587096238827,35.53884345459729]],[[139.67587096238827,35.53884345459729],[139.67641870807495,35.53696097083198]],[[139.67641870807495,35.53696097083198],[139.67812805237304,35.531632584581]],[[139.67992239169146,35.524942854138146],[139.67704200489084,35.52388993948975]],[[139.67704200489084,35.52388993948975],[139.67503045607594,35.526389282342]],[[139.67812805237304,35.531632584581],[139.67830748630487,35.531132716010546]],[[139.68102732695598,35.530888099476066],[139.67974295775963,35.532940751265365],[139.68165062377187,35.53484450603368],[139.68187727715946,35.536237756730046]],[[139.68187727715946,35.536237756730046],[139.68139563871082,35.53754592341442]],[[139.68139563871082,35.53754592341442],[139.6846632250486,35.53616330821956]],[[139.6846632250486,35.53616330821956],[139.68421936216458,35.53389794640027],[139.68437046442298,35.53013297886964]],[[139.67641870807495,35.53696097083198],[139.67717421936692,35.53800324997887],[139.68187727715946,35.536237756730046]],[[139.68797803084215,35.495482514986016],[139.68820468422976,35.49551442149051]],[[139.68820468422976,35.49551442149051],[139.6882141281209,35.49534425346653]],[[139.6882141281209,35.49534425346653],[139.688346342597,35.48974997967807],[139.69030122806498,35.48514480752902],[139.6928133031108,35.482602922670765],[139.6927566397639,35.48137983999838],[139.68948905342612,35.478912403650625],[139.68649533993167,35.47972070176455],[139.6841060354708,35.479252739698595],[139.68191505272407,35.484602396952575],[139.67822249128454,35.495897299544474]],[[139.67822249128454,35.495897299544474],[139.67989406001803,35.494961375412565],[139.6822833644789,35.495876028541474],[139.68328441694075,35.494663581370595],[139.68797803084215,35.495482514986016]],[[139.68891297606598,35.5202845044816],[139.6892624000385,35.51898697329872]],[[139.67587096238827,35.53884345459729],[139.67575763569445,35.5408322933776],[139.67720255104038,35.5397793787292],[139.6806117957454,35.5397581077262]],[[139.6806117957454,35.5397581077262],[139.68139563871082,35.53754592341442]],[[139.67822249128454,35.495897299544474],[139.6778541795297,35.499970696618576]],[[139.6778541795297,35.499970696618576],[139.67951630437204,35.4987369784447]],[[139.67951630437204,35.4987369784447],[139.68036625457552,35.497854231820284]],[[139.68036625457552,35.497854231820284],[139.68158451653383,35.497396905255826]],[[139.68158451653383,35.497396905255826],[139.68440823998756,35.49722673723184]],[[139.68440823998756,35.49722673723184],[139.6876663824342,35.49772660580229]],[[139.6876663824342,35.49772660580229],[139.68797803084215,35.495482514986016]],[[139.66744701148275,35.483421856286185],[139.6673809042447,35.48340058528319]],[[139.6673809042447,35.48340058528319],[139.66581321831384,35.48656996472988],[139.67526655335467,35.49057954879499]],[[139.67526655335467,35.49057954879499],[139.6772875460607,35.49096242684895],[139.6793179826579,35.483964266862635],[139.68223614502315,35.47746597544677],[139.68183950159485,35.4730309713217],[139.67588985017056,35.47137183308786]],[[139.67588985017056,35.47137183308786],[139.67593706962631,35.469276639292566]],[[139.67593706962631,35.469276639292566],[139.6746999198857,35.46954252683004],[139.6687313806791,35.46794720160519],[139.66798531327828,35.46930854579706],[139.66792864993138,35.47362655940564],[139.67315112173716,35.475221884630486],[139.67232950320712,35.477614872467754],[139.671375670201,35.47760423696625],[139.669609662556,35.48047582237098],[139.67001574987546,35.48147555951188],[139.6746243687565,35.48338994978169],[139.67394440859374,35.48449604193758],[139.66849528340038,35.4822625866228],[139.66744701148275,35.483421856286185]],[[139.64785093734716,35.53126034202853],[139.6467743337561,35.53347252634032],[139.64832313190465,35.53391921740327],[139.6498341544886,35.536737625300496],[139.65176070828312,35.537875623960886],[139.6555004891784,35.538790277089795]],[[139.68824245979434,35.503863290167196],[139.68892241995712,35.504841756305105]],[[139.6573987112995,35.49784359631878],[139.65917416283563,35.49884333345969],[139.65887195831883,35.50064073321301]],[[139.65887195831883,35.50064073321301],[139.65888140221,35.500683275219004]],[[139.65888140221,35.500683275219004],[139.6612990383443,35.50017277114706],[139.66216787633007,35.49890714646868]],[[139.6581636664826,35.49429133881813],[139.6573987112995,35.49784359631878]],[[139.68933795116772,35.498152025862254],[139.68773248967227,35.497737241303795]],[[139.68773248967227,35.497737241303795],[139.6870336417272,35.49960908956761]],[[139.68865799100493,35.50064073321301],[139.68933795116772,35.498152025862254]],[[139.65768202803397,35.50537353138005],[139.65633155159958,35.50251258147683],[139.65906083614183,35.50182127387939],[139.65888140221,35.500683275219004]],[[139.65887195831883,35.50064073321301],[139.65493385570943,35.50123632129695]],[[139.65493385570943,35.50123632129695],[139.65323395530248,35.50413981320617]],[[139.67697589765277,35.511786738783925],[139.6803851423578,35.509351208940664]],[[139.6803851423578,35.509351208940664],[139.67687201485012,35.50576704493551]],[[139.67687201485012,35.50576704493551],[139.67533266059274,35.50578831593851]],[[139.68440823998756,35.49722673723184],[139.68566427751048,35.498853968961186]],[[139.68773248967227,35.497737241303795],[139.6876663824342,35.49772660580229]],[[139.66196955461592,35.50565005441902],[139.66184678403098,35.50783033222631],[139.66298005096894,35.51154212224945]],[[139.66298005096894,35.51154212224945],[139.6656904477289,35.509851077511115]],[[139.66571877940237,35.504777943296105],[139.66469883915818,35.50442697174664],[139.66196955461592,35.50565005441902]],[[139.69510816866017,35.500406752180034],[139.69308717595413,35.49946019254663]],[[139.67951630437204,35.4987369784447],[139.68138619481968,35.501225685795454]],[[139.6825100178665,35.500630097711515],[139.68036625457552,35.497854231820284]],[[139.63608384897466,35.513105540969796],[139.63530000600923,35.515594248320554],[139.6384731534355,35.515977126374516]],[[139.64107966739283,35.5120313553184],[139.63790651996655,35.514381801149675],[139.63608384897466,35.513105540969796]],[[139.68362439702216,35.50004514512907],[139.68158451653383,35.497396905255826]],[[139.67687201485012,35.50576704493551],[139.679450197134,35.50405472919418]],[[139.67846803245442,35.50268274950081],[139.6776653017067,35.50155538634192]],[[139.6776653017067,35.50155538634192],[139.67650370309528,35.500385481177034]],[[139.68390771375664,35.51332888650128],[139.6803851423578,35.509351208940664]],[[139.63952142535314,35.50831956529527],[139.63751932042942,35.51018077805758],[139.63608384897466,35.513105540969796]],[[139.68653311549625,35.50702203411239],[139.68709974896524,35.50745808967385]],[[139.69200112847193,35.49898159497917],[139.68933795116772,35.498152025862254]],[[139.65768202803397,35.50537353138005],[139.66213954465664,35.50237431995734]],[[139.66213954465664,35.50237431995734],[139.66219620800354,35.501332040810446]],[[139.68390771375664,35.50594784846099],[139.6836905042602,35.50716029563188],[139.6803851423578,35.509351208940664]],[[139.66213954465664,35.50237431995734],[139.66196955461592,35.50565005441902]],[[139.68820468422976,35.49551442149051],[139.69638309396538,35.49780105431279]],[[139.69638309396538,35.49780105431279],[139.7033243539604,35.48727190782881],[139.69639253785652,35.484038715373124],[139.6948720713814,35.48803766393674],[139.6982718721953,35.4894947276421],[139.69794133600507,35.49099433335345],[139.69464541799383,35.4894840921406],[139.69324772210368,35.492387584049816],[139.69028234028266,35.491526108428396],[139.6908961932074,35.48821846746222],[139.6892624000385,35.49030302575602],[139.6882141281209,35.49534425346653]],[[139.6778541795297,35.499970696618576],[139.6776653017067,35.50155538634192]],[[139.69321939043022,35.5058521289475],[139.69630754283617,35.50654343654494]],[[139.69630754283617,35.50654343654494],[139.69649642065917,35.50603293247298]],[[139.69649642065917,35.50603293247298],[139.69569368991145,35.50309753405927]],[[139.643676737459,35.50315071156677],[139.6478603812383,35.50517145685157]],[[139.65493385570943,35.50123632129695],[139.6525351073574,35.500311032666545]],[[139.6525351073574,35.500311032666545],[139.64735985500738,35.50184254488239],[139.64452668766248,35.502023348407874],[139.643676737459,35.50315071156677]],[[139.72531917644798,35.46984032087201],[139.7126076989605,35.464203505077556],[139.70590253624425,35.47455184803605],[139.70362655847717,35.475104894114],[139.70026453322788,35.47872096462365],[139.70242718430117,35.48076298091144],[139.71447758940815,35.48605946065793]],[[139.71447758940815,35.48605946065793],[139.71462869166655,35.48607009615943],[139.72531917644798,35.46984032087201]],[[139.643676737459,35.50315071156677],[139.6438278397174,35.505756409434014],[139.64066413618224,35.505596876911525]],[[139.69649642065917,35.50603293247298],[139.6983851988891,35.50626691350596],[139.69867795951475,35.503501683116234]],[[139.7047314937417,35.50100234026397],[139.70664860364508,35.497418176258826],[139.70346601232762,35.495461243983016]],[[139.70346601232762,35.495461243983016],[139.7032865783958,35.49540806647552]],[[139.7032865783958,35.49540806647552],[139.69963179252085,35.494025451280656],[139.69676084961137,35.49793931583228]],[[139.70468427428594,35.501108695278965],[139.7047314937417,35.50100234026397]],[[139.70346601232762,35.495461243983016],[139.703994870232,35.494961375412565],[139.7076213244335,35.49597174805496],[139.7107566962952,35.49139848241041],[139.71104945692082,35.490111586729036],[139.70392876299397,35.48754843086778],[139.70038730381285,35.49341922769521],[139.70365489015063,35.49482311389308],[139.7032865783958,35.49540806647552]],[[139.68134841925507,35.51832757220579],[139.6816789554453,35.52081627955655],[139.68007349394986,35.524400443561696]],[[139.67704200489084,35.52388993948975],[139.67689090263244,35.52383676198225]],[[139.67689090263244,35.52383676198225],[139.6720745181461,35.52149695165248]],[[139.6806117957454,35.5397581077262],[139.68469155672207,35.53993891125169],[139.6846632250486,35.53616330821956]],[[139.67689090263244,35.52383676198225],[139.67650370309528,35.52094390557453],[139.67711755602002,35.51660462096296]],[[139.69610922112204,35.498853968961186],[139.69638309396538,35.49780105431279]],[[139.6573987112995,35.49784359631878],[139.65414056885285,35.49856681042071],[139.6525351073574,35.500311032666545]],[[139.69354992662048,35.51385002607473],[139.69630754283617,35.50654343654494]],[[139.67588985017056,35.47137183308786],[139.67675868815633,35.466936828962794],[139.6923411085533,35.47202059867929],[139.69455097908232,35.46906392926258],[139.69481540803451,35.463799356020594],[139.6847576639601,35.45891766083257],[139.6884218937262,35.45699263506126],[139.69819632106612,35.46165098471781],[139.69813965771922,35.460927770615875],[139.7024555159746,35.45521650631093],[139.70059506941814,35.45439757269551],[139.69577868493178,35.44951587750749],[139.6955331437619,35.44980303604796],[139.67793917455003,35.457737120166186],[139.6730283511522,35.46050235055592],[139.67385941357338,35.46219339529425],[139.6724522737921,35.46528832623045],[139.6765225908776,35.4668836514553],[139.67593706962631,35.469276639292566]],[[139.6673809042447,35.48340058528319],[139.66552045768822,35.486399796705896],[139.66425497627415,35.486857123270354]],[[139.67526655335467,35.49057954879499],[139.6748887977087,35.49129212739542]],[[139.7047314937417,35.50100234026397],[139.71447758940815,35.48605946065793]],[[139.72531917644798,35.46984032087201],[139.7297294736149,35.4627145348677],[139.71599805588326,35.434541091396945],[139.6936349216408,35.4473249641987],[139.66362223556712,35.46041726654393],[139.6626495147787,35.47280762579022],[139.67222562040448,35.47547713666646],[139.66744701148275,35.483421856286185]]]}