{"type":"Topology","bbox":[139.56986561397306,35.40811385609853,139.63958300040923,35.44431964207297],"objects":{"town":{"type":"GeometryCollection","geometries":[{"type":"MultiPolygon","arcs":[[[4,0,1,2,12,13,14,15,16]]],"properties":{"name":"万世町"}},{"type":"MultiPolygon","arcs":[[[30,31,32,33,18,47,6,7,8,46,-42,-37,20,34,-28]]],"properties":{"name":"高根町"}},{"type":"MultiPolygon","arcs":[[[21,9,10,22,-14]]],"properties":{"name":"永楽町"}},{"type":"MultiPolygon","arcs":[[[-22,-13,-3,23,24,103,-8,104,-10]]],"properties":{"name":"真金町"}},{"type":"MultiPolygon","arcs":[[[105,-31,27,-35,-21,36,41,-47,-9,-104,-25,-264,39,40,38,35,29,106,107]]],"properties":{"name":"白妙町"}},{"type":"MultiPolygon","arcs":[[[-30,-36,-39,-41,-40,263,-24,-2,-121,-120,81,82,43,-291,-253,-219,-107]]],"properties":{"name":"浦舟町"}},{"type":"MultiPolygon","arcs":[[[354,355,49,50,-116,-131,273,52,-79]]],"properties":{"name":"大橋町"}},{"type":"Polygon","arcs":[[53,54,55,56]],"properties":{"name":"八幡町"}},{"type":"MultiPolygon","arcs":[[[125,126,-194,58,-170,-212,-142,284,60,247,128]]],"properties":{"name":"若宮町"}},{"type":"Polygon","arcs":[[61,62,63,64,65]],"properties":{"name":"庚台"}},{"type":"MultiPolygon","arcs":[[[71,72,73,-232,295,296,327,67,279,-189,280,-33,278,69,70,-275,-101,294,75,76]]],"properties":{"name":"新川町"}},{"type":"MultiPolygon","arcs":[[[-124,179,80,77,78,-53,-274,130,-115,-85,131,132,133]]],"properties":{"name":"中島町"}},{"type":"Polygon","arcs":[[84,85,86,87,88,89,90]],"properties":{"name":"井土ケ谷下町"}},{"type":"MultiPolygon","arcs":[[[214,-252,91,92,93,-103,216,217,-108,218]]],"properties":{"name":"高砂町"}},{"type":"MultiPolygon","arcs":[[[211,-171,212,96,267,402,-228,-73,-266,-167,98,213,-143]]],"properties":{"name":"宮元町"}},{"type":"MultiPolygon","arcs":[[[100,274,-71,-70,-279,-32,-106,-218,-217,102,-94,-238,-76,-295]]],"properties":{"name":"二葉町"}},{"type":"MultiPolygon","arcs":[[[148,149,-270,-254,290,-44,-83,-82,119,120,-1,-5,-17,-16,109,110,-241,244,-56,-55,117,-251,151,152]]],"properties":{"name":"中村町"}},{"type":"Polygon","arcs":[[111,112,113,-86,114,115,-51,116]],"properties":{"name":"井土ケ谷中町"}},{"type":"MultiPolygon","arcs":[[[-81,-180,123,-134,170,169,-59,193,-127,264]]],"properties":{"name":"通町"}},{"type":"MultiPolygon","arcs":[[[-273,-260,135,136,137,405,406,-191,139,140,399,-376,320,310,-230,311,312,313,-288]]],"properties":{"name":"山王町"}},{"type":"Polygon","arcs":[[141,142,143,144,145,146,147]],"properties":{"name":"蒔田町"}},{"type":"Polygon","arcs":[[153,154,-66,155,156,157,158,159]],"properties":{"name":"三春台"}},{"type":"MultiPolygon","arcs":[[[352,-154,-160,-159,-158,416,-246,161,338,353]]],"properties":{"name":"西中町"}},{"type":"MultiPolygon","arcs":[[[-214,-99,166,265,-72,-237,-243,168,164,-282,-144]]],"properties":{"name":"共進町"}},{"type":"MultiPolygon","arcs":[[[222,223,176,177,171,172,173,174,224,-201,225,226]]],"properties":{"name":"白金町"}},{"type":"MultiPolygon","arcs":[[[276,-234,181,182,-149,183,277,-146]]],"properties":{"name":"堀ノ内町"}},{"type":"Polygon","arcs":[[184,185,186,-63,187]],"properties":{"name":"清水ケ丘"}},{"type":"MultiPolygon","arcs":[[[227,228,229,-311,-321,375,-400,-141,-140,190,191,188,-280,-68,-328,-297,-296,231,-74]]],"properties":{"name":"吉野町"}},{"type":"Polygon","arcs":[[194,195,196,-112,197]],"properties":{"name":"井土ケ谷上町"}},{"type":"MultiPolygon","arcs":[[[380,-354,-339,-162,245,246,-226,200,-225,-175,-174]]],"properties":{"name":"前里町"}},{"type":"Polygon","arcs":[[-65,201,-156]],"properties":{"name":"伏見町"}},{"type":"MultiPolygon","arcs":[[[207,360,-316,-305,-304,322,323,-195,324,325,326,210,202,203,204,205,415]]],"properties":{"name":"六ツ川"}},{"type":"MultiPolygon","arcs":[[[371,412,-172,-178,-177,-224,-223,282,283,-256,-259,-262,219,-272,-287]]],"properties":{"name":"日枝町"}},{"type":"Polygon","arcs":[[232,-182,233,234,235,236,-77,237,-93,238]],"properties":{"name":"東蒔田町"}},{"type":"Polygon","arcs":[[239,240,-111,241]],"properties":{"name":"唐沢"}},{"type":"MultiPolygon","arcs":[[[-145,281,-165,-169,242,-236,-235,-277]]],"properties":{"name":"榎町"}},{"type":"Polygon","arcs":[[248,249,-152,250,-118,-54]],"properties":{"name":"山谷"}},{"type":"MultiPolygon","arcs":[[[-183,-233,-239,-92,251,-215,252,253,269,-150]]],"properties":{"name":"睦町"}},{"type":"MultiPolygon","arcs":[[[-138,-137,-136,259,272,287,285,286,271,-220,261,258,255,-284,411,-406]]],"properties":{"name":"南吉田町"}},{"type":"Polygon","arcs":[[-249,-57,-245,-240,266]],"properties":{"name":"平楽"}},{"type":"Polygon","arcs":[[288,289]],"properties":{"name":"中里町"}},{"type":"MultiPolygon","arcs":[[[-129,-248,-61,-285,-148,292,336,342,401,400,334,365,366,-355,-78,-265,-126]]],"properties":{"name":"大岡"}},{"type":"MultiPolygon","arcs":[[[-385,-384,-308,-380,-420,300,301,302,389,-113,-197,-364]]],"properties":{"name":"永田東"}},{"type":"Polygon","arcs":[[303,304,305,306,307,308,309]],"properties":{"name":"永田みなみ台"}},{"type":"Polygon","arcs":[[315,316,317,318,-306]],"properties":{"name":"永田台"}},{"type":"MultiPolygon","arcs":[[[339,-132,-91,-90,330,-414,-313,-410,328,340]]],"properties":{"name":"花之木町"}},{"type":"MultiPolygon","arcs":[[[-204,-386,346,-388,407,-399,-398,-371,-401,414,392,417,343,373,-205]]],"properties":{"name":"別所"}},{"type":"MultiPolygon","arcs":[[[-341,-329,409,-312,-229,-403,-268,-97,-213,-133,-340]]],"properties":{"name":"宿町"}},{"type":"MultiPolygon","arcs":[[[-87,-114,-390,-303,420,-186,-185,-188,-62,-155,-353,-381,-173,-413,-372,-286,-314,413,-331,-89,-88]]],"properties":{"name":"南太田"}},{"type":"MultiPolygon","arcs":[[[363,-196,-324,361,382,-309,383,384]]],"properties":{"name":"永田南"}},{"type":"MultiPolygon","arcs":[[[-408,-387,-211,-327,-326,-405,-289,-404,369,-366,-335,370,397,398]]],"properties":{"name":"中里"}},{"type":"MultiPolygon","arcs":[[[393,418,-301,419,379,-307,-319,-318]]],"properties":{"name":"永田北"}},{"type":"Polygon","arcs":[[385,-203,386,387,-347]],"properties":{"name":"別所中里台"}},{"type":"Polygon","arcs":[[-310,-383,-362,-323]],"properties":{"name":"永田山王台"}},{"type":"Polygon","arcs":[[403,-290,404,-325,-198,-117,-50,-356,-367,-370]],"properties":{"name":"弘明寺町"}}]}},"arcs":[[[139.63029571580748,35.434829156520514],[139.62980764529536,35.43465535136732]],[[139.62980764529536,35.43465535136732],[139.6293056299115,35.43539764420908]],[[139.6293056299115,35.43539764420908],[139.6314252504212,35.43633546784818]],[[139.6314252504212,35.43633546784818],[139.63201093503574,35.435564207480894]],[[139.63201093503574,35.435564207480894],[139.63029571580748,35.434829156520514]],[[139.62720692670945,35.43664324780696],[139.6263493170953,35.438084382202184]],[[139.6263493170953,35.438084382202184],[139.62720692670945,35.43851165320378]],[[139.62720692670945,35.43851165320378],[139.62819701260543,35.437037930342335]],[[139.62819701260543,35.437037930342335],[139.62720692670945,35.43664324780696]],[[139.63040727478167,35.43776936036202],[139.6291870985014,35.43943861402081]],[[139.6291870985014,35.43943861402081],[139.63059553055064,35.440079520523206],[139.63175992734378,35.4384175087458]],[[139.63175992734378,35.4384175087458],[139.63040727478167,35.43776936036202]],[[139.6314252504212,35.43633546784818],[139.6312160773446,35.43664324780696]],[[139.6312160773446,35.43664324780696],[139.63275698567566,35.43699809999473]],[[139.63275698567566,35.43699809999473],[139.63334964272607,35.43615442081361]],[[139.63334964272607,35.43615442081361],[139.6327430408039,35.43588285026174]],[[139.6327430408039,35.43588285026174],[139.63201093503574,35.435564207480894]],[[139.62481538120014,35.4356873194644],[139.62404144081665,35.4370524141051]],[[139.62404144081665,35.4370524141051],[139.6251570305586,35.43752675733569]],[[139.6251570305586,35.43752675733569],[139.62598675042918,35.43616528363568]],[[139.62598675042918,35.43616528363568],[139.62481538120014,35.4356873194644]],[[139.6312160773446,35.43664324780696],[139.63040727478167,35.43776936036202]],[[139.63175992734378,35.4384175087458],[139.63275698567566,35.43699809999473]],[[139.6293056299115,35.43539764420908],[139.6288663664506,35.43604217165217]],[[139.6288663664506,35.43604217165217],[139.62831554401552,35.43685688330776]],[[139.62831554401552,35.43685688330776],[139.63040727478167,35.43776936036202]],[[139.62388107479126,35.434477925273434],[139.623525480561,35.435238322818655]],[[139.623525480561,35.435238322818655],[139.62489905043077,35.43554610277743]],[[139.62489905043077,35.43554610277743],[139.6252685895328,35.4348327774612]],[[139.6252685895328,35.4348327774612],[139.62388107479126,35.434477925273434]],[[139.623525480561,35.435238322818655],[139.62278640235695,35.4351767668269]],[[139.62278640235695,35.4351767668269],[139.62296071325414,35.43570904510855]],[[139.62296071325414,35.43570904510855],[139.6230234651771,35.43649478923861]],[[139.6230234651771,35.43649478923861],[139.62404144081665,35.4370524141051]],[[139.62481538120014,35.4356873194644],[139.62489905043077,35.43554610277743]],[[139.62531042414813,35.43474587488461],[139.6252685895328,35.4348327774612]],[[139.62598675042918,35.43616528363568],[139.62601464017274,35.43612183234738]],[[139.62601464017274,35.43612183234738],[139.6265724350437,35.435212976233814]],[[139.6265724350437,35.435212976233814],[139.62531042414813,35.43474587488461]],[[139.6278205010675,35.43559679594711],[139.62665610427436,35.435093485191]],[[139.62665610427436,35.435093485191],[139.6265724350437,35.435212976233814]],[[139.62601464017274,35.43612183234738],[139.62722087158122,35.43660703840005]],[[139.62722087158122,35.43660703840005],[139.6278205010675,35.43559679594711]],[[139.62600069530095,35.43338802212529],[139.62359520491987,35.432960751123694]],[[139.62359520491987,35.432960751123694],[139.62388107479126,35.434477925273434]],[[139.62531042414813,35.43474587488461],[139.62600069530095,35.43338802212529]],[[139.62720692670945,35.43664324780696],[139.62722087158122,35.43660703840005]],[[139.6251570305586,35.43752675733569],[139.6263493170953,35.438084382202184]],[[139.60176450815703,35.426012165936676],[139.60032818636427,35.42650099293003]],[[139.60032818636427,35.42650099293003],[139.60242688956632,35.42768504053616]],[[139.60242688956632,35.42768504053616],[139.60256633828405,35.427750217468606]],[[139.60256633828405,35.427750217468606],[139.60313110559093,35.42723604389041]],[[139.60313110559093,35.42723604389041],[139.60176450815703,35.426012165936676]],[[139.62867113824575,35.42938326172048],[139.62765316260624,35.43089319398884]],[[139.62765316260624,35.43089319398884],[139.62922196068084,35.431403746626344],[139.63058855811474,35.43356182727848]],[[139.63058855811474,35.43356182727848],[139.63183662413854,35.43288471136917]],[[139.63183662413854,35.43288471136917],[139.63083956580667,35.430911298692294],[139.62867113824575,35.42938326172048]],[[139.60506944276756,35.42582387702072],[139.6045534825119,35.426196833911945]],[[139.6045534825119,35.426196833911945],[139.6066312684063,35.427442437509825]],[[139.6066312684063,35.427442437509825],[139.60714722866194,35.42701878744892]],[[139.60714722866194,35.42701878744892],[139.60506944276756,35.42582387702072]],[[139.6158418562133,35.43900772207852],[139.61409177480562,35.43928291357108]],[[139.61409177480562,35.43928291357108],[139.61183270557817,35.43975001492028],[139.60899492417207,35.44135047070593],[139.6095736363507,35.44304145000886]],[[139.6095736363507,35.44304145000886],[139.6108286748104,35.44269021876179]],[[139.6108286748104,35.44269021876179],[139.61151894596324,35.442429511031996]],[[139.61151894596324,35.442429511031996],[139.61156078057854,35.441821192995825],[139.6162183677512,35.44065525009316],[139.6158418562133,35.43900772207852]],[[139.62010898697628,35.434883470630886],[139.61984403441255,35.4354302326753]],[[139.61984403441255,35.4354302326753],[139.62122457671822,35.435817673329296]],[[139.62122457671822,35.435817673329296],[139.62140586005128,35.435354192920784]],[[139.62140586005128,35.435354192920784],[139.62144072223072,35.43527815316626]],[[139.62144072223072,35.43527815316626],[139.62010898697628,35.434883470630886]],[[139.6162253401871,35.43381529312689],[139.6158836908286,35.43401444486492]],[[139.6158836908286,35.43401444486492],[139.61586974595684,35.434021686746306]],[[139.61586974595684,35.434021686746306],[139.61748735108267,35.43477122146945]],[[139.61748735108267,35.43477122146945],[139.61773138633873,35.43421359660296]],[[139.61773138633873,35.43421359660296],[139.61685983185282,35.43348216658327]],[[139.61685983185282,35.43348216658327],[139.6162253401871,35.43381529312689]],[[139.6014995555933,35.423108171502086],[139.60083020174815,35.4232711138332]],[[139.60083020174815,35.4232711138332],[139.60176450815703,35.426012165936676]],[[139.60176450815703,35.426012165936676],[139.60274064918124,35.425671797511676]],[[139.60274064918124,35.425671797511676],[139.6014995555933,35.423108171502086]],[[139.6273951824784,35.43379718842343],[139.62649573824893,35.43350751316811]],[[139.62649573824893,35.43350751316811],[139.62600069530095,35.43338802212529]],[[139.62665610427436,35.435093485191],[139.6273951824784,35.43379718842343]],[[139.60734942930267,35.42989019341729],[139.60542503699781,35.42892340225266]],[[139.60542503699781,35.42892340225266],[139.60152744533687,35.434191870958806]],[[139.60152744533687,35.434191870958806],[139.60323569212923,35.43460103725695]],[[139.60323569212923,35.43460103725695],[139.6042188055893,35.43304041181891],[139.6066870478934,35.43408324273806]],[[139.6066870478934,35.43408324273806],[139.60883455814667,35.43232708650268]],[[139.60883455814667,35.43232708650268],[139.60865327481358,35.43209534629842]],[[139.60865327481358,35.43209534629842],[139.60734942930267,35.42989019341729]],[[139.61959302672062,35.432844881021566],[139.6180800081331,35.433087484047896]],[[139.6180800081331,35.433087484047896],[139.61743854403147,35.43323594261625]],[[139.61743854403147,35.43323594261625],[139.61911890108027,35.433880470059336]],[[139.61911890108027,35.433880470059336],[139.61959302672062,35.432844881021566]],[[139.60980372673498,35.42928549632181],[139.60889033763377,35.4296729369758]],[[139.60889033763377,35.4296729369758],[139.61026390750354,35.430654211903196]],[[139.61026390750354,35.430654211903196],[139.6108774818616,35.43006761951117]],[[139.6108774818616,35.43006761951117],[139.60980372673498,35.42928549632181]],[[139.61911890108027,35.433880470059336],[139.6188330312089,35.4344924090362]],[[139.6188330312089,35.4344924090362],[139.62011595941215,35.434854503105356]],[[139.62011595941215,35.434854503105356],[139.6204227465912,35.43414479872982]],[[139.6204227465912,35.43414479872982],[139.61911890108027,35.433880470059336]],[[139.62831554401552,35.43685688330776],[139.62819701260543,35.437037930342335]],[[139.62720692670945,35.43851165320378],[139.6291870985014,35.43943861402081]],[[139.622598146588,35.43459741631626],[139.62278640235695,35.4351767668269]],[[139.62388107479126,35.434477925273434],[139.6225423671009,35.43434395046785]],[[139.6225423671009,35.43434395046785],[139.622598146588,35.43459741631626]],[[139.63317533182888,35.43389133288141],[139.6327430408039,35.43588285026174]],[[139.63334964272607,35.43615442081361],[139.63620136900394,35.43703068846095],[139.63618045169628,35.433340949896305]],[[139.63618045169628,35.433340949896305],[139.63317533182888,35.43389133288141]],[[139.60015387546707,35.42866993640425],[139.60114396136308,35.433402505888054],[139.60029332418483,35.43377184183859]],[[139.60029332418483,35.43377184183859],[139.60146469341387,35.43422808036572]],[[139.60146469341387,35.43422808036572],[139.60152744533687,35.434191870958806]],[[139.60542503699781,35.42892340225266],[139.60536228507482,35.428898055667815]],[[139.60536228507482,35.428898055667815],[139.60256633828405,35.427750217468606]],[[139.60242688956632,35.42768504053616],[139.60015387546707,35.42866993640425]],[[139.62765316260624,35.43089319398884],[139.62637023440297,35.430665074725276]],[[139.62637023440297,35.430665074725276],[139.6273812376066,35.431602898364375],[139.62649573824893,35.43350751316811]],[[139.6273951824784,35.43379718842343],[139.62864324850221,35.43424980600987]],[[139.62864324850221,35.43424980600987],[139.62980764529536,35.43465535136732]],[[139.63029571580748,35.434829156520514],[139.63058855811474,35.43356182727848]],[[139.6045534825119,35.426196833911945],[139.60384926648732,35.42671100749014]],[[139.60384926648732,35.42671100749014],[139.6060804459712,35.42802540896116]],[[139.6060804459712,35.42802540896116],[139.6066312684063,35.427442437509825]],[[139.6042885299482,35.423607861317514],[139.60318688507803,35.4238287386997]],[[139.60318688507803,35.4238287386997],[139.60381440430785,35.425262631213535]],[[139.60381440430785,35.425262631213535],[139.60468595879377,35.42486794867816]],[[139.60468595879377,35.42486794867816],[139.6042885299482,35.423607861317514]],[[139.6060804459712,35.42802540896116],[139.6055296235361,35.42869528298909]],[[139.6055296235361,35.42869528298909],[139.60536228507482,35.428898055667815]],[[139.60734942930267,35.42989019341729],[139.6074470434051,35.4298431211883]],[[139.6074470434051,35.4298431211883],[139.6080048382761,35.42914790057553]],[[139.6080048382761,35.42914790057553],[139.6060804459712,35.42802540896116]],[[139.61953027479763,35.43608200199978],[139.61931412928513,35.43654910334898]],[[139.61931412928513,35.43654910334898],[139.6192722946698,35.43663962686627]],[[139.6192722946698,35.43663962686627],[139.62073650620613,35.436994479054036]],[[139.62073650620613,35.436994479054036],[139.620806230565,35.436809811078774]],[[139.620806230565,35.436809811078774],[139.6208480651803,35.43670842473941]],[[139.6208480651803,35.43670842473941],[139.6209596241545,35.43647306359446]],[[139.6209596241545,35.43647306359446],[139.61953027479763,35.43608200199978]],[[139.60732153955914,35.42708396438137],[139.60742612609744,35.427413469984295]],[[139.60742612609744,35.427413469984295],[139.6102220728882,35.42917686810106]],[[139.6102220728882,35.42917686810106],[139.6117978433987,35.42916962621968]],[[139.6117978433987,35.42916962621968],[139.61494241198386,35.428778564625]],[[139.61494241198386,35.428778564625],[139.61370131839593,35.4271563831952],[139.6144682863435,35.4229307454082]],[[139.6144682863435,35.4229307454082],[139.61318535814027,35.422358636778945],[139.61085656455396,35.423730973301026]],[[139.61085656455396,35.423730973301026],[139.60921804212046,35.42495485125476],[139.60972702994022,35.42590353771593],[139.60732153955914,35.42708396438137]],[[139.62311410684364,35.42660962115078],[139.622598146588,35.42793126450318]],[[139.622598146588,35.42793126450318],[139.62103632094926,35.430426092639635]],[[139.62103632094926,35.430426092639635],[139.6223750286396,35.43069042131012]],[[139.6223750286396,35.43069042131012],[139.62572877030135,35.4273265674077]],[[139.62572877030135,35.4273265674077],[139.62311410684364,35.42660962115078]],[[139.61812184274842,35.439290155452454],[139.6158836908286,35.43897151267161]],[[139.6158836908286,35.43897151267161],[139.6158418562133,35.43900772207852]],[[139.61151894596324,35.442429511031996],[139.6153537857012,35.44422911855568]],[[139.6153537857012,35.44422911855568],[139.62132219082065,35.44212535201391]],[[139.62132219082065,35.44212535201391],[139.6210293485134,35.44104993262853]],[[139.6210293485134,35.44104993262853],[139.6199765106944,35.44040902612613]],[[139.6199765106944,35.44040902612613],[139.61812184274842,35.439290155452454]],[[139.6278205010675,35.43559679594711],[139.62864324850221,35.43424980600987]],[[139.6215592536408,35.44053937999103],[139.62049944338594,35.43990571537002]],[[139.62049944338594,35.43990571537002],[139.6199765106944,35.44040902612613]],[[139.6210293485134,35.44104993262853],[139.6215592536408,35.44053937999103]],[[139.6123068312185,35.430288496893354],[139.61176995365517,35.42982501648484]],[[139.61176995365517,35.42982501648484],[139.6108774818616,35.43006761951117]],[[139.6108774818616,35.43006761951117],[139.61309471647374,35.43172601034789]],[[139.61309471647374,35.43172601034789],[139.61352700749873,35.43123718335453]],[[139.61352700749873,35.43123718335453],[139.6123068312185,35.430288496893354]],[[139.60714722866194,35.42774659652792],[139.6066312684063,35.427442437509825]],[[139.6080048382761,35.42914790057553],[139.60714722866194,35.42774659652792]],[[139.61743157159557,35.437530378276385],[139.61715267416008,35.43749416886947]],[[139.61715267416008,35.43749416886947],[139.61701322544235,35.437874367642074]],[[139.61701322544235,35.437874367642074],[139.61850532672221,35.438395783101655]],[[139.61850532672221,35.438395783101655],[139.61989284146375,35.43887012633224]],[[139.61989284146375,35.43887012633224],[139.62003926261738,35.43857320919554]],[[139.62003926261738,35.43857320919554],[139.61864477543995,35.437968512100056]],[[139.61864477543995,35.437968512100056],[139.61743157159557,35.437530378276385]],[[139.60313110559093,35.42723604389041],[139.60384926648732,35.42671100749014]],[[139.60384926648732,35.42671100749014],[139.60274064918124,35.425671797511676]],[[139.6179126696718,35.42562472528269],[139.61760588249277,35.427174487898654],[139.61570240749555,35.42778642687552],[139.61580699403387,35.42977070237447]],[[139.61580699403387,35.42977070237447],[139.61713175685244,35.4297562186117]],[[139.61713175685244,35.4297562186117],[139.61980917223312,35.427652452069935],[139.622598146588,35.42793126450318]],[[139.62311410684364,35.42660962115078],[139.62034604979644,35.42658427456594],[139.6179126696718,35.42562472528269]],[[139.60778869276356,35.43675911790909],[139.60710539404664,35.437874367642074],[139.60502063571636,35.43657807087452],[139.60373073507722,35.437164663266536]],[[139.60373073507722,35.437164663266536],[139.60288009789898,35.43853337884793]],[[139.60288009789898,35.43853337884793],[139.60404449469215,35.43940964649528],[139.60366101071835,35.44104993262853],[139.60654062673976,35.44297265213573],[139.6095736363507,35.44304145000886]],[[139.61409177480562,35.43928291357108],[139.61154683570678,35.43759193426814],[139.60778869276356,35.43675911790909]],[[139.62284915427995,35.43652375676414],[139.62119668697468,35.43588647120244]],[[139.62119668697468,35.43588647120244],[139.6209596241545,35.43647306359446]],[[139.6208480651803,35.43670842473941],[139.62257025684445,35.43711759103755]],[[139.62257025684445,35.43711759103755],[139.62284915427995,35.43652375676414]],[[139.60381440430785,35.425262631213535],[139.60274064918124,35.425671797511676]],[[139.6045534825119,35.426196833911945],[139.60381440430785,35.425262631213535]],[[139.5984456286747,35.42766331489201],[139.5973718735481,35.42747502597605]],[[139.5973718735481,35.42747502597605],[139.5974276530352,35.43029573877474],[139.59608894534483,35.43108510384549]],[[139.59608894534483,35.43108510384549],[139.5969744447025,35.43247554507103],[139.60029332418483,35.43377184183859]],[[139.60015387546707,35.42866993640425],[139.5984456286747,35.42766331489201]],[[139.6208620100521,35.439217736638625],[139.62049944338594,35.43990571537002]],[[139.6215592536408,35.44053937999103],[139.62234713889606,35.43973191021682]],[[139.62234713889606,35.43973191021682],[139.6208620100521,35.439217736638625]],[[139.6108286748104,35.44269021876179],[139.6153537857012,35.44422911855568]],[[139.58727578638343,35.4192627324877],[139.5829319588257,35.41837560201828]],[[139.5829319588257,35.41837560201828],[139.58022665370146,35.420703866882924]],[[139.58022665370146,35.420703866882924],[139.57865088319093,35.42017158860127]],[[139.57865088319093,35.42017158860127],[139.57696355370624,35.42232966925341]],[[139.57696355370624,35.42232966925341],[139.5761198889639,35.42427773534544]],[[139.5761198889639,35.42427773534544],[139.57634300691228,35.42446240332071]],[[139.57634300691228,35.42446240332071],[139.57945968575385,35.426931884872324],[139.58238810882648,35.42656254892179]],[[139.58238810882648,35.42656254892179],[139.58583946459066,35.423144380909],[139.5880985338181,35.42337250017257],[139.58814036843344,35.42202551023532]],[[139.58814036843344,35.42202551023532],[139.58727578638343,35.4192627324877]],[[139.60742612609744,35.427413469984295],[139.60714722866194,35.42774659652792]],[[139.6080048382761,35.42914790057553],[139.60889033763377,35.4296729369758]],[[139.60980372673498,35.42928549632181],[139.6102220728882,35.42917686810106]],[[139.6219427376146,35.43280142973327],[139.6211269626158,35.43278332502981]],[[139.6211269626158,35.43278332502981],[139.6204227465912,35.43414479872982]],[[139.6204227465912,35.43414479872982],[139.62181026133274,35.43443085304445]],[[139.62181026133274,35.43443085304445],[139.622598146588,35.43459741631626]],[[139.6225423671009,35.43434395046785],[139.6219427376146,35.43280142973327]],[[139.6191049562085,35.43699085811335],[139.61784294531293,35.436657731569724]],[[139.61784294531293,35.436657731569724],[139.61743157159557,35.437530378276385]],[[139.61864477543995,35.437968512100056],[139.6191049562085,35.43699085811335]],[[139.62168475748678,35.438707184001125],[139.62004623505328,35.43857320919554]],[[139.62004623505328,35.43857320919554],[139.62003926261738,35.43857320919554]],[[139.61989284146375,35.43887012633224],[139.6208620100521,35.439217736638625]],[[139.62234713889606,35.43973191021682],[139.6233511696638,35.440079520523206]],[[139.6233511696638,35.440079520523206],[139.62168475748678,35.438707184001125]],[[139.61586974595684,35.434021686746306],[139.61510277800926,35.434546723146575]],[[139.61510277800926,35.434546723146575],[139.6148029632661,35.434706044537]],[[139.6148029632661,35.434706044537],[139.61734092992904,35.43512969459791]],[[139.61734092992904,35.43512969459791],[139.61749432351857,35.434785705232215]],[[139.61749432351857,35.434785705232215],[139.61748735108267,35.43477122146945]],[[139.6171387292883,35.4297562186117],[139.61713175685244,35.4297562186117]],[[139.61580699403387,35.42977070237447],[139.61495635685563,35.429803290840695]],[[139.61495635685563,35.429803290840695],[139.61495635685563,35.43036815758857]],[[139.61495635685563,35.43036815758857],[139.61460773506127,35.43190343644177]],[[139.61460773506127,35.43190343644177],[139.6164414856996,35.43268918057183],[139.6162253401871,35.43381529312689]],[[139.61685983185282,35.43348216658327],[139.61743854403147,35.43323594261625]],[[139.6180800081331,35.433087484047896],[139.6171387292883,35.4297562186117]],[[139.63629201067047,35.43037902041065],[139.63454192926278,35.430809912352935],[139.63301496580348,35.43254072200348]],[[139.63301496580348,35.43254072200348],[139.63317533182888,35.43389133288141]],[[139.63618045169628,35.433340949896305],[139.639101902333,35.43363062515162],[139.63958300040923,35.43276159938566],[139.63629201067047,35.43037902041065]],[[139.61352700749873,35.43123718335453],[139.61460773506127,35.43190343644177]],[[139.61495635685563,35.43036815758857],[139.6123068312185,35.430288496893354]],[[139.63301496580348,35.43254072200348],[139.63183662413854,35.43288471136917]],[[139.6215592536408,35.44053937999103],[139.6225005324856,35.441140456145824]],[[139.6225005324856,35.441140456145824],[139.6233511696638,35.440079520523206]],[[139.60506944276756,35.42582387702072],[139.60468595879377,35.42486794867816]],[[139.62867113824575,35.42938326172048],[139.62772985940097,35.42764883112925]],[[139.62772985940097,35.42764883112925],[139.62572877030135,35.4273265674077]],[[139.6223750286396,35.43069042131012],[139.62637023440297,35.430665074725276]],[[139.61959302672062,35.432844881021566],[139.6211269626158,35.43278332502981]],[[139.6219427376146,35.43280142973327],[139.62192879274284,35.432776083148426]],[[139.62192879274284,35.432776083148426],[139.6210293485134,35.43070128413219]],[[139.6210293485134,35.43070128413219],[139.6171387292883,35.4297562186117]],[[139.62054127800127,35.43745795946255],[139.62056219530893,35.43741450817426]],[[139.62056219530893,35.43741450817426],[139.62073650620613,35.436994479054036]],[[139.6192722946698,35.43663962686627],[139.61920954274683,35.43679170637532]],[[139.61920954274683,35.43679170637532],[139.62054127800127,35.43745795946255]],[[139.61931412928513,35.43654910334898],[139.61805211838953,35.43622321868675]],[[139.61805211838953,35.43622321868675],[139.61784294531293,35.436657731569724]],[[139.6191049562085,35.43699085811335],[139.61920954274683,35.43679170637532]],[[139.62004623505328,35.43857320919554],[139.62054127800127,35.43745795946255]],[[139.6278205010675,35.43559679594711],[139.6288663664506,35.43604217165217]],[[139.60318688507803,35.4238287386997],[139.6014995555933,35.423108171502086]],[[139.61309471647374,35.43172601034789],[139.6158836908286,35.43401444486492]],[[139.63629201067047,35.43037902041065],[139.63433972862205,35.4286047594718],[139.62998892862845,35.42736639775531],[139.62772985940097,35.42764883112925]],[[139.61026390750354,35.430654211903196],[139.61258572865398,35.43230536085853]],[[139.61258572865398,35.43230536085853],[139.61309471647374,35.43172601034789]],[[139.6210293485134,35.43070128413219],[139.62103632094926,35.430426092639635]],[[139.61700625300645,35.43594078531281],[139.6168319421093,35.43636443537372]],[[139.6168319421093,35.43636443537372],[139.61784294531293,35.436657731569724]],[[139.61805211838953,35.43622321868675],[139.61700625300645,35.43594078531281]],[[139.6055296235361,35.42869528298909],[139.60313110559093,35.42723604389041]],[[139.62011595941215,35.434854503105356],[139.62010898697628,35.434883470630886]],[[139.62144072223072,35.43527815316626],[139.62181026133274,35.43443085304445]],[[139.61494241198386,35.428778564625],[139.61495635685563,35.429803290840695]],[[139.6179126696718,35.42562472528269],[139.61653212736613,35.42535315473082],[139.6144682863435,35.4229307454082]],[[139.62296071325414,35.43570904510855],[139.62140586005128,35.435354192920784]],[[139.62122457671822,35.435817673329296],[139.62119668697468,35.43588647120244]],[[139.62284915427995,35.43652375676414],[139.6230234651771,35.43649478923861]],[[139.6117978433987,35.42916962621968],[139.61176995365517,35.42982501648484]],[[139.62168475748678,35.438707184001125],[139.62218677287066,35.43781281165032]],[[139.62218677287066,35.43781281165032],[139.62056219530893,35.43741450817426]],[[139.60732153955914,35.42708396438137],[139.60714722866194,35.42701878744892]],[[139.61516552993223,35.435622142531955],[139.61523525429112,35.43579594768515]],[[139.61523525429112,35.43579594768515],[139.6168319421093,35.43636443537372]],[[139.61700625300645,35.43594078531281],[139.61516552993223,35.435622142531955]],[[139.59794361329085,35.42091388144303],[139.5978041645731,35.42189877731112]],[[139.5978041645731,35.42189877731112],[139.59794361329085,35.42091388144303]],[[139.62192879274284,35.432776083148426],[139.62359520491987,35.432960751123694]],[[139.60389110110262,35.41861458410392],[139.60365403828246,35.420493852322814],[139.60593402481757,35.42261572356804],[139.6042885299482,35.423607861317514]],[[139.61085656455396,35.423730973301026],[139.61007565173458,35.42136649902947],[139.60719603571317,35.419374981649135]],[[139.60719603571317,35.419374981649135],[139.60389110110262,35.41861458410392]],[[139.6188330312089,35.4344924090362],[139.61773138633873,35.43421359660296]],[[139.61749432351857,35.434785705232215],[139.61856807864518,35.435097106131686]],[[139.61856807864518,35.435097106131686],[139.61863083056818,35.43494502662264]],[[139.61863083056818,35.43494502662264],[139.6188330312089,35.4344924090362]],[[139.59932415559652,35.43624856527158],[139.59809700688035,35.437276912427976]],[[139.59809700688035,35.437276912427976],[139.59666068508758,35.437928681752446]],[[139.59666068508758,35.437928681752446],[139.59608894534483,35.439978134183846]],[[139.59608894534483,35.439978134183846],[139.59948452162192,35.43937343708836]],[[139.59948452162192,35.43937343708836],[139.60032121392837,35.437066897867865],[139.59932415559652,35.43624856527158]],[[139.58524680754024,35.42922031938936],[139.58512130369428,35.429209456567285]],[[139.58512130369428,35.429209456567285],[139.58317599408173,35.43054196274176]],[[139.58317599408173,35.43054196274176],[139.5872269793322,35.43295350924231],[139.58670404664068,35.4344091274003]],[[139.58670404664068,35.4344091274003],[139.58896311586813,35.43349302940535],[139.5913755786851,35.43405427521253]],[[139.5913755786851,35.43405427521253],[139.59211465688912,35.432616761758]],[[139.59211465688912,35.432616761758],[139.58969522163628,35.431009064090965]],[[139.58969522163628,35.431009064090965],[139.58524680754024,35.42922031938936]],[[139.61715267416008,35.43557507030297],[139.61734092992904,35.43512969459791]],[[139.6148029632661,35.434706044537],[139.6143567273693,35.43497399414817]],[[139.6143567273693,35.43497399414817],[139.6144125068564,35.43512245271653]],[[139.6144125068564,35.43512245271653],[139.61516552993223,35.435622142531955]],[[139.61700625300645,35.43594078531281],[139.61715267416008,35.43557507030297]],[[139.58317599408173,35.43054196274176],[139.5810772908797,35.433851502533805]],[[139.5810772908797,35.433851502533805],[139.5822626049805,35.43468069795216]],[[139.5822626049805,35.43468069795216],[139.58610441715436,35.43643685418755]],[[139.58610441715436,35.43643685418755],[139.58740826266526,35.435408507031156],[139.58670404664068,35.4344091274003]],[[139.61805211838953,35.43622321868675],[139.61825431903026,35.43578508486307]],[[139.61825431903026,35.43578508486307],[139.61715267416008,35.43557507030297]],[[139.58238810882648,35.42656254892179],[139.58512130369428,35.429209456567285]],[[139.58524680754024,35.42922031938936],[139.58648790112815,35.428134037181906],[139.58645303894872,35.4260447544029],[139.5900647607383,35.42599044029253],[139.59239355432462,35.42725776953456]],[[139.59239355432462,35.42725776953456],[139.5973718735481,35.42747502597605]],[[139.5984456286747,35.42766331489201],[139.59525922547428,35.423604240376825]],[[139.59525922547428,35.423604240376825],[139.59372528957908,35.42390839939491],[139.5906155831734,35.422173968803676],[139.59115943317258,35.42130132209702]],[[139.59115943317258,35.42130132209702],[139.58814036843344,35.42202551023532]],[[139.61863083056818,35.43494502662264],[139.61984403441255,35.4354302326753]],[[139.61200701647533,35.43294988830162],[139.6096294158378,35.43125528805799]],[[139.6096294158378,35.43125528805799],[139.60865327481358,35.43209534629842]],[[139.60883455814667,35.43232708650268],[139.61113546198942,35.43404341239046]],[[139.61113546198942,35.43404341239046],[139.61200701647533,35.43294988830162]],[[139.60628961904783,35.413516299610265],[139.6030404639244,35.4143129065624]],[[139.6030404639244,35.4143129065624],[139.6023292754639,35.415634549914806],[139.59982617098038,35.41679325093609]],[[139.59982617098038,35.41679325093609],[139.60082322931225,35.41844439989142]],[[139.60082322931225,35.41844439989142],[139.60389110110262,35.41861458410392]],[[139.60719603571317,35.419374981649135],[139.60710539404664,35.41588801576321],[139.60628961904783,35.413516299610265]],[[139.6181915671073,35.439145317824796],[139.61812184274842,35.439290155452454]],[[139.62049944338594,35.43990571537002],[139.6181915671073,35.439145317824796]],[[139.60823492866035,35.43030298065612],[139.6074470434051,35.4298431211883]],[[139.6096294158378,35.43125528805799],[139.60823492866035,35.43030298065612]],[[139.60094176072235,35.411039576177274],[139.6030404639244,35.4143129065624]],[[139.60628961904783,35.413516299610265],[139.60639420558613,35.4087221741347],[139.60437917161474,35.40811385609853],[139.60094176072235,35.411039576177274]],[[139.58113307036677,35.413657516297235],[139.5807426139571,35.41461706558049]],[[139.5807426139571,35.41461706558049],[139.58061711011115,35.41736898050604]],[[139.58061711011115,35.41736898050604],[139.5828692069027,35.41700688643689]],[[139.5828692069027,35.41700688643689],[139.5846192883104,35.41558747768581],[139.5870596408709,35.41515296480283]],[[139.5870596408709,35.41515296480283],[139.58855174215077,35.4138458052132]],[[139.58855174215077,35.4138458052132],[139.58698294407614,35.41298040038792]],[[139.58698294407614,35.41298040038792],[139.584333418439,35.41363941159378],[139.58113307036677,35.413657516297235]],[[139.60889033763377,35.4296729369758],[139.60823492866035,35.43030298065612]],[[139.6096294158378,35.43125528805799],[139.61026390750354,35.430654211903196]],[[139.6164414856996,35.43857683013623],[139.6158836908286,35.43897151267161]],[[139.6181915671073,35.439145317824796],[139.6164414856996,35.43857683013623]],[[139.60083020174815,35.4232711138332],[139.6003142414925,35.42338698393533]],[[139.6003142414925,35.42338698393533],[139.60032818636427,35.42650099293003]],[[139.61984403441255,35.4354302326753],[139.61953027479763,35.43608200199978]],[[139.6066870478934,35.43408324273806],[139.60365403828246,35.436824294841536]],[[139.60365403828246,35.436824294841536],[139.60373073507722,35.437164663266536]],[[139.60778869276356,35.43675911790909],[139.61206976839833,35.436697561917335],[139.6105009703237,35.43561490065057],[139.61113546198942,35.43404341239046]],[[139.57634300691228,35.42446240332071],[139.5753389761445,35.426548065159025],[139.57577126716953,35.42897409542234],[139.57487879537595,35.4312951184056],[139.57799547421754,35.43384788159312],[139.5810772908797,35.433851502533805]],[[139.59239355432462,35.42725776953456],[139.59229594022221,35.427724870883765]],[[139.59229594022221,35.427724870883765],[139.5945828991932,35.42986484683245]],[[139.5945828991932,35.42986484683245],[139.59608894534483,35.43108510384549]],[[139.61200701647533,35.43294988830162],[139.61258572865398,35.43230536085853]],[[139.60082322931225,35.41844439989142],[139.59982617098038,35.420888534858186]],[[139.59982617098038,35.420888534858186],[139.6003142414925,35.42338698393533]],[[139.59548234342265,35.41824524815338],[139.59677224406178,35.42012813731297]],[[139.59677224406178,35.42012813731297],[139.59795058572672,35.42090663956164]],[[139.59795058572672,35.42090663956164],[139.59982617098038,35.420888534858186]],[[139.59982617098038,35.41679325093609],[139.59548234342265,35.41824524815338]],[[139.61523525429112,35.43579594768515],[139.6164484581355,35.437305879953506]],[[139.6164484581355,35.437305879953506],[139.6168319421093,35.43636443537372]],[[139.5807426139571,35.41461706558049],[139.57904133960062,35.41705757960657],[139.57865088319093,35.42017158860127]],[[139.58022665370146,35.420703866882924],[139.58061711011115,35.41736898050604]],[[139.61825431903026,35.43578508486307],[139.61827523633792,35.435748875456156]],[[139.61827523633792,35.435748875456156],[139.61856807864518,35.435097106131686]],[[139.58610441715436,35.43643685418755],[139.5867807434354,35.437700562488885],[139.59040641009676,35.43932274391868]],[[139.59040641009676,35.43932274391868],[139.59374620688675,35.43828715488091]],[[139.59374620688675,35.43828715488091],[139.59394840752748,35.43715380044446],[139.5913755786851,35.43405427521253]],[[139.61701322544235,35.437874367642074],[139.6164414856996,35.43857683013623]],[[139.6181915671073,35.439145317824796],[139.61850532672221,35.438395783101655]],[[139.59229594022221,35.427724870883765],[139.58945118638022,35.43037902041065],[139.58969522163628,35.431009064090965]],[[139.59211465688912,35.432616761758],[139.59315354983633,35.43237415873167]],[[139.59315354983633,35.43237415873167],[139.593111715221,35.43050213239415],[139.5945828991932,35.42986484683245]],[[139.5828692069027,35.41700688643689],[139.5829319588257,35.41837560201828]],[[139.58727578638343,35.4192627324877],[139.58846110048424,35.41686204880923]],[[139.58846110048424,35.41686204880923],[139.5870596408709,35.41515296480283]],[[139.59315354983633,35.43237415873167],[139.59638178765212,35.434445336807215],[139.5985153530336,35.436458579831694],[139.59809700688035,35.437276912427976]],[[139.59932415559652,35.43624856527158],[139.60146469341387,35.43422808036572]],[[139.5858743267701,35.41054712824323],[139.58698294407614,35.41298040038792]],[[139.58855174215077,35.4138458052132],[139.59157080688993,35.415525921694055],[139.59304199086213,35.41557661486374]],[[139.59304199086213,35.41557661486374],[139.5913058543262,35.41272693453952],[139.5890398126629,35.41200636734191],[139.58722000689633,35.409707070002796],[139.5858743267701,35.41054712824323]],[[139.5822626049805,35.43468069795216],[139.58500277228418,35.438609418602454],[139.58851687997134,35.441962409682795]],[[139.58851687997134,35.441962409682795],[139.59040641009676,35.43932274391868]],[[139.5899462293282,35.416709969300186],[139.59290951458027,35.419856566761105]],[[139.59290951458027,35.419856566761105],[139.59514766650008,35.421102170358985],[139.59677224406178,35.42012813731297]],[[139.59548234342265,35.41824524815338],[139.59460381650086,35.41753916471854]],[[139.59460381650086,35.41753916471854],[139.59315354983633,35.41829232038237],[139.5899462293282,35.416709969300186]],[[139.61953027479763,35.43608200199978],[139.61827523633792,35.435748875456156]],[[139.59919167931466,35.41588439482252],[139.59982617098038,35.41679325093609]],[[139.60094176072235,35.411039576177274],[139.59919167931466,35.41093094795653],[139.59723939726624,35.41236121952968],[139.59919167931466,35.41588439482252]],[[139.61258572865398,35.43230536085853],[139.61510277800926,35.434546723146575]],[[139.59795058572672,35.42090663956164],[139.59794361329085,35.42091388144303]],[[139.5978041645731,35.42189877731112],[139.59525922547428,35.423604240376825]],[[139.620806230565,35.436809811078774],[139.62236108376783,35.43750503169154]],[[139.62236108376783,35.43750503169154],[139.62257025684445,35.43711759103755]],[[139.58846110048424,35.41686204880923],[139.5899462293282,35.416709969300186]],[[139.59460381650086,35.41753916471854],[139.59304199086213,35.41557661486374]],[[139.61200701647533,35.43294988830162],[139.6143567273693,35.43497399414817]],[[139.59115943317258,35.42130132209702],[139.59290951458027,35.419856566761105]],[[139.62218677287066,35.43781281165032],[139.62236108376783,35.43750503169154]],[[139.6164484581355,35.437305879953506],[139.61715267416008,35.43749416886947]],[[139.6144125068564,35.43512245271653],[139.61113546198942,35.43404341239046]],[[139.59919167931466,35.41588439482252],[139.59562876457628,35.41641667310417],[139.59527317034605,35.41517469044698],[139.59304199086213,35.41557661486374]],[[139.57696355370624,35.42232966925341],[139.57343550114732,35.42192050295527],[139.57059074730535,35.42372735236034],[139.57002597999846,35.42590715865663],[139.57476026396589,35.42580939325796],[139.5739305440953,35.42427773534544],[139.5761198889639,35.42427773534544]],[[139.62132219082065,35.44212535201391],[139.6225005324856,35.441140456145824]],[[139.5858743267701,35.41054712824323],[139.58579065753943,35.41137270272089],[139.5814468299817,35.412734176420905],[139.58113307036677,35.413657516297235]],[[139.58851687997134,35.441962409682795],[139.59168236586413,35.44171256477508],[139.5935091440666,35.44038730048199],[139.59608894534483,35.439978134183846]],[[139.59666068508758,35.437928681752446],[139.59374620688675,35.43828715488091]],[[139.59948452162192,35.43937343708836],[139.60095570559412,35.44006141581975],[139.60288009789898,35.43853337884793]],[[139.60365403828246,35.436824294841536],[139.60323569212923,35.43460103725695]]]}