{"type":"Topology","bbox":[139.60301500393732,35.4420501401041,139.64594665922203,35.47227586335583],"objects":{"town":{"type":"GeometryCollection","geometries":[{"type":"MultiPolygon","arcs":[[[-173,1,-13,-74,-117,173,-133,-158,174,-159,3,-108,5,6,7]]],"properties":{"name":"桜木町"}},{"type":"MultiPolygon","arcs":[[[177,-66,-44,-43,-142,-115,9,10,72,73,12,-2,172,-8]]],"properties":{"name":"花咲町"}},{"type":"MultiPolygon","arcs":[[[-122,143,-26,15,16,13,-61,142,-80,17,18,19,20,21,22,23]]],"properties":{"name":"西戸部町"}},{"type":"MultiPolygon","arcs":[[[-151,-138,27,28,29,30,-16,25,-144,121,-24,-48,122,123]]],"properties":{"name":"伊勢町"}},{"type":"MultiPolygon","arcs":[[[32,33,-22,-21,-129]]],"properties":{"name":"西前町"}},{"type":"Polygon","arcs":[[34,35,36]],"properties":{"name":"東ケ丘"}},{"type":"Polygon","arcs":[[37,38,39,40,41,42,43]],"properties":{"name":"紅葉ケ丘"}},{"type":"MultiPolygon","arcs":[[[125,126,127,45,46,47,-23,-34,-33,128,-20]]],"properties":{"name":"中央"}},{"type":"MultiPolygon","arcs":[[[-11,-10,114,141,-42,-41,-40,-39,-65,-76,-30,-29,-28,137,138,140,112,113,51,115,116,-73]]],"properties":{"name":"戸部町"}},{"type":"MultiPolygon","arcs":[[[-137,57,53,54,55,197,-68]]],"properties":{"name":"北幸"}},{"type":"Polygon","arcs":[[58,59,60,-14,61,62]],"properties":{"name":"霞ケ丘"}},{"type":"Polygon","arcs":[[63,64,-38,65,66]],"properties":{"name":"宮崎町"}},{"type":"MultiPolygon","arcs":[[[134,135,-58,136,67,68,69,70,-131]]],"properties":{"name":"南幸"}},{"type":"Polygon","arcs":[[74,-62,-17,-31,75,-64,76,-36]],"properties":{"name":"老松町"}},{"type":"MultiPolygon","arcs":[[[-18,79,80,77,-193,-181,-126,-19]]],"properties":{"name":"藤棚町"}},{"type":"Polygon","arcs":[[81,82,83,84,85,86,87]],"properties":{"name":"西平沼町"}},{"type":"Polygon","arcs":[[88,89,90]],"properties":{"name":"東久保町"}},{"type":"MultiPolygon","arcs":[[[-145,198,106,-6,107,-4,158,159,-191,91,92,-146]]],"properties":{"name":"みなとみらい"}},{"type":"MultiPolygon","arcs":[[[194,97,195,-121,-120,-119,-102,164,-54,-136,165,162,-190,-189,99,95,-167]]],"properties":{"name":"浅間町"}},{"type":"Polygon","arcs":[[100,101,102,103,104,105]],"properties":{"name":"宮ケ谷"}},{"type":"Polygon","arcs":[[117,-103,118,119,120]],"properties":{"name":"浅間台"}},{"type":"MultiPolygon","arcs":[[[-184,-87,-86,130,-71,131,132,133,-188,-46,-128]]],"properties":{"name":"平沼"}},{"type":"Polygon","arcs":[[144,145,-93,146,147,148]],"properties":{"name":""}},{"type":"Polygon","arcs":[[-63,-75,-35,149]],"properties":{"name":"赤門町"}},{"type":"Polygon","arcs":[[-139,150,-124,151,-113,-141]],"properties":{"name":"御所山町"}},{"type":"Polygon","arcs":[[-91,152,153,154]],"properties":{"name":"元久保町"}},{"type":"MultiPolygon","arcs":[[[-175,157,-132,-70,155,-148,-147,-92,190,-160]]],"properties":{"name":"高島"}},{"type":"Polygon","arcs":[[166,-96,167,-83,168]],"properties":{"name":"南浅間町"}},{"type":"Polygon","arcs":[[-105,169,170]],"properties":{"name":"北軽井沢"}},{"type":"Polygon","arcs":[[-106,-171,175,176]],"properties":{"name":"南軽井沢"}},{"type":"Polygon","arcs":[[-154,178,-81,-143,-60,179]],"properties":{"name":"境之谷"}},{"type":"Polygon","arcs":[[180,181,182,-88,183,-127]],"properties":{"name":"浜松町"}},{"type":"MultiPolygon","arcs":[[[-168,-100,188,189,-163,-166,-135,-85,-84]]],"properties":{"name":"岡野"}},{"type":"Polygon","arcs":[[-123,-47,187,-134,-174,-116,-52,-114,-152]],"properties":{"name":"戸部本町"}},{"type":"Polygon","arcs":[[-153,-90,191,-182,192,-78,-179]],"properties":{"name":"久保町"}},{"type":"Polygon","arcs":[[-101,-177,193,-55,-165]],"properties":{"name":"楠町"}}]}},"arcs":[[[139.62664695020064,35.45631810827574],[139.6259513878288,35.45586467708384]],[[139.6259513878288,35.45586467708384],[139.625023971333,35.457043598182764]],[[139.625023971333,35.457043598182764],[139.6256980657304,35.45742145750935]],[[139.6256980657304,35.45742145750935],[139.62664695020064,35.45631810827574]],[[139.62694320824792,35.454619252743434],[139.62768170656864,35.45503036369075]],[[139.62768170656864,35.45503036369075],[139.62876369248042,35.453691230237354]],[[139.62876369248042,35.453691230237354],[139.62866923339288,35.45238232553009]],[[139.62866923339288,35.45238232553009],[139.62694320824792,35.454619252743434]],[[139.6259513878288,35.45586467708384],[139.62551773474513,35.45565912161018]],[[139.62551773474513,35.45565912161018],[139.62433699615093,35.45675642509457]],[[139.62433699615093,35.45675642509457],[139.6238475263337,35.457442617631635]],[[139.6238475263337,35.457442617631635],[139.62447009759245,35.457750950842126]],[[139.62447009759245,35.457750950842126],[139.625023971333,35.457043598182764]],[[139.62139159005778,35.44504580884522],[139.6181413387276,35.44628821031102]],[[139.6181413387276,35.44628821031102],[139.6199317677959,35.448367948044506],[139.6198201343288,35.44985520235392],[139.6226710813344,35.45000332320994]],[[139.6226710813344,35.45000332320994],[139.6232034871005,35.449571052140335]],[[139.6232034871005,35.449571052140335],[139.62137441567825,35.44789033385571],[139.62269254930885,35.44607963196274],[139.62139159005778,35.44504580884522]],[[139.6169305449692,35.44955593776727],[139.61449607666773,35.44998518596227]],[[139.61449607666773,35.44998518596227],[139.6142899841131,35.45094041433986]],[[139.6142899841131,35.45094041433986],[139.61626503776156,35.45198632895583]],[[139.61626503776156,35.45198632895583],[139.61683608588166,35.452222113175615]],[[139.61683608588166,35.452222113175615],[139.61729550053468,35.45292946583497]],[[139.61729550053468,35.45292946583497],[139.61808122839918,35.45298992332722]],[[139.61808122839918,35.45298992332722],[139.618931360187,35.45258183525452]],[[139.618931360187,35.45258183525452],[139.61779785113657,35.44938363391435],[139.6169305449692,35.44955593776727]],[[139.6226710813344,35.45000332320994],[139.6217093160795,35.45141802852866]],[[139.6217093160795,35.45141802852866],[139.62272689806795,35.45237627978086]],[[139.62272689806795,35.45237627978086],[139.62278271480147,35.45188959696823]],[[139.62278271480147,35.45188959696823],[139.6243885192896,35.45084065947764]],[[139.6243885192896,35.45084065947764],[139.6244185744538,35.45057464651173]],[[139.6244185744538,35.45057464651173],[139.6232034871005,35.449571052140335]],[[139.61683608588166,35.452222113175615],[139.61662999332705,35.45237325690625]],[[139.61662999332705,35.45237325690625],[139.61673733319924,35.45261810974987]],[[139.61673733319924,35.45261810974987],[139.61729550053468,35.45292946583497]],[[139.62268825571394,35.442975139735566],[139.62068314690129,35.44388200211936]],[[139.62068314690129,35.44388200211936],[139.62350833233756,35.444522851537236],[139.6235984978302,35.44528461593962],[139.62639362810225,35.44608567771197]],[[139.62639362810225,35.44608567771197],[139.62562507461732,35.44361901202806],[139.62385181992857,35.44237661056226],[139.62268825571394,35.442975139735566]],[[139.6280552493239,35.452122358313396],[139.6252729998365,35.45062603538015]],[[139.6252729998365,35.45062603538015],[139.62511413682566,35.45092227709218]],[[139.62511413682566,35.45092227709218],[139.62468477733685,35.452240250423294]],[[139.62468477733685,35.452240250423294],[139.62457743746467,35.45366100149123]],[[139.62457743746467,35.45366100149123],[139.6257324144895,35.4544681090128]],[[139.6257324144895,35.4544681090128],[139.62583975436172,35.4543471940283]],[[139.62583975436172,35.4543471940283],[139.6280552493239,35.452122358313396]],[[139.61673733319924,35.45261810974987],[139.61426422254377,35.456194170416616]],[[139.61426422254377,35.456194170416616],[139.6176132265564,35.457424480383956]],[[139.6176132265564,35.457424480383956],[139.61935642608088,35.45525405641209]],[[139.61935642608088,35.45525405641209],[139.61808122839918,35.45298992332722]],[[139.62278271480147,35.45188959696823],[139.62468477733685,35.452240250423294]],[[139.62511413682566,35.45092227709218],[139.6243885192896,35.45084065947764]],[[139.62433699615093,35.45675642509457],[139.62342675403468,35.456194170416616]],[[139.62342675403468,35.456194170416616],[139.62282565075037,35.45711917004808]],[[139.62282565075037,35.45711917004808],[139.6238475263337,35.457442617631635]],[[139.6145390126166,35.464301520127705],[139.61337974199685,35.465305114499095]],[[139.61337974199685,35.465305114499095],[139.61641101998777,35.46838542372937]],[[139.61641101998777,35.46838542372937],[139.61738995962222,35.46830682898944]],[[139.61738995962222,35.46830682898944],[139.61843330317998,35.46566181370339]],[[139.61843330317998,35.46566181370339],[139.6145390126166,35.464301520127705]],[[139.61960974817927,35.44261844053128],[139.6152474557731,35.44432031893819]],[[139.6152474557731,35.44432031893819],[139.61713234392894,35.446091723461194]],[[139.61713234392894,35.446091723461194],[139.6181413387276,35.44628821031102]],[[139.62139159005778,35.44504580884522],[139.62065309173707,35.44389711649242]],[[139.62065309173707,35.44389711649242],[139.61960974817927,35.44261844053128]],[[139.626595427062,35.44920830718682],[139.6257753504384,35.4498491566047]],[[139.6257753504384,35.4498491566047],[139.6252729998365,35.45062603538015]],[[139.6280552493239,35.452122358313396],[139.62824846109385,35.45219793017871]],[[139.62824846109385,35.45219793017871],[139.62812394684212,35.44903902620851],[139.626595427062,35.44920830718682]],[[139.6186479829244,35.4657373855687],[139.62251221832355,35.467702254066914]],[[139.62251221832355,35.467702254066914],[139.62353409390687,35.46758436195702]],[[139.62353409390687,35.46758436195702],[139.61972138164637,35.4632707198848]],[[139.61972138164637,35.4632707198848],[139.61945088516842,35.46326769701018]],[[139.61945088516842,35.46326769701018],[139.6186479829244,35.4657373855687]],[[139.6238475263337,35.457442617631635],[139.62274836604237,35.45848248649838]],[[139.62274836604237,35.45848248649838],[139.62447009759245,35.457750950842126]],[[139.62068314690129,35.44388200211936],[139.62065309173707,35.44389711649242]],[[139.6244185744538,35.45057464651173],[139.6257753504384,35.4498491566047]],[[139.626595427062,35.44920830718682],[139.62639362810225,35.44608567771197]],[[139.61149914743592,35.4462851874364],[139.61187698378606,35.44801124884022]],[[139.61187698378606,35.44801124884022],[139.61449607666773,35.44998518596227]],[[139.6169305449692,35.44955593776727],[139.6161104683456,35.44755479477371]],[[139.6161104683456,35.44755479477371],[139.6135042562486,35.44735226217466],[139.61355148579236,35.44605847184045],[139.61149914743592,35.4462851874364]],[[139.60830471283927,35.45312897555941],[139.60727425006618,35.45363984136894]],[[139.60727425006618,35.45363984136894],[139.60932229482773,35.454564841000405],[139.61115136625,35.4576481731053]],[[139.61115136625,35.4576481731053],[139.61513152871115,35.46031737138825]],[[139.61513152871115,35.46031737138825],[139.61819286186625,35.46196786092675]],[[139.61819286186625,35.46196786092675],[139.61652265345484,35.45994253493628]],[[139.61652265345484,35.45994253493628],[139.61316935584733,35.45626369653271],[139.6107263003561,35.45448926913509]],[[139.6107263003561,35.45448926913509],[139.60830471283927,35.45312897555941]],[[139.6041571001775,35.446155203828056],[139.60409698984907,35.44967987562639],[139.60505875510398,35.449924728470016]],[[139.60505875510398,35.449924728470016],[139.6104686846628,35.448742784496474],[139.61023683053887,35.44743690266382]],[[139.61023683053887,35.44743690266382],[139.6046551571845,35.44537832505261],[139.6041571001775,35.446155203828056]],[[139.62635069215338,35.46251802410625],[139.62689168510926,35.46427129138158]],[[139.62689168510926,35.46427129138158],[139.63007753251614,35.466471944099574],[139.63206546694926,35.4668135289308],[139.63349523404696,35.46427431425619]],[[139.63349523404696,35.46427431425619],[139.63273526775177,35.46259359597156]],[[139.63273526775177,35.46259359597156],[139.62635069215338,35.46251802410625]],[[139.61015954583087,35.4583192512693],[139.6078667661607,35.458134855917926]],[[139.6078667661607,35.458134855917926],[139.60602910754866,35.45814997029099]],[[139.60602910754866,35.45814997029099],[139.6055911608701,35.46066197909409]],[[139.6055911608701,35.46066197909409],[139.61025829851332,35.4599455578109]],[[139.61025829851332,35.4599455578109],[139.61015954583087,35.4583192512693]],[[139.6114046883484,35.466088039023774],[139.61154208338482,35.46591271229624]],[[139.61154208338482,35.46591271229624],[139.61031411524684,35.46597316978849]],[[139.61031411524684,35.46597316978849],[139.6061235666362,35.46704931315059],[139.60456928528674,35.46655658458873]],[[139.60456928528674,35.46655658458873],[139.6041313386082,35.46778689455607],[139.60712826783998,35.46976990030196]],[[139.60712826783998,35.46976990030196],[139.60964431444432,35.46847308709314]],[[139.60964431444432,35.46847308709314],[139.6114046883484,35.466088039023774]],[[139.63043390089183,35.454298828034496],[139.62876369248042,35.453691230237354]],[[139.62768170656864,35.45503036369075],[139.62664695020064,35.45631810827574]],[[139.62664695020064,35.45631810827574],[139.63355105078048,35.460048335547725]],[[139.63355105078048,35.460048335547725],[139.6350495153964,35.45811369579564]],[[139.6350495153964,35.45811369579564],[139.62971687054554,35.45519964466906],[139.63043390089183,35.454298828034496]],[[139.62575388246395,35.4549215402047],[139.62414807797586,35.455226850540576]],[[139.62414807797586,35.455226850540576],[139.62368866332284,35.4557588764724]],[[139.62368866332284,35.4557588764724],[139.62342675403468,35.456194170416616]],[[139.62551773474513,35.45565912161018],[139.62575388246395,35.4549215402047]],[[139.62282565075037,35.45711917004808],[139.62161056339707,35.45843412050458]],[[139.62161056339707,35.45843412050458],[139.62274836604237,35.45848248649838]],[[139.60528631563304,35.46201320404594],[139.60456928528674,35.46655658458873]],[[139.61031411524684,35.46597316978849],[139.61040857433437,35.46474588269576]],[[139.61040857433437,35.46474588269576],[139.60843352068594,35.4635337099761]],[[139.60843352068594,35.4635337099761],[139.60528631563304,35.46201320404594]],[[139.62027096179202,35.45205585507192],[139.618931360187,35.45258183525452]],[[139.61935642608088,35.45525405641209],[139.61954534425595,35.45509384405762]],[[139.61954534425595,35.45509384405762],[139.62055004545974,35.45344637739373]],[[139.62055004545974,35.45344637739373],[139.62027096179202,35.45205585507192]],[[139.6142899841131,35.45094041433986],[139.6132552277451,35.45092227709218]],[[139.6132552277451,35.45092227709218],[139.6126884732199,35.45442881164284],[139.61173529515477,35.45460111549576]],[[139.61173529515477,35.45460111549576],[139.61426422254377,35.456194170416616]],[[139.61662999332705,35.45237325690625],[139.61626503776156,35.45198632895583]],[[139.61836889925667,35.45770258484832],[139.61652265345484,35.45994253493628]],[[139.61819286186625,35.46196786092675],[139.61945088516842,35.46326769701018]],[[139.61972138164637,35.4632707198848],[139.6210996256054,35.46322235389099],[139.6223490617178,35.459749070961074]],[[139.6223490617178,35.459749070961074],[139.62129713097025,35.45883011707883]],[[139.62129713097025,35.45883011707883],[139.61836889925667,35.45770258484832]],[[139.61819286186625,35.46196786092675],[139.61424704816423,35.464120147650945]],[[139.61424704816423,35.464120147650945],[139.6145390126166,35.464301520127705]],[[139.61843330317998,35.46566181370339],[139.6186479829244,35.4657373855687]],[[139.62272689806795,35.45237627978086],[139.62264961335995,35.45343126302067]],[[139.62264961335995,35.45343126302067],[139.62291581624302,35.4533919656507]],[[139.62291581624302,35.4533919656507],[139.62457743746467,35.45366100149123]],[[139.62291581624302,35.4533919656507],[139.62414807797586,35.455226850540576]],[[139.62575388246395,35.4549215402047],[139.6257324144895,35.4544681090128]],[[139.61713234392894,35.446091723461194],[139.6161104683456,35.44755479477371]],[[139.62027096179202,35.45205585507192],[139.6217093160795,35.45141802852866]],[[139.6328383140291,35.4524578973954],[139.63334495822588,35.45405095231626],[139.63641917216566,35.456330199774186]],[[139.63641917216566,35.456330199774186],[139.6380850869822,35.45725822228027],[139.63830835391636,35.46210993603354],[139.6393602846639,35.463775539945104],[139.63475325734913,35.463766471321264],[139.63349523404696,35.46427431425619]],[[139.62689168510926,35.46427129138158],[139.62415666516563,35.463279788508636]],[[139.62415666516563,35.463279788508636],[139.62635927934315,35.46469147095273],[139.62632493058405,35.46571924832103]],[[139.62632493058405,35.46571924832103],[139.6317262729531,35.46742112672794],[139.6345815135536,35.464476846855234],[139.64401883511735,35.46431361162615],[139.64594665922203,35.46047758374272],[139.64250319612188,35.45910519866858],[139.63556474678293,35.455556343873354],[139.6328383140291,35.4524578973954]],[[139.62268825571394,35.442975139735566],[139.62157621463797,35.4420501401041],[139.61960974817927,35.44261844053128]],[[139.62264961335995,35.45343126302067],[139.62055004545974,35.45344637739373]],[[139.61954534425595,35.45509384405762],[139.62368866332284,35.4557588764724]],[[139.61023683053887,35.44743690266382],[139.61102685199825,35.44464981227097]],[[139.61102685199825,35.44464981227097],[139.61124582533753,35.44327440432222]],[[139.61124582533753,35.44327440432222],[139.604483413389,35.44318674095845],[139.60316098616352,35.44467701814248],[139.6041571001775,35.446155203828056]],[[139.62353409390687,35.46758436195702],[139.62632493058405,35.46571924832103]],[[139.62415666516563,35.463279788508636],[139.6239205174468,35.46027202826906]],[[139.6239205174468,35.46027202826906],[139.6223490617178,35.459749070961074]],[[139.6256980657304,35.45742145750935],[139.62480070439884,35.458845231451896]],[[139.62480070439884,35.458845231451896],[139.6262777010403,35.46035062300899]],[[139.6262777010403,35.46035062300899],[139.6328297268393,35.461305851386584]],[[139.6328297268393,35.461305851386584],[139.63355105078048,35.460048335547725]],[[139.61260260132212,35.46341279499159],[139.61252102301927,35.463373497621625]],[[139.61252102301927,35.463373497621625],[139.61040857433437,35.46474588269576]],[[139.61154208338482,35.46591271229624],[139.61337974199685,35.465305114499095]],[[139.61424704816423,35.464120147650945],[139.61260260132212,35.46341279499159]],[[139.6053034900126,35.45489433433318],[139.6078667661607,35.458134855917926]],[[139.61015954583087,35.4583192512693],[139.61115136625,35.4576481731053]],[[139.60727425006618,35.45363984136894],[139.6053034900126,35.45489433433318]],[[139.60712826783998,35.46976990030196],[139.6068019546285,35.470407726845224],[139.61109984311133,35.47227586335583],[139.6146463524888,35.472055193509114],[139.6147107564121,35.47052864182973]],[[139.6147107564121,35.47052864182973],[139.60964431444432,35.46847308709314]],[[139.62694320824792,35.454619252743434],[139.62583975436172,35.4543471940283]],[[139.6259513878288,35.45586467708384],[139.62694320824792,35.454619252743434]],[[139.62161056339707,35.45843412050458],[139.62129713097025,35.45883011707883]],[[139.6239205174468,35.46027202826906],[139.62480070439884,35.458845231451896]],[[139.6147107564121,35.47052864182973],[139.61650977267018,35.46931042336084]],[[139.61650977267018,35.46931042336084],[139.61353001781794,35.468448904096235],[139.6114046883484,35.466088039023774]],[[139.62866923339288,35.45238232553009],[139.62824846109385,35.45219793017871]],[[139.61102685199825,35.44464981227097],[139.61149914743592,35.4462851874364]],[[139.6152474557731,35.44432031893819],[139.61124582533753,35.44327440432222]],[[139.6132552277451,35.45092227709218],[139.6115377897899,35.45156010363545]],[[139.6115377897899,35.45156010363545],[139.60846786944504,35.45304131219564]],[[139.60846786944504,35.45304131219564],[139.60830471283927,35.45312897555941]],[[139.6107263003561,35.45448926913509],[139.61173529515477,35.45460111549576]],[[139.63641917216566,35.456330199774186],[139.6350495153964,35.45811369579564]],[[139.6328297268393,35.461305851386584],[139.63273526775177,35.46259359597156]],[[139.61513152871115,35.46031737138825],[139.61260260132212,35.46341279499159]],[[139.6176132265564,35.457424480383956],[139.61836889925667,35.45770258484832]],[[139.61025829851332,35.4599455578109],[139.610653309243,35.46194670080446]],[[139.610653309243,35.46194670080446],[139.61252102301927,35.463373497621625]],[[139.62635069215338,35.46251802410625],[139.6262777010403,35.46035062300899]],[[139.60505875510398,35.449924728470016],[139.6046251020203,35.45086181959993],[139.60846786944504,35.45304131219564]],[[139.6115377897899,35.45156010363545],[139.61106978794712,35.450015414708396],[139.61187698378606,35.44801124884022]],[[139.61650977267018,35.46931042336084],[139.61641101998777,35.46838542372937]],[[139.6053034900126,35.45489433433318],[139.60602910754866,35.45814997029099]],[[139.6055911608701,35.46066197909409],[139.60528631563304,35.46201320404594]],[[139.60843352068594,35.4635337099761],[139.610653309243,35.46194670080446]],[[139.61738995962222,35.46830682898944],[139.62251221832355,35.467702254066914]],[[139.6328383140291,35.4524578973954],[139.63043390089183,35.454298828034496]]]}