{"type":"Topology","bbox":[139.6215774627663,35.39121815344301,139.71609277405818,35.460477768485916],"objects":{"town":{"type":"GeometryCollection","geometries":[{"type":"Polygon","arcs":[[0,1,2,3,4,5,6,7,8,9,10]],"properties":{"name":"横浜公園"}},{"type":"MultiPolygon","arcs":[[[16,17,18,25,26,27,95,12,13,89,87,88,15,94,29,20,21,22]]],"properties":{"name":"海岸通"}},{"type":"MultiPolygon","arcs":[[[-22,92,24,93]]],"properties":{"name":"新港"}},{"type":"MultiPolygon","arcs":[[[47,149,31,32,-40,55,59,-129,-43,-124,61,57,58,54,34,150,49,50,51,52,53]]],"properties":{"name":"弁天通"}},{"type":"MultiPolygon","arcs":[[[-84,-82,157,126,127,36,37,75,76,129,-118,130,-44,128,-60,-56,39,-33,-32,-150,-48,-54]]],"properties":{"name":"太田町"}},{"type":"MultiPolygon","arcs":[[[-85,-52,-143,71,72,-67,-69,-63,-66,-123,-125,41,42,43,44,45,46,-152,-140,137,-133,-155,-100,74,69,-103]]],"properties":{"name":"本町"}},{"type":"MultiPolygon","arcs":[[[-50,-151,-35,-55,-59,-58,-62,123,-42,124,122,65,62,68,66,-73,-72,142,-51]]],"properties":{"name":"南仲通"}},{"type":"MultiPolygon","arcs":[[[-130,-77,-76,-38,-37,-128,-127,-158,81,78,-10,79,-254,-146,251,-122,-319,115,116,117]]],"properties":{"name":"相生町"}},{"type":"Polygon","arcs":[[82,-11,-79,83,-53,84,85,86,-18]],"properties":{"name":"日本大通"}},{"type":"MultiPolygon","arcs":[[[-96,-28,-27,-26,-19,-87,90,-104,-70,-102,-154,97,-156,-135,-139,-13]]],"properties":{"name":"元浜町"}},{"type":"MultiPolygon","arcs":[[[-88,-90,-14,138,134,155,-98,153,101,-75,99,154,132,-138,139,151,-47,152]],[[-86,102,103,-91]]],"properties":{"name":"北仲通"}},{"type":"MultiPolygon","arcs":[[[-8,-230,110,111,-223,105,106,-567,-299,-302,-378,-320,-120,108,-144,113,-148]]],"properties":{"name":"常盤町"}},{"type":"MultiPolygon","arcs":[[[-9,147,-114,143,-109,119,319,317,-116,318,121,-252,145,253,-80]]],"properties":{"name":"住吉町"}},{"type":"MultiPolygon","arcs":[[[254,-287,161,173,174,175,176,177,172,163,-274,-354,256]]],"properties":{"name":"末吉町"}},{"type":"MultiPolygon","arcs":[[[-267,-282,257,166,167,521,522,223,224,225,226,-356,164,-190,-247,351,352]]],"properties":{"name":"曙町"}},{"type":"MultiPolygon","arcs":[[[-6,169,170,171]],[[-527,-529,-528,-219,-454,-458,562,563,-221,-317]]],"properties":{"name":"真砂町"}},{"type":"MultiPolygon","arcs":[[[397,-373,181,182,183,184,178,179,395,-440,472,473,474,-447]]],"properties":{"name":"羽衣町"}},{"type":"MultiPolygon","arcs":[[[283,-257,353,-273,-276,186,187,247,248,249,250,191,192,193,595,-260,-530,-455,-184,-467,-375,-449,195,196,245,246,189,-165,355,-227]]],"properties":{"name":"伊勢佐木町"}},{"type":"MultiPolygon","arcs":[[[359,-242,360,200,426,-263,427,425,197,198,-308,358,293]]],"properties":{"name":"野毛町"}},{"type":"MultiPolygon","arcs":[[[-442,205,206,207,202,203,-280,-445,-500,-599,-507]]],"properties":{"name":"万代町"}},{"type":"MultiPolygon","arcs":[[[-236,-264,-427,-201,-361,241,238,208,209,239,-379]]],"properties":{"name":"花咲町"}},{"type":"Polygon","arcs":[[211,212,213,214]],"properties":{"name":"福富町仲通"}},{"type":"MultiPolygon","arcs":[[[-5,-233,-203,-208,-517,216,-179,-185,454,529,-265,234,235,236,237,530,456,457,453,218,527,528,526,-316,-170]]],"properties":{"name":"港町"}},{"type":"MultiPolygon","arcs":[[[-7,-172,-171,315,316,220,-564,-563,-457,-531,-238,300,301,298,566,-107,-106,222,-112,-111,229]]],"properties":{"name":"尾上町"}},{"type":"MultiPolygon","arcs":[[[443,444,279,-204,232,-4,230,276,277,445]]],"properties":{"name":"不老町"}},{"type":"MultiPolygon","arcs":[[[677,678,667,576,408,243,244,-331,-330,-329,-328]]],"properties":{"name":"元町"}},{"type":"Polygon","arcs":[[259,260,-214,261,262,263,-235,264]],"properties":{"name":"吉田町"}},{"type":"MultiPolygon","arcs":[[[-225,-224,-523,-522,-168,-167,-258,281,266,267,268,282,676,632,686]]],"properties":{"name":"弥生町"}},{"type":"MultiPolygon","arcs":[[[-210,270,379,380,376,-45,-131,-117,-318,377,-301,-237,378,-240]]],"properties":{"name":"桜木町"}},{"type":"MultiPolygon","arcs":[[[-249,-248,-188,-187,275,272,273,-164,-173,-178,-177,-659,704]]],"properties":{"name":"若葉町"}},{"type":"MultiPolygon","arcs":[[[-212,-621,-193,-192,-251,-250,-705,658,-176,-504,-489,-358]],[[-197,-448,-475,-474,-506,598,499,-444,465,-362,-312,423,420,421,-385,-384,-697,496,497,599,-268,-353,-352,-246]]],"properties":{"name":"長者町"}},{"type":"MultiPolygon","arcs":[[[-162,286,287,288,289,564,-297]]],"properties":{"name":"黄金町"}},{"type":"MultiPolygon","arcs":[[[-174,296,297,294,501,-310,502,-490,503,-175]]],"properties":{"name":"日ノ出町"}},{"type":"MultiPolygon","arcs":[[[310,311,312,467,409,303,304,305,410,-370,314]]],"properties":{"name":"寿町"}},{"type":"MultiPolygon","arcs":[[[-357,488,489,-503,309,306,307,-199,-198,-426,-428]]],"properties":{"name":"宮川町"}},{"type":"Polygon","arcs":[[320,321,322,323,324,325,326,327,328,329,330,-245,331,332,333,334,335,336,337,338,339,340,341,342,343,344,345,346,347,348,349,350]],"properties":{"name":"山手町"}},{"type":"Polygon","arcs":[[356,-262,-213,357]],"properties":{"name":"福富町西通"}},{"type":"MultiPolygon","arcs":[[[-304,-410,-468,-313,361,362,-472,-649,524,-2]]],"properties":{"name":"扇町"}},{"type":"MultiPolygon","arcs":[[[369,-411,-306,365,366,469,468,371,367,386,387,-315]]],"properties":{"name":"松影町"}},{"type":"MultiPolygon","arcs":[[[374,466,-183,-182,372,-398,446,447,-196,448]]],"properties":{"name":"末広町"}},{"type":"Polygon","arcs":[[381,382,383,384,385]],"properties":{"name":"山田町"}},{"type":"Polygon","arcs":[[388,389,390,391,392,393,394]],"properties":{"name":"本牧間門"}},{"type":"MultiPolygon","arcs":[[[475,476,399,-496,675,-298,-565,-290,-289]]],"properties":{"name":"初音町"}},{"type":"Polygon","arcs":[[401,402,403,404,405,406]],"properties":{"name":"和田山"}},{"type":"Polygon","arcs":[[412,413,414,415,416,417,418,419]],"properties":{"name":"本牧元町"}},{"type":"Polygon","arcs":[[428,429,430,431,432,433]],"properties":{"name":"西之谷町"}},{"type":"MultiPolygon","arcs":[[[435,547,-346,-345,437,480,481,482,-432,-431,712,-671,-698,-572]]],"properties":{"name":"上野町"}},{"type":"MultiPolygon","arcs":[[[516,-207,-206,441,506,505,-473,439,-396,-180,-217]]],"properties":{"name":"蓬莱町"}},{"type":"MultiPolygon","arcs":[[[-615,487,-614,450,451,452,638,639,484,485,-557,-658,711,673,-351,674,-616]]],"properties":{"name":"山元町"}},{"type":"Polygon","arcs":[[-394,458,-403,459,460]],"properties":{"name":"本牧和田"}},{"type":"MultiPolygon","arcs":[[[-326,-325,-324,-323,463,461,-424,-311,-388,-387,-368,-372,-469,647,532,533,700,-678,-327]]],"properties":{"name":"石川町"}},{"type":"MultiPolygon","arcs":[[[648,471,-363,-466,-446,-278,-277,-231,-3,-525]]],"properties":{"name":"翁町"}},{"type":"Polygon","arcs":[[477,-386,-422,478]],"properties":{"name":"千歳町"}},{"type":"Polygon","arcs":[[492,493,494,495,-400,-477]],"properties":{"name":"英町"}},{"type":"Polygon","arcs":[[504,-494]],"properties":{"name":"赤門町"}},{"type":"MultiPolygon","arcs":[[[697,-670,-628,592,-627,507,508,-349,-348,-571,-570,-569]]],"properties":{"name":"麦田町"}},{"type":"MultiPolygon","arcs":[[[692,512,513,-520,-336,-561,589,588,-544,515,510,693]]],"properties":{"name":"小港町"}},{"type":"MultiPolygon","arcs":[[[-337,519,-514,520,517,612,-606,-338]]],"properties":{"name":"北方町"}},{"type":"Polygon","arcs":[[535,536,537,538,539,540]],"properties":{"name":"滝之上"}},{"type":"Polygon","arcs":[[541,542,-516,543,544,545]],"properties":{"name":"本牧十二天"}},{"type":"Polygon","arcs":[[546,-415]],"properties":{"name":"本牧大里町"}},{"type":"Polygon","arcs":[[-540,548,549,550,551]],"properties":{"name":"豆口台"}},{"type":"Polygon","arcs":[[552,553,554,555,556,-486]],"properties":{"name":"大芝台"}},{"type":"MultiPolygon","arcs":[[[-333,679,559,560,-335,-334]]],"properties":{"name":"新山下"}},{"type":"Polygon","arcs":[[568,569,570,-347,-548,-436,571]],"properties":{"name":"妙香寺台"}},{"type":"MultiPolygon","arcs":[[[-341,-340,-339,605,606,603,683,684,574,685,-481,-438,-344,-598,-342]]],"properties":{"name":"千代崎町"}},{"type":"Polygon","arcs":[[-391,577,578,579,-541,-552,580]],"properties":{"name":"根岸加曽台"}},{"type":"Polygon","arcs":[[582,583,584,-404,-459,-393]],"properties":{"name":"本牧荒井"}},{"type":"Polygon","arcs":[[-460,-402,585,-542,586,-417,587]],"properties":{"name":"本牧原"}},{"type":"Polygon","arcs":[[590,591]],"properties":{"name":"南本牧"}},{"type":"Polygon","arcs":[[-479,-421,596]],"properties":{"name":"三吉町"}},{"type":"Polygon","arcs":[[597,-343]],"properties":{"name":"諏訪町"}},{"type":"Polygon","arcs":[[601,-381,602]],"properties":{"name":"内田町"}},{"type":"Polygon","arcs":[[607,-452,608,609,610,611,-549,-539]],"properties":{"name":"仲尾台"}},{"type":"Polygon","arcs":[[-451,613,-488,614,615,616,617,-609]],"properties":{"name":"西竹之丸"}},{"type":"Polygon","arcs":[[618,-555,619]],"properties":{"name":"塚越"}},{"type":"Polygon","arcs":[[-215,-261,-596,-194,620]],"properties":{"name":"福富町東通"}},{"type":"Polygon","arcs":[[-618,621,622,623,624,-610]],"properties":{"name":"竹之丸"}},{"type":"Polygon","arcs":[[-623,625,-508,626,-593,627,628,629]],"properties":{"name":"鷺山"}},{"type":"Polygon","arcs":[[634,635,-434,636,637,-584]],"properties":{"name":"本牧緑ケ丘"}},{"type":"MultiPolygon","arcs":[[[-390,-666,-665,643,640,641,-536,-580,-579,-578]]],"properties":{"name":"根岸町"}},{"type":"Polygon","arcs":[[644,645,-537,-642,646]],"properties":{"name":"根岸旭台"}},{"type":"Polygon","arcs":[[649,-591,650,651,-419,652]],"properties":{"name":"かもめ町"}},{"type":"Polygon","arcs":[[-551,654,-635,-583,-392,-581]],"properties":{"name":"池袋"}},{"type":"Polygon","arcs":[[-619,656,657,-556]],"properties":{"name":"大平町"}},{"type":"Polygon","arcs":[[-389,660,-413,661,662,663,-644,664,665]],"properties":{"name":"千鳥町"}},{"type":"MultiPolygon","arcs":[[[-624,-630,-629,669,670,671,-718]]],"properties":{"name":"大和町"}},{"type":"Polygon","arcs":[[680,681,-553,-485,-640,682]],"properties":{"name":"簑沢"}},{"type":"Polygon","arcs":[[687,-545,-589,688]],"properties":{"name":"本牧ふ頭"}},{"type":"MultiPolygon","arcs":[[[-637,-433,-483,-482,-686,-575,-685,-684,-604,691,-703,707]]],"properties":{"name":"本郷町"}},{"type":"Polygon","arcs":[[694,695,-497,696,-383]],"properties":{"name":"富士見町"}},{"type":"Polygon","arcs":[[-648,-470,-367,698,699,-533]],"properties":{"name":"吉浜町"}},{"type":"MultiPolygon","arcs":[[[715,701,702,-692,-607,-613,-518,-521,-513,-693,-711,-406]]],"properties":{"name":"本牧町"}},{"type":"Polygon","arcs":[[-464,-322,705]],"properties":{"name":"打越"}},{"type":"Polygon","arcs":[[708,-645,709,-681]],"properties":{"name":"寺久保"}},{"type":"Polygon","arcs":[[710,-694,-511,-543,-586,-407]],"properties":{"name":"本牧宮原"}},{"type":"Polygon","arcs":[[-414,-661,-395,-461,-588,-416,-547]],"properties":{"name":"本牧三之谷"}},{"type":"Polygon","arcs":[[-498,-696,713,-269,-600]],"properties":{"name":"山吹町"}},{"type":"Polygon","arcs":[[714,-653,-418,-587,-546,-688]],"properties":{"name":"錦町"}},{"type":"Polygon","arcs":[[-585,-638,-708,-702,-716,-405]],"properties":{"name":"本牧満坂"}},{"type":"Polygon","arcs":[[716,-611,-625,717,-672,-713,-430]],"properties":{"name":"立野"}},{"type":"Polygon","arcs":[[718,-662,-420,-652]],"properties":{"name":"豊浦町"}},{"type":"Polygon","arcs":[[-453,-608,-538,-646,-709,-683,-639]],"properties":{"name":"根岸台"}},{"type":"Polygon","arcs":[[-550,-612,-717,-429,-636,-655]],"properties":{"name":"矢口台"}},{"type":"Polygon","arcs":[[-622,-617,-675,-350,-509,-626]],"properties":{"name":"柏葉"}},{"type":"Polygon","arcs":[[-699,-366,-305,-1,-83,-17,720]],"properties":{"name":"山下町"}},{"type":"Polygon","arcs":[[-663,-719,-651,-592,-650,-715,-689,-590,-560,-680,-332,-244,-409,-577,-668,-679,-701,-534,-700,-721,-23,-94,-25,-93,-21,-30,-95,-16,-89,-153,-46,-377,-602,721]],"properties":{"name":""}}]}},"arcs":[[[139.64231619593707,35.44432481096216],[139.6402555560869,35.4416857557235]],[[139.6402555560869,35.4416857557235],[139.6392063312091,35.442129061590364]],[[139.6392063312091,35.442129061590364],[139.63856356281548,35.44239920110298]],[[139.63856356281548,35.44239920110298],[139.6379302468982,35.44268319392394]],[[139.6379302468982,35.44268319392394],[139.63884713710678,35.4438815050953]],[[139.63884713710678,35.4438815050953],[139.63906454406344,35.444123937991236]],[[139.63906454406344,35.444123937991236],[139.63918742625634,35.44427632438297]],[[139.63918742625634,35.44427632438297],[139.63958443026416,35.444781970137356]],[[139.63958443026416,35.444781970137356],[139.63999088674836,35.445294542545916]],[[139.63999088674836,35.445294542545916],[139.64013267389402,35.44546770890016]],[[139.64013267389402,35.44546770890016],[139.64231619593707,35.44432481096216]],[[139.63967895502793,35.45093976569423],[139.63898892425243,35.449942327493794]],[[139.63898892425243,35.449942327493794],[139.63786407956357,35.45048260651903]],[[139.63786407956357,35.45048260651903],[139.6382138211895,35.450946692348396]],[[139.6382138211895,35.450946692348396],[139.63900782920518,35.4519302772405]],[[139.63900782920518,35.4519302772405],[139.63967895502793,35.45093976569423]],[[139.64567182505084,35.44805135090546],[139.64451862293288,35.44755955845941]],[[139.64451862293288,35.44755955845941],[139.64235400584258,35.44832841707225]],[[139.64235400584258,35.44832841707225],[139.64117244629546,35.448903329368335]],[[139.64117244629546,35.448903329368335],[139.64215550383867,35.44976223448538]],[[139.64215550383867,35.44976223448538],[139.64208933650403,35.451015958890096]],[[139.64208933650403,35.451015958890096],[139.64239181574808,35.45107137212345]],[[139.64239181574808,35.45107137212345],[139.64467931503128,35.448508510080664],[139.6487438798733,35.45378662055798],[139.64954734036533,35.453239414878574],[139.64567182505084,35.44805135090546]],[[139.6420231691694,35.4551303914669],[139.63914961635084,35.45199261712803]],[[139.63914961635084,35.45199261712803],[139.63776010232343,35.4530039086368],[139.6337333473869,35.452858448899235],[139.6365123754417,35.453461067812],[139.63526464855994,35.45453469920831],[139.63852575290997,35.45681356843014],[139.6406714650475,35.45589925007974],[139.64252415041736,35.457804079976405],[139.6432803485275,35.45665425538424],[139.6420231691694,35.4551303914669]],[[139.64117244629546,35.448903329368335],[139.64117244629546,35.44889640271416]],[[139.64117244629546,35.44889640271416],[139.640057054083,35.449429755085234]],[[139.640057054083,35.449429755085234],[139.64012322141764,35.44952672824361]],[[139.64012322141764,35.44952672824361],[139.6406620125711,35.45044797324818]],[[139.6406620125711,35.45044797324818],[139.64215550383867,35.44976223448538]],[[139.63886604205953,35.44782969797203],[139.63865808757924,35.44754570515107]],[[139.63865808757924,35.44754570515107],[139.63857301529185,35.44742795203019]],[[139.63857301529185,35.44742795203019],[139.63746707555575,35.447912817822065]],[[139.63746707555575,35.447912817822065],[139.63778845975256,35.44828685714723]],[[139.63778845975256,35.44828685714723],[139.63886604205953,35.44782969797203]],[[139.63746707555575,35.447912817822065],[139.63717404878807,35.44753185184273]],[[139.63717404878807,35.44753185184273],[139.63713623888256,35.447483365263544]],[[139.63713623888256,35.447483365263544],[139.63609646648112,35.44803749759712]],[[139.63609646648112,35.44803749759712],[139.63637058829605,35.4484323168848]],[[139.63637058829605,35.4484323168848],[139.63746707555575,35.447912817822065]],[[139.63599248924098,35.45021246700641],[139.63592632190634,35.44963755471032]],[[139.63592632190634,35.44963755471032],[139.6357372723788,35.44935356188937]],[[139.6357372723788,35.44935356188937],[139.6344706405443,35.44971374790619]],[[139.6344706405443,35.44971374790619],[139.6333741532846,35.44983150102708]],[[139.6333741532846,35.44983150102708],[139.63338360576097,35.44993540083962]],[[139.63338360576097,35.44993540083962],[139.6335726552885,35.45141077817777]],[[139.6335726552885,35.45141077817777],[139.63599248924098,35.45021246700641]],[[139.6396505975988,35.446825333117424],[139.63967895502793,35.44688074635078]],[[139.63967895502793,35.44688074635078],[139.6399719817956,35.447275565638456]],[[139.6399719817956,35.447275565638456],[139.6400192441775,35.44734483218015]],[[139.6400192441775,35.44734483218015],[139.640709274953,35.44713010590089]],[[139.640709274953,35.44713010590089],[139.64100230172068,35.44661753349233]],[[139.64100230172068,35.44661753349233],[139.64072817990575,35.44625734747551]],[[139.64072817990575,35.44625734747551],[139.6396505975988,35.446825333117424]],[[139.63786407956357,35.44840461026811],[139.63778845975256,35.44828685714723]],[[139.63637058829605,35.4484323168848],[139.63641785067793,35.448508510080664]],[[139.63641785067793,35.448508510080664],[139.6365501853472,35.448723236359925]],[[139.6365501853472,35.448723236359925],[139.63672978239836,35.448972595910035]],[[139.63672978239836,35.448972595910035],[139.63786407956357,35.44840461026811]],[[139.63641785067793,35.448508510080664],[139.63548205551663,35.44899337587254]],[[139.63548205551663,35.44899337587254],[139.63558603275678,35.44917346888095]],[[139.63558603275678,35.44917346888095],[139.6365501853472,35.448723236359925]],[[139.63815710633125,35.44878557624745],[139.63799641423284,35.44857777662236]],[[139.63799641423284,35.44857777662236],[139.63786407956357,35.44840461026811]],[[139.63672978239836,35.448972595910035],[139.63693773687865,35.44926351538516]],[[139.63693773687865,35.44926351538516],[139.63815710633125,35.44878557624745]],[[139.63913071139808,35.448196810643026],[139.6390361866343,35.44805827755963]],[[139.6390361866343,35.44805827755963],[139.63886604205953,35.44782969797203]],[[139.63799641423284,35.44857777662236],[139.63913071139808,35.448196810643026]],[[139.64043515313807,35.44851543673483],[139.6407470848585,35.4483630503431]],[[139.6407470848585,35.4483630503431],[139.64031227094517,35.44773965146783]],[[139.64031227094517,35.44773965146783],[139.64028391351604,35.447698091542804]],[[139.64028391351604,35.447698091542804],[139.6390361866343,35.44805827755963]],[[139.63913071139808,35.448196810643026],[139.63953716788228,35.44874401632243]],[[139.63953716788228,35.44874401632243],[139.64043515313807,35.44851543673483]],[[139.63609646648112,35.44803749759712],[139.63603975162286,35.44794052443874]],[[139.63603975162286,35.44794052443874],[139.63520793370168,35.44863318985572]],[[139.63520793370168,35.44863318985572],[139.63548205551663,35.44899337587254]],[[139.64036898580343,35.445772481683626],[139.64013267389402,35.44546770890016]],[[139.63999088674836,35.445294542545916],[139.63890385196504,35.44589716145868]],[[139.63890385196504,35.44589716145868],[139.6392914034965,35.44636124728805]],[[139.6392914034965,35.44636124728805],[139.64036898580343,35.445772481683626]],[[139.64451862293288,35.44755955845941],[139.64231619593707,35.44432481096216]],[[139.64036898580343,35.445772481683626],[139.64072817990575,35.44625734747551]],[[139.64100230172068,35.44661753349233],[139.64180576221273,35.44762189834694]],[[139.64180576221273,35.44762189834694],[139.6420609790749,35.447961304401254]],[[139.6420609790749,35.447961304401254],[139.64235400584258,35.44832841707225]],[[139.63616263381576,35.45182637742795],[139.63567110504417,35.452235050023965]],[[139.63567110504417,35.452235050023965],[139.63900782920518,35.4519302772405]],[[139.6382138211895,35.450946692348396],[139.63616263381576,35.45182637742795]],[[139.6420609790749,35.447961304401254],[139.64089832448053,35.44857084996819]],[[139.64089832448053,35.44857084996819],[139.64117244629546,35.44889640271416]],[[139.64208933650403,35.451015958890096],[139.63914961635084,35.45199261712803]],[[139.6420231691694,35.4551303914669],[139.64285498709054,35.45468015894587],[139.64445245559824,35.456259436096566],[139.64553949038157,35.45549057748373],[139.6441310714014,35.45387666706218],[139.6450006992281,35.45095361900257],[139.64239181574808,35.45107137212345]],[[139.63967895502793,35.45093976569423],[139.6406620125711,35.45044797324818]],[[139.64012322141764,35.44952672824361],[139.63898892425243,35.449942327493794]],[[139.640057054083,35.449429755085234],[139.63986800455547,35.44918039553512]],[[139.63986800455547,35.44918039553512],[139.6387998747249,35.44971374790619]],[[139.6387998747249,35.44971374790619],[139.63898892425243,35.449942327493794]],[[139.63953716788228,35.44874401632243],[139.6396505975988,35.44889640271416]],[[139.6396505975988,35.44889640271416],[139.63978293226808,35.44907649572258]],[[139.63978293226808,35.44907649572258],[139.64043515313807,35.44851543673483]],[[139.64180576221273,35.44762189834694],[139.6407470848585,35.4483630503431]],[[139.6407470848585,35.4483630503431],[139.64089832448053,35.44857084996819]],[[139.63641785067793,35.44654134029646],[139.63607756152837,35.44609110777543]],[[139.63607756152837,35.44609110777543],[139.6352362911308,35.446548266950636]],[[139.6352362911308,35.446548266950636],[139.6352457436072,35.44657597356731]],[[139.6352457436072,35.44657597356731],[139.63551986542214,35.44703313274251]],[[139.63551986542214,35.44703313274251],[139.63641785067793,35.44654134029646]],[[139.63845013309896,35.44540536901263],[139.63827053604777,35.44519064273337]],[[139.63827053604777,35.44519064273337],[139.63807203404386,35.4449551364916]],[[139.63807203404386,35.4449551364916],[139.63701335668966,35.44556468205854]],[[139.63701335668966,35.44556468205854],[139.63741981317386,35.446001061271225]],[[139.63741981317386,35.446001061271225],[139.63845013309896,35.44540536901263]],[[139.63518902874893,35.448605483239035],[139.6349527168395,35.44825915053055]],[[139.6349527168395,35.44825915053055],[139.63323236613894,35.44926351538516]],[[139.63323236613894,35.44926351538516],[139.6333268909027,35.44952672824361]],[[139.6333268909027,35.44952672824361],[139.63518902874893,35.448605483239035]],[[139.63586960704808,35.44761497169277],[139.63551986542214,35.44703313274251]],[[139.63551986542214,35.44703313274251],[139.63449899797342,35.447815844663694]],[[139.63449899797342,35.447815844663694],[139.63492435941038,35.44821759060554]],[[139.63492435941038,35.44821759060554],[139.63586960704808,35.44761497169277]],[[139.63698499926053,35.44931892861852],[139.63693773687865,35.44926351538516]],[[139.63558603275678,35.44917346888095],[139.6357372723788,35.44935356188937]],[[139.63592632190634,35.44963755471032],[139.63698499926053,35.44931892861852]],[[139.63857301529185,35.44742795203019],[139.63823272614226,35.44695001289248]],[[139.63823272614226,35.44695001289248],[139.63820436871313,35.44689459965912]],[[139.63820436871313,35.44689459965912],[139.63717404878807,35.44753185184273]],[[139.6344706405443,35.44971374790619],[139.63548205551663,35.44899337587254]],[[139.63520793370168,35.44863318985572],[139.63518902874893,35.448605483239035]],[[139.6333268909027,35.44952672824361],[139.6333741532846,35.44983150102708]],[[139.63878096977214,35.44969296794368],[139.63858246776823,35.449450535047745]],[[139.63858246776823,35.449450535047745],[139.6374859805085,35.44999774072715]],[[139.6374859805085,35.44999774072715],[139.63767503003604,35.45023324696892]],[[139.63767503003604,35.45023324696892],[139.63878096977214,35.44969296794368]],[[139.63858246776823,35.449450535047745],[139.63815710633125,35.44878557624745]],[[139.63698499926053,35.44931892861852],[139.63738200326836,35.44985228098958]],[[139.63738200326836,35.44985228098958],[139.6374859805085,35.44999774072715]],[[139.63786407956357,35.45048260651903],[139.63767503003604,35.45023324696892]],[[139.63738200326836,35.44985228098958],[139.63599248924098,35.45052416644405]],[[139.63599248924098,35.45052416644405],[139.63616263381576,35.45182637742795]],[[139.6400192441775,35.44734483218015],[139.64028391351604,35.447698091542804]],[[139.64031227094517,35.44773965146783],[139.640709274953,35.44713010590089]],[[139.63741981317386,35.446001061271225],[139.63641785067793,35.44654134029646]],[[139.63641785067793,35.44654134029646],[139.63682430716213,35.447074692667535]],[[139.63682430716213,35.447074692667535],[139.6378546270872,35.446492853717274]],[[139.6378546270872,35.446492853717274],[139.63741981317386,35.446001061271225]],[[139.63958443026416,35.444781970137356],[139.63845013309896,35.44540536901263]],[[139.63845013309896,35.44540536901263],[139.63890385196504,35.44589716145868]],[[139.63967895502793,35.44688074635078],[139.63865808757924,35.44754570515107]],[[139.63886604205953,35.44782969797203],[139.6399719817956,35.447275565638456]],[[139.63599248924098,35.45052416644405],[139.63599248924098,35.45021246700641]],[[139.6335726552885,35.45141077817777],[139.63567110504417,35.452235050023965]],[[139.63986800455547,35.44918039553512],[139.63978293226808,35.44907649572258]],[[139.6396505975988,35.44889640271416],[139.63858246776823,35.449450535047745]],[[139.63878096977214,35.44969296794368],[139.6387998747249,35.44971374790619]],[[139.6396505975988,35.446825333117424],[139.6392914034965,35.44636124728805]],[[139.6392914034965,35.44636124728805],[139.63823272614226,35.44695001289248]],[[139.63820436871313,35.44689459965912],[139.6378546270872,35.446492853717274]],[[139.63682430716213,35.447074692667535],[139.63713623888256,35.447483365263544]],[[139.62586888704138,35.44054978443967],[139.62556640779732,35.44102772357738]],[[139.62556640779732,35.44102772357738],[139.62635096333662,35.44206672170284]],[[139.62635096333662,35.44206672170284],[139.62739073573806,35.441547222640104]],[[139.62739073573806,35.441547222640104],[139.62586888704138,35.44054978443967]],[[139.62658727524604,35.43948307969753],[139.62828872099385,35.44067446421472]],[[139.62828872099385,35.44067446421472],[139.6288369646237,35.4399263855644]],[[139.6288369646237,35.4399263855644],[139.62888422700559,35.4398571190227]],[[139.62888422700559,35.4398571190227],[139.6268897544901,35.43901899386816]],[[139.6268897544901,35.43901899386816],[139.62658727524604,35.43948307969753]],[[139.63884713710678,35.4438815050953],[139.6376844825124,35.4444979773164]],[[139.6376844825124,35.4444979773164],[139.63790188946908,35.44476119017485]],[[139.63790188946908,35.44476119017485],[139.63906454406344,35.444123937991236]],[[139.62744745059632,35.44151258936926],[139.62739073573806,35.441547222640104]],[[139.62635096333662,35.44206672170284],[139.627012636683,35.443611365582676]],[[139.627012636683,35.443611365582676],[139.6274190931672,35.44429710434548]],[[139.6274190931672,35.44429710434548],[139.62866682004892,35.44318883967833]],[[139.62866682004892,35.44318883967833],[139.628392698234,35.44297411339907]],[[139.628392698234,35.44297411339907],[139.62744745059632,35.44151258936926]],[[139.63492435941038,35.44487201664157],[139.6355765802804,35.444255544420464]],[[139.6355765802804,35.444255544420464],[139.63469749997734,35.443611365582676]],[[139.63469749997734,35.443611365582676],[139.63377115729241,35.44439407750386]],[[139.63377115729241,35.44439407750386],[139.63363882262314,35.44451183062474]],[[139.63363882262314,35.44451183062474],[139.63437611578053,35.44487201664157]],[[139.63437611578053,35.44487201664157],[139.6347069524537,35.44512137619167]],[[139.6347069524537,35.44512137619167],[139.63492435941038,35.44487201664157]],[[139.62828872099385,35.44067446421472],[139.62789171698603,35.441138550044094]],[[139.62789171698603,35.441138550044094],[139.62774992984038,35.44127708312749]],[[139.62774992984038,35.44127708312749],[139.62909218148587,35.442177548169546]],[[139.62909218148587,35.442177548169546],[139.62950809044648,35.441568002602615]],[[139.62950809044648,35.441568002602615],[139.62828872099385,35.44067446421472]],[[139.63099212923763,35.44264856065309],[139.6306329351353,35.44283558031567]],[[139.6306329351353,35.44283558031567],[139.63020757369836,35.44334122607006]],[[139.63020757369836,35.44334122607006],[139.6308786995211,35.44383301851611]],[[139.6308786995211,35.44383301851611],[139.63199409173356,35.4442693977288]],[[139.63199409173356,35.4442693977288],[139.63241945317054,35.44389535840364]],[[139.63241945317054,35.44389535840364],[139.63155927782023,35.443251179565856]],[[139.63155927782023,35.443251179565856],[139.63099212923763,35.44264856065309]],[[139.6296593300685,35.44708854597587],[139.62850612795052,35.44749721857188]],[[139.62850612795052,35.44749721857188],[139.62852503290327,35.44752492518856]],[[139.62852503290327,35.44752492518856],[139.62957425778112,35.44900030252671]],[[139.62957425778112,35.44900030252671],[139.63048169551328,35.4486816764349]],[[139.63048169551328,35.4486816764349],[139.6296593300685,35.44708854597587]],[[139.63673923487474,35.44338278599508],[139.6372024062172,35.44306415990327]],[[139.6372024062172,35.44306415990327],[139.6361059189575,35.44228837463626]],[[139.6361059189575,35.44228837463626],[139.63551986542214,35.4428286536615]],[[139.63551986542214,35.4428286536615],[139.6355387703749,35.44284250696984]],[[139.6355387703749,35.44284250696984],[139.63652182791807,35.44354209904098]],[[139.63652182791807,35.44354209904098],[139.63673923487474,35.44338278599508]],[[139.62792007441516,35.449879987606266],[139.62866682004892,35.452380509761525]],[[139.62866682004892,35.452380509761525],[139.6297444023559,35.451015958890096]],[[139.6297444023559,35.451015958890096],[139.62792007441516,35.449879987606266]],[[139.63048169551328,35.4441793512246],[139.62987673702517,35.44474041021234]],[[139.62987673702517,35.44474041021234],[139.63196573430443,35.446070327812926]],[[139.63196573430443,35.446070327812926],[139.63258959774532,35.44566858187108]],[[139.63258959774532,35.44566858187108],[139.63048169551328,35.4441793512246]],[[139.6359830367646,35.44444256408304],[139.63571836742605,35.44415164460791]],[[139.63571836742605,35.44415164460791],[139.6355765802804,35.444255544420464]],[[139.63492435941038,35.44487201664157],[139.63522683865443,35.445114449537506]],[[139.63522683865443,35.445114449537506],[139.6359830367646,35.44444256408304]],[[139.63701335668966,35.44556468205854],[139.63653128039445,35.445045182995806]],[[139.63653128039445,35.445045182995806],[139.63564274761504,35.4455508287502]],[[139.63564274761504,35.4455508287502],[139.63607756152837,35.44609110777543]],[[139.63607756152837,35.44609110777543],[139.63701335668966,35.44556468205854]],[[139.62479130473443,35.438056188938575],[139.62485747206907,35.4379592157802]],[[139.62485747206907,35.4379592157802],[139.62410127395893,35.43707953070064]],[[139.62410127395893,35.43707953070064],[139.62246599554572,35.437315036942415]],[[139.62246599554572,35.437315036942415],[139.62453608787226,35.438416374955395]],[[139.62453608787226,35.438416374955395],[139.62479130473443,35.438056188938575]],[[139.63790188946908,35.44476119017485],[139.63807203404386,35.4449551364916]],[[139.63827053604777,35.44519064273337],[139.63918742625634,35.44427632438297]],[[139.63856356281548,35.44239920110298],[139.6371173339298,35.441374056285866]],[[139.6371173339298,35.441374056285866],[139.6361059189575,35.44228837463626]],[[139.6372024062172,35.44306415990327],[139.6379302468982,35.44268319392394]],[[139.63335524833184,35.44713010590089],[139.6329676968004,35.44690152631329]],[[139.6329676968004,35.44690152631329],[139.63208861649733,35.447815844663694]],[[139.63208861649733,35.447815844663694],[139.63219259373747,35.44791974447624]],[[139.63219259373747,35.44791974447624],[139.63257069279257,35.448293783801404]],[[139.63257069279257,35.448293783801404],[139.63335524833184,35.44713010590089]],[[139.62819419623008,35.44940897512272],[139.62792007441516,35.449879987606266]],[[139.6297444023559,35.451015958890096],[139.63060457770618,35.4499631074563]],[[139.63060457770618,35.4499631074563],[139.62964042511575,35.44912498230177]],[[139.62964042511575,35.44912498230177],[139.62819419623008,35.44940897512272]],[[139.6500105117078,35.439358399922476],[139.64932993340867,35.441270156473315]],[[139.64932993340867,35.441270156473315],[139.651645790121,35.44210828162785]],[[139.651645790121,35.44210828162785],[139.65110699896752,35.439919458910225],[139.652373630802,35.4383471084137],[139.65113535639665,35.43725962370906],[139.6500105117078,35.439358399922476]],[[139.63099212923763,35.44264856065309],[139.63042498065502,35.44220525478623]],[[139.63042498065502,35.44220525478623],[139.62950809044648,35.441568002602615]],[[139.62909218148587,35.442177548169546],[139.6289220369111,35.44242690771966]],[[139.6289220369111,35.44242690771966],[139.62960261521025,35.44292562681988]],[[139.62960261521025,35.44292562681988],[139.62983892711966,35.44310571982829]],[[139.62983892711966,35.44310571982829],[139.6306329351353,35.44283558031567]],[[139.63682430716213,35.447074692667535],[139.63586960704808,35.44761497169277]],[[139.63586960704808,35.44761497169277],[139.63603975162286,35.44794052443874]],[[139.6378546270872,35.446492853717274],[139.63890385196504,35.44589716145868]],[[139.62207844401428,35.43801462901356],[139.6237042699511,35.43964239274344]],[[139.6237042699511,35.43964239274344],[139.62424306110458,35.43885968082226]],[[139.62424306110458,35.43885968082226],[139.62207844401428,35.43801462901356]],[[139.63003742912358,35.44084763056897],[139.6288369646237,35.4399263855644]],[[139.62950809044648,35.441568002602615],[139.63003742912358,35.44084763056897]],[[139.63405473158372,35.44572399510444],[139.63303386413503,35.44537073574178]],[[139.63303386413503,35.44537073574178],[139.63258959774532,35.44566858187108]],[[139.63196573430443,35.446070327812926],[139.63117172628878,35.44692923292997]],[[139.63117172628878,35.44692923292997],[139.6314080381982,35.447171665825906]],[[139.6314080381982,35.447171665825906],[139.63208861649733,35.447815844663694]],[[139.6329676968004,35.44690152631329],[139.63405473158372,35.44572399510444]],[[139.6305951252298,35.44007877195613],[139.6301130489346,35.44076451071893]],[[139.6301130489346,35.44076451071893],[139.63121898867067,35.44114547669826]],[[139.63121898867067,35.44114547669826],[139.63164435010762,35.440577491056345]],[[139.63164435010762,35.440577491056345],[139.6305951252298,35.44007877195613]],[[139.63028319350937,35.45127224509437],[139.6297444023559,35.451015958890096]],[[139.62866682004892,35.452380509761525],[139.62920561120242,35.45260216269496]],[[139.62920561120242,35.45260216269496],[139.63028319350937,35.45127224509437]],[[139.62626589104923,35.43996101883524],[139.6262375336201,35.43998872545192]],[[139.6262375336201,35.43998872545192],[139.62586888704138,35.44054978443967]],[[139.62744745059632,35.44151258936926],[139.62774992984038,35.44127708312749]],[[139.62789171698603,35.441138550044094],[139.62626589104923,35.43996101883524]],[[139.6371173339298,35.441374056285866],[139.6374103606975,35.441103916773244]],[[139.6374103606975,35.441103916773244],[139.63631387343779,35.440314278197896]],[[139.63631387343779,35.440314278197896],[139.63501888417414,35.44150566271509]],[[139.63501888417414,35.44150566271509],[139.6361059189575,35.44228837463626]],[[139.62918670624964,35.43943459311834],[139.62888422700559,35.4398571190227]],[[139.63003742912358,35.44084763056897],[139.6301130489346,35.44076451071893]],[[139.6305951252298,35.44007877195613],[139.62918670624964,35.43943459311834]],[[139.62246599554572,35.437315036942415],[139.62207844401428,35.43801462901356]],[[139.62424306110458,35.43885968082226],[139.62453608787226,35.438416374955395]],[[139.62983892711966,35.44310571982829],[139.63020757369836,35.44334122607006]],[[139.62556640779732,35.44102772357738],[139.6237042699511,35.43964239274344]],[[139.6237042699511,35.43964239274344],[139.6233450758488,35.4400856986103]],[[139.6233450758488,35.4400856986103],[139.6245171829195,35.44077836402727]],[[139.6245171829195,35.44077836402727],[139.62519776121863,35.44140868955671]],[[139.62519776121863,35.44140868955671],[139.62556640779732,35.44102772357738]],[[139.63028319350937,35.45127224509437],[139.63060457770618,35.4499631074563]],[[139.6273718307853,35.44848773011815],[139.6270504465885,35.44820373729719]],[[139.6270504465885,35.44820373729719],[139.6273718307853,35.44848773011815]],[[139.62457389777776,35.442918700165706],[139.62581217218312,35.44402003817869]],[[139.62581217218312,35.44402003817869],[139.627012636683,35.443611365582676]],[[139.62635096333662,35.44206672170284],[139.62584052961225,35.442274521327924]],[[139.62584052961225,35.442274521327924],[139.62457389777776,35.442918700165706]],[[139.63415870882386,35.4476080450386],[139.63405473158372,35.447538778496906]],[[139.63405473158372,35.447538778496906],[139.63335524833184,35.44713010590089]],[[139.63257069279257,35.448293783801404],[139.6327597423201,35.44853621669734]],[[139.6327597423201,35.44853621669734],[139.63415870882386,35.4476080450386]],[[139.64044460561445,35.43960083281842],[139.63960333521692,35.440445884627124]],[[139.63960333521692,35.440445884627124],[139.6402555560869,35.4416857557235]],[[139.6402555560869,35.4416857557235],[139.64192864440562,35.440861483877306]],[[139.64192864440562,35.440861483877306],[139.64044460561445,35.43960083281842]],[[139.62645494057676,35.446693726688196],[139.6266818000098,35.447815844663694]],[[139.6266818000098,35.447815844663694],[139.62852503290327,35.44752492518856]],[[139.62850612795052,35.44749721857188],[139.62759869021835,35.44614652100879]],[[139.62759869021835,35.44614652100879],[139.62645494057676,35.446693726688196]],[[139.6385163004336,35.4372042104757],[139.63815710633125,35.437148797242344]],[[139.63815710633125,35.437148797242344],[139.63717404878807,35.438042335630236]],[[139.63717404878807,35.438042335630236],[139.6376466726069,35.43907440710152]],[[139.6376466726069,35.43907440710152],[139.63853520538635,35.43825013525532]],[[139.63853520538635,35.43825013525532],[139.6385163004336,35.4372042104757]],[[139.6376844825124,35.4444979773164],[139.63761831517778,35.444421784120536]],[[139.63761831517778,35.444421784120536],[139.63653128039445,35.445045182995806]],[[139.63311893642242,35.44900030252671],[139.63323236613894,35.44926351538516]],[[139.6349527168395,35.44825915053055],[139.63492435941038,35.44821759060554]],[[139.63449899797342,35.447815844663694],[139.63311893642242,35.44900030252671]],[[139.63958443026416,35.432764225152916],[139.63910235396895,35.43363005692413]],[[139.63910235396895,35.43363005692413],[139.6388849470123,35.43550718020412]],[[139.6388849470123,35.43550718020412],[139.63921578368547,35.4362206255836]],[[139.63921578368547,35.4362206255836],[139.64035953332706,35.43642842520869]],[[139.64035953332706,35.43642842520869],[139.6427131999449,35.43461364181623],[139.6418152146891,35.43711416397149]],[[139.6418152146891,35.43711416397149],[139.6440554515904,35.43646305847954]],[[139.6440554515904,35.43646305847954],[139.645851422102,35.43733581690493]],[[139.645851422102,35.43733581690493],[139.647231483653,35.438928947363955]],[[139.647231483653,35.438928947363955],[139.64812946890882,35.43845793488042]],[[139.64812946890882,35.43845793488042],[139.64898019178273,35.44009262526447]],[[139.64898019178273,35.44009262526447],[139.6500105117078,35.439358399922476]],[[139.651645790121,35.44210828162785],[139.65279899223896,35.44250310091552]],[[139.65279899223896,35.44250310091552],[139.65677848479362,35.439012067213994]],[[139.65677848479362,35.439012067213994],[139.6593495583681,35.436920217654745]],[[139.6593495583681,35.436920217654745],[139.66148581802926,35.43378244331586]],[[139.66148581802926,35.43378244331586],[139.66300766672595,35.432300139323544]],[[139.66300766672595,35.432300139323544],[139.66018137628927,35.43214775293181]],[[139.66018137628927,35.43214775293181],[139.65843266815955,35.4354656202791],[139.65781825719506,35.43403872952015]],[[139.65781825719506,35.43403872952015],[139.65623969364012,35.434745248245456]],[[139.65623969364012,35.434745248245456],[139.65487853704187,35.43518162745814]],[[139.65487853704187,35.43518162745814],[139.65403726664434,35.435486400241615]],[[139.65403726664434,35.435486400241615],[139.65392383692782,35.43572190648338]],[[139.65392383692782,35.43572190648338],[139.65477455980172,35.43790380254684],[139.65342285567982,35.4380492622844],[139.653025851672,35.43549332689578]],[[139.653025851672,35.43549332689578],[139.65220348622722,35.43403872952015]],[[139.65220348622722,35.43403872952015],[139.65112590392027,35.434675981703755]],[[139.65112590392027,35.434675981703755],[139.64940555321968,35.43567341990419]],[[139.64940555321968,35.43567341990419],[139.64993489189678,35.435008461103905],[139.64745834308604,35.434246529145234]],[[139.64745834308604,35.434246529145234],[139.64741108070416,35.43427423576191]],[[139.64741108070416,35.43427423576191],[139.6446320526494,35.43455822858287]],[[139.6446320526494,35.43455822858287],[139.6412764235356,35.43293739150716]],[[139.6412764235356,35.43293739150716],[139.63958443026416,35.432764225152916]],[[139.63042498065502,35.44220525478623],[139.63076526980458,35.441782728881876]],[[139.63076526980458,35.441782728881876],[139.63121898867067,35.44114547669826]],[[139.62424306110458,35.43885968082226],[139.6262375336201,35.43998872545192]],[[139.62626589104923,35.43996101883524],[139.62658727524604,35.43948307969753]],[[139.62658727524604,35.43948307969753],[139.62453608787226,35.438416374955395]],[[139.62870462995443,35.4457794083378],[139.63117172628878,35.44692923292997]],[[139.62987673702517,35.44474041021234],[139.62870462995443,35.4457794083378]],[[139.6266818000098,35.447815844663694],[139.6270504465885,35.44820373729719]],[[139.6273718307853,35.44848773011815],[139.62819419623008,35.44940897512272]],[[139.62964042511575,35.44912498230177],[139.62957425778112,35.44900030252671]],[[139.63717404878807,35.438042335630236],[139.63629496848503,35.43884582751392]],[[139.63629496848503,35.43884582751392],[139.6372024062172,35.439476153043366]],[[139.6372024062172,35.439476153043366],[139.6376466726069,35.43907440710152]],[[139.64085106209865,35.439178306914066],[139.64044460561445,35.43960083281842]],[[139.64192864440562,35.440861483877306],[139.64249579298823,35.4405428577855]],[[139.64249579298823,35.4405428577855],[139.64085106209865,35.439178306914066]],[[139.63958443026416,35.43764751634256],[139.63934811835475,35.437529763221676]],[[139.63934811835475,35.437529763221676],[139.63853520538635,35.43825013525532]],[[139.63853520538635,35.43825013525532],[139.63964114512243,35.43903977383067]],[[139.63964114512243,35.43903977383067],[139.64082270466952,35.43795228912603]],[[139.64082270466952,35.43795228912603],[139.63958443026416,35.43764751634256]],[[139.63377115729241,35.44439407750386],[139.63271247993822,35.443625218891015]],[[139.63271247993822,35.443625218891015],[139.63254233536344,35.44379145859109]],[[139.63254233536344,35.44379145859109],[139.63359156024126,35.44455339054976]],[[139.63359156024126,35.44455339054976],[139.63363882262314,35.44451183062474]],[[139.6326841225091,35.45240821637821],[139.63338360576097,35.44993540083962]],[[139.63311893642242,35.44900030252671],[139.6327597423201,35.44853621669734]],[[139.63219259373747,35.44791974447624],[139.63060457770618,35.4499631074563]],[[139.62920561120242,35.45260216269496],[139.63024538360386,35.454195293153994]],[[139.63024538360386,35.454195293153994],[139.6326841225091,35.45240821637821]],[[139.6327597423201,35.43699641085061],[139.63175777982414,35.438416374955395]],[[139.63175777982414,35.438416374955395],[139.63350648795387,35.43964239274344]],[[139.63350648795387,35.43964239274344],[139.63436666330415,35.4388735341306]],[[139.63436666330415,35.4388735341306],[139.63517957627255,35.43816008875112]],[[139.63517957627255,35.43816008875112],[139.6327597423201,35.43699641085061]],[[139.63934811835475,35.437529763221676],[139.6385541103391,35.43721113712987]],[[139.6385541103391,35.43721113712987],[139.6385163004336,35.4372042104757]],[[139.65449098551042,35.4163965413499],[139.64893292940084,35.41854380414251]],[[139.64893292940084,35.41854380414251],[139.64913143140475,35.419097936476085]],[[139.64913143140475,35.419097936476085],[139.64950007798345,35.419312662755345]],[[139.64950007798345,35.419312662755345],[139.65174031488476,35.4201230812932]],[[139.65174031488476,35.4201230812932],[139.65335668834518,35.421293685847886],[139.65508649152216,35.4212659792312]],[[139.65508649152216,35.4212659792312],[139.6552755410497,35.42064258035593],[139.6619584418481,35.42184089152729]],[[139.6619584418481,35.42184089152729],[139.65748742052187,35.41816976481734],[139.6564476481204,35.416687460825024],[139.65449098551042,35.4163965413499]],[[139.63469749997734,35.443611365582676],[139.63362937014676,35.442807873698996]],[[139.63362937014676,35.442807873698996],[139.63287317203662,35.443479759153455]],[[139.63287317203662,35.443479759153455],[139.63271247993822,35.443625218891015]],[[139.6245171829195,35.44077836402727],[139.6236286501401,35.44147795609841]],[[139.6236286501401,35.44147795609841],[139.62393112938415,35.44214984155287]],[[139.62393112938415,35.44214984155287],[139.62519776121863,35.44140868955671]],[[139.66474692237927,35.42660642959605],[139.66409470150927,35.42373186811562]],[[139.66409470150927,35.42373186811562],[139.66272409243462,35.42499251917451],[139.65891474445476,35.424556139961815],[139.6587824097855,35.423219295707064],[139.65569145001027,35.42291452292359]],[[139.65569145001027,35.42291452292359],[139.65552130543549,35.42370416149894]],[[139.65552130543549,35.42370416149894],[139.65641929069128,35.42559513808727],[139.6582908810139,35.42445916680344],[139.6587351474036,35.42555357816225]],[[139.6587351474036,35.42555357816225],[139.66089031201753,35.425082565678714],[139.6625255904307,35.42804024700918]],[[139.6625255904307,35.42804024700918],[139.66474692237927,35.42660642959605]],[[139.64898019178273,35.44009262526447],[139.64847921053476,35.44090304380232]],[[139.64847921053476,35.44090304380232],[139.64932993340867,35.441270156473315]],[[139.6387620648194,35.4398571190227],[139.63960333521692,35.440445884627124]],[[139.64044460561445,35.43960083281842],[139.63964114512243,35.43903977383067]],[[139.63964114512243,35.43903977383067],[139.6387620648194,35.4398571190227]],[[139.66451061046985,35.41330032693604],[139.6630265716787,35.412801607835824]],[[139.6630265716787,35.412801607835824],[139.66250668547795,35.41404840558637]],[[139.66250668547795,35.41404840558637],[139.66376386483608,35.41414537874474],[139.66399072426913,35.41592552886636],[139.66682646718218,35.41972133535136],[139.6653046184855,35.419839088472244]],[[139.6653046184855,35.419839088472244],[139.6666090602255,35.42227034408581]],[[139.6666090602255,35.42227034408581],[139.6703616933471,35.4222495641233]],[[139.6703616933471,35.4222495641233],[139.67004976162667,35.417927331921405]],[[139.67004976162667,35.417927331921405],[139.66836722083158,35.415468369691155]],[[139.66836722083158,35.415468369691155],[139.66451061046985,35.41330032693604]],[[139.63620044372126,35.437031044121454],[139.63562384266228,35.43776526946345]],[[139.63562384266228,35.43776526946345],[139.63517957627255,35.43816008875112]],[[139.63517957627255,35.43816008875112],[139.63629496848503,35.43884582751392]],[[139.63815710633125,35.437148797242344],[139.63620044372126,35.437031044121454]],[[139.628392698234,35.44297411339907],[139.6289220369111,35.44242690771966]],[[139.63003742912358,35.4469223062758],[139.6296593300685,35.44708854597587]],[[139.63048169551328,35.4486816764349],[139.6314080381982,35.447171665825906]],[[139.63117172628878,35.44692923292997],[139.63003742912358,35.4469223062758]],[[139.64877223730244,35.42615619707502],[139.6485453778694,35.42636399670011]],[[139.6485453778694,35.42636399670011],[139.64877223730244,35.42891993208873],[139.65018065628257,35.431427380898164]],[[139.65018065628257,35.431427380898164],[139.6518821020304,35.43140660093565]],[[139.6518821020304,35.43140660093565],[139.6534323081562,35.43178756691499]],[[139.6534323081562,35.43178756691499],[139.65359300025463,35.43065852228533],[139.6514756455462,35.42675188933361]],[[139.6514756455462,35.42675188933361],[139.64877223730244,35.42615619707502]],[[139.65161743269186,35.433256017598964],[139.65102192668013,35.433256017598964]],[[139.65102192668013,35.433256017598964],[139.65030353847547,35.43460671516206]],[[139.65030353847547,35.43460671516206],[139.65112590392027,35.434675981703755]],[[139.65220348622722,35.43403872952015],[139.652373630802,35.43351230380325]],[[139.652373630802,35.43351230380325],[139.65161743269186,35.433256017598964]],[[139.6339034919617,35.442537734186374],[139.63362937014676,35.442807873698996]],[[139.63469749997734,35.443611365582676],[139.6355387703749,35.44284250696984]],[[139.63551986542214,35.4428286536615],[139.6344328306388,35.442059795048664]],[[139.6344328306388,35.442059795048664],[139.6339034919617,35.442537734186374]],[[139.635415888182,35.439656246051776],[139.63453680787893,35.4404735912438]],[[139.63453680787893,35.4404735912438],[139.63501888417414,35.44150566271509]],[[139.63631387343779,35.440314278197896],[139.635415888182,35.439656246051776]],[[139.63287317203662,35.443479759153455],[139.63170106496588,35.44311264648246]],[[139.63170106496588,35.44311264648246],[139.63155927782023,35.443251179565856]],[[139.63241945317054,35.44389535840364],[139.63254233536344,35.44379145859109]],[[139.63921578368547,35.425726744516496],[139.6406242026656,35.42607307722498]],[[139.6406242026656,35.42607307722498],[139.6415694503033,35.4265717963252]],[[139.6415694503033,35.4265717963252],[139.64285498709054,35.42463925981185],[139.64092668190966,35.42332319551961]],[[139.64092668190966,35.42332319551961],[139.63921578368547,35.425726744516496]],[[139.6353308158946,35.44521834935005],[139.63522683865443,35.445114449537506]],[[139.6347069524537,35.44512137619167],[139.63428159101676,35.445523122133515]],[[139.63428159101676,35.445523122133515],[139.6345462603553,35.4457101417961]],[[139.6345462603553,35.4457101417961],[139.63462188016632,35.445786334991965]],[[139.63462188016632,35.445786334991965],[139.6353308158946,35.44521834935005]],[[139.65508649152216,35.4212659792312],[139.65569145001027,35.42291452292359]],[[139.66409470150927,35.42373186811562],[139.6648130897139,35.422381170552526]],[[139.6648130897139,35.422381170552526],[139.6619584418481,35.42184089152729]],[[139.63637058829605,35.4353963537374],[139.63620044372126,35.437031044121454]],[[139.6385541103391,35.43721113712987],[139.63921578368547,35.4362206255836]],[[139.6388849470123,35.43550718020412],[139.63637058829605,35.4353963537374]],[[139.63436666330415,35.4388735341306],[139.635415888182,35.439656246051776]],[[139.635415888182,35.439656246051776],[139.63629496848503,35.43884582751392]],[[139.63359156024126,35.44455339054976],[139.63437611578053,35.44487201664157]],[[139.6376466726069,35.43907440710152],[139.6387620648194,35.4398571190227]],[[139.641862477071,35.4380492622844],[139.64082270466952,35.43795228912603]],[[139.64085106209865,35.439178306914066],[139.641862477071,35.4380492622844]],[[139.6374103606975,35.441103916773244],[139.63786407956357,35.440681390868896]],[[139.63786407956357,35.440681390868896],[139.6372024062172,35.439476153043366]],[[139.6339034919617,35.442537734186374],[139.63301495918228,35.44190740865693]],[[139.63301495918228,35.44190740865693],[139.6320980689737,35.44275938711981]],[[139.6320980689737,35.44275938711981],[139.63170106496588,35.44311264648246]],[[139.6233450758488,35.4400856986103],[139.62261723516775,35.441006943614866]],[[139.62261723516775,35.441006943614866],[139.6236286501401,35.44147795609841]],[[139.63299605422952,35.43666393145046],[139.6327597423201,35.43699641085061]],[[139.63562384266228,35.43776526946345],[139.63299605422952,35.43666393145046]],[[139.6518821020304,35.43140660093565],[139.65161743269186,35.433256017598964]],[[139.652373630802,35.43351230380325],[139.65324325862866,35.43279193176959]],[[139.65324325862866,35.43279193176959],[139.65335668834518,35.43207848639012]],[[139.65335668834518,35.43207848639012],[139.6534323081562,35.43178756691499]],[[139.6393670233075,35.42792942054246],[139.63827998852415,35.427112075350436]],[[139.63827998852415,35.427112075350436],[139.6370039042133,35.42770776760903]],[[139.6370039042133,35.42770776760903],[139.63745762307937,35.429120805059654]],[[139.63745762307937,35.429120805059654],[139.63840287071707,35.429335531338914]],[[139.63840287071707,35.429335531338914],[139.6393670233075,35.42792942054246]],[[139.62870462995443,35.4457794083378],[139.62856284280878,35.4457101417961]],[[139.62856284280878,35.4457101417961],[139.628392698234,35.44579326164614]],[[139.628392698234,35.44579326164614],[139.63003742912358,35.4469223062758]],[[139.63958443026416,35.43764751634256],[139.64035953332706,35.43642842520869]],[[139.62261723516775,35.441006943614866],[139.62181377467573,35.44195589523612]],[[139.62181377467573,35.44195589523612],[139.62330726594328,35.44250310091552]],[[139.62330726594328,35.44250310091552],[139.62385550957313,35.44237842114047]],[[139.62385550957313,35.44237842114047],[139.62393112938415,35.44214984155287]],[[139.6333268909027,35.43980170578934],[139.63289207698938,35.440203451731186]],[[139.63289207698938,35.440203451731186],[139.63225876107214,35.4407714373731]],[[139.63225876107214,35.4407714373731],[139.63350648795387,35.44142946951922]],[[139.63350648795387,35.44142946951922],[139.63453680787893,35.4404735912438]],[[139.63453680787893,35.4404735912438],[139.6333268909027,35.43980170578934]],[[139.62581217218312,35.44402003817869],[139.62645494057676,35.446693726688196]],[[139.62759869021835,35.44614652100879],[139.628392698234,35.44579326164614]],[[139.62856284280878,35.4457101417961],[139.6274190931672,35.44429710434548]],[[139.62181377467573,35.44195589523612],[139.62330726594328,35.44250310091552]],[[139.63355375033575,35.44146410279007],[139.63301495918228,35.44190740865693]],[[139.6344328306388,35.442059795048664],[139.63355375033575,35.44146410279007]],[[139.64675885983416,35.433803223278375],[139.64501015170447,35.43370625012]],[[139.64501015170447,35.43370625012],[139.6446320526494,35.43455822858287]],[[139.64741108070416,35.43427423576191],[139.64675885983416,35.433803223278375]],[[139.66670358498928,35.4295225510015],[139.66545585810752,35.428767545697],[139.66400962922188,35.43002127010171]],[[139.66400962922188,35.43002127010171],[139.6635086479739,35.43157284063573]],[[139.6635086479739,35.43157284063573],[139.6635181004503,35.43171830037329]],[[139.6635181004503,35.43171830037329],[139.6635559103558,35.431822200185835]],[[139.6635559103558,35.431822200185835],[139.6644917055171,35.432667251994545]],[[139.6644917055171,35.432667251994545],[139.66670358498928,35.4295225510015]],[[139.63571836742605,35.44415164460791],[139.63652182791807,35.44354209904098]],[[139.66087140706477,35.43127499450643],[139.6595953227539,35.4316698137941]],[[139.6595953227539,35.4316698137941],[139.66018137628927,35.43214775293181]],[[139.66300766672595,35.432300139323544],[139.6635559103558,35.431822200185835]],[[139.6635181004503,35.43171830037329],[139.66087140706477,35.43127499450643]],[[139.6268897544901,35.43901899386816],[139.62693701687198,35.438928947363955]],[[139.62693701687198,35.438928947363955],[139.62479130473443,35.438056188938575]],[[139.63960333521692,35.440445884627124],[139.63873370739026,35.441304789744166]],[[139.63873370739026,35.441304789744166],[139.6392063312091,35.442129061590364]],[[139.63673923487474,35.44338278599508],[139.63723076364633,35.44396462494533]],[[139.63723076364633,35.44396462494533],[139.63761831517778,35.444421784120536]],[[139.6359830367646,35.44444256408304],[139.63612482391025,35.44459495047478]],[[139.63612482391025,35.44459495047478],[139.63723076364633,35.44396462494533]],[[139.63428159101676,35.445523122133515],[139.63405473158372,35.44572399510444]],[[139.63335524833184,35.44713010590089],[139.6345462603553,35.4457101417961]],[[139.6418152146891,35.43711416397149],[139.641862477071,35.438056188938575]],[[139.641862477071,35.438056188938575],[139.64327089605112,35.438464861534584]],[[139.64327089605112,35.438464861534584],[139.6440081892085,35.43872114773887]],[[139.6440081892085,35.43872114773887],[139.6440554515904,35.43646305847954]],[[139.64184357211823,35.41972826200553],[139.63890385196504,35.41922261625114]],[[139.63890385196504,35.41922261625114],[139.6385541103391,35.42059409377674]],[[139.6385541103391,35.42059409377674],[139.64085106209865,35.4228660363444]],[[139.64085106209865,35.4228660363444],[139.6448400071297,35.42456306661598]],[[139.6448400071297,35.42456306661598],[139.64302513166533,35.42202791118987],[139.64322363366924,35.42064258035593]],[[139.64322363366924,35.42064258035593],[139.64184357211823,35.41972826200553]],[[139.66826324359144,35.42784630069242],[139.6677149999616,35.42839350637183]],[[139.6677149999616,35.42839350637183],[139.66670358498928,35.4295225510015]],[[139.6644917055171,35.432667251994545],[139.66639165326885,35.4337962966242]],[[139.66639165326885,35.4337962966242],[139.66857517531187,35.43202999981093]],[[139.66857517531187,35.43202999981093],[139.66720456623725,35.43004897671839],[139.66826324359144,35.42784630069242]],[[139.66250668547795,35.41404840558637],[139.66056892782072,35.41451941806991],[139.66150472298202,35.41658356101248],[139.66296985682044,35.41627186157484],[139.6636409826432,35.419506609072094],[139.6653046184855,35.419839088472244]],[[139.65030353847547,35.43460671516206],[139.64940555321968,35.43567341990419]],[[139.6448400071297,35.42456306661598],[139.64676831231054,35.42587913090823]],[[139.64676831231054,35.42587913090823],[139.64651309544837,35.420995839718586]],[[139.64651309544837,35.420995839718586],[139.6462200686807,35.420497120618364]],[[139.6462200686807,35.420497120618364],[139.64322363366924,35.42064258035593]],[[139.6370039042133,35.42770776760903],[139.63583179714257,35.427853227346596],[139.631001581714,35.42518646549126]],[[139.631001581714,35.42518646549126],[139.6294608280646,35.426433263241805]],[[139.6294608280646,35.426433263241805],[139.6297065924504,35.42662720955855]],[[139.6297065924504,35.42662720955855],[139.63730638345734,35.42923163152636]],[[139.63730638345734,35.42923163152636],[139.63745762307937,35.429120805059654]],[[139.6593495583681,35.436920217654745],[139.6620435141355,35.43908826040986],[139.6598505396161,35.440930750419]],[[139.6598505396161,35.440930750419],[139.66030425848217,35.441284009781654]],[[139.66030425848217,35.441284009781654],[139.66321562120623,35.443583658966],[139.6666185127019,35.440681390868896],[139.6669020869932,35.43942766646418],[139.66427429856043,35.43555566678331]],[[139.66427429856043,35.43555566678331],[139.66148581802926,35.43378244331586]],[[139.63564274761504,35.4455508287502],[139.6353308158946,35.44521834935005]],[[139.63462188016632,35.445786334991965],[139.63481092969386,35.44602184123374]],[[139.63481092969386,35.44602184123374],[139.63564274761504,35.4455508287502]],[[139.62519776121863,35.44140868955671],[139.62584052961225,35.442274521327924]],[[139.63501888417414,35.44150566271509],[139.6344328306388,35.442059795048664]],[[139.63405473158372,35.447538778496906],[139.6352457436072,35.44657597356731]],[[139.6352362911308,35.446548266950636],[139.63481092969386,35.44602184123374]],[[139.6502468236172,35.43293046485299],[139.64880059473157,35.433276797561476]],[[139.64880059473157,35.433276797561476],[139.64814837386157,35.43354693707409]],[[139.64814837386157,35.43354693707409],[139.64745834308604,35.434246529145234]],[[139.65102192668013,35.433256017598964],[139.6502468236172,35.43293046485299]],[[139.65381985968767,35.43287505161963],[139.65403726664434,35.435486400241615]],[[139.65487853704187,35.43518162745814],[139.65507703904578,35.43305514462804]],[[139.65507703904578,35.43305514462804],[139.65381985968767,35.43287505161963]],[[139.64812946890882,35.43845793488042],[139.64740162822778,35.440328131506234]],[[139.64740162822778,35.440328131506234],[139.64847921053476,35.44090304380232]],[[139.64913143140475,35.419097936476085],[139.64567182505084,35.41972133535136]],[[139.64567182505084,35.41972133535136],[139.64187192954736,35.41972826200553]],[[139.64187192954736,35.41972826200553],[139.64184357211823,35.41972826200553]],[[139.6462200686807,35.420497120618364],[139.64950007798345,35.419312662755345]],[[139.65677848479362,35.439012067213994],[139.6598505396161,35.440930750419]],[[139.65174031488476,35.4201230812932],[139.6504547780975,35.42182011156478]],[[139.6504547780975,35.42182011156478],[139.65312982891214,35.423170809127875],[139.6533472358688,35.42410590744078]],[[139.6533472358688,35.42410590744078],[139.65552130543549,35.42370416149894]],[[139.66474692237927,35.42660642959605],[139.6677149999616,35.42839350637183]],[[139.66826324359144,35.42784630069242],[139.67045621811087,35.4245145800368],[139.6703616933471,35.4222495641233]],[[139.6666090602255,35.42227034408581],[139.66631603345783,35.42353792179887],[139.6648130897139,35.422381170552526]],[[139.66635384336334,35.43383092989505],[139.66639165326885,35.4337962966242]],[[139.66427429856043,35.43555566678331],[139.66635384336334,35.43383092989505]],[[139.67936990333422,35.410723611584906],[139.67949278552712,35.410820584743284]],[[139.67949278552712,35.410820584743284],[139.68418121381004,35.40896424142581],[139.6888790945693,35.41281546114416],[139.69522170621815,35.40760661720854],[139.69126111861627,35.40079078950555],[139.69099644927772,35.400880836009755],[139.6949570368796,35.40756505728352],[139.6919795068209,35.409933973009565],[139.6839354494242,35.40341599143587],[139.68903033419133,35.39887903295471],[139.68540058326263,35.39560965218661],[139.6814589006135,35.39891366622556],[139.68523989116423,35.40191290748104],[139.68228126605828,35.40446884286966],[139.67641127822827,35.399731011417586],[139.67467202257492,35.39966867153006],[139.67128803603202,35.40178130105182],[139.67119351126826,35.40296575891484],[139.68012610144436,35.410148699288825],[139.67936990333422,35.410723611584906]],[[139.648384685771,35.43196073326923],[139.64734491336952,35.4326533986862]],[[139.64734491336952,35.4326533986862],[139.64814837386157,35.43354693707409]],[[139.64880059473157,35.433276797561476],[139.648384685771,35.43196073326923]],[[139.63199409173356,35.4442693977288],[139.63303386413503,35.44537073574178]],[[139.63620044372126,35.437031044121454],[139.63299605422952,35.43666393145046]],[[139.65392383692782,35.43572190648338],[139.653025851672,35.43549332689578]],[[139.63355375033575,35.44146410279007],[139.63350648795387,35.44142946951922]],[[139.63225876107214,35.4407714373731],[139.63164435010762,35.440577491056345]],[[139.63076526980458,35.441782728881876],[139.6320980689737,35.44275938711981]],[[139.63266521755634,35.45240821637821],[139.6326841225091,35.45240821637821]],[[139.63024538360386,35.454195293153994],[139.63266521755634,35.45240821637821]],[[139.6571471313723,35.43280578507794],[139.65569145001027,35.433041291319704]],[[139.65569145001027,35.433041291319704],[139.65623969364012,35.434745248245456]],[[139.65781825719506,35.43403872952015],[139.6574779680455,35.43274344519041]],[[139.6574779680455,35.43274344519041],[139.6571471313723,35.43280578507794]],[[139.64085106209865,35.4228660363444],[139.64092668190966,35.42332319551961]],[[139.6415694503033,35.4265717963252],[139.6416167126852,35.42683500918365]],[[139.6416167126852,35.42683500918365],[139.64432957340532,35.426994322229554]],[[139.64432957340532,35.426994322229554],[139.64644692811373,35.426634136212726]],[[139.64644692811373,35.426634136212726],[139.64676831231054,35.42587913090823]],[[139.6595953227539,35.4316698137941],[139.6574779680455,35.43274344519041]],[[139.6406242026656,35.42607307722498],[139.6393670233075,35.42792942054246]],[[139.63840287071707,35.429335531338914],[139.6393670233075,35.43081783533123]],[[139.6393670233075,35.43081783533123],[139.6406714650475,35.43149664743986]],[[139.6406714650475,35.43149664743986],[139.64148437801592,35.429716497318246]],[[139.64148437801592,35.429716497318246],[139.6416167126852,35.42683500918365]],[[139.62914889634413,35.4273268016297],[139.6297065924504,35.42662720955855]],[[139.6294608280646,35.426433263241805],[139.62914889634413,35.4273268016297]],[[139.6308786995211,35.44383301851611],[139.63048169551328,35.4441793512246]],[[139.64148437801592,35.429716497318246],[139.64455643283839,35.43178064026082]],[[139.64455643283839,35.43178064026082],[139.64706133907822,35.43004897671839]],[[139.64706133907822,35.43004897671839],[139.64527482104302,35.42759694114232]],[[139.64527482104302,35.42759694114232],[139.64432957340532,35.426994322229554]],[[139.64455643283839,35.43178064026082],[139.64501015170447,35.43370625012]],[[139.64675885983416,35.433803223278375],[139.64734491336952,35.4326533986862]],[[139.648384685771,35.43196073326923],[139.64846975805838,35.431905320035874]],[[139.64846975805838,35.431905320035874],[139.64732600841677,35.430229069726806]],[[139.64732600841677,35.430229069726806],[139.64706133907822,35.43004897671839]],[[139.63653128039445,35.445045182995806],[139.63612482391025,35.44459495047478]],[[139.62693701687198,35.438928947363955],[139.62720168621053,35.43851334811377]],[[139.62720168621053,35.43851334811377],[139.62515995131312,35.437529763221676]],[[139.62515995131312,35.437529763221676],[139.62485747206907,35.4379592157802]],[[139.6504547780975,35.42182011156478],[139.6500010592314,35.42193786468567]],[[139.6500010592314,35.42193786468567],[139.64877223730244,35.42615619707502]],[[139.6514756455462,35.42675188933361],[139.65227910603824,35.426024590645795]],[[139.65227910603824,35.426024590645795],[139.6533472358688,35.42410590744078]],[[139.63921578368547,35.425726744516496],[139.63902673415794,35.4258167910207]],[[139.63902673415794,35.4258167910207],[139.63827998852415,35.427112075350436]],[[139.63913071139808,35.416542001087464],[139.63845013309896,35.41918798298029]],[[139.63845013309896,35.41918798298029],[139.63890385196504,35.41922261625114]],[[139.64187192954736,35.41972826200553],[139.64195700183475,35.41724851981277]],[[139.64195700183475,35.41724851981277],[139.63913071139808,35.416542001087464]],[[139.63238164326503,35.41949968241793],[139.6341398038711,35.41953431568878],[139.63500943169777,35.42095427979357]],[[139.63500943169777,35.42095427979357],[139.63672032992199,35.42020620114324],[139.6385541103391,35.42059409377674]],[[139.63845013309896,35.41918798298029],[139.63400746920183,35.41830829790074],[139.63238164326503,35.41949968241793]],[[139.641862477071,35.4380492622844],[139.641862477071,35.438056188938575]],[[139.63873370739026,35.441304789744166],[139.63786407956357,35.440681390868896]],[[139.6797007400074,35.41262151482741],[139.67949278552712,35.410820584743284]],[[139.67936990333422,35.410723611584906],[139.67804655664148,35.40965690684278]],[[139.67804655664148,35.40965690684278],[139.66836722083158,35.415468369691155]],[[139.67004976162667,35.417927331921405],[139.67156215784695,35.41508740371182],[139.6797007400074,35.41262151482741]],[[139.63449899797342,35.447815844663694],[139.63415870882386,35.4476080450386]],[[139.64651309544837,35.420995839718586],[139.6500010592314,35.42193786468567]],[[139.6387620648194,35.4398571190227],[139.63786407956357,35.440681390868896]],[[139.62914889634413,35.4273268016297],[139.63258959774532,35.42796405381331],[139.63581289218982,35.43002127010171],[139.63697554678416,35.430125169914255]],[[139.63697554678416,35.430125169914255],[139.63730638345734,35.42923163152636]],[[139.62891258443472,35.44327195952836],[139.62866682004892,35.44318883967833]],[[139.62987673702517,35.44474041021234],[139.62891258443472,35.44327195952836]],[[139.65449098551042,35.4163965413499],[139.65847993054143,35.413695146223716],[139.6630265716787,35.412801607835824]],[[139.66451061046985,35.41330032693604],[139.66594738687914,35.41210201576468],[139.66401908169826,35.409864706467864],[139.66575833735158,35.408451669017246]],[[139.66575833735158,35.408451669017246],[139.66333850339913,35.40650527919556],[139.65267611004606,35.41299555415257],[139.64233510088982,35.41156173673944]],[[139.64233510088982,35.41156173673944],[139.63913071139808,35.416542001087464]],[[139.64195700183475,35.41724851981277],[139.64546387057055,35.41852995083417]],[[139.64546387057055,35.41852995083417],[139.64893292940084,35.41854380414251]],[[139.647231483653,35.438928947363955],[139.64643747563736,35.439870972331036]],[[139.64643747563736,35.439870972331036],[139.64740162822778,35.440328131506234]],[[139.64808220652694,35.42985503040164],[139.64732600841677,35.430229069726806]],[[139.64846975805838,35.431905320035874],[139.64998215427866,35.43205770642761]],[[139.64998215427866,35.43205770642761],[139.6498498196094,35.4315105007482]],[[139.6498498196094,35.4315105007482],[139.64808220652694,35.42985503040164]],[[139.6393670233075,35.43081783533123],[139.63814765385487,35.431545134019046]],[[139.63814765385487,35.431545134019046],[139.63958443026416,35.432764225152916]],[[139.6412764235356,35.43293739150716],[139.6406714650475,35.43149664743986]],[[139.62385550957313,35.44237842114047],[139.62457389777776,35.442918700165706]],[[139.62918670624964,35.43943459311834],[139.62720168621053,35.43851334811377]],[[139.645851422102,35.43733581690493],[139.6452370111375,35.43931683999746]],[[139.6452370111375,35.43931683999746],[139.64643747563736,35.439870972331036]],[[139.65279899223896,35.44250310091552],[139.6558426896323,35.44225374136541],[139.65761975519115,35.44354902569515],[139.66030425848217,35.441284009781654]],[[139.63484873959936,35.42207639776906],[139.6333268909027,35.42419595394499]],[[139.6333268909027,35.42419595394499],[139.631001581714,35.42518646549126]],[[139.63902673415794,35.4258167910207],[139.63811929642574,35.42560899139561],[139.63484873959936,35.42207639776906]],[[139.65569145001027,35.433041291319704],[139.65509594399853,35.433041291319704]],[[139.65509594399853,35.433041291319704],[139.65507703904578,35.43305514462804]],[[139.65381985968767,35.43287505161963],[139.65324325862866,35.43279193176959]],[[139.62515995131312,35.437529763221676],[139.62410127395893,35.43707953070064]],[[139.67924702114132,35.427555381217296],[139.66857517531187,35.43202999981093]],[[139.66635384336334,35.43383092989505],[139.66745033062304,35.43476602820796],[139.66536133334375,35.43636608532117],[139.66696825432783,35.439420739810004],[139.66667522756015,35.44070909748557],[139.6640001767455,35.44294640678239],[139.66869805750477,35.44866782312656],[139.6702860735361,35.45136921825275],[139.67438844828362,35.44972760121453],[139.66866024759926,35.44034198481458],[139.6689438218906,35.439275280072444],[139.66670358498928,35.43601282595851],[139.66741252071753,35.4353963537374],[139.66973782990624,35.43872114773887],[139.67108008155174,35.438915094055616],[139.6752675285867,35.44575862837529],[139.67732816843682,35.4449551364916],[139.67730926348406,35.44329273949087],[139.6814589006135,35.44158878256513],[139.67544712563785,35.4316490338316],[139.67817889131075,35.430492282585256],[139.68536277335713,35.44213598824453],[139.69061835022265,35.439309913343294],[139.68552346545553,35.426647989521065],[139.6812982085151,35.426350143391765],[139.67924702114132,35.427555381217296]],[[139.6560790015417,35.43162132721491],[139.65489744199462,35.431891466727535]],[[139.65489744199462,35.431891466727535],[139.65509594399853,35.433041291319704]],[[139.6571471313723,35.43280578507794],[139.6560790015417,35.43162132721491]],[[139.66279971224566,35.42962645081404],[139.6635086479739,35.43157284063573]],[[139.66400962922188,35.43002127010171],[139.66279971224566,35.42962645081404]],[[139.63175777982414,35.438416374955395],[139.6310488440959,35.43942766646418]],[[139.6310488440959,35.43942766646418],[139.63289207698938,35.440203451731186]],[[139.6333268909027,35.43980170578934],[139.63350648795387,35.43964239274344]],[[139.6502468236172,35.43293046485299],[139.64998215427866,35.43205770642761]],[[139.64249579298823,35.4405428577855],[139.64474548236592,35.439309913343294]],[[139.64474548236592,35.439309913343294],[139.64327089605112,35.438464861534584]],[[139.6440081892085,35.43872114773887],[139.6452370111375,35.43931683999746]],[[139.65738344328173,35.42653023640018],[139.65380095473492,35.42733372828387]],[[139.65380095473492,35.42733372828387],[139.6543397458884,35.42828960655929],[139.65685410460463,35.42898227197626],[139.6560790015417,35.43162132721491]],[[139.66087140706477,35.43127499450643],[139.65968984751768,35.42893378539707],[139.6587729573091,35.42903075855544],[139.65738344328173,35.42653023640018]],[[139.62891258443472,35.44327195952836],[139.62960261521025,35.44292562681988]],[[139.63910235396895,35.43363005692413],[139.63608701400474,35.43306899793638],[139.63637058829605,35.4353963537374]],[[139.65335668834518,35.43207848639012],[139.65489744199462,35.431891466727535]],[[139.65380095473492,35.42733372828387],[139.65227910603824,35.426024590645795]],[[139.63484873959936,35.42207639776906],[139.63500943169777,35.42095427979357]],[[139.63238164326503,35.41949968241793],[139.6301035964582,35.42154304539799],[139.63178613725327,35.423863474544845],[139.6333268909027,35.42419595394499]],[[139.6625255904307,35.42804024700918],[139.66279971224566,35.42962645081404]],[[139.63697554678416,35.430125169914255],[139.63814765385487,35.431545134019046]],[[139.65018065628257,35.431427380898164],[139.6498498196094,35.4315105007482]],[[139.6310488440959,35.43942766646418],[139.6305951252298,35.44007877195613]],[[139.67924702114132,35.427555381217296],[139.67899180427915,35.426931982342026],[139.68139273327887,35.424590773232666],[139.68156287785365,35.4228660363444],[139.6797385499129,35.421965571302344],[139.67701623671638,35.42410590744078],[139.67590084450393,35.42319851574455],[139.67995595686958,35.41871697049675],[139.67805600911785,35.416264934920676],[139.67999376677508,35.41567616931625],[139.68175192738119,35.419049449896896],[139.68261210273147,35.41873775045926],[139.68036241335378,35.41556534284953],[139.68132656594423,35.414879604086735],[139.6797007400074,35.41262151482741]],[[139.6587351474036,35.42555357816225],[139.65738344328173,35.42653023640018]],[[139.6485453778694,35.42636399670011],[139.64644692811373,35.426634136212726]],[[139.64527482104302,35.42759694114232],[139.64696681431445,35.428067953625856],[139.64808220652694,35.42985503040164]],[[139.67804655664148,35.40965690684278],[139.6697094724771,35.40283415248561],[139.66626877107595,35.40431645647793],[139.66920849122914,35.40649835254139],[139.66575833735158,35.408451669017246]],[[139.64546387057055,35.41852995083417],[139.64567182505084,35.41972133535136]],[[139.64567182505084,35.44805135090546],[139.64667378754677,35.44816910402635],[139.6518915545068,35.445176789425034],[139.65718494127782,35.4513345849819],[139.65858390778158,35.450600359639914],[139.6573550858526,35.44900722918088],[139.6589431018839,35.448460023501475],[139.6602569961003,35.45008086057719],[139.66164651012767,35.44935356188937],[139.66042714067507,35.44780199135535],[139.66222311118665,35.44749029191772],[139.66443499065883,35.45028173354811],[139.66581505220987,35.44948516831859],[139.66360317273768,35.44675606657572],[139.65011448894793,35.44173424230269],[139.64474548236592,35.439309913343294]],[[139.63266521755634,35.45240821637821],[139.63556712780402,35.45555984402542],[139.6425052454646,35.459106290960314],[139.64594594686577,35.460477768485916],[139.6578466146242,35.45679278846763],[139.66362207769043,35.46042235525256],[139.69363369018686,35.44733097887181],[139.71609277405818,35.43448896204117],[139.71254809541688,35.42720212185464],[139.70870093753152,35.41992220832228],[139.69433317343874,35.39121815344301],[139.66728963852464,35.39975179138009],[139.64233510088982,35.41156173673944]]]}