{"type":"Topology","bbox":[139.58780312858647,35.312693190867954,139.66162380072723,35.39324963890609],"objects":{"town":{"type":"GeometryCollection","geometries":[{"type":"MultiPolygon","arcs":[[[8,9,4,5,6,7,0,1,24,-22]]],"properties":{"name":"長浜"}},{"type":"Polygon","arcs":[[11,12,13,14,-5,-10]],"properties":{"name":"堀口"}},{"type":"Polygon","arcs":[[15,16,17,-13,18,19]],"properties":{"name":"能見台東"}},{"type":"MultiPolygon","arcs":[[[75,73,74,66,-65,20,-19,-12,-9,21,-25,-2,42]]],"properties":{"name":"西柴"}},{"type":"MultiPolygon","arcs":[[[-37,45,-56,-177,27,28,29,30,31,32,47]]],"properties":{"name":"六浦東"}},{"type":"MultiPolygon","arcs":[[[93,37,38,39,77,53,54,55,-46,36,33,94]]],"properties":{"name":"六浦南"}},{"type":"MultiPolygon","arcs":[[[156,-6,-15,152,153,172,173,78,79,-195,48,49,50,-230,275,-136,-151,-150,225]]],"properties":{"name":"富岡東"}},{"type":"MultiPolygon","arcs":[[[61,62,56,57,58,59,-108,178,-71]]],"properties":{"name":"泥亀"}},{"type":"Polygon","arcs":[[63,-20,-21,64,65]],"properties":{"name":"片吹"}},{"type":"Polygon","arcs":[[68,69,-62,70,71,72]],"properties":{"name":"洲崎町"}},{"type":"Polygon","arcs":[[83,84]],"properties":{"name":"乙舳町"}},{"type":"Polygon","arcs":[[-31,85,-85,86]],"properties":{"name":"野島町"}},{"type":"MultiPolygon","arcs":[[[133,87,88,89,90,91,134,135,136]]],"properties":{"name":"幸浦"}},{"type":"Polygon","arcs":[[95,96,97,-74,98]],"properties":{"name":"金沢町"}},{"type":"MultiPolygon","arcs":[[[181,182,161,162,163,-247,272,273,-17,-16,-64,105,103,99,184]],[[190,191,192]]],"properties":{"name":"能見台"}},{"type":"MultiPolygon","arcs":[[[106,107,-60,108,-97,-96,-222,244,-186]]],"properties":{"name":"寺前"}},{"type":"Polygon","arcs":[[110,111,112,113,114,-57,115]],"properties":{"name":"大川"}},{"type":"Polygon","arcs":[[116,117,118,-116,-63,-70,119]],"properties":{"name":"瀬戸"}},{"type":"MultiPolygon","arcs":[[[-133,137,138,121,-143,168,169,170,171,-112,-111,-119,-118,177,-28,176,-55,-54,-78,-40]]],"properties":{"name":"六浦"}},{"type":"MultiPolygon","arcs":[[[-94,175,128,129,130,131,132,-39,-38]]],"properties":{"name":"六浦町"}},{"type":"MultiPolygon","arcs":[[[142,-122,-139,143,139,140,278,-149,-181,-169]]],"properties":{"name":"大道"}},{"type":"MultiPolygon","arcs":[[[148,144,145,146,179,-170,180]]],"properties":{"name":"高舟台"}},{"type":"MultiPolygon","arcs":[[[-8,-7,-157,-226,149,150,-135,-92,-91,-90,-285,-209,-223]]],"properties":{"name":"並木"}},{"type":"MultiPolygon","arcs":[[[-144,-138,-132,-131,157,262,-140]]],"properties":{"name":"東朝比奈"}},{"type":"Polygon","arcs":[[165,166,167,-106,-66,-67,-75,-98,-109,-59]],"properties":{"name":"谷津町"}},{"type":"Polygon","arcs":[[-72,-179,-107,185,186,187]],"properties":{"name":"町屋町"}},{"type":"Polygon","arcs":[[-73,-188,188,189]],"properties":{"name":"平潟町"}},{"type":"MultiPolygon","arcs":[[[-173,-154,294,277,-273,246,-164,-163,231,193,-49,194,-80,-79,-174]]],"properties":{"name":"富岡西"}},{"type":"MultiPolygon","arcs":[[[-253,-252,-259,-296,-286,-113,-172,-171,-180,-147,-146,202,203,204,198,199,215,216]]],"properties":{"name":"釜利谷南"}},{"type":"MultiPolygon","arcs":[[[207,208,284,-89,-240,205,218,219]]],"properties":{"name":"福浦"}},{"type":"MultiPolygon","arcs":[[[-199,-205,-204,-301,-268,-267,-266,288,-291,212,213,214,-272]]],"properties":{"name":"釜利谷西"}},{"type":"Polygon","arcs":[[220,221,-99,-76,-43,-1,222,-208,-220,223]],"properties":{"name":"柴町"}},{"type":"Polygon","arcs":[[-51,226,227,228,229]],"properties":{"name":"昭和町"}},{"type":"Polygon","arcs":[[-178,-117,230,-29]],"properties":{"name":"柳町"}},{"type":"Polygon","arcs":[[-32,-87,-84,-86,-30,-231,-120,-69,-190,236,237,238,-224,-219,-206,239,-88,-134,240,241,242,-228,243]],"properties":{"name":"水面"}},{"type":"MultiPolygon","arcs":[[[-200,271,-215,-214,-213,290,-289,-265,-264,-193,-255,-254,-167,-166,-58,-115,-114,285,295,258,251,252,-217,-216]]],"properties":{"name":"釜利谷東"}},{"type":"Polygon","arcs":[[-100,-104,-168,253,254,-192,255,-185]],"properties":{"name":"能見台森"}},{"type":"Polygon","arcs":[[-242,257]],"properties":{"name":"白帆"}},{"type":"Polygon","arcs":[[-182,-256,-191,263,264,265,266,267,268,269,270]],"properties":{"name":"釜利谷町"}},{"type":"Polygon","arcs":[[-189,-187,-245,-221,-239,279,-237]],"properties":{"name":"海の公園"}},{"type":"Polygon","arcs":[[-258,-241,-137,-276,-229,-243]],"properties":{"name":"鳥浜町"}},{"type":"Polygon","arcs":[[-158,-130,298,299,-269,300,-203,-145,-279,-141,-263]],"properties":{"name":"朝比奈町"}},{"type":"Polygon","arcs":[[-270,-300,301]],"properties":{"name":"みず木町"}},{"type":"Polygon","arcs":[[-280,-238]],"properties":{"name":"八景島"}},{"type":"Polygon","arcs":[[-274,-278,-295,-153,-14,-18]],"properties":{"name":"能見台通"}}]}},"arcs":[[[139.64208889738845,35.35137220947293],[139.64058280506754,35.34989787904078],[139.63799144033894,35.34912445979769],[139.63768874531365,35.350236249959636],[139.6343517172301,35.347650129365555],[139.63398257695536,35.348536338914926]],[[139.63398257695536,35.348536338914926],[139.6332590620169,35.35180725779716]],[[139.6332590620169,35.35180725779716],[139.63234359413553,35.35467535415695],[139.63498663850262,35.35560990240902],[139.63635245751914,35.355182910535234],[139.63618265299274,35.35750316826451],[139.6347503887268,35.35771263597618]],[[139.6347503887268,35.35771263597618],[139.63374632717952,35.35908223255248],[139.63179726652893,35.3589211035435]],[[139.63179726652893,35.3589211035435],[139.63122140770037,35.359767030840636]],[[139.63122140770037,35.359767030840636],[139.63517859144548,35.35984759534512],[139.63361343668063,35.3649392720288],[139.63527456791692,35.36497955428105]],[[139.63527456791692,35.36497955428105],[139.63545913805427,35.36237732078607],[139.638574681973,35.362167853074396],[139.63874448649938,35.36136220802951]],[[139.63874448649938,35.36136220802951],[139.6390028846917,35.35656056356199],[139.64208889738845,35.35137220947293]],[[139.6299220339333,35.35558573305768],[139.62942000315968,35.35584353947204]],[[139.62942000315968,35.35584353947204],[139.63001062759923,35.3575353940663],[139.63179726652893,35.3589211035435]],[[139.6347503887268,35.35771263597618],[139.6299220339333,35.35558573305768]],[[139.62942000315968,35.35584353947204],[139.62810586378163,35.35593216042698]],[[139.62810586378163,35.35593216042698],[139.62913207374538,35.359630071183005]],[[139.62913207374538,35.359630071183005],[139.62950859682562,35.360330982372055]],[[139.62950859682562,35.360330982372055],[139.63122140770037,35.359767030840636]],[[139.62472453886508,35.35414362842733],[139.62372047731782,35.35602883783236]],[[139.62372047731782,35.35602883783236],[139.622096260109,35.35883248258857],[139.62298957957387,35.35958978893076]],[[139.62298957957387,35.35958978893076],[139.6235949696244,35.36013762756128],[139.62913207374538,35.359630071183005]],[[139.62810586378163,35.35593216042698],[139.62820184025307,35.3543692090399]],[[139.62820184025307,35.3543692090399],[139.62472453886508,35.35414362842733]],[[139.62468024203213,35.3487135808248],[139.62758168459152,35.350864653094646],[139.62820184025307,35.3543692090399]],[[139.6299220339333,35.35558573305768],[139.63084488462013,35.354248362283165]],[[139.63084488462013,35.354248362283165],[139.6309999235355,35.35196838680614],[139.62882199591462,35.3515333384819],[139.6286669569992,35.35024430641008]],[[139.6286669569992,35.35024430641008],[139.62468024203213,35.3487135808248]],[[139.6332590620169,35.35180725779716],[139.63246171902347,35.35370052365264],[139.63084488462013,35.354248362283165]],[[139.6226573533266,35.318171577173175],[139.6210183705068,35.320379044596166]],[[139.6210183705068,35.320379044596166],[139.62044251167822,35.32294905228935]],[[139.62044251167822,35.32294905228935],[139.6215499325024,35.32335187481179]],[[139.6215499325024,35.32335187481179],[139.62897703483,35.32613135021665]],[[139.62897703483,35.32613135021665],[139.63153886833663,35.326018559910366]],[[139.63153886833663,35.326018559910366],[139.63165699322454,35.32593799540588]],[[139.63165699322454,35.32593799540588],[139.63164961041906,35.32505984230695]],[[139.63164961041906,35.32505984230695],[139.63067508009377,35.323134350649674],[139.62764812984096,35.32166807666798],[139.6244735234783,35.3186871900019],[139.6226573533266,35.318171577173175]],[[139.6153557586924,35.31686643220046],[139.61281607360226,35.316648908038346],[139.6101434980132,35.31438504546222]],[[139.6101434980132,35.31438504546222],[139.60837162469448,35.3158996581466],[139.61058646634288,35.31801850461465]],[[139.61058646634288,35.31801850461465],[139.61485372791878,35.31814740782183]],[[139.61485372791878,35.31814740782183],[139.6153557586924,35.31686643220046]],[[139.6075521332846,35.31321686014713],[139.60580979118785,35.318381044884845]],[[139.60580979118785,35.318381044884845],[139.6033144029307,35.319678133407116],[139.60617893146258,35.32091077032579]],[[139.60617893146258,35.32091077032579],[139.60934615501978,35.32167613311843]],[[139.60934615501978,35.32167613311843],[139.60925017854836,35.321523060559905]],[[139.60925017854836,35.321523060559905],[139.6084823667769,35.31980703661429],[139.6087702961912,35.317494835335474],[139.60737494595273,35.31667307738969],[139.6075521332846,35.31321686014713]],[[139.63398257695536,35.348536338914926],[139.63399734256635,35.34843160505909]],[[139.63399734256635,35.34843160505909],[139.6325429298839,35.348141572842934],[139.6309039470641,35.34968841132911]],[[139.6309039470641,35.34968841132911],[139.6286669569992,35.35024430641008]],[[139.61485372791878,35.31814740782183],[139.61678064015288,35.318421327137095],[139.6175632175353,35.31986343176744]],[[139.6175632175353,35.31986343176744],[139.6210183705068,35.320379044596166]],[[139.6226573533266,35.318171577173175],[139.6153557586924,35.31686643220046]],[[139.6260755922706,35.37380942397299],[139.62146133883647,35.37581548013476]],[[139.62146133883647,35.37581548013476],[139.62150563566942,35.37799072175595],[139.62354328998595,35.38056072944914]],[[139.62354328998595,35.38056072944914],[139.62724207553876,35.377185076711065]],[[139.62724207553876,35.377185076711065],[139.62720516151128,35.37509845604481],[139.6260755922706,35.37380942397299]],[[139.61485372791878,35.31814740782183],[139.613857049177,35.320362931695264],[139.61444767361658,35.32254622976691],[139.61349529170778,35.3236338505775]],[[139.61349529170778,35.3236338505775],[139.61625646096275,35.32493899555022]],[[139.61625646096275,35.32493899555022],[139.61765181120123,35.32379497958648]],[[139.61765181120123,35.32379497958648],[139.6175632175353,35.31986343176744]],[[139.61989618407162,35.335533227890465],[139.62037606642875,35.33977092082657]],[[139.62037606642875,35.33977092082657],[139.621409659198,35.341704468934296]],[[139.621409659198,35.341704468934296],[139.62370571170683,35.3413258157632]],[[139.62370571170683,35.3413258157632],[139.62385336781674,35.34110829160108]],[[139.62385336781674,35.34110829160108],[139.62394196148267,35.335347929530144],[139.62354328998595,35.33379303459351]],[[139.62354328998595,35.33379303459351],[139.6234768447365,35.33365607493588]],[[139.6234768447365,35.33365607493588],[139.6199109496826,35.33368024428723],[139.61989618407162,35.335533227890465]],[[139.62350637595847,35.34893110498692],[139.62135797955955,35.3526048463916],[139.62303387640682,35.35265318509429],[139.62472453886508,35.35414362842733]],[[139.62468024203213,35.3487135808248],[139.62450305470026,35.34842354860864]],[[139.62450305470026,35.34842354860864],[139.62350637595847,35.34893110498692]],[[139.62823137147504,35.346296645690146],[139.62611988910356,35.34689282302336],[139.62450305470026,35.34842354860864]],[[139.6309039470641,35.34968841132911],[139.62823137147504,35.346296645690146]],[[139.62694676331898,35.33076380922474],[139.6236023524299,35.3324878896208]],[[139.6236023524299,35.3324878896208],[139.6234768447365,35.33365607493588]],[[139.62354328998595,35.33379303459351],[139.6249534058354,35.33550100208867]],[[139.6249534058354,35.33550100208867],[139.6282830511135,35.334574510287055]],[[139.6282830511135,35.334574510287055],[139.62795082486625,35.330804091476985],[139.62694676331898,35.33076380922474]],[[139.63319999957292,35.34565212965423],[139.63193753983333,35.34651416985226],[139.62823875428055,35.34619996828476]],[[139.62823875428055,35.34619996828476],[139.62823137147504,35.346296645690146]],[[139.63399734256635,35.34843160505909],[139.63409331903776,35.34569241190648],[139.63319999957292,35.34565212965423]],[[139.61058646634288,35.31801850461465],[139.6105790835374,35.320870488073545],[139.60925017854836,35.321523060559905]],[[139.60934615501978,35.32167613311843],[139.61349529170778,35.3236338505775]],[[139.62738973164866,35.373100456333496],[139.62638567010137,35.37369663366671]],[[139.62638567010137,35.37369663366671],[139.62629707643543,35.37372885946851]],[[139.62629707643543,35.37372885946851],[139.62825351989153,35.3755576737204],[139.62931664388276,35.374663407720575],[139.6329711326026,35.374897044783594],[139.63512691180702,35.37581548013476],[139.63596116882792,35.374083343288255],[139.63527456791692,35.373052117630806]],[[139.63527456791692,35.373052117630806],[139.63274226563226,35.37136026303654]],[[139.63274226563226,35.37136026303654],[139.62738973164866,35.373100456333496]],[[139.6314355090597,35.326743640450765],[139.62953812804759,35.32881414821612],[139.63370203034657,35.330965220485965],[139.6349940213081,35.329547285206964]],[[139.6349940213081,35.329547285206964],[139.63166437603005,35.327839317711806],[139.6314355090597,35.326743640450765]],[[139.63153886833663,35.326018559910366],[139.6314355090597,35.326743640450765]],[[139.6349940213081,35.329547285206964],[139.63794714350595,35.327887656414504],[139.63809479961586,35.32700950331557],[139.63354699143116,35.32314240710012],[139.63165699322454,35.32593799540588]],[[139.65102209203695,35.36636526375825],[139.65099994362046,35.35987982114692],[139.65226978616553,35.35787376498515]],[[139.65226978616553,35.35787376498515],[139.64362452093133,35.354602846102914]],[[139.64362452093133,35.354602846102914],[139.64304127929725,35.36148305478624]],[[139.64304127929725,35.36148305478624],[139.64276811549396,35.36626858635287]],[[139.64276811549396,35.36626858635287],[139.64276073268846,35.36628469925376]],[[139.64276073268846,35.36628469925376],[139.65102209203695,35.36636526375825]],[[139.60748568803515,35.312902658579624],[139.6075521332846,35.31321686014713]],[[139.6101434980132,35.31438504546222],[139.60934615501978,35.3127012473184],[139.60748568803515,35.312902658579624]],[[139.63204828191576,35.341776976988335],[139.62944215157617,35.34179308988923]],[[139.62944215157617,35.34179308988923],[139.62445875786727,35.341688356033394]],[[139.62445875786727,35.341688356033394],[139.6245694999497,35.34432281533017],[139.62765551264647,35.345039839420124],[139.62823875428055,35.34619996828476]],[[139.63319999957292,35.34565212965423],[139.63385706926195,35.3423973236729],[139.63204828191576,35.341776976988335]],[[139.61709810078915,35.352798201202376],[139.61636720304517,35.35386970911207],[139.61295634690666,35.35537626534601],[139.61257244102094,35.35633498294942]],[[139.61257244102094,35.35633498294942],[139.61384228356602,35.35628664424673]],[[139.61384228356602,35.35628664424673],[139.6203243867903,35.3561335716882]],[[139.6203243867903,35.3561335716882],[139.6192169659661,35.35349105594097],[139.61709810078915,35.352798201202376]],[[139.62198551802658,35.34736815359984],[139.62070090987052,35.35050211282445],[139.61709810078915,35.352798201202376]],[[139.6203243867903,35.3561335716882],[139.62372047731782,35.35602883783236]],[[139.62350637595847,35.34893110498692],[139.6231667669057,35.346836427870215],[139.62198551802658,35.34736815359984]],[[139.62738234884316,35.33782125981794],[139.6260755922706,35.33836909844847]],[[139.6260755922706,35.33836909844847],[139.62385336781674,35.34110829160108]],[[139.62370571170683,35.3413258157632],[139.62445875786727,35.341688356033394]],[[139.62944215157617,35.34179308988923],[139.62738234884316,35.33782125981794]],[[139.6146913061979,35.33268124443157],[139.61049787267694,35.33471952639513]],[[139.61049787267694,35.33471952639513],[139.61009181837474,35.334783977998725]],[[139.61009181837474,35.334783977998725],[139.610453575844,35.336693356755106],[139.6130301749616,35.33973063857432],[139.61280130799128,35.34150305767307]],[[139.61280130799128,35.34150305767307],[139.61375368990008,35.34069741262819],[139.61999216054303,35.340310703006644]],[[139.61999216054303,35.340310703006644],[139.62037606642875,35.33977092082657]],[[139.61989618407162,35.335533227890465],[139.61622692974078,35.33609717942189],[139.61616048449133,35.333221026611646],[139.6146913061979,35.33268124443157]],[[139.62504199950135,35.328910825621506],[139.62385336781674,35.32811323702707]],[[139.62385336781674,35.32811323702707],[139.62013243384743,35.32941032554933]],[[139.62013243384743,35.32941032554933],[139.61862634152652,35.32918474493677],[139.6175927487573,35.3303770996032],[139.61524501661,35.33109412369315],[139.6146913061979,35.33268124443157]],[[139.6236023524299,35.3324878896208],[139.62192645558264,35.33144055106245],[139.62504199950135,35.328910825621506]],[[139.61625646096275,35.32493899555022],[139.6119375197484,35.32678392270301]],[[139.6119375197484,35.32678392270301],[139.61153884825168,35.32710618072096]],[[139.61153884825168,35.32710618072096],[139.6146765405869,35.3279198822163]],[[139.6146765405869,35.3279198822163],[139.61970423112874,35.327654019351485]],[[139.61970423112874,35.327654019351485],[139.61625646096275,35.32493899555022]],[[139.6146765405869,35.3279198822163],[139.61049787267694,35.33471952639513]],[[139.62013243384743,35.32941032554933],[139.61970423112874,35.327654019351485]],[[139.60580979118785,35.318381044884845],[139.60366139478893,35.31701144830854]],[[139.60366139478893,35.31701144830854],[139.5987592119405,35.31574658558807],[139.59599065988002,35.31652806128161],[139.59534835580197,35.319098068974796],[139.59287511596128,35.32016152043405],[139.59323687343053,35.321104125136564]],[[139.59323687343053,35.321104125136564],[139.59630812051628,35.322062842739975]],[[139.59630812051628,35.322062842739975],[139.5979323377251,35.321224971893294],[139.6006492101471,35.3219339395328],[139.60213315405153,35.323343818361344]],[[139.60213315405153,35.323343818361344],[139.60333655134716,35.321732528271575],[139.60603865815818,35.32134581865003]],[[139.60603865815818,35.32134581865003],[139.60617893146258,35.32091077032579]],[[139.64335873993352,35.378909157107124],[139.6505200612633,35.37311656923439],[139.65403427667874,35.374872875432246],[139.65652966493593,35.372705690261505],[139.65650013371396,35.36659084437082],[139.65102209203695,35.36636526375825]],[[139.64276073268846,35.36628469925376],[139.64245803766318,35.37467952062147],[139.64143182769942,35.37735426217049]],[[139.64143182769942,35.37735426217049],[139.6414465933104,35.37737037507139]],[[139.6414465933104,35.37737037507139],[139.64335873993352,35.378909157107124]],[[139.60603865815818,35.32134581865003],[139.60583193960434,35.323714415081994],[139.6082608826121,35.32283626198306],[139.60833471066704,35.32485843104573]],[[139.60833471066704,35.32485843104573],[139.60953072515716,35.324834261694384],[139.6119375197484,35.32678392270301]],[[139.60255397396475,35.32758956774789],[139.60222174771746,35.32891888207195]],[[139.60222174771746,35.32891888207195],[139.6024801459098,35.328910825621506]],[[139.6024801459098,35.328910825621506],[139.6061641658516,35.32881414821612],[139.61144287178027,35.327146462973204]],[[139.61144287178027,35.327146462973204],[139.61153884825168,35.32710618072096]],[[139.60833471066704,35.32485843104573],[139.60583932240985,35.326582511441785],[139.6036909260109,35.32655028563999],[139.60255397396475,35.32758956774789]],[[139.5995713205449,35.33030459154916],[139.59840483727675,35.33076380922474],[139.59660343273606,35.33353522817915]],[[139.59660343273606,35.33353522817915],[139.597408158535,35.33451005868346]],[[139.597408158535,35.33451005868346],[139.60087069431196,35.333551341080046],[139.6038311993153,35.33449394578257]],[[139.6038311993153,35.33449394578257],[139.60374998845487,35.331521115566936]],[[139.60374998845487,35.331521115566936],[139.6031445984043,35.330385156053644],[139.60030221828887,35.33167418812546],[139.5995713205449,35.33030459154916]],[[139.6381907760873,35.366324981506004],[139.63659609010045,35.3674287152175],[139.63827936975323,35.3688305375956],[139.63630077788068,35.37099772276635],[139.6358356611345,35.373084343432595]],[[139.6358356611345,35.373084343432595],[139.64143182769942,35.37735426217049]],[[139.64276811549396,35.36626858635287],[139.6381907760873,35.366324981506004]],[[139.62950859682562,35.360330982372055],[139.6299367995443,35.364504223704564]],[[139.6299367995443,35.364504223704564],[139.62982605746188,35.36749316682109]],[[139.62982605746188,35.36749316682109],[139.632380508163,35.36806517480296]],[[139.632380508163,35.36806517480296],[139.63574706746857,35.367114513649994]],[[139.63574706746857,35.367114513649994],[139.63527456791692,35.36497955428105]],[[139.59630812051628,35.322062842739975],[139.5944771847536,35.32265902007319],[139.59506042638768,35.325277366469074],[139.5971202291207,35.32647777758595]],[[139.5971202291207,35.32647777758595],[139.60044249159327,35.324600624631366]],[[139.60044249159327,35.324600624631366],[139.60213315405153,35.323343818361344]],[[139.61293419849017,35.35794627303919],[139.6111032627275,35.35956561957941],[139.60755951609008,35.35971063568749]],[[139.60755951609008,35.35971063568749],[139.60748568803515,35.36129775642592],[139.6094716627132,35.36150722413759],[139.6104314274275,35.36428669954245],[139.6109777550341,35.362780143308505],[139.61308923740557,35.36327158678589],[139.61286775324072,35.365060118785536],[139.61417450981327,35.36527764294765]],[[139.61417450981327,35.36527764294765],[139.61506782927813,35.363360207740826]],[[139.61506782927813,35.363360207740826],[139.6132885731539,35.36227258693023],[139.61329595595942,35.359186966408316]],[[139.61329595595942,35.359186966408316],[139.61293419849017,35.35794627303919]],[[139.621409659198,35.341704468934296],[139.62033915240127,35.342550396231424]],[[139.62033915240127,35.342550396231424],[139.62019887909688,35.34509623457326],[139.61863372433203,35.346135516681166],[139.61937200488148,35.34873775017615]],[[139.61937200488148,35.34873775017615],[139.62198551802658,35.34736815359984]],[[139.61144287178027,35.327146462973204],[139.6103059197341,35.329055841729584],[139.6073823287582,35.33062684956711],[139.6074118599802,35.332640962179326]],[[139.6074118599802,35.332640962179326],[139.6083863903055,35.333736639440374]],[[139.6083863903055,35.333736639440374],[139.6100179903198,35.33486454250321]],[[139.6100179903198,35.33486454250321],[139.61009181837474,35.334783977998725]],[[139.62982605746188,35.36749316682109],[139.62973746379595,35.367509279721986]],[[139.62973746379595,35.367509279721986],[139.62908039410692,35.37106217436993],[139.62738973164866,35.373100456333496]],[[139.63274226563226,35.37136026303654],[139.6340416393993,35.36958784393779],[139.632380508163,35.36806517480296]],[[139.60748568803515,35.312902658579624],[139.603558035512,35.31542432757011],[139.60366139478893,35.31701144830854]],[[139.62044251167822,35.32294905228935],[139.61765181120123,35.32379497958648]],[[139.62385336781674,35.32811323702707],[139.6207156754815,35.326743640450765],[139.6215499325024,35.32335187481179]],[[139.6260755922706,35.33836909844847],[139.6249534058354,35.33550100208867]],[[139.6038311993153,35.33449394578257],[139.60597221290874,35.33503372796264],[139.6083863903055,35.333736639440374]],[[139.6074118599802,35.332640962179326],[139.6065923685703,35.330731583422946],[139.60374998845487,35.331521115566936]],[[139.60680646992964,35.35826853105715],[139.60661451698678,35.359122514804724]],[[139.60661451698678,35.359122514804724],[139.60755951609008,35.35971063568749]],[[139.61293419849017,35.35794627303919],[139.61384228356602,35.35628664424673]],[[139.61257244102094,35.35633498294942],[139.61091869259013,35.35638332165212],[139.60680646992964,35.35826853105715]],[[139.62738234884316,35.33782125981794],[139.62860051174977,35.336902824466776],[139.63164961041906,35.33749094534954]],[[139.63164961041906,35.33749094534954],[139.63231406291357,35.33432476032314]],[[139.63231406291357,35.33432476032314],[139.63026902579156,35.3338897119989],[139.6282830511135,35.334574510287055]],[[139.63231406291357,35.33432476032314],[139.63331812446083,35.33181920423355]],[[139.63331812446083,35.33181920423355],[139.62930926107725,35.32952311585562],[139.62694676331898,35.33076380922474]],[[139.60688768079007,35.3533138140311],[139.60732326631427,35.35656056356199]],[[139.60732326631427,35.35656056356199],[139.61022470887366,35.35627858779628],[139.61089654417367,35.35449005579663],[139.6159537659375,35.35344271723828],[139.61545173516384,35.35167029813953]],[[139.61545173516384,35.35167029813953],[139.6135765025682,35.3511546853108],[139.61091869259013,35.35183948359896],[139.6086447884978,35.34959979037418],[139.6075226020626,35.35078408859016],[139.6097226781,35.3518958787521],[139.60688768079007,35.3533138140311]],[[139.61824981844632,35.36950727943331],[139.61903239582873,35.371771142009436],[139.62180094788923,35.373052117630806],[139.62146133883647,35.37581548013476]],[[139.6260755922706,35.37380942397299],[139.62629707643543,35.37372885946851]],[[139.62638567010137,35.37369663366671],[139.62529301488817,35.370441827685376]],[[139.62529301488817,35.370441827685376],[139.62277547821452,35.369982610009785],[139.62129891711558,35.368862763397395]],[[139.62129891711558,35.368862763397395],[139.61824981844632,35.36950727943331]],[[139.5957248788822,35.33931975960143],[139.59658866712508,35.3392311386465]],[[139.59658866712508,35.3392311386465],[139.59852296216468,35.33803072752961]],[[139.59852296216468,35.33803072752961],[139.60378690248234,35.337764864664805],[139.6087850618022,35.33927142089874]],[[139.6087850618022,35.33927142089874],[139.60641518123842,35.337047840574854],[139.6004055775658,35.336274421331765],[139.59939413321302,35.336628905151514],[139.597408158535,35.33451005868346]],[[139.59660343273606,35.33353522817915],[139.593960388369,35.334083066809676]],[[139.593960388369,35.334083066809676],[139.59570273046572,35.33931170315098]],[[139.59570273046572,35.33931170315098],[139.5957248788822,35.33931975960143]],[[139.65696525046013,35.35090493534689],[139.65695786765463,35.345764919960516]],[[139.65695786765463,35.345764919960516],[139.64409702048297,35.34569241190648]],[[139.64409702048297,35.34569241190648],[139.64390506754012,35.34917279850038]],[[139.64390506754012,35.34917279850038],[139.6438312394852,35.350848540193745]],[[139.6438312394852,35.350848540193745],[139.65696525046013,35.35090493534689]],[[139.60252444274275,35.34264707363681],[139.60051631964822,35.34358967833933]],[[139.60051631964822,35.34358967833933],[139.60144655314053,35.344927049113835],[139.6016015920559,35.347400379401634]],[[139.6016015920559,35.347400379401634],[139.60803939844723,35.34700561332964]],[[139.60803939844723,35.34700561332964],[139.60707963373295,35.346232194086554],[139.60650377490435,35.34329964612317],[139.60491647172302,35.34206700920449]],[[139.60491647172302,35.34206700920449],[139.60252444274275,35.34264707363681]],[[139.59852296216468,35.33803072752961],[139.60250229432626,35.340149573997664]],[[139.60250229432626,35.340149573997664],[139.60431108167245,35.33857050970969],[139.6067400246802,35.33940032410592],[139.60745615681316,35.340777977132674],[139.6096045532121,35.34136609801544],[139.6090508428,35.339287533799634]],[[139.6090508428,35.339287533799634],[139.6087850618022,35.33927142089874]],[[139.65695786765463,35.345764919960516],[139.65677329751725,35.34180920279013],[139.64622326846543,35.33981120307881],[139.6446138168676,35.33973063857432]],[[139.6446138168676,35.33973063857432],[139.64409702048297,35.34569241190648]],[[139.63999218062798,35.34258262203322],[139.6374820267598,35.34374275089785],[139.6333698040993,35.34004484014183]],[[139.6333698040993,35.34004484014183],[139.63204828191576,35.341776976988335]],[[139.64208889738845,35.35137220947293],[139.64390506754012,35.34917279850038]],[[139.6446138168676,35.33973063857432],[139.64294530282584,35.34218785596123],[139.642022452139,35.341615847979355],[139.64060495348403,35.34474980720396],[139.63834581500268,35.34371052509606],[139.63999218062798,35.34258262203322]],[[139.63527456791692,35.373052117630806],[139.6358356611345,35.373084343432595]],[[139.6381907760873,35.366324981506004],[139.63574706746857,35.367114513649994]],[[139.62354328998595,35.38056072944914],[139.62875555066515,35.382236471142505],[139.62939047193768,35.38394443863766]],[[139.62939047193768,35.38394443863766],[139.632410039385,35.383130737142324],[139.63264628916082,35.382220358241604]],[[139.63264628916082,35.382220358241604],[139.63195230544434,35.380327092386125]],[[139.63195230544434,35.380327092386125],[139.63125832172784,35.378884987755775],[139.62724207553876,35.377185076711065]],[[139.62504199950135,35.328910825621506],[139.62897703483,35.32613135021665]],[[139.61417450981327,35.36527764294765],[139.61458056411547,35.36654250566813],[139.61634505462868,35.36665529597441],[139.61848606822213,35.368629126334376],[139.61824981844632,35.36950727943331]],[[139.62129891711558,35.368862763397395],[139.62283454065846,35.365922158983565]],[[139.62283454065846,35.365922158983565],[139.62200028363756,35.36551128001067]],[[139.62200028363756,35.36551128001067],[139.6181021623364,35.36378719961461]],[[139.6181021623364,35.36378719961461],[139.61506782927813,35.363360207740826]],[[139.63331812446083,35.33181920423355],[139.63494972447515,35.33268124443157],[139.63553296610922,35.33500955861129],[139.63379800681798,35.3359843891156],[139.63630077788068,35.339569509565344],[139.63889214260928,35.34080214648402],[139.64219963947087,35.33865107421418]],[[139.64219963947087,35.33865107421418],[139.64177143675218,35.335573510142716],[139.64346209921044,35.33432476032314],[139.64729377526217,35.33384942974666],[139.6487408051391,35.33537209888149],[139.6464004557973,35.33510623601668],[139.64624541688192,35.33671752610645],[139.64785486847975,35.33633887293536],[139.64885893002702,35.337724582412555],[139.64782533725779,35.33859467906103],[139.64233991277527,35.338723582268216]],[[139.64233991277527,35.338723582268216],[139.63999218062798,35.34258262203322]],[[139.65696525046013,35.35090493534689],[139.6569726332656,35.35356356399502],[139.65486853369964,35.35377303170669],[139.65226978616553,35.35787376498515]],[[139.64335873993352,35.378909157107124],[139.64406010645553,35.379537560242134]],[[139.64406010645553,35.379537560242134],[139.64612729199402,35.378047116909094],[139.65131002145122,35.382703745268536],[139.64951599971604,35.38411362409708]],[[139.64951599971604,35.38411362409708],[139.65334767576775,35.38733620427663],[139.6457286204973,35.39047821995168],[139.63963042315874,35.385297922313065],[139.63264628916082,35.382220358241604]],[[139.62939047193768,35.38394443863766],[139.62985558868385,35.38528986586262],[139.65046099881934,35.39324963890609],[139.66161641792172,35.38732814782618],[139.66162380072723,35.33747483244864],[139.64894752369295,35.32740426938757],[139.64061233628954,35.33057045441397],[139.63791022947848,35.32593799540588],[139.63435910003557,35.322199802397606],[139.63233621133006,35.32359356832526],[139.63164961041906,35.32505984230695]],[[139.6333698040993,35.34004484014183],[139.63164961041906,35.33749094534954]],[[139.6181021623364,35.36378719961461],[139.61888473971885,35.359186966408316]],[[139.61888473971885,35.359186966408316],[139.61329595595942,35.359186966408316]],[[139.6260977406871,35.36725952975807],[139.62653332621127,35.36915279561356],[139.62529301488817,35.370441827685376]],[[139.62973746379595,35.367509279721986],[139.6260977406871,35.36725952975807]],[[139.60250229432626,35.340149573997664],[139.60491647172302,35.34206700920449]],[[139.60491647172302,35.34206700920449],[139.61008443556926,35.342639017186364],[139.6119079885264,35.34244566237559]],[[139.6119079885264,35.34244566237559],[139.61050525548245,35.338868598376294]],[[139.61050525548245,35.338868598376294],[139.6090508428,35.339287533799634]],[[139.61937200488148,35.34873775017615],[139.61966731710126,35.34987370968943],[139.6165960700155,35.35125136271619],[139.61528931344296,35.34995427419393]],[[139.61528931344296,35.34995427419393],[139.61545173516384,35.35167029813953]],[[139.60732326631427,35.35656056356199],[139.60680646992964,35.35826853105715]],[[139.60044249159327,35.324600624631366],[139.60255397396475,35.32758956774789]],[[139.64406010645553,35.379537560242134],[139.64951599971604,35.38411362409708]],[[139.61266841749236,35.34316268646554],[139.6119079885264,35.34244566237559]],[[139.60803939844723,35.34700561332964],[139.60860787447032,35.34691699237471]],[[139.60860787447032,35.34691699237471],[139.61037974778904,35.3451848555282],[139.6130227921561,35.34450005724005]],[[139.6130227921561,35.34450005724005],[139.61266841749236,35.34316268646554]],[[139.5971202291207,35.32647777758595],[139.59787327528113,35.32782320481091],[139.60222174771746,35.32891888207195]],[[139.60688768079007,35.3533138140311],[139.60703533689997,35.35218591096826]],[[139.60703533689997,35.35218591096826],[139.60443658936586,35.35237120932858],[139.60417080836805,35.3532815882293],[139.6001471793735,35.35441754774259],[139.5936503105382,35.349100290446344],[139.593273787458,35.34654639565406],[139.5941006616734,35.34633692794239]],[[139.5941006616734,35.34633692794239],[139.59256503813052,35.34320296871778]],[[139.59256503813052,35.34320296871778],[139.59125089875246,35.340359041709334]],[[139.59125089875246,35.340359041709334],[139.59184890599752,35.33604078426875]],[[139.59184890599752,35.33604078426875],[139.58939781457332,35.336604735800165]],[[139.58939781457332,35.336604735800165],[139.59028375123268,35.337797090466594],[139.59061597747993,35.340914936790305],[139.58893269782715,35.341591678628006]],[[139.58893269782715,35.341591678628006],[139.5890286742986,35.34441949273556],[139.58828301094363,35.3466027908072],[139.58911726796453,35.350357096716365],[139.59113277386456,35.352733749598784],[139.59016562634474,35.3547156364092],[139.59132472680741,35.35564212821082],[139.59469866891845,35.355319870192865],[139.59830886080533,35.35637526520166],[139.6010774128658,35.35523930568838],[139.60291573143397,35.35726953120149],[139.60506412783292,35.357422603760014],[139.60661451698678,35.359122514804724]],[[139.59658866712508,35.3392311386465],[139.59897331329984,35.33989982403375],[139.60045725720425,35.34163196088026],[139.60252444274275,35.34264707363681]],[[139.61888473971885,35.359186966408316],[139.62188215874966,35.3596622969848]],[[139.62188215874966,35.3596622969848],[139.62298957957387,35.35958978893076]],[[139.61050525548245,35.338868598376294],[139.60884412424616,35.3363791551876],[139.6100179903198,35.33486454250321]],[[139.63195230544434,35.380327092386125],[139.63848608830708,35.37891721355757],[139.6414465933104,35.37737037507139]],[[139.62200028363756,35.36551128001067],[139.62318153251672,35.36312657067781]],[[139.62318153251672,35.36312657067781],[139.62188215874966,35.3596622969848]],[[139.6024801459098,35.328910825621506],[139.5995713205449,35.33030459154916]],[[139.64233991277527,35.338723582268216],[139.64219963947087,35.33865107421418]],[[139.64304127929725,35.36148305478624],[139.63874448649938,35.36136220802951]],[[139.61307447179456,35.34505595232102],[139.6130227921561,35.34450005724005]],[[139.60860787447032,35.34691699237471],[139.60703533689997,35.35218591096826]],[[139.61528931344296,35.34995427419393],[139.61307447179456,35.34505595232102]],[[139.6438312394852,35.350848540193745],[139.64362452093133,35.354602846102914]],[[139.61280130799128,35.34150305767307],[139.6128899016572,35.34306600906015]],[[139.6128899016572,35.34306600906015],[139.6137389242891,35.34374275089785],[139.61663298404298,35.34323519451958],[139.61924649718807,35.34160779152891],[139.61999216054303,35.340310703006644]],[[139.5955772227723,35.34276792039354],[139.59256503813052,35.34320296871778]],[[139.5941006616734,35.34633692794239],[139.5964188625987,35.346393323095526],[139.59923171149214,35.34861690341941],[139.59990354679215,35.34815768574383]],[[139.59990354679215,35.34815768574383],[139.59581347254814,35.3451848555282],[139.5955772227723,35.34276792039354]],[[139.6016015920559,35.347400379401634],[139.59990354679215,35.34815768574383]],[[139.5955772227723,35.34276792039354],[139.5957248788822,35.33931975960143]],[[139.59570273046572,35.33931170315098],[139.59125089875246,35.340359041709334]],[[139.62283454065846,35.365922158983565],[139.6260977406871,35.36725952975807]],[[139.6299367995443,35.364504223704564],[139.62916160496735,35.36357773190294],[139.62318153251672,35.36312657067781]],[[139.6128899016572,35.34306600906015],[139.61266841749236,35.34316268646554]],[[139.61307447179456,35.34505595232102],[139.61596114874297,35.34566018610468],[139.61971161393424,35.34418585567254],[139.62033915240127,35.342550396231424]],[[139.5955772227723,35.34276792039354],[139.60051631964822,35.34358967833933]],[[139.59323687343053,35.321104125136564],[139.5930006236547,35.32393193924411],[139.59165695305467,35.32451200367643],[139.5909408209217,35.32697727751378],[139.58835683899858,35.32948283360337],[139.58944949421178,35.332197857404644],[139.5889843774656,35.33645971969209]],[[139.5889843774656,35.33645971969209],[139.58939781457332,35.336604735800165]],[[139.59184890599752,35.33604078426875],[139.593960388369,35.334083066809676]],[[139.5889843774656,35.33645971969209],[139.58780312858647,35.336709469656],[139.58893269782715,35.341591678628006]]]}