{"type":"Topology","bbox":[139.5878323556084,35.354700834035,139.6672921302901,35.42791228737479],"objects":{"town":{"type":"GeometryCollection","geometries":[{"type":"Polygon","arcs":[[0,1,2]],"properties":{"name":"東町"}},{"type":"MultiPolygon","arcs":[[[4,5,6,7,-23,25,26,27]]],"properties":{"name":"丸山"}},{"type":"Polygon","arcs":[[8,9,10,-1,11]],"properties":{"name":"鳳町"}},{"type":"Polygon","arcs":[[12,13,14,-2,-11]],"properties":{"name":"西町"}},{"type":"Polygon","arcs":[[15,-6,16,17,18]],"properties":{"name":"馬場町"}},{"type":"MultiPolygon","arcs":[[[137,-26,22,-8,-7,-16,-139,-81,-61,-54,24,19,20,-31]]],"properties":{"name":"滝頭"}},{"type":"MultiPolygon","arcs":[[[29,30,-21,-20,43,44,45,46,111,107,192,193,191,184,56]]],"properties":{"name":"岡村"}},{"type":"MultiPolygon","arcs":[[[225,-194,226,-169,-183,227,233,-181,37,38,39,33,-68,231],[40]]],"properties":{"name":"汐見台"}},{"type":"MultiPolygon","arcs":[[[206,187,-89,-92,85,-91,96,97,98,-125,-80,-79,-96,209,232,50,51,52,87,103,188,207]]],"properties":{"name":"杉田"}},{"type":"Polygon","arcs":[[-44,-25,53,54]],"properties":{"name":"広地町"}},{"type":"Polygon","arcs":[[59,60,61,62,63]],"properties":{"name":"中浜町"}},{"type":"MultiPolygon","arcs":[[[66,67,-34,64,-160,211]]],"properties":{"name":"森が丘"}},{"type":"MultiPolygon","arcs":[[[167,168,-227,-193,-108,-112,-47,-46,-165,-164,71,-166,-64,-107,-204,-178,73,-177,205,-127,204,-184,171]]],"properties":{"name":"磯子"}},{"type":"MultiPolygon","arcs":[[[134,135,136,94,95,78,79,75,-124,215,-198,216]]],"properties":{"name":"中原"}},{"type":"Polygon","arcs":[[-62,80,81,82,-14,83]],"properties":{"name":"下町"}},{"type":"Polygon","arcs":[[88,89,90,-86,91]],"properties":{"name":"杉田坪呑"}},{"type":"Polygon","arcs":[[-17,-5,-28,102]],"properties":{"name":"上町"}},{"type":"Polygon","arcs":[[-10,105,106,-63,-84,-13]],"properties":{"name":"原町"}},{"type":"MultiPolygon","arcs":[[[-150,-146,113,114,-121,122,123,-76,124,-99,-98,-221]]],"properties":{"name":"栗木"}},{"type":"MultiPolygon","arcs":[[[120,-115,116,117,118,-132,217,-199,-216,-123]]],"properties":{"name":"田中"}},{"type":"MultiPolygon","arcs":[[[126,127,-219,-214,-135,-217,197,198,194,230,158,159,-65,-40,-39,-180,-205]]],"properties":{"name":"森"}},{"type":"MultiPolygon","arcs":[[[130,131,-119,-118,-117,-114,145,149,150,151,147,229,141,221]]],"properties":{"name":"洋光台"}},{"type":"Polygon","arcs":[[138,-19,139,-82]],"properties":{"name":"坂下町"}},{"type":"Polygon","arcs":[[155,-152,156,157]],"properties":{"name":"峰町"}},{"type":"Polygon","arcs":[[163,164,-45,-55,-60,165,-72]],"properties":{"name":"久木町"}},{"type":"Polygon","arcs":[[174,175,176,-74,177]],"properties":{"name":"新磯子町"}},{"type":"Polygon","arcs":[[179,-38,180,181,182,-168,-172,183]],"properties":{"name":"磯子台"}},{"type":"Polygon","arcs":[[189,190,-158]],"properties":{"name":"氷取沢町"}},{"type":"Polygon","arcs":[[-9,199,-52,200,201,202,-175,203,-106]],"properties":{"name":"水面"}},{"type":"Polygon","arcs":[[-202,212,-136,213,214]],"properties":{"name":"新中原町"}},{"type":"Polygon","arcs":[[-176,-203,-215,218,-128,-206]],"properties":{"name":"新森町"}},{"type":"Polygon","arcs":[[219,-190,-157,-151,220,-97,-90,-188,-207]],"properties":{"name":"上中里町"}},{"type":"Polygon","arcs":[[-233,-210,-95,-137,-213,-201,-51]],"properties":{"name":"新杉田町"}}]}},"arcs":[[[139.639192343984,35.4164608709308],[139.63483751284835,35.41520882987459]],[[139.63483751284835,35.41520882987459],[139.63336736000144,35.418686721697405]],[[139.63336736000144,35.418686721697405],[139.63401104854523,35.41830598406628],[139.63844534740235,35.419184609368884],[139.639192343984,35.4164608709308]],[[139.62009625051866,35.42213532601014],[139.62424446557856,35.42388525473783]],[[139.62424446557856,35.42388525473783],[139.62481663317303,35.4225599949064]],[[139.62481663317303,35.4225599949064],[139.62529343950175,35.421395816380446]],[[139.62529343950175,35.421395816380446],[139.6236405108955,35.42058308797554]],[[139.6236405108955,35.42058308797554],[139.62195579520068,35.42031950038475],[139.62009625051866,35.42213532601014]],[[139.64229158512072,35.41154789111372],[139.63366933734298,35.40825304622894],[139.62987872702962,35.413129416658414]],[[139.62987872702962,35.413129416658414],[139.63130119924367,35.413883570043154]],[[139.63130119924367,35.413883570043154],[139.63483751284835,35.41520882987459]],[[139.639192343984,35.4164608709308],[139.64229158512072,35.41154789111372]],[[139.63130119924367,35.413883570043154],[139.62972773835887,35.41765433696684]],[[139.62972773835887,35.41765433696684],[139.6317780055724,35.41799846521037],[139.63223891835682,35.419177287491365]],[[139.63223891835682,35.419177287491365],[139.63336736000144,35.418686721697405]],[[139.6255318426661,35.42078077866862],[139.62529343950175,35.421395816380446]],[[139.62481663317303,35.4225599949064],[139.62832115968914,35.423848645350226]],[[139.62832115968914,35.423848645350226],[139.63042705430766,35.421395816380446]],[[139.63042705430766,35.421395816380446],[139.627876140449,35.42031950038475],[139.6255318426661,35.42078077866862]],[[139.62037438754376,35.41873065296254],[139.61983400703787,35.41907478120606]],[[139.61983400703787,35.41907478120606],[139.61902343627904,35.41984357834584]],[[139.61902343627904,35.41984357834584],[139.61995320862005,35.42214264788766]],[[139.61995320862005,35.42214264788766],[139.62009625051866,35.42213532601014]],[[139.6236405108955,35.42058308797554],[139.62370408507266,35.41921389687897]],[[139.62370408507266,35.41921389687897],[139.62037438754376,35.41873065296254]],[[139.61995320862005,35.42214264788766],[139.61620233216743,35.42461744249001]],[[139.61620233216743,35.42461744249001],[139.6164248417875,35.42526908958944],[139.62318754488322,35.426403980605315]],[[139.62318754488322,35.426403980605315],[139.62424446557856,35.42388525473783]],[[139.61291236849925,35.417954533945235],[139.61195080906964,35.422574638661445]],[[139.61195080906964,35.422574638661445],[139.61319050552433,35.422362304213316]],[[139.61319050552433,35.422362304213316],[139.6145494035612,35.42023163785449],[139.61902343627904,35.41984357834584]],[[139.61983400703787,35.41907478120606],[139.61753738988784,35.417354139988454]],[[139.61753738988784,35.417354139988454],[139.6160433967245,35.4184817091268],[139.61291236849925,35.417954533945235]],[[139.60458415129088,35.396904136070255],[139.60461593837945,35.396984676722994]],[[139.60461593837945,35.396984676722994],[139.60648342983362,35.398068314596216],[139.60805689071842,35.400916524952166]],[[139.60805689071842,35.400916524952166],[139.61065548520995,35.40252001612942]],[[139.61065548520995,35.40252001612942],[139.61190312843678,35.40226375041617]],[[139.61190312843678,35.40226375041617],[139.6122209993226,35.39995735899682]],[[139.6122209993226,35.39995735899682],[139.6125547637527,35.39823671777921],[139.60924890654022,35.396223201460735]],[[139.60924890654022,35.396223201460735],[139.60755624407327,35.397526495659605],[139.60458415129088,35.396904136070255]],[[139.6088754082494,35.399086055571736],[139.6101548385648,35.39910069932678],[139.6102263595141,35.401516918908946],[139.60859727122428,35.40083598429943],[139.6088754082494,35.399086055571736]],[[139.61634537406604,35.412214181968196],[139.61505005020635,35.413993398205974]],[[139.61505005020635,35.413993398205974],[139.61753738988784,35.417354139988454]],[[139.62037438754376,35.41873065296254],[139.62146309532767,35.41670981476654]],[[139.62146309532767,35.41670981476654],[139.62142336146695,35.416702492889016]],[[139.62142336146695,35.416702492889016],[139.61923005235482,35.417273599335715],[139.61881682020325,35.414608435917806]],[[139.61881682020325,35.414608435917806],[139.61808571716588,35.41251437894659],[139.61634537406604,35.412214181968196]],[[139.62140746792267,35.37572926627741],[139.61819697197592,35.37909000805988]],[[139.61819697197592,35.37909000805988],[139.61814929134306,35.379185192467666]],[[139.61814929134306,35.379185192467666],[139.6193651474813,35.38034937099362],[139.6188088734311,35.381872321518145],[139.62151077596053,35.38362957212336]],[[139.62151077596053,35.38362957212336],[139.6274708550696,35.38595060729775]],[[139.6274708550696,35.38595060729775],[139.62939397392876,35.38394441285679]],[[139.62939397392876,35.38394441285679],[139.62875823215714,35.382238415394234],[139.62354514962976,35.38056170544176],[139.62151077596053,35.377991726431624],[139.62140746792267,35.37572926627741]],[[139.62370408507266,35.41921389687897],[139.62364845766766,35.41662195223628]],[[139.62364845766766,35.41662195223628],[139.62146309532767,35.41670981476654]],[[139.6103455610963,35.416307111502846],[139.6070555974281,35.41661463035876]],[[139.6070555974281,35.41661463035876],[139.60746882957966,35.42008520030406],[139.61007537084333,35.42136652887036],[139.61086210128573,35.42373149530988],[139.61195080906964,35.422574638661445]],[[139.61291236849925,35.417954533945235],[139.61286468786636,35.41789595892506]],[[139.61286468786636,35.41789595892506],[139.6103455610963,35.416307111502846]],[[139.62491994121092,35.413436935514326],[139.62364845766766,35.41662195223628]],[[139.62364845766766,35.41662195223628],[139.62689868747512,35.41721502431554]],[[139.62689868747512,35.41721502431554],[139.62697815519655,35.417193058682976]],[[139.62697815519655,35.417193058682976],[139.62720066481663,35.41476219534576]],[[139.62720066481663,35.41476219534576],[139.62491994121092,35.413436935514326]],[[139.60458415129088,35.396904136070255],[139.60451263034156,35.396713767254695]],[[139.60451263034156,35.396713767254695],[139.60144517629345,35.40004522152708],[139.5989181027512,35.40210266911069]],[[139.5989181027512,35.40210266911069],[139.60235905509018,35.40254198176199]],[[139.60235905509018,35.40254198176199],[139.60370205958273,35.40077008740173],[139.60461593837945,35.396984676722994]],[[139.61923005235482,35.40692778639751],[139.6202949198223,35.409036487123764]],[[139.6202949198223,35.409036487123764],[139.62094655513823,35.40987118116124]],[[139.62094655513823,35.40987118116124],[139.62146309532767,35.4106326564235]],[[139.62146309532767,35.4106326564235],[139.62418089140138,35.412843863435064]],[[139.62418089140138,35.412843863435064],[139.6265251891843,35.41057408140333]],[[139.6265251891843,35.41057408140333],[139.62267895146593,35.40544876713812]],[[139.62267895146593,35.40544876713812],[139.61923005235482,35.40692778639751]],[[139.61065548520995,35.38297792502392],[139.61026609337483,35.38520377579053]],[[139.61026609337483,35.38520377579053],[139.61396928919459,35.38734176402688]],[[139.61396928919459,35.38734176402688],[139.61507389052278,35.3850939476277]],[[139.61507389052278,35.3850939476277],[139.61508978406707,35.38507198199514]],[[139.61508978406707,35.38507198199514],[139.6156937387501,35.38349777832797],[139.61354016349873,35.382677728045536],[139.61065548520995,35.38297792502392]],[[139.62689868747512,35.41721502431554],[139.62650929563998,35.41810097149567]],[[139.62650929563998,35.41810097149567],[139.63126146538292,35.42036343164988]],[[139.63126146538292,35.42036343164988],[139.63223891835682,35.419177287491365]],[[139.62972773835887,35.41765433696684],[139.62697815519655,35.417193058682976]],[[139.6201518779237,35.372668721473325],[139.61942872165847,35.37471152530189],[139.6185068960896,35.37442597207854],[139.61571757906657,35.375817128807675]],[[139.61571757906657,35.375817128807675],[139.61709237064773,35.378116198349495]],[[139.61709237064773,35.378116198349495],[139.61819697197592,35.37909000805988]],[[139.62140746792267,35.37572926627741],[139.62180480652992,35.37305678098198],[139.6201518779237,35.372668721473325]],[[139.6143030536247,35.374491868976236],[139.6111720253994,35.37541442554398]],[[139.6111720253994,35.37541442554398],[139.6111005044501,35.376842191660714]],[[139.6111005044501,35.376842191660714],[139.6119269687532,35.37760366692297],[139.61709237064773,35.378116198349495]],[[139.61571757906657,35.375817128807675],[139.6143030536247,35.374491868976236]],[[139.61396928919459,35.38734176402688],[139.61372293925808,35.38819842369692]],[[139.61372293925808,35.38819842369692],[139.6170367432427,35.38932599283527],[139.61779168659652,35.388527908185395]],[[139.61779168659652,35.388527908185395],[139.61895191532972,35.38681458884531]],[[139.61895191532972,35.38681458884531],[139.61507389052278,35.3850939476277]],[[139.6111005044501,35.376842191660714],[139.61020251919766,35.37728882618954]],[[139.61020251919766,35.37728882618954],[139.60915354527447,35.377933151411455]],[[139.60915354527447,35.377933151411455],[139.60874825989507,35.37867998291867]],[[139.60874825989507,35.37867998291867],[139.61102103672863,35.38004185213771],[139.6120302767911,35.38170391833514],[139.616178491851,35.3829339937588]],[[139.616178491851,35.3829339937588],[139.6166314578633,35.382216449761664]],[[139.6166314578633,35.382216449761664],[139.61814929134306,35.379185192467666]],[[139.62318754488322,35.426403980605315],[139.6273675470317,35.42791228737479],[139.62946549487808,35.426433268115396],[139.62832115968914,35.423848645350226]],[[139.6201518779237,35.372668721473325],[139.61934130716486,35.371907246211066]],[[139.61934130716486,35.371907246211066],[139.6157255258387,35.37277854963615],[139.6143030536247,35.374491868976236]],[[139.62987872702962,35.413129416658414],[139.6308720735478,35.41014941250707],[139.6272801325381,35.4146743328155]],[[139.6272801325381,35.4146743328155],[139.62720066481663,35.41476219534576]],[[139.61515335824424,35.4113721660532],[139.6122368928669,35.41118911911516],[139.6107349529314,35.40956366230533]],[[139.6107349529314,35.40956366230533],[139.60915354527447,35.412294722620935]],[[139.60915354527447,35.412294722620935],[139.61075879324784,35.41245580392641],[139.61177598008246,35.41411054824633]],[[139.61177598008246,35.41411054824633],[139.61505005020635,35.413993398205974]],[[139.61634537406604,35.412214181968196],[139.61515335824424,35.4113721660532]],[[139.6084780696421,35.37810155459445],[139.60596688964418,35.378745879816364],[139.60387688856994,35.37742794186245]],[[139.60387688856994,35.37742794186245],[139.60247825667236,35.38097173058297]],[[139.60247825667236,35.38097173058297],[139.6029232759125,35.38222377163919],[139.604973543126,35.38316829383949]],[[139.604973543126,35.38316829383949],[139.6084780696421,35.37810155459445]],[[139.60247825667236,35.38097173058297],[139.6005074571803,35.37954396446624]],[[139.6005074571803,35.37954396446624],[139.59871148667546,35.38194554029336],[139.6007697006611,35.38456677244614]],[[139.6007697006611,35.38456677244614],[139.60218422610296,35.38571630721705]],[[139.60218422610296,35.38571630721705],[139.60463183192374,35.38346116894036]],[[139.60463183192374,35.38346116894036],[139.604973543126,35.38316829383949]],[[139.60915354527447,35.377933151411455],[139.6084780696421,35.37810155459445]],[[139.60463183192374,35.38346116894036],[139.60854164381928,35.384925544444705],[139.60880388730007,35.38603114795049]],[[139.60880388730007,35.38603114795049],[139.61026609337483,35.38520377579053]],[[139.61065548520995,35.38297792502392],[139.60734962799748,35.38181374649797],[139.60874825989507,35.37867998291867]],[[139.61424742621966,35.39516152922008],[139.614374574574,35.39783401451552],[139.6164248417875,35.40100438748242]],[[139.6164248417875,35.40100438748242],[139.6192618394434,35.40051382168847]],[[139.6192618394434,35.40051382168847],[139.61624206602815,35.39653072031665]],[[139.61624206602815,35.39653072031665],[139.61424742621966,35.39516152922008]],[[139.59598574382957,35.38282416559597],[139.59564403262732,35.385108591382746],[139.5931884800344,35.38595060729775]],[[139.5931884800344,35.38595060729775],[139.5973366950943,35.388139848676744],[139.60166768591353,35.387876261085964],[139.6021365454701,35.38653635749949]],[[139.6021365454701,35.38653635749949],[139.60218422610296,35.38571630721705]],[[139.6007697006611,35.38456677244614],[139.6001577992059,35.38515252264788],[139.59598574382957,35.38282416559597]],[[139.61372293925808,35.38819842369692],[139.61296799590426,35.39085626523731]],[[139.61296799590426,35.39085626523731],[139.61535202754789,35.390592677646524],[139.6144143084347,35.39279656278057],[139.61594803545879,35.392620837720045]],[[139.61594803545879,35.392620837720045],[139.61807777039374,35.38875488638857]],[[139.61807777039374,35.38875488638857],[139.61779168659652,35.388527908185395]],[[139.61319050552433,35.422362304213316],[139.61620233216743,35.42461744249001]],[[139.62650929563998,35.41810097149567],[139.6255318426661,35.42078077866862]],[[139.63042705430766,35.421395816380446],[139.63126146538292,35.42036343164988]],[[139.59558045845017,35.37829192341002],[139.59284676883215,35.377435263739976],[139.59233817541485,35.37851157973567]],[[139.59233817541485,35.37851157973567],[139.5922428141491,35.38032740536106]],[[139.5922428141491,35.38032740536106],[139.59598574382957,35.38282416559597]],[[139.6005074571803,35.37954396446624],[139.59558045845017,35.37829192341002]],[[139.59836182870106,35.37397933754972],[139.59558045845017,35.37829192341002]],[[139.60387688856994,35.37742794186245],[139.60387688856994,35.375692656889804]],[[139.60387688856994,35.375692656889804],[139.60165973914138,35.37448454709872],[139.59836182870106,35.37397933754972]],[[139.59655791142404,35.36795343234933],[139.59365733959098,35.371855993068415]],[[139.59365733959098,35.371855993068415],[139.59632745503183,35.371929211843636],[139.59577118098164,35.3732325060425],[139.59836182870106,35.37397933754972]],[[139.60387688856994,35.375692656889804],[139.60419475945577,35.37277122775863]],[[139.60419475945577,35.37277122775863],[139.6030663178111,35.371380071029506]],[[139.6030663178111,35.371380071029506],[139.6024703099002,35.369813189239856],[139.60073791357252,35.36982783299489],[139.59655791142404,35.36795343234933]],[[139.60915354527447,35.412294722620935],[139.60872441957864,35.412968335352936]],[[139.60872441957864,35.412968335352936],[139.6103455610963,35.416307111502846]],[[139.61286468786636,35.41789595892506],[139.61177598008246,35.41411054824633]],[[139.59253684471847,35.36159804266047],[139.59121768054234,35.36313563694004],[139.59151171111174,35.364702518729686],[139.59365733959098,35.36515647513603],[139.59655791142404,35.36795343234933]],[[139.6030663178111,35.371380071029506],[139.60466361901234,35.369769257974724],[139.60386099502566,35.36909564524272],[139.6044649497087,35.36665013815047],[139.60339213546908,35.364497506159076]],[[139.60339213546908,35.364497506159076],[139.6025020969888,35.36300384314465],[139.6008571151547,35.363194211960206],[139.60039620237026,35.3612026612743],[139.5980201174988,35.35997990772817],[139.59379243471744,35.36080727988812],[139.59253684471847,35.36159804266047]],[[139.60390867565852,35.393843591266176],[139.60363848540558,35.39611337329791]],[[139.60363848540558,35.39611337329791],[139.60451263034156,35.396713767254695]],[[139.60924890654022,35.396223201460735],[139.6098210741347,35.39491258538435]],[[139.6098210741347,35.39491258538435],[139.60973365964108,35.39484668848665]],[[139.60973365964108,35.39484668848665],[139.60778670046548,35.393924131918915],[139.60390867565852,35.393843591266176]],[[139.62146309532767,35.4106326564235],[139.6211690647583,35.41383963877802]],[[139.6211690647583,35.41383963877802],[139.62142336146695,35.416702492889016]],[[139.62491994121092,35.413436935514326],[139.62418089140138,35.412843863435064]],[[139.6211690647583,35.41383963877802],[139.61881682020325,35.414608435917806]],[[139.6140964375489,35.406239529910465],[139.6125229766641,35.40599790795225]],[[139.6125229766641,35.40599790795225],[139.61182366071532,35.40779176794507]],[[139.61182366071532,35.40779176794507],[139.61363552476448,35.40768926165977],[139.6173864012171,35.40967349046816],[139.61903932982332,35.40926346532694]],[[139.61903932982332,35.40926346532694],[139.6185625234946,35.40755014598685],[139.6140964375489,35.406239529910465]],[[139.61809366393803,35.40424797922455],[139.61725130609062,35.40545608901564],[139.61867377830464,35.40683260198973],[139.6140964375489,35.406239529910465]],[[139.61903932982332,35.40926346532694],[139.6202949198223,35.409036487123764]],[[139.61923005235482,35.40692778639751],[139.61809366393803,35.40424797922455]],[[139.62778077918324,35.409168280919154],[139.6307290316492,35.40498016697673],[139.63131709278795,35.40484105130381],[139.64202934163993,35.40688385513238],[139.6448822328401,35.40547073277068],[139.645422613346,35.402820213107816],[139.63220713126822,35.40035274038299],[139.62968800449815,35.40139244699108],[139.62625499893133,35.40166335645938],[139.62383918019913,35.398412442839735]],[[139.62383918019913,35.398412442839735],[139.61928567975983,35.40054310919856]],[[139.61928567975983,35.40054310919856],[139.62267895146593,35.40544876713812]],[[139.6265251891843,35.41057408140333],[139.62778077918324,35.409168280919154]],[[139.62094655513823,35.40987118116124],[139.61912674431693,35.41061801266846],[139.61717183836916,35.41017137813964],[139.61515335824424,35.4113721660532]],[[139.6142712665361,35.4011654687879],[139.6122209993226,35.39995735899682]],[[139.61190312843678,35.40226375041617],[139.61295210235997,35.40381598845077]],[[139.61295210235997,35.40381598845077],[139.61259449761343,35.40551466403581]],[[139.61259449761343,35.40551466403581],[139.6125229766641,35.40599790795225]],[[139.61809366393803,35.40424797922455],[139.6142712665361,35.40254930363951],[139.6142712665361,35.4011654687879]],[[139.60665031204869,35.41165771927655],[139.6056569655305,35.41211899756041],[139.6070555974281,35.41661463035876]],[[139.60872441957864,35.412968335352936],[139.60665031204869,35.41165771927655]],[[139.6180221429887,35.37027446752372],[139.61295210235997,35.37039893944159]],[[139.61295210235997,35.37039893944159],[139.6111720253994,35.37541442554398]],[[139.61934130716486,35.371907246211066],[139.6180221429887,35.37027446752372]],[[139.60339213546908,35.364497506159076],[139.60680130071944,35.36468787497464],[139.60995616926115,35.36657691937525],[139.61321434584076,35.36523701578877]],[[139.61321434584076,35.36523701578877],[139.61308719748644,35.363274752612945],[139.6109813028679,35.362776864941466],[139.61043297558987,35.36428517171095],[139.6094714161603,35.36151018013021],[139.60748472312395,35.36129784568208],[139.60767544565545,35.35979686079013],[139.60506890439174,35.357424572473086],[139.60291532914036,35.357270813045126],[139.60107962477477,35.35524265297161],[139.59830620129603,35.35637754398748],[139.59469836674202,35.35532319362435],[139.59132098858024,35.35564535623531],[139.58966011320186,35.354869237218],[139.58899258434164,35.35634825647739],[139.591853422314,35.35782727573678],[139.59253684471847,35.36159804266047]],[[139.60874825989507,35.406107736115075],[139.60770723274402,35.40610041423755],[139.6062370798971,35.408538599452285],[139.60665031204869,35.41165771927655]],[[139.6107349529314,35.40956366230533],[139.6117839268546,35.407857664842766]],[[139.6117839268546,35.407857664842766],[139.60874825989507,35.406107736115075]],[[139.60655495078294,35.387166038966356],[139.60515631888535,35.38898186459174]],[[139.60515631888535,35.38898186459174],[139.60716685223812,35.38950171789579],[139.6082476132499,35.39162506237709],[139.61152963014595,35.39310408163648]],[[139.61152963014595,35.39310408163648],[139.6125547637527,35.391683637397264]],[[139.6125547637527,35.391683637397264],[139.6113309608423,35.38837414875744],[139.60805689071842,35.387034245170966]],[[139.60805689071842,35.387034245170966],[139.60655495078294,35.387166038966356]],[[139.64229158512072,35.41154789111372],[139.6672921302901,35.39975234642621],[139.6298548867132,35.385291638320794],[139.62939397392876,35.38394441285679]],[[139.6274708550696,35.38595060729775],[139.63655401563176,35.390373021320876],[139.6340031017731,35.393850913143694],[139.6323740134833,35.393374991104785],[139.6315872830409,35.394451307100475],[139.6245146558315,35.39169095927478]],[[139.6245146558315,35.39169095927478],[139.62214651773218,35.39552030121865]],[[139.62214651773218,35.39552030121865],[139.62383918019913,35.398412442839735]],[[139.62778077918324,35.409168280919154],[139.6300853431054,35.410229953159806],[139.6272801325381,35.4146743328155]],[[139.6164248417875,35.40100438748242],[139.6142712665361,35.4011654687879]],[[139.61928567975983,35.40054310919856],[139.6192618394434,35.40051382168847]],[[139.61458119064977,35.36654763186516],[139.61445404229545,35.36861240132629],[139.61295210235997,35.37039893944159]],[[139.6180221429887,35.37027446752372],[139.61848305577314,35.36862704508133],[139.61634537406604,35.36665746002799],[139.61458119064977,35.36654763186516]],[[139.616178491851,35.3829339937588],[139.61508978406707,35.38507198199514]],[[139.61895191532972,35.38681458884531],[139.62012009083512,35.38502805073001]],[[139.62012009083512,35.38502805073001],[139.6166314578633,35.382216449761664]],[[139.60363848540558,35.39611337329791],[139.60183456812857,35.397943842678345],[139.600054491168,35.397138436150954],[139.59988760895297,35.39822207402417],[139.5976545659801,35.40003789964956],[139.59741616281573,35.401538884541516],[139.5989181027512,35.40210266911069]],[[139.6245146558315,35.39169095927478],[139.61807777039374,35.38875488638857]],[[139.61594803545879,35.392620837720045],[139.61626590634458,35.39649411092904]],[[139.61626590634458,35.39649411092904],[139.62214651773218,35.39552030121865]],[[139.60880388730007,35.38603114795049],[139.60805689071842,35.387034245170966]],[[139.6125547637527,35.391683637397264],[139.61296799590426,35.39085626523731]],[[139.6021365454701,35.38653635749949],[139.6050768511639,35.386075079215615],[139.60655495078294,35.387166038966356]],[[139.61626590634458,35.39649411092904],[139.61624206602815,35.39653072031665]],[[139.61458119064977,35.36654763186516],[139.61321434584076,35.36523701578877]],[[139.60419475945577,35.37277122775863],[139.604973543126,35.376080716398455],[139.6082476132499,35.37437471893589],[139.60991643540044,35.37509958481054],[139.60789000850335,35.377098457373975],[139.61020251919766,35.37728882618954]],[[139.5922428141491,35.38032740536106],[139.59169448687106,35.38144765262189],[139.58920714718957,35.38211394347636],[139.5879356636463,35.38511591326027],[139.58824558775999,35.386909773253095],[139.59108258541588,35.38591399791014],[139.5931884800344,35.38595060729775]],[[139.61424742621966,35.39516152922008],[139.6098210741347,35.39491258538435]],[[139.61152963014595,35.39310408163648],[139.60973365964108,35.39484668848665]],[[139.60805689071842,35.400916524952166],[139.6052357866068,35.40336203204443]],[[139.6052357866068,35.40336203204443],[139.60771517951616,35.40249072861934],[139.60897871628728,35.4036915165329],[139.60874825989507,35.406107736115075]],[[139.6117839268546,35.407857664842766],[139.61182366071532,35.40779176794507]],[[139.61259449761343,35.40551466403581],[139.61161704463953,35.40435780738738]],[[139.61161704463953,35.40435780738738],[139.61065548520995,35.40252001612942]],[[139.59365733959098,35.371855993068415],[139.59235406895914,35.373342334205326],[139.5908044483908,35.37327643730763],[139.58878596826585,35.377252216801935],[139.59005745180912,35.37870927042876],[139.59233817541485,35.37851157973567]],[[139.60515631888535,35.38898186459174],[139.60266897920386,35.393221231676826],[139.60390867565852,35.393843591266176]],[[139.60235905509018,35.40254198176199],[139.60330472097547,35.404262622979594],[139.6052357866068,35.40336203204443]],[[139.62012009083512,35.38502805073001],[139.62151077596053,35.38362957212336]],[[139.61161704463953,35.40435780738738],[139.61295210235997,35.40381598845077]]]}