{"type":"Topology","bbox":[139.5449194744647,35.43126166842964,139.60846601227257,35.49808999066148],"objects":{"town":{"type":"GeometryCollection","geometries":[{"type":"Polygon","arcs":[[0,1,2,3,4,5]],"properties":{"name":"岩井町"}},{"type":"MultiPolygon","arcs":[[[-110,120,8,9,-2,6,-13,121,-145,-34,-115,-111]]],"properties":{"name":"保土ケ谷町"}},{"type":"Polygon","arcs":[[10,11,12,-7,-1]],"properties":{"name":"瀬戸ケ谷町"}},{"type":"Polygon","arcs":[[-5,13,14,15]],"properties":{"name":"西久保町"}},{"type":"MultiPolygon","arcs":[[[25,20,21,22,23,16,17,162,-116,-32]]],"properties":{"name":"法泉"}},{"type":"Polygon","arcs":[[26,27,28,-22]],"properties":{"name":"境木町"}},{"type":"MultiPolygon","arcs":[[[82,29,30,-26,31,32,33,34,80,101,102]]],"properties":{"name":"権太坂"}},{"type":"MultiPolygon","arcs":[[[36,37,38,39,40,41,168,-154,-150,169,-133,-118]]],"properties":{"name":"仏向町"}},{"type":"MultiPolygon","arcs":[[[177,44,45,46,47,48,178,-138,179]]],"properties":{"name":"天王町"}},{"type":"MultiPolygon","arcs":[[[52,53,182,183,-167,181,55,49,50,-128,-98]]],"properties":{"name":"峰岡町"}},{"type":"MultiPolygon","arcs":[[[-3,-10,56,57,-90,148,-4]]],"properties":{"name":"帷子町"}},{"type":"MultiPolygon","arcs":[[[59,60]],[[79]]],"properties":{"name":"上菅田町"}},{"type":"Polygon","arcs":[[61,62,63]],"properties":{"name":"峰沢町"}},{"type":"MultiPolygon","arcs":[[[-186,68,69,70,64,65,66,-176,-181,-174,-173,-134,-170,-153,-187]]],"properties":{"name":"星川"}},{"type":"MultiPolygon","arcs":[[[73,74,75,76,77,78,71,103]]],"properties":{"name":"川島町"}},{"type":"Polygon","arcs":[[-75,83,84]],"properties":{"name":"西谷町"}},{"type":"Polygon","arcs":[[85,86,87,88,89,-58]],"properties":{"name":"月見台"}},{"type":"MultiPolygon","arcs":[[[-120,123,-65,-71,92,-87,90,124,-113]]],"properties":{"name":"桜ケ丘"}},{"type":"Polygon","arcs":[[93,94,95,-62,96,-53,97]],"properties":{"name":"常盤台"}},{"type":"MultiPolygon","arcs":[[[165,166,167,99,170,171,-48,-47,-46]]],"properties":{"name":"宮田町"}},{"type":"Polygon","arcs":[[104,-79,105,-41]],"properties":{"name":"仏向西"}},{"type":"MultiPolygon","arcs":[[[106,-61,107,161]]],"properties":{"name":"新井町"}},{"type":"Polygon","arcs":[[109,110,111,112,113]],"properties":{"name":"岩崎町"}},{"type":"Polygon","arcs":[[114,-33,115,116,-37,117,118,119,-112]],"properties":{"name":"初音ケ丘"}},{"type":"MultiPolygon","arcs":[[[149,150,126,-94,127,-51,-50,151,152]]],"properties":{"name":"和田"}},{"type":"MultiPolygon","arcs":[[[130,131,-39,128,146,-17,-24,147]]],"properties":{"name":"新桜ヶ丘"}},{"type":"Polygon","arcs":[[132,133,134,-66,-124,-119]],"properties":{"name":"花見台"}},{"type":"MultiPolygon","arcs":[[[-149,-89,-192,136,137,138,-15,-14]]],"properties":{"name":"岩間町"}},{"type":"Polygon","arcs":[[-27,-21,-31,139]],"properties":{"name":"境木本町"}},{"type":"MultiPolygon","arcs":[[[141,142,164,-156,163,157,-77,158]]],"properties":{"name":"上星川"}},{"type":"Polygon","arcs":[[-81,-35,144,-122,-12,145,-102]],"properties":{"name":"狩場町"}},{"type":"Polygon","arcs":[[-151,153,154,155,156,-95,-127]],"properties":{"name":"釜台町"}},{"type":"Polygon","arcs":[[160,-131,-148,-23,-29]],"properties":{"name":"今井町"}},{"type":"Polygon","arcs":[[-121,-114,-125,-91,-86,-57,-9]],"properties":{"name":"霞台"}},{"type":"MultiPolygon","arcs":[[[175,-67,-135,172,173,180]]],"properties":{"name":"明神台"}},{"type":"Polygon","arcs":[[-76,-85,176,-142,-159]],"properties":{"name":"東川島町"}},{"type":"Polygon","arcs":[[-163,-18,-147,-129,-38,-117]],"properties":{"name":"藤塚町"}},{"type":"Polygon","arcs":[[184,-69,185,186,-152,-56,-182,-166,-45,-178]],"properties":{"name":"川辺町"}},{"type":"Polygon","arcs":[[-183,-54,-97,-64,188,189]],"properties":{"name":"岡沢町"}},{"type":"Polygon","arcs":[[-168,-184,-190,190,-171,-100]],"properties":{"name":"鎌谷町"}},{"type":"Polygon","arcs":[[-42,-106,-78,-158,-164,-155,-169]],"properties":{"name":"坂本町"}},{"type":"Polygon","arcs":[[-93,-70,-185,-180,-137,191,-88]],"properties":{"name":"神戸町"}}]}},"arcs":[[[139.59606684282932,35.440017054180586],[139.59600328993622,35.443873434011344]],[[139.59600328993622,35.443873434011344],[139.59712182085474,35.44513661561969]],[[139.59712182085474,35.44513661561969],[139.5985454056601,35.446760706258985]],[[139.5985454056601,35.446760706258985],[139.60000712220133,35.44865882042179]],[[139.60000712220133,35.44865882042179],[139.60185015610116,35.448491732907456],[139.60055367708196,35.44698126177791],[139.60315299040965,35.44486927559676]],[[139.60315299040965,35.44486927559676],[139.6044876011647,35.4431850334523],[139.60654035961173,35.44297116143396],[139.60366141355442,35.441052996769436],[139.60404273091302,35.43940885562842],[139.60287971296933,35.43853331705333],[139.6009604155978,35.4400638386846],[139.59968935773585,35.439388805126704],[139.59606684282932,35.440017054180586]],[[139.59600328993622,35.443873434011344],[139.5955329985273,35.443432322973514],[139.5904932541047,35.44496284460479]],[[139.5904932541047,35.44496284460479],[139.59072204451985,35.44556435965638]],[[139.59072204451985,35.44556435965638],[139.59522158935113,35.44495616110421]],[[139.59522158935113,35.44495616110421],[139.59712182085474,35.44513661561969]],[[139.59606684282932,35.440017054180586],[139.59286377701721,35.440585151729316],[139.5916816932056,35.441707979825615],[139.58816086292802,35.44189511784167],[139.58555519431104,35.43910809810263]],[[139.58555519431104,35.43910809810263],[139.58405534603395,35.44082575774995],[139.58595557753756,35.44523686812829]],[[139.58595557753756,35.44523686812829],[139.5904932541047,35.44496284460479]],[[139.60000712220133,35.44865882042179],[139.6019581960194,35.45103146312529]],[[139.6019581960194,35.45103146312529],[139.60381394049787,35.45314344930643],[139.60604464704556,35.4535511428414]],[[139.60604464704556,35.4535511428414],[139.60846601227257,35.453043196797836],[139.6046274175295,35.450864375610955],[139.60354701834686,35.448999678951026],[139.60421432372436,35.446199292210835],[139.60315299040965,35.44486927559676]],[[139.56658465572153,35.447208500797394],[139.567086723577,35.44790358485701]],[[139.567086723577,35.44790358485701],[139.56863105887928,35.449500941494016],[139.57057577740804,35.44971481351236],[139.57286368155954,35.4485050999086]],[[139.57286368155954,35.4485050999086],[139.57144645204346,35.44826449388797],[139.5708871865842,35.4462327097137]],[[139.5708871865842,35.4462327097137],[139.5681988992062,35.446139140705675],[139.56658465572153,35.447208500797394]],[[139.56794468763383,35.44198868684969],[139.5679383323445,35.44198868684969]],[[139.5679383323445,35.44198868684969],[139.56588557389748,35.44466877057956]],[[139.56588557389748,35.44466877057956],[139.5649958333941,35.44551089165179]],[[139.5649958333941,35.44551089165179],[139.56658465572153,35.447208500797394]],[[139.5708871865842,35.4462327097137],[139.5721900208927,35.44416750803657]],[[139.5721900208927,35.44416750803657],[139.56794468763383,35.44198868684969]],[[139.5679383323445,35.44198868684969],[139.56282232445017,35.43934870412326],[139.56032469575146,35.436956010918045]],[[139.56032469575146,35.436956010918045],[139.55859605705922,35.438025371009765],[139.5583227796189,35.44074555574307]],[[139.5583227796189,35.44074555574307],[139.56121443625483,35.44088590925511],[139.5623075460161,35.442596885401855],[139.5642713304128,35.44312488194714],[139.56588557389748,35.44466877057956]],[[139.56912041615612,35.43706294692721],[139.5688598492944,35.437042896425496]],[[139.5688598492944,35.437042896425496],[139.56794468763383,35.44198868684969]],[[139.5721900208927,35.44416750803657],[139.5782720327621,35.44692779377332]],[[139.5782720327621,35.44692779377332],[139.57897111458618,35.446941160774465]],[[139.57897111458618,35.446941160774465],[139.5785834419383,35.44627281071714]],[[139.5785834419383,35.44627281071714],[139.57712172539703,35.4440605720274]],[[139.57712172539703,35.4440605720274],[139.5728382604023,35.441320336792366],[139.5725077853582,35.439950219174854],[139.56964154987952,35.438172408022375],[139.56912041615612,35.43706294692721]],[[139.5787296135924,35.451285436147074],[139.5765561046485,35.451018096124145]],[[139.5765561046485,35.451018096124145],[139.57331490710052,35.452348112738214]],[[139.57331490710052,35.452348112738214],[139.56908228442026,35.45284937528121],[139.5665655898536,35.45550940850936]],[[139.5665655898536,35.45550940850936],[139.56641941819947,35.45885115879598],[139.5691077055775,35.46053540094044]],[[139.5691077055775,35.46053540094044],[139.5706901726156,35.46122380149948],[139.57295265560987,35.4596197613619],[139.57488466356003,35.46227979459005]],[[139.57488466356003,35.46227979459005],[139.57543121844066,35.46224637708718]],[[139.57543121844066,35.46224637708718],[139.5727747075092,35.459312320335535],[139.57248236420097,35.457026563139486],[139.57344201288672,35.45516186647955],[139.57456689909455,35.455589610516235],[139.57471942603797,35.45374496435802],[139.577490332177,35.4546004524314],[139.5787296135924,35.451285436147074]],[[139.6050786430705,35.454700704939995],[139.59981010823273,35.457293903162416]],[[139.59981010823273,35.457293903162416],[139.6007634016292,35.45849024976503]],[[139.6007634016292,35.45849024976503],[139.6021361441201,35.45822959324267]],[[139.6021361441201,35.45822959324267],[139.60381394049787,35.45761471118993]],[[139.60381394049787,35.45761471118993],[139.60565061910836,35.456879526126876]],[[139.60565061910836,35.456879526126876],[139.6050786430705,35.454700704939995]],[[139.59400137380365,35.462493666608395],[139.5933022919796,35.46285457563935]],[[139.5933022919796,35.46285457563935],[139.59280657941343,35.464184592253424]],[[139.59280657941343,35.464184592253424],[139.5933849107406,35.46572179738527],[139.59568552547074,35.46684462548158]],[[139.59568552547074,35.46684462548158],[139.59687396457164,35.46645698244833]],[[139.59687396457164,35.46645698244833],[139.59937159327038,35.46394398623279]],[[139.59937159327038,35.46394398623279],[139.59667695060304,35.461090131488014]],[[139.59667695060304,35.461090131488014],[139.59400137380365,35.462493666608395]],[[139.59522158935113,35.44495616110421],[139.59609861927586,35.445784915175295]],[[139.59609861927586,35.445784915175295],[139.59766202044605,35.44754267582606]],[[139.59766202044605,35.44754267582606],[139.5985454056601,35.446760706258985]],[[139.55018800930247,35.494039789314094],[139.5507345641831,35.49551684294078],[139.55262208510808,35.49642579901874],[139.55331481164285,35.49808999066148],[139.55487821281304,35.49681344205199],[139.55673395729147,35.49711419957778],[139.55919345425434,35.49546337493619],[139.56055984145593,35.492495900681675]],[[139.56055984145593,35.492495900681675],[139.55807492333582,35.49354521027167],[139.55526588546093,35.49351179276881],[139.55496718686337,35.49434054683989],[139.55265386155463,35.49363209577913],[139.55018800930247,35.494039789314094]],[[139.59686760928233,35.4746309036494],[139.59360734586645,35.4745306511408],[139.5934293977658,35.47613469127838],[139.5919486153566,35.47622157678583],[139.59243161734415,35.47853406798417],[139.5899784756706,35.48037871414239]],[[139.5899784756706,35.48037871414239],[139.59193590477798,35.481708730756466],[139.59570459133866,35.48126093621806],[139.59635918613756,35.48345312440608],[139.59740145358435,35.48343307390436],[139.60115107427708,35.48031856263723],[139.601805669076,35.47672283932883]],[[139.601805669076,35.47672283932883],[139.59686760928233,35.4746309036494]],[[139.591033453696,35.45429301140503],[139.589965765092,35.454226176399295]],[[139.589965765092,35.454226176399295],[139.58877097070175,35.45526211898815]],[[139.58877097070175,35.45526211898815],[139.58981323814857,35.4548009574486],[139.59137028402944,35.45679932411999]],[[139.59137028402944,35.45679932411999],[139.59486569314979,35.4581961757398],[139.59387426801746,35.46018117541006]],[[139.59387426801746,35.46018117541006],[139.59747771705608,35.45721370115554],[139.59698200448992,35.45653866759764]],[[139.59698200448992,35.45653866759764],[139.5940331502502,35.45513513247726]],[[139.5940331502502,35.45513513247726],[139.591033453696,35.45429301140503]],[[139.56854208482892,35.46398408723623],[139.5667626038222,35.463442723689795],[139.56477339826827,35.46462570329126]],[[139.56477339826827,35.46462570329126],[139.56502760984066,35.46700502949533],[139.56693419663355,35.46953139271202],[139.56345149809184,35.471890668414375],[139.56509751802307,35.474731156158],[139.5619897815506,35.47538613921418]],[[139.5619897815506,35.47538613921418],[139.56350869569562,35.47586066775488]],[[139.56350869569562,35.47586066775488],[139.566902420187,35.47601438826806],[139.570760080798,35.473768732075456]],[[139.570760080798,35.473768732075456],[139.57149729435795,35.47180378290692],[139.5746749390128,35.47080794132151]],[[139.5746749390128,35.47080794132151],[139.5774267792839,35.467105282003935]],[[139.5774267792839,35.467105282003935],[139.57524691505068,35.46553465936922]],[[139.57524691505068,35.46553465936922],[139.56903144210577,35.464899726814764],[139.56854208482892,35.46398408723623]],[[139.56555509885337,35.48894696187728],[139.56555509885337,35.48894696187728]],[[139.57712172539703,35.4440605720274],[139.57515794100036,35.44110646477402],[139.5751388751324,35.43916824960778]],[[139.5751388751324,35.43916824960778],[139.57201207279203,35.43770456298225]],[[139.57201207279203,35.43770456298225],[139.56912041615612,35.43706294692721]],[[139.56350869569562,35.47586066775488],[139.56308924660118,35.477832300423984],[139.56052170972006,35.47755827690048],[139.56150042427376,35.479977704107995],[139.56696597308013,35.48094681169111],[139.5681417016024,35.479443024062135],[139.57557103480548,35.481588427746146],[139.57583160166718,35.48237039731321]],[[139.57583160166718,35.48237039731321],[139.57403305479252,35.479416290059845],[139.5738296855346,35.47663595382137],[139.57189132229516,35.47602775526921],[139.570760080798,35.473768732075456]],[[139.59609861927586,35.445784915175295],[139.59346117421234,35.44760951083179],[139.59355014826266,35.44843826490287]],[[139.59355014826266,35.44843826490287],[139.59498644364666,35.45226791073134]],[[139.59498644364666,35.45226791073134],[139.5982339964839,35.451967153205544],[139.59764930986742,35.450363113067965],[139.59947963318862,35.45004898854102]],[[139.59947963318862,35.45004898854102],[139.5990665393835,35.44918681696707]],[[139.5990665393835,35.44918681696707],[139.59766202044605,35.44754267582606]],[[139.59355014826266,35.44843826490287],[139.5893810784755,35.44987521752612]],[[139.5893810784755,35.44987521752612],[139.591033453696,35.45429301140503]],[[139.5940331502502,35.45513513247726],[139.596511713081,35.452775856774906],[139.59498644364666,35.45226791073134]],[[139.5895780924441,35.4681880090968],[139.58685802861953,35.46840188111514]],[[139.58685802861953,35.46840188111514],[139.58537089092107,35.469992554251576],[139.58485611248696,35.47433682962418],[139.58516752166315,35.4756802132394]],[[139.58516752166315,35.4756802132394],[139.5899784756706,35.48037871414239]],[[139.59686760928233,35.4746309036494],[139.59628927795515,35.47326746953246],[139.59773192862846,35.47241866495966],[139.59583805241417,35.47128915336278],[139.59679770109994,35.4698856182424],[139.59687396457164,35.46645698244833]],[[139.59568552547074,35.46684462548158],[139.5895780924441,35.4681880090968]],[[139.6021361441201,35.45822959324267],[139.60281616007623,35.46143099001725]],[[139.60281616007623,35.46143099001725],[139.60385842752302,35.46147777452126]],[[139.60385842752302,35.46147777452126],[139.60446218000746,35.458684071281645],[139.60381394049787,35.45761471118993]],[[139.5751388751324,35.43916824960778],[139.57600954976783,35.437871650496575],[139.5762955377868,35.435077947256964],[139.57558374538408,35.432377813025376]],[[139.57558374538408,35.432377813025376],[139.57485288711348,35.43126166842964],[139.57201207279203,35.43770456298225]],[[139.56477339826827,35.46462570329126],[139.56125892327998,35.46575521488814],[139.5585833464806,35.469959136748706],[139.55841175366925,35.473855617582906],[139.5605471308773,35.473681846568],[139.5619897815506,35.47538613921418]],[[139.5691077055775,35.46053540094044],[139.56854208482892,35.46398408723623]],[[139.57524691505068,35.46553465936922],[139.5741410947108,35.46332910418005],[139.57488466356003,35.46227979459005]],[[139.5518594503909,35.490470800007984],[139.5502706280635,35.49200800513983],[139.55018800930247,35.494039789314094]],[[139.56055984145593,35.492495900681675],[139.5609411588145,35.49170056411346]],[[139.5609411588145,35.49170056411346],[139.5600259971539,35.49028366199193],[139.5518594503909,35.490470800007984]],[[139.58851040384005,35.44591858518676],[139.58371851570053,35.44650004973663]],[[139.58371851570053,35.44650004973663],[139.58135434807733,35.44686095876759]],[[139.58135434807733,35.44686095876759],[139.5809348989829,35.44849841640803],[139.58288597280097,35.448485049406884],[139.58359140991433,35.45005567204159]],[[139.58359140991433,35.45005567204159],[139.5853454697638,35.4492803859751],[139.58858666731177,35.44996210303357],[139.58912686690311,35.4492536519728]],[[139.58912686690311,35.4492536519728],[139.58851040384005,35.44591858518676]],[[139.58135434807733,35.44686095876759],[139.57897111458618,35.446941160774465]],[[139.5782720327621,35.44692779377332],[139.57801782118972,35.447535992325484]],[[139.57801782118972,35.447535992325484],[139.5765561046485,35.451018096124145]],[[139.5787296135924,35.451285436147074],[139.58052816046705,35.452261227230764]],[[139.58052816046705,35.452261227230764],[139.584220583556,35.451432473159684]],[[139.584220583556,35.451432473159684],[139.58359140991433,35.45005567204159]],[[139.58851040384005,35.44591858518676],[139.59072204451985,35.44556435965638]],[[139.58595557753756,35.44523686812829],[139.58376935801502,35.44565124516383]],[[139.58376935801502,35.44565124516383],[139.58371851570053,35.44650004973663]],[[139.584220583556,35.451432473159684],[139.58490059951214,35.45266892076573],[139.589330236161,35.45444004841764],[139.589965765092,35.454226176399295]],[[139.5893810784755,35.44987521752612],[139.58912686690311,35.4492536519728]],[[139.5933022919796,35.46285457563935],[139.58819899466388,35.46544777386177],[139.5836358969395,35.465768581889286]],[[139.5836358969395,35.465768581889286],[139.58466545380767,35.46562822837725],[139.58685802861953,35.46840188111514]],[[139.5895780924441,35.4681880090968],[139.58909509045657,35.46584878389616],[139.590683912784,35.46435167976776],[139.59280657941343,35.464184592253424]],[[139.57331490710052,35.452348112738214],[139.57163075543346,35.45123865164306],[139.56669905092912,35.45130548664879]],[[139.56669905092912,35.45130548664879],[139.56200884741853,35.452622136261716]],[[139.56200884741853,35.452622136261716],[139.56294307494707,35.45448014942108]],[[139.56294307494707,35.45448014942108],[139.5645954501676,35.45569654652541],[139.5665655898536,35.45550940850936]],[[139.58052816046705,35.452261227230764],[139.58017861955503,35.45331722032134],[139.58282241990787,35.45566981252312]],[[139.58282241990787,35.45566981252312],[139.5876778609405,35.45984031688082],[139.58816721821734,35.45903161331146]],[[139.58816721821734,35.45903161331146],[139.58777954556945,35.45701987963891],[139.58877097070175,35.45526211898815]],[[139.6019581960194,35.45103146312529],[139.60021684674857,35.45186690069694]],[[139.60021684674857,35.45186690069694],[139.60283522594418,35.453604610845986]],[[139.60283522594418,35.453604610845986],[139.60513584067428,35.45433979590904]],[[139.60513584067428,35.45433979590904],[139.60604464704556,35.4535511428414]],[[139.5688598492944,35.437042896425496],[139.56462722661414,35.436534950381926],[139.5620533344437,35.435559159298236],[139.56032469575146,35.436956010918045]],[[139.57928887905166,35.468201376097944],[139.57482746595625,35.4717837324052]],[[139.57482746595625,35.4717837324052],[139.57584431224578,35.47447049963564],[139.57896475929687,35.47644881580532]],[[139.57896475929687,35.47644881580532],[139.58187548180072,35.472478816464815]],[[139.58187548180072,35.472478816464815],[139.5812145317125,35.47222484344304],[139.57928887905166,35.468201376097944]],[[139.5785834419383,35.44627281071714],[139.58042012054878,35.4456579286644],[139.58376935801502,35.44565124516383]],[[139.58555519431104,35.43910809810263],[139.58242839197067,35.43482397423518],[139.5798354339323,35.43337365461078],[139.5773568711015,35.433647678134285],[139.57558374538408,35.432377813025376]],[[139.56669905092912,35.45130548664879],[139.56811628044517,35.450008887537585],[139.567086723577,35.44790358485701]],[[139.5649958333941,35.44551089165179],[139.56165295121718,35.44887269244013],[139.56104919873277,35.45067055409433],[139.56200884741853,35.452622136261716]],[[139.5990665393835,35.44918681696707],[139.60000712220133,35.44865882042179]],[[139.58702326614159,35.463563026700115],[139.5861780126634,35.464926460817054],[139.58350879115332,35.46553465936922]],[[139.58350879115332,35.46553465936922],[139.5836358969395,35.465768581889286]],[[139.59400137380365,35.462493666608395],[139.59275573709894,35.46209934007457]],[[139.59275573709894,35.46209934007457],[139.59002931798508,35.463322420679475],[139.58702326614159,35.463563026700115]],[[139.58350879115332,35.46553465936922],[139.58168482312144,35.466122807419666]],[[139.58168482312144,35.466122807419666],[139.58122724229113,35.46685799248272]],[[139.58122724229113,35.46685799248272],[139.58059171336015,35.46786051756871],[139.58244745783858,35.46914374967877],[139.58262540593927,35.47124236885877]],[[139.58262540593927,35.47124236885877],[139.58265718238582,35.47333430453819],[139.58516752166315,35.4756802132394]],[[139.58110013650492,35.4667376894724],[139.5788630746679,35.46755976004291],[139.5774267792839,35.467105282003935]],[[139.5746749390128,35.47080794132151],[139.57482746595625,35.4717837324052]],[[139.57928887905166,35.468201376097944],[139.58110013650492,35.4667376894724]],[[139.5583227796189,35.44074555574307],[139.5584435301158,35.441380488297526],[139.55559636050504,35.443285285960904],[139.5516624364223,35.44305804694141],[139.55163065997576,35.44452173356695],[139.54863096342157,35.44526360213058],[139.54880891152226,35.44733548730829],[139.54690232472933,35.44739563881345],[139.54512284372262,35.449113298460766],[139.54520546248364,35.45075743960179],[139.54998464004456,35.452528567253694],[139.55159252823992,35.45365139535],[139.55660685150528,35.454112556889555],[139.56153855600962,35.45331722032134],[139.56294307494707,35.45448014942108]],[[139.5609411588145,35.49170056411346],[139.5626888633747,35.485952753620474],[139.56376926255732,35.484375447485185],[139.5607441448459,35.48513068304996],[139.56043909095902,35.48378729943474],[139.55684199720974,35.48460937000525],[139.55548196529745,35.485752248603276],[139.5518594503909,35.490470800007984]],[[139.57286368155954,35.4485050999086],[139.57801782118972,35.447535992325484]],[[139.58122724229113,35.46685799248272],[139.58110013650492,35.4667376894724]],[[139.58187548180072,35.472478816464815],[139.58262540593927,35.47124236885877]],[[139.6007634016292,35.45849024976503],[139.60047105832095,35.45879100729082]],[[139.60047105832095,35.45879100729082],[139.60238400040316,35.46195230306196]],[[139.60238400040316,35.46195230306196],[139.60281616007623,35.46143099001725]],[[139.57543121844066,35.46224637708718],[139.5806743321212,35.46400413773795],[139.58168482312144,35.466122807419666]],[[139.58702326614159,35.463563026700115],[139.58562510249345,35.46212607407687],[139.587175793085,35.46056213494273],[139.58305121032302,35.45708003114407],[139.58282241990787,35.45566981252312]],[[139.60385842752302,35.46147777452126],[139.60525659117116,35.46212607407687]],[[139.60525659117116,35.46212607407687],[139.6065149384545,35.459519508853305],[139.60565061910836,35.456879526126876]],[[139.58816721821734,35.45903161331146],[139.58968613236235,35.4599205188877]],[[139.58968613236235,35.4599205188877],[139.5898386593058,35.458182808738655]],[[139.5898386593058,35.458182808738655],[139.59074111038777,35.45756792668592]],[[139.59074111038777,35.45756792668592],[139.59137028402944,35.45679932411999]],[[139.57583160166718,35.48237039731321],[139.57809408466144,35.47991086910226],[139.57896475929687,35.47644881580532]],[[139.59804969309394,35.455743331029424],[139.59981010823273,35.457293903162416]],[[139.6050786430705,35.454700704939995],[139.60513584067428,35.45433979590904]],[[139.60283522594418,35.453604610845986],[139.59967664715722,35.45407245588611],[139.60046470303163,35.45480764094917],[139.59804969309394,35.455743331029424]],[[139.5898386593058,35.458182808738655],[139.59074111038777,35.45756792668592]],[[139.60047105832095,35.45879100729082],[139.59667695060304,35.461090131488014]],[[139.59937159327038,35.46394398623279],[139.59937159327038,35.46393730273222]],[[139.59937159327038,35.46393730273222],[139.60238400040316,35.46195230306196]],[[139.59804969309394,35.455743331029424],[139.59698200448992,35.45653866759764]],[[139.59387426801746,35.46018117541006],[139.59326416024373,35.46182531655107]],[[139.59326416024373,35.46182531655107],[139.59275573709894,35.46209934007457]],[[139.59326416024373,35.46182531655107],[139.59124317824325,35.46155797652814],[139.58968613236235,35.4599205188877]],[[139.601805669076,35.47672283932883],[139.60173576089358,35.4745306511408],[139.6007697569185,35.47342787354622],[139.59993085872964,35.46783378356641]],[[139.59993085872964,35.46783378356641],[139.59937159327038,35.46393730273222]],[[139.59993085872964,35.46783378356641],[139.60255559321453,35.468936561161],[139.60413170496335,35.467786999062405],[139.60563155324044,35.463950669733364],[139.60525659117116,35.46212607407687]],[[139.60021684674857,35.45186690069694],[139.59947963318862,35.45004898854102]]]}