{"type":"Topology","bbox":[139.58234008030794,35.48950661650026,139.65842403889383,35.56275113290605],"objects":{"town":{"type":"GeometryCollection","geometries":[{"type":"MultiPolygon","arcs":[[[99,100,54,98,22,9,10,6,7,0,1,2,3,20,13,14,15,16,17,18]]],"properties":{"name":"菊名"}},{"type":"Polygon","arcs":[[23,24,25,26]],"properties":{"name":"岸根町"}},{"type":"Polygon","arcs":[[27,28,29]],"properties":{"name":"篠原台町"}},{"type":"MultiPolygon","arcs":[[[31,32,33,63,-140,-43,-42,142,-133,143,144,145]]],"properties":{"name":"樽町"}},{"type":"MultiPolygon","arcs":[[[38,-29,35,36,-8,-7,-11,205]]],"properties":{"name":"仲手原"}},{"type":"MultiPolygon","arcs":[[[-134,-143,41,42,43,44,39,178,219,-130,-109,-135]]],"properties":{"name":"大曽根"}},{"type":"MultiPolygon","arcs":[[[46,47,48,49,127,128,-104,129,130,-243,209,-45,-139,210,-100,-19,-18,-82,-81]]],"properties":{"name":"大倉山"}},{"type":"MultiPolygon","arcs":[[[94,264,-226,265,-224,57,58,59,60,61,62,-181,96,-25]]],"properties":{"name":"新横浜"}},{"type":"MultiPolygon","arcs":[[[132,133,134,-108,67,68,-275,-155,-205,-282,304,-310,-169,-168,239,240,241,237,317,306,70,261,262,263,136]]],"properties":{"name":"綱島西"}},{"type":"MultiPolygon","arcs":[[[74,75,76,77,72,-27,-26,-97,180,-63,-162,-83,181,182,-160]]],"properties":{"name":"篠原町"}},{"type":"MultiPolygon","arcs":[[[-84,161,-62,-61,79,-47,80,81,-17,-16]]],"properties":{"name":"大豆戸町"}},{"type":"MultiPolygon","arcs":[[[-182,82,83,-15,84,-94,-252]]],"properties":{"name":"篠原北"}},{"type":"MultiPolygon","arcs":[[[-118,-117,-231,-281,-178,316,157,173,89,271,-201,-200,-193,-125,86,121,-119]]],"properties":{"name":"日吉"}},{"type":"Polygon","arcs":[[-4,92,93,-85,-14,-21]],"properties":{"name":"錦が丘"}},{"type":"Polygon","arcs":[[103,104,105,106,-68,107,108]],"properties":{"name":"綱島上町"}},{"type":"Polygon","arcs":[[109,-78,110,111,-36,-28]],"properties":{"name":"篠原西町"}},{"type":"MultiPolygon","arcs":[[[172,167,168,169,-309,-295,-294,-300,-247,-250,-279,229,230,116,117,118,112,113,253]]],"properties":{"name":"日吉本町"}},{"type":"MultiPolygon","arcs":[[[189,190,-261,-240,-173,-254,-114,-113,-122,-87,124,192]]],"properties":{"name":"箕輪町"}},{"type":"MultiPolygon","arcs":[[[137,138,-44,139,-64,-34,140,270]]],"properties":{"name":"師岡町"}},{"type":"MultiPolygon","arcs":[[[-112,-111,-77,-76,149,-1,-37]]],"properties":{"name":"篠原東"}},{"type":"MultiPolygon","arcs":[[[-197,256,257,203,204,154,274,-69,-107,-106,-105,-129,-187,-186,211,272,-316,-194]]],"properties":{"name":"新吉田東"}},{"type":"MultiPolygon","arcs":[[[-2,-150,-75,159,-183,251,-93,-3]]],"properties":{"name":"富士塚"}},{"type":"MultiPolygon","arcs":[[[-49,165,166,162,163,183,184,185,186,-128,-50]]],"properties":{"name":"新羽町"}},{"type":"MultiPolygon","arcs":[[[278,249,246,243,244,234,235,307,176,177,280,-230]]],"properties":{"name":"下田町"}},{"type":"MultiPolygon","arcs":[[[188,220,-163,221,222,-58,223,224,225,226]]],"properties":{"name":"小机町"}},{"type":"MultiPolygon","arcs":[[[-185,314,-286,195,196,193,315,-273,-212]]],"properties":{"name":"新吉田町"}},{"type":"MultiPolygon","arcs":[[[-146,-145,-144,-137,-264,-263,276,-242,-241,260,-191,-190,199,200,201,296,-32]]],"properties":{"name":"綱島東"}},{"type":"Polygon","arcs":[[-210,242,-131,-220,-179,-40]],"properties":{"name":"大曽根台"}},{"type":"Polygon","arcs":[[254,-59,-223,255]],"properties":{"name":"鳥山町"}},{"type":"MultiPolygon","arcs":[[[311,312,302,-290,313,-298,269,-283,-257,-196,285,286]]],"properties":{"name":"高田西"}},{"type":"MultiPolygon","arcs":[[[293,294,308,-170,309,-305,281,-204,-258,282,-270,297,298,-244,299]]],"properties":{"name":"高田東"}},{"type":"MultiPolygon","arcs":[[[-299,-314,289,-303,-313,319,-235,-245]]],"properties":{"name":"高田町"}},{"type":"MultiPolygon","arcs":[[[-166,-48,-80,-60,-255,-256,-222,-167]]],"properties":{"name":"北新横浜"}},{"type":"Polygon","arcs":[[-262,-71,-307,-318,-238,-277]],"properties":{"name":"綱島台"}}]}},"arcs":[[[139.63159415210777,35.498062431597965],[139.63085606390067,35.49976187432285]],[[139.63085606390067,35.49976187432285],[139.63230941284453,35.500377189792204],[139.6332149025007,35.50245754209336]],[[139.6332149025007,35.50245754209336],[139.63419648372457,35.50365887229544],[139.63443997674133,35.506361865250106]],[[139.63443997674133,35.506361865250106],[139.63461498734716,35.506427791907534]],[[139.63461498734716,35.506427791907534],[139.6347443430123,35.50346109232314]],[[139.6347443430123,35.50346109232314],[139.63332143069553,35.4979305782831]],[[139.63332143069553,35.4979305782831],[139.63324533912777,35.4979305782831]],[[139.63324533912777,35.4979305782831],[139.63159415210777,35.498062431597965]],[[139.6347443430123,35.50346109232314],[139.63727819221813,35.50228173767354]],[[139.63727819221813,35.50228173767354],[139.63682925196846,35.49716143394641]],[[139.63682925196846,35.49716143394641],[139.63332143069553,35.4979305782831]],[[139.63163219789163,35.50992190475138],[139.63172350777293,35.50954099517511]],[[139.63172350777293,35.50954099517511],[139.63174633524326,35.50943844259688]],[[139.63174633524326,35.50943844259688],[139.63106151113357,35.50954099517511]],[[139.63106151113357,35.50954099517511],[139.6306049617271,35.510031782513764]],[[139.6306049617271,35.510031782513764],[139.63095498293873,35.510866853507885],[139.6300418841258,35.51444886856164],[139.6272112778058,35.515283939555765]],[[139.6272112778058,35.515283939555765],[139.62588728452707,35.51647794457368],[139.62766782721224,35.51639004236377],[139.62784283781806,35.51844109392829]],[[139.62784283781806,35.51844109392829],[139.6302245038884,35.517811128090614]],[[139.6302245038884,35.517811128090614],[139.63043756027807,35.51703465856976]],[[139.63043756027807,35.51703465856976],[139.63163219789163,35.50992190475138]],[[139.63461498734716,35.506427791907534],[139.6331540292465,35.50895498044239],[139.63174633524326,35.50943844259688]],[[139.63172350777293,35.50954099517511],[139.63922613635236,35.506457092644176]],[[139.63922613635236,35.506457092644176],[139.63727819221813,35.50228173767354]],[[139.6191379624683,35.49516898385516],[139.61336261247664,35.4922682109282],[139.61193970015984,35.494282636571924],[139.60936019601337,35.495293511985864],[139.61006784759337,35.49804045604549],[139.60764052658237,35.501344114101194],[139.60850797045464,35.50205465696462]],[[139.60850797045464,35.50205465696462],[139.60967978059787,35.50107308228731],[139.61312672861663,35.503805375978615]],[[139.61312672861663,35.503805375978615],[139.6143137570734,35.50276519982804],[139.6143137570734,35.500487067554594]],[[139.6143137570734,35.500487067554594],[139.61648236675407,35.49700027989491],[139.6191379624683,35.49516898385516]],[[139.62683081996707,35.48981427423494],[139.62408391437157,35.491506391775665],[139.62374150231673,35.49419473436201]],[[139.62374150231673,35.49419473436201],[139.6251339780064,35.49470017206899],[139.63092454631163,35.49385045070654]],[[139.63092454631163,35.49385045070654],[139.63045277859163,35.4922682109282],[139.6275004257632,35.49206310577175],[139.6290146479613,35.49114745775187],[139.62683081996707,35.48981427423494]],[[139.63857935802653,35.53002953526782],[139.64153932001173,35.53410233766022]],[[139.64153932001173,35.53410233766022],[139.64677441987243,35.53347237182255]],[[139.64677441987243,35.53347237182255],[139.64724618759243,35.53126016620653],[139.6469646487918,35.52761222449535]],[[139.6469646487918,35.52761222449535],[139.6469266030079,35.52760489931119]],[[139.6469266030079,35.52760489931119],[139.64641678950403,35.52836671846373],[139.64246002798143,35.52994895824207],[139.63857935802653,35.53002953526782]],[[139.62374150231673,35.49419473436201],[139.62421327003673,35.497483742049404]],[[139.62421327003673,35.497483742049404],[139.62628296067933,35.497095507288975],[139.63159415210777,35.498062431597965]],[[139.63324533912777,35.4979305782831],[139.63304750105166,35.4953228127225],[139.6319974374168,35.49361604481346]],[[139.6319974374168,35.49361604481346],[139.63092454631163,35.49385045070654]],[[139.6297755636387,35.523077935500936],[139.63115282101487,35.52685040534281]],[[139.63115282101487,35.52685040534281],[139.6331235926194,35.53084995589363]],[[139.6331235926194,35.53084995589363],[139.63307793767873,35.530183364135155]],[[139.63307793767873,35.530183364135155],[139.63240072272583,35.52856449843602],[139.63260616995873,35.525487921089244]],[[139.63260616995873,35.525487921089244],[139.63331382153876,35.523158512526685]],[[139.63331382153876,35.523158512526685],[139.6297755636387,35.523077935500936]],[[139.62034020923863,35.52079980322748],[139.62081197695863,35.51773787624902]],[[139.62081197695863,35.51773787624902],[139.61932058223087,35.51682222822915]],[[139.61932058223087,35.51682222822915],[139.6170606626689,35.52018448775813]],[[139.6170606626689,35.52018448775813],[139.6155312221573,35.522792253318734],[139.6168247788089,35.52634496763584]],[[139.6168247788089,35.52634496763584],[139.6178900607573,35.52860112435682]],[[139.6178900607573,35.52860112435682],[139.62143592781413,35.52732654231315]],[[139.62143592781413,35.52732654231315],[139.62140549118703,35.527194688998286]],[[139.62140549118703,35.527194688998286],[139.62018041694637,35.52405951017824],[139.62034020923863,35.52079980322748]],[[139.6319061275355,35.51083022758709],[139.63301706442456,35.51211213481492],[139.6336866702207,35.51474920111215]],[[139.6336866702207,35.51474920111215],[139.63529981145683,35.515071509215154],[139.63752168523493,35.510185611381104]],[[139.63752168523493,35.510185611381104],[139.63313881093293,35.509716799594926],[139.6319061275355,35.51083022758709]],[[139.61827051859603,35.50815653536906],[139.6144887676792,35.51143089268813]],[[139.6144887676792,35.51143089268813],[139.6145192043063,35.51145286824061]],[[139.6145192043063,35.51145286824061],[139.61834661016377,35.513518570173446]],[[139.61834661016377,35.513518570173446],[139.61881837788377,35.51383355309228]],[[139.61881837788377,35.51383355309228],[139.62065979382314,35.51506418403099],[139.62242511819477,35.51134299047822]],[[139.62242511819477,35.51134299047822],[139.62236424494057,35.511269738636635]],[[139.62236424494057,35.511269738636635],[139.61827051859603,35.50815653536906]],[[139.6469266030079,35.52760489931119],[139.64343400004853,35.52774407781021],[139.64345682751883,35.52677715350123],[139.6402229358898,35.52670390165964],[139.6373542837859,35.52600068398037]],[[139.6373542837859,35.52600068398037],[139.63571070592263,35.52611788692692],[139.63857174886977,35.5300148848995]],[[139.63857174886977,35.5300148848995],[139.63857935802653,35.53002953526782]],[[139.6319670007897,35.53706903724461],[139.6263818797174,35.53643907140694]],[[139.6263818797174,35.53643907140694],[139.62606229513287,35.53931054359727]],[[139.62606229513287,35.53931054359727],[139.62607751344643,35.53931054359727]],[[139.62607751344643,35.53931054359727],[139.6280330667374,35.54072430413995]],[[139.6280330667374,35.54072430413995],[139.6301940672613,35.53840222076155]],[[139.6301940672613,35.53840222076155],[139.6319670007897,35.53706903724461]],[[139.61985322320507,35.49534478827498],[139.6191379624683,35.49516898385516]],[[139.6143137570734,35.500487067554594],[139.6165660674786,35.50024533647734],[139.6189020786083,35.50166642220419],[139.6222120618051,35.50266997243397],[139.6241904425664,35.50410570852914]],[[139.6241904425664,35.50410570852914],[139.6243654531722,35.503805375978615]],[[139.6243654531722,35.503805375978615],[139.62350561845673,35.50101448081404]],[[139.62350561845673,35.50101448081404],[139.6214663644412,35.49918318477429],[139.62331538953737,35.49768152202169]],[[139.62331538953737,35.49768152202169],[139.61985322320507,35.49534478827498]],[[139.6272112778058,35.515283939555765],[139.62242511819477,35.51134299047822]],[[139.61881837788377,35.51383355309228],[139.61932058223087,35.51682222822915]],[[139.62081197695863,35.51773787624902],[139.62286644928767,35.51921023826498],[139.62496657655737,35.51732766593612],[139.62684603828063,35.51871945092633]],[[139.62684603828063,35.51871945092633],[139.62784283781806,35.51844109392829]],[[139.62485243920577,35.50862534715524],[139.62476873848124,35.509152760414686]],[[139.62476873848124,35.509152760414686],[139.62334582616447,35.50957762109591],[139.626496017069,35.51203888297333],[139.6306049617271,35.510031782513764]],[[139.63106151113357,35.50954099517511],[139.63054408847293,35.50954099517511]],[[139.63054408847293,35.50954099517511],[139.62766021805547,35.50951901962263],[139.62485243920577,35.50862534715524]],[[139.64703313120276,35.54606436339186],[139.65008440306923,35.5485402756376]],[[139.65008440306923,35.5485402756376],[139.65091380115763,35.547910309799924],[139.6550303549725,35.550562026465485],[139.6556238692009,35.55251052545177]],[[139.6556238692009,35.55251052545177],[139.6575185492377,35.55160220261606]],[[139.6575185492377,35.55160220261606],[139.65694786247963,35.54856225119008],[139.6556847424551,35.54566147826311]],[[139.6556847424551,35.54566147826311],[139.65180407250023,35.54621086707504]],[[139.65180407250023,35.54621086707504],[139.64703313120276,35.54606436339186]],[[139.63443997674133,35.506361865250106],[139.63133544077743,35.50588572827977],[139.62784283781806,35.50646441782833]],[[139.62784283781806,35.50646441782833],[139.63054408847293,35.50954099517511]],[[139.60850797045464,35.50205465696462],[139.60709266729464,35.503160759772626],[139.60836339647594,35.50583445199066]],[[139.60836339647594,35.50583445199066],[139.61642149349987,35.50666952298479]],[[139.61642149349987,35.50666952298479],[139.61312672861663,35.503805375978615]],[[139.63163219789163,35.50992190475138],[139.6319061275355,35.51083022758709]],[[139.63752168523493,35.510185611381104],[139.63952289346656,35.50831768942056],[139.63922613635236,35.506457092644176]],[[139.63043756027807,35.51703465856976],[139.6321800571794,35.51798693251043]],[[139.6321800571794,35.51798693251043],[139.63197460994647,35.515554971369646],[139.6336866702207,35.51474920111215]],[[139.62034020923863,35.52079980322748],[139.62258491048703,35.522484595584054]],[[139.62258491048703,35.522484595584054],[139.62684603828063,35.51871945092633]],[[139.62264578374123,35.53463707610383],[139.62255447385994,35.53550144783459]],[[139.62255447385994,35.53550144783459],[139.62248599144897,35.53613873885642]],[[139.62248599144897,35.53613873885642],[139.6236882382193,35.536248616618806],[139.62338387194833,35.53907613770418]],[[139.62338387194833,35.53907613770418],[139.62606229513287,35.53931054359727]],[[139.6263818797174,35.53643907140694],[139.62819285902967,35.53419023987013]],[[139.62819285902967,35.53419023987013],[139.6267090734587,35.53385328139881],[139.62264578374123,35.53463707610383]],[[139.62683081996707,35.48981427423494],[139.6253698618664,35.48950661650026],[139.62217401602123,35.49070794670233],[139.6205532656283,35.49253924274208],[139.61985322320507,35.49534478827498]],[[139.62331538953737,35.49768152202169],[139.62334582616447,35.49770349757417]],[[139.62334582616447,35.49770349757417],[139.62421327003673,35.497483742049404]],[[139.64629504299566,35.550986887146706],[139.64590697600016,35.55047412425557]],[[139.64590697600016,35.55047412425557],[139.6434111725782,35.55006391394267],[139.64156214748206,35.55087700938432]],[[139.64156214748206,35.55087700938432],[139.64137952771947,35.55241529805771]],[[139.64137952771947,35.55241529805771],[139.6421100067698,35.555338046537145]],[[139.6421100067698,35.555338046537145],[139.64472755670016,35.556246369372865]],[[139.64472755670016,35.556246369372865],[139.6469342121647,35.552832833554774]],[[139.6469342121647,35.552832833554774],[139.64629504299566,35.550986887146706]],[[139.62140549118703,35.527194688998286],[139.62494374908707,35.524345192360435]],[[139.62494374908707,35.524345192360435],[139.62258491048703,35.522484595584054]],[[139.65008440306923,35.5485402756376],[139.64821255050276,35.55055470128132],[139.64629504299566,35.550986887146706]],[[139.6469342121647,35.552832833554774],[139.6487680189473,35.55695691223629]],[[139.6487680189473,35.55695691223629],[139.65108881176343,35.55584348424412],[139.6523138860041,35.55434914667568],[139.6556238692009,35.55251052545177]],[[139.64703313120276,35.54606436339186],[139.64667550083436,35.54616691597008]],[[139.64667550083436,35.54616691597008],[139.64461341934853,35.547983561641516]],[[139.64461341934853,35.547983561641516],[139.64590697600016,35.55047412425557]],[[139.6178900607573,35.52860112435682],[139.6165965041057,35.52852054733107],[139.61773026846507,35.53243952085613]],[[139.61773026846507,35.53243952085613],[139.6202336810438,35.535318318230615],[139.62255447385994,35.53550144783459]],[[139.62264578374123,35.53463707610383],[139.6225696921735,35.53419023987013]],[[139.6225696921735,35.53419023987013],[139.62288166760123,35.53243219567197],[139.6244871996806,35.5307474033154]],[[139.6244871996806,35.5307474033154],[139.62143592781413,35.52732654231315]],[[139.63386928998327,35.533633525874045],[139.63385407166973,35.533633525874045]],[[139.63385407166973,35.533633525874045],[139.63055930678647,35.5342488413434]],[[139.63055930678647,35.5342488413434],[139.62819285902967,35.53419023987013]],[[139.6319670007897,35.53706903724461],[139.63411278300003,35.53594828406829]],[[139.63411278300003,35.53594828406829],[139.63386928998327,35.533633525874045]],[[139.63514001916457,35.51888793016199],[139.63416604709747,35.520968282463144]],[[139.63416604709747,35.520968282463144],[139.63331382153876,35.523158512526685]],[[139.63260616995873,35.525487921089244],[139.63423452950843,35.52485063006741],[139.6373542837859,35.52600068398037]],[[139.6469646487918,35.52761222449535],[139.64726901506276,35.52520223890704]],[[139.64726901506276,35.52520223890704],[139.64301549642593,35.524960507829796],[139.64017728094913,35.52380312873267],[139.63514001916457,35.51888793016199]],[[139.6331235926194,35.53084995589363],[139.63385407166973,35.533633525874045]],[[139.63386928998327,35.533633525874045],[139.6410447248214,35.534197565054285]],[[139.6410447248214,35.534197565054285],[139.6414936650711,35.53410966284438]],[[139.6414936650711,35.53410966284438],[139.64153932001173,35.53410233766022]],[[139.63857174886977,35.5300148848995],[139.63307793767873,35.530183364135155]],[[139.63085606390067,35.49976187432285],[139.63014841232066,35.499651996560466]],[[139.63014841232066,35.499651996560466],[139.62350561845673,35.50101448081404]],[[139.6243654531722,35.503805375978615],[139.62758412648773,35.50319006050926],[139.63068105329486,35.5018788525448],[139.63085606390067,35.49976187432285]],[[139.62334582616447,35.49770349757417],[139.6240991326851,35.49823091083362],[139.63014841232066,35.499651996560466]],[[139.61922927234957,35.541156490005335],[139.61639866602957,35.5434126467263]],[[139.61639866602957,35.5434126467263],[139.6189249060786,35.545441722738346]],[[139.6189249060786,35.545441722738346],[139.62139788203024,35.54517801610862],[139.62361975580833,35.543698328908505],[139.6256437915103,35.54365437780355]],[[139.6256437915103,35.54365437780355],[139.62584162958643,35.54165460252815]],[[139.62584162958643,35.54165460252815],[139.61922927234957,35.541156490005335]],[[139.64472755670016,35.556246369372865],[139.64368510222207,35.55850985127799]],[[139.64368510222207,35.55850985127799],[139.64810602230793,35.560011514030585],[139.65045725175116,35.55850252609383]],[[139.65045725175116,35.55850252609383],[139.6487680189473,35.55695691223629]],[[139.6241904425664,35.50410570852914],[139.62406108690124,35.504816251392555]],[[139.62406108690124,35.504816251392555],[139.62834504216517,35.50445731736877],[139.6332149025007,35.50245754209336]],[[139.62476873848124,35.509152760414686],[139.6186281489644,35.50784155245022],[139.62236424494057,35.511269738636635]],[[139.607990547794,35.514544095955706],[139.60320438818297,35.51660247270438],[139.60226846189974,35.5175107955401]],[[139.60226846189974,35.5175107955401],[139.60185756743394,35.51888060497783],[139.60373702915717,35.52224286450681],[139.6036685467462,35.52383242946931]],[[139.6036685467462,35.52383242946931],[139.60450555399137,35.52439646864955],[139.607754663934,35.52416206275647],[139.6079601111669,35.52650612168734],[139.6136974153747,35.52709213642006],[139.61356805970954,35.52617648840019],[139.6168247788089,35.52634496763584]],[[139.6170606626689,35.52018448775813],[139.6125712601721,35.519825553734336],[139.61287562644307,35.516624448256856]],[[139.61287562644307,35.516624448256856],[139.61296693632437,35.51556962173796],[139.607990547794,35.514544095955706]],[[139.63985769636463,35.544005986643185],[139.63511719169426,35.54517801610862]],[[139.63511719169426,35.54517801610862],[139.6277363096232,35.54701663733253]],[[139.6277363096232,35.54701663733253],[139.62820807734323,35.54808611421974]],[[139.62820807734323,35.54808611421974],[139.63170828945937,35.54900176223962]],[[139.63170828945937,35.54900176223962],[139.6395989850343,35.54727301877809]],[[139.6395989850343,35.54727301877809],[139.63985769636463,35.544005986643185]],[[139.65045725175116,35.55850252609383],[139.6505713891028,35.55790918617696],[139.6579294437035,35.555045039170786],[139.6575185492377,35.55160220261606]],[[139.6394772385259,35.55539664801042],[139.63710318161233,35.55808499059677],[139.6358400615878,35.55866368014533]],[[139.6358400615878,35.55866368014533],[139.6366390230491,35.56069275615737]],[[139.6366390230491,35.56069275615737],[139.64073274939366,35.55903726453744]],[[139.64073274939366,35.55903726453744],[139.6394772385259,35.55539664801042]],[[139.63115282101487,35.52685040534281],[139.62822329565677,35.528974708748926]],[[139.62822329565677,35.528974708748926],[139.62913639446967,35.529677926428185],[139.63055930678647,35.5342488413434]],[[139.61642149349987,35.50666952298479],[139.61827051859603,35.50815653536906]],[[139.62485243920577,35.50862534715524],[139.62420566087997,35.50505065728564]],[[139.62420566087997,35.50505065728564],[139.62406108690124,35.504816251392555]],[[139.6036685467462,35.52383242946931],[139.60206301466684,35.52701155939431],[139.59950633799068,35.52902598503804],[139.59922479919004,35.53262997564426],[139.5962800555184,35.53296693411558],[139.59504737212097,35.53633651882871],[139.59751273891584,35.53826304226253],[139.59806059820357,35.539977135355734]],[[139.59806059820357,35.539977135355734],[139.60197931394234,35.53870987849623],[139.60460447302944,35.537281467585224],[139.60587520221074,35.53350899774334],[139.61092768230887,35.531421320258026],[139.61152119653724,35.53194140833332]],[[139.61152119653724,35.53194140833332],[139.61634540193214,35.53230766754127]],[[139.61634540193214,35.53230766754127],[139.61773026846507,35.53243952085613]],[[139.58457717239958,35.510903479428684],[139.5877349724609,35.508749875285936],[139.5992628449739,35.50803933242251],[139.60113469754037,35.50690392887787]],[[139.60113469754037,35.50690392887787],[139.59978026763457,35.50594432975304],[139.5990269611139,35.50349039305978],[139.59568654129,35.501124358576426],[139.5940049176429,35.50211325843789],[139.59217872001707,35.50138806520615],[139.59073298022997,35.50372479895287],[139.58331405237504,35.50453056921036],[139.58259879163828,35.5052557624421],[139.5868751377454,35.50851546939285],[139.58457717239958,35.510903479428684]],[[139.64774839193953,35.54130299368851],[139.64688094806726,35.5415373995816]],[[139.64688094806726,35.5415373995816],[139.64082405927496,35.54372762964514]],[[139.64082405927496,35.54372762964514],[139.64461341934853,35.547983561641516]],[[139.64667550083436,35.54616691597008],[139.6488821562989,35.54172785436973],[139.64774839193953,35.54130299368851]],[[139.61420722887857,35.54216004023512],[139.613720242845,35.541603326239034]],[[139.613720242845,35.541603326239034],[139.61235059462564,35.54212341431432],[139.61403982742954,35.54433561993034],[139.61355284139597,35.54575670565718],[139.6119777459437,35.54592518489284],[139.61232776715534,35.548445048243536],[139.6137582886289,35.550679229412026]],[[139.6137582886289,35.550679229412026],[139.6154931763734,35.54978555694463]],[[139.6154931763734,35.54978555694463],[139.61591928915277,35.54580065676213],[139.61420722887857,35.54216004023512]],[[139.6494756705273,35.536116763303944],[139.64496344056016,35.538871032547725]],[[139.64496344056016,35.538871032547725],[139.64688094806726,35.5415373995816]],[[139.64774839193953,35.54130299368851],[139.65161384358086,35.54006503756564]],[[139.65161384358086,35.54006503756564],[139.65326503060086,35.53841687112987]],[[139.65326503060086,35.53841687112987],[139.6494756705273,35.536116763303944]],[[139.6189249060786,35.545441722738346],[139.62027933598443,35.54741219727711]],[[139.62027933598443,35.54741219727711],[139.62400021364704,35.54555892568489],[139.62536225270964,35.54431364437786]],[[139.62536225270964,35.54431364437786],[139.6256437915103,35.54365437780355]],[[139.63682925196846,35.49716143394641],[139.63675316040073,35.49481004983137],[139.6353682938678,35.49325711078966],[139.6319974374168,35.49361604481346]],[[139.62494374908707,35.524345192360435],[139.62737107009804,35.52227216524344],[139.62965381713033,35.521744751983995]],[[139.62965381713033,35.521744751983995],[139.6302245038884,35.517811128090614]],[[139.62965381713033,35.521744751983995],[139.62962338050323,35.52309991105341]],[[139.62962338050323,35.52309991105341],[139.6297755636387,35.523077935500936]],[[139.63416604709747,35.520968282463144],[139.63268987068327,35.52053609659776],[139.6321800571794,35.51798693251043]],[[139.61152119653724,35.53194140833332],[139.6120994924521,35.535047286416734],[139.61118639363917,35.53715693945452],[139.6116201155753,35.538673252575435],[139.6138724259805,35.53964017688442]],[[139.6138724259805,35.53964017688442],[139.61451159514954,35.538446171866504]],[[139.61451159514954,35.538446171866504],[139.61630735614827,35.53558202486034]],[[139.61630735614827,35.53558202486034],[139.61634540193214,35.53230766754127]],[[139.6410447248214,35.534197565054285],[139.63994139708913,35.53769900308229]],[[139.63994139708913,35.53769900308229],[139.64224697159173,35.540401996036955]],[[139.64224697159173,35.540401996036955],[139.64496344056016,35.538871032547725]],[[139.64496344056016,35.538871032547725],[139.6414936650711,35.53410966284438]],[[139.62822329565677,35.528974708748926],[139.6244871996806,35.53191210759668],[139.6225696921735,35.53419023987013]],[[139.58457717239958,35.510903479428684],[139.58348906298085,35.51134299047822],[139.5848891478273,35.512998482098155],[139.5874077787196,35.51228793923473],[139.58946225104864,35.513386716858584],[139.59212545591964,35.51370169977742],[139.59431689307064,35.516258189048905],[139.59667573167067,35.51744486888266],[139.60250434575974,35.5169028052549],[139.60226846189974,35.5175107955401]],[[139.607990547794,35.514544095955706],[139.60945150589464,35.51412656045864],[139.61547795805987,35.51411191009032]],[[139.61547795805987,35.51411191009032],[139.6138724259805,35.51199493186837],[139.6145192043063,35.51145286824061]],[[139.6144887676792,35.51143089268813],[139.61152880569404,35.5093651907553]],[[139.61152880569404,35.5093651907553],[139.6086373261198,35.51047861874746],[139.60765574489594,35.5087205745493],[139.60989283698757,35.50764377247793]],[[139.60989283698757,35.50764377247793],[139.60897212901787,35.50666219780062]],[[139.60897212901787,35.50666219780062],[139.60401095880104,35.50913078486221],[139.60223802527264,35.50690392887787],[139.60113469754037,35.50690392887787]],[[139.63503349096973,35.550195767257534],[139.63296380032713,35.55182928332499]],[[139.63296380032713,35.55182928332499],[139.63329099406843,35.5558288338758]],[[139.63329099406843,35.5558288338758],[139.63666185051943,35.555799533139165],[139.63997183371623,35.554678779962835]],[[139.63997183371623,35.554678779962835],[139.6421100067698,35.555338046537145]],[[139.64137952771947,35.55241529805771],[139.63883806935686,35.550466799071415],[139.63503349096973,35.550195767257534]],[[139.6300190566555,35.55892738677505],[139.6290146479613,35.558282770569065]],[[139.6290146479613,35.558282770569065],[139.62681560165353,35.55829009575322],[139.62476112932447,35.559366897824596]],[[139.62476112932447,35.559366897824596],[139.6259025028406,35.56245812553969]],[[139.6259025028406,35.56245812553969],[139.62885485566903,35.562743807721894],[139.63002666581227,35.5619380374644]],[[139.63002666581227,35.5619380374644],[139.6300190566555,35.55892738677505]],[[139.6374988577646,35.539991785724055],[139.6366390230491,35.542394446128206],[139.63426496613553,35.54284860754606]],[[139.63426496613553,35.54284860754606],[139.63511719169426,35.54517801610862]],[[139.63985769636463,35.544005986643185],[139.64079362264786,35.54370565409266]],[[139.64079362264786,35.54370565409266],[139.63895220670847,35.541566700318235]],[[139.63895220670847,35.541566700318235],[139.6374988577646,35.539991785724055]],[[139.62962338050323,35.52309991105341],[139.62438828064253,35.528974708748926],[139.6244871996806,35.5307474033154]],[[139.62527094282837,35.55404881412517],[139.62486004836254,35.55596801237482]],[[139.62486004836254,35.55596801237482],[139.62476112932447,35.559366897824596]],[[139.6290146479613,35.558282770569065],[139.6300799299097,35.55549920058865]],[[139.6300799299097,35.55549920058865],[139.62696017563223,35.555154916933176],[139.62527094282837,35.55404881412517]],[[139.6300190566555,35.55892738677505],[139.6335344870852,35.55812161651757]],[[139.6335344870852,35.55812161651757],[139.6330931559923,35.55582150869164]],[[139.6330931559923,35.55582150869164],[139.6300799299097,35.55549920058865]],[[139.65180407250023,35.54621086707504],[139.65161384358086,35.54006503756564]],[[139.62420566087997,35.50505065728564],[139.62784283781806,35.50646441782833]],[[139.63170828945937,35.54900176223962],[139.63503349096973,35.550195767257534]],[[139.64156214748206,35.55087700938432],[139.64120451711366,35.54826924382372],[139.6395989850343,35.54727301877809]],[[139.6178900607573,35.513987381959616],[139.61834661016377,35.513518570173446]],[[139.61547795805987,35.51411191009032],[139.6178900607573,35.513987381959616]],[[139.6154931763734,35.54978555694463],[139.6185140116128,35.54828389419203]],[[139.6185140116128,35.54828389419203],[139.62027933598443,35.54741219727711]],[[139.61639866602957,35.5434126467263],[139.61420722887857,35.54216004023512]],[[139.64224697159173,35.540401996036955],[139.63895220670847,35.541566700318235]],[[139.64079362264786,35.54370565409266],[139.64082405927496,35.54372762964514]],[[139.6301940672613,35.53840222076155],[139.63174633524326,35.539669477621054],[139.63431062107617,35.53996248498742],[139.6365477131678,35.5388930081002]],[[139.6365477131678,35.5388930081002],[139.63526937482973,35.537105663165406]],[[139.63526937482973,35.537105663165406],[139.63411278300003,35.53594828406829]],[[139.60836339647594,35.50583445199066],[139.60897212901787,35.50666219780062]],[[139.60989283698757,35.50764377247793],[139.61152880569404,35.5093651907553]],[[139.61954124777733,35.54987345915454],[139.61365176043404,35.55222484326958]],[[139.61365176043404,35.55222484326958],[139.61841509257474,35.55242262324187]],[[139.61841509257474,35.55242262324187],[139.6206750121367,35.55239332250523]],[[139.6206750121367,35.55239332250523],[139.61954124777733,35.54987345915454]],[[139.64726901506276,35.52520223890704],[139.64721575096533,35.52324641473659],[139.6438829402982,35.52323176436827],[139.64325898944273,35.521957182324606],[139.6416078024227,35.52271900147714],[139.64050447469043,35.52159824830082],[139.64280244003626,35.52005263444327],[139.6425209012356,35.51847771984908],[139.6409838515672,35.51819936285104],[139.6384728298317,35.51597983205087],[139.6353074206136,35.515598922474595],[139.63514001916457,35.51888793016199]],[[139.6556847424551,35.54566147826311],[139.6545053231551,35.5428779082827],[139.6542085660409,35.54035071974784],[139.6553879853409,35.53881975625861],[139.65326503060086,35.53841687112987]],[[139.6138724259805,35.53964017688442],[139.61382677103987,35.539684127989375]],[[139.61382677103987,35.539684127989375],[139.61922927234957,35.541156490005335]],[[139.62584162958643,35.54165460252815],[139.62607751344643,35.53931054359727]],[[139.62338387194833,35.53907613770418],[139.61451159514954,35.538446171866504]],[[139.6365477131678,35.5388930081002],[139.6374988577646,35.539991785724055]],[[139.63994139708913,35.53769900308229],[139.6375825584891,35.5365709247218],[139.63526937482973,35.537105663165406]],[[139.63329099406843,35.5558288338758],[139.6330931559923,35.55582150869164]],[[139.6335344870852,35.55812161651757],[139.6358400615878,35.55866368014533]],[[139.6394772385259,35.55539664801042],[139.63997183371623,35.554678779962835]],[[139.62586445705674,35.54428434364122],[139.62536225270964,35.54431364437786]],[[139.6185140116128,35.54828389419203],[139.61954124777733,35.54987345915454]],[[139.61954124777733,35.54987345915454],[139.62183160396637,35.549104314817846]],[[139.62183160396637,35.549104314817846],[139.62586445705674,35.54428434364122]],[[139.6137582886289,35.550679229412026],[139.61057005194047,35.552092989954716]],[[139.61057005194047,35.552092989954716],[139.61080593580047,35.553623953443946]],[[139.61080593580047,35.553623953443946],[139.6122745030579,35.55298666242211]],[[139.6122745030579,35.55298666242211],[139.61365176043404,35.55222484326958]],[[139.62260773795737,35.556444149345154],[139.6206750121367,35.555081665091585],[139.61811072630377,35.556092540505524]],[[139.61811072630377,35.556092540505524],[139.6195792935612,35.55856845275127],[139.6217935581825,35.55774803212546],[139.62260773795737,35.556444149345154]],[[139.6178900607573,35.513987381959616],[139.61661172241924,35.51698338228065],[139.61287562644307,35.516624448256856]],[[139.62269143868187,35.54903838816041],[139.62275231193607,35.55055470128132],[139.62524050620127,35.55402683857269]],[[139.62524050620127,35.55402683857269],[139.62565900982383,35.55155092632695]],[[139.62565900982383,35.55155092632695],[139.6247839567948,35.550408197598145],[139.6280635033645,35.54808611421974]],[[139.6280635033645,35.54808611421974],[139.62269143868187,35.54903838816041]],[[139.6494756705273,35.536116763303944],[139.64812124062146,35.53379467992554],[139.64677441987243,35.53347237182255]],[[139.6206750121367,35.55239332250523],[139.62408391437157,35.55552117614112]],[[139.62408391437157,35.55552117614112],[139.62486004836254,35.55596801237482]],[[139.62527094282837,35.55404881412517],[139.62524050620127,35.55402683857269]],[[139.62269143868187,35.54903838816041],[139.62183160396637,35.549104314817846]],[[139.6122745030579,35.55298666242211],[139.61462573250117,35.55755025215316]],[[139.61462573250117,35.55755025215316],[139.61811072630377,35.556092540505524]],[[139.61811072630377,35.556092540505524],[139.61693130700377,35.55410741559844],[139.61841509257474,35.55242262324187]],[[139.62586445705674,35.54428434364122],[139.6264731895987,35.544027962195656]],[[139.6264731895987,35.544027962195656],[139.63103107450647,35.54321486675401]],[[139.63103107450647,35.54321486675401],[139.6280330667374,35.54072430413995]],[[139.63002666581227,35.5619380374644],[139.6354596037491,35.56127877089009],[139.6366390230491,35.56069275615737]],[[139.6280635033645,35.54808611421974],[139.62820807734323,35.54808611421974]],[[139.6277363096232,35.54701663733253],[139.6264731895987,35.544027962195656]],[[139.62248599144897,35.53613873885642],[139.61630735614827,35.53558202486034]],[[139.61080593580047,35.553623953443946],[139.61063092519467,35.55743304920662],[139.6128375806592,35.55820951872747]],[[139.6128375806592,35.55820951872747],[139.61462573250117,35.55755025215316]],[[139.62260773795737,35.556444149345154],[139.62408391437157,35.55552117614112]],[[139.59806059820357,35.539977135355734],[139.5985247567668,35.541141839637014],[139.6022228069591,35.541075912979586],[139.6026032647978,35.54565415307896],[139.60525886051204,35.54810808977222],[139.6047642653217,35.55049609980805],[139.6062176142656,35.552385997321075],[139.61057005194047,35.552092989954716]],[[139.613720242845,35.541603326239034],[139.61382677103987,35.539684127989375]],[[139.64073274939366,35.55903726453744],[139.64368510222207,35.55850985127799]],[[139.63426496613553,35.54284860754606],[139.63103107450647,35.54321486675401]],[[139.63296380032713,35.55182928332499],[139.6289537747071,35.55302328834291],[139.62565900982383,35.55155092632695]],[[139.6128375806592,35.55820951872747],[139.6130734645192,35.56105901536532],[139.61734220146957,35.56029719621279],[139.62127613552187,35.562260345567395],[139.62456329124834,35.56151317678318],[139.6259025028406,35.56245812553969]]]}