{"type":"Topology","bbox":[139.57311783369937,35.45679517489974,139.67222316615616,35.50638037852964],"objects":{"town":{"type":"GeometryCollection","geometries":[{"type":"MultiPolygon","arcs":[[[8,5,21,22,23,24,0,1,2,3,25,90,-38]]],"properties":{"name":"西寺尾"}},{"type":"MultiPolygon","arcs":[[[16,9,10,11,17,18,19,20]]],"properties":{"name":"新子安"}},{"type":"MultiPolygon","arcs":[[[-2,-1,-25,-24,137,136,78,79,13,124,-3]]],"properties":{"name":"松見町"}},{"type":"MultiPolygon","arcs":[[[-47,-46,-54,-64,29,30,27,-130,-127,138,104,73,74,75,76,-48]]],"properties":{"name":"守屋町"}},{"type":"MultiPolygon","arcs":[[[-17,-21,34,35,31,32,71,72,-60,-10]]],"properties":{"name":"入江"}},{"type":"MultiPolygon","arcs":[[[-62,-18,-12,36,37,38,156]]],"properties":{"name":"子安台"}},{"type":"MultiPolygon","arcs":[[[53,45,46,47,40,41,42,43,-36,-35,-20,-19,61,62,-30,63]]],"properties":{"name":"子安通"}},{"type":"Polygon","arcs":[[48,49,50,51]],"properties":{"name":"白幡町"}},{"type":"Polygon","arcs":[[54,55,56,57,58]],"properties":{"name":"西大口"}},{"type":"Polygon","arcs":[[59,60,-9,-37,-11]],"properties":{"name":"神之木台"}},{"type":"MultiPolygon","arcs":[[[-213,246,65,220,221,222,223,224,67,247,-181,-209,-160]]],"properties":{"name":"西神奈川"}},{"type":"MultiPolygon","arcs":[[[-95,268,68,69,-100,-99,-96]]],"properties":{"name":"鶴屋町"}},{"type":"Polygon","arcs":[[81,82,-42,83,84]],"properties":{"name":"亀住町"}},{"type":"Polygon","arcs":[[85,86,87,88]],"properties":{"name":"山内町"}},{"type":"Polygon","arcs":[[89,-22,-6,-61,-73]],"properties":{"name":"神之木町"}},{"type":"Polygon","arcs":[[91,92,93,94,95,96,97]],"properties":{"name":"金港町"}},{"type":"Polygon","arcs":[[98,99,-70,100,101,102,103,-97]],"properties":{"name":"台町"}},{"type":"Polygon","arcs":[[106,-50,107,-55,108]],"properties":{"name":"白幡向町"}},{"type":"Polygon","arcs":[[109,110,111,112,113,114,-103]],"properties":{"name":"高島台"}},{"type":"Polygon","arcs":[[115,116,117,118,119]],"properties":{"name":"立町"}},{"type":"MultiPolygon","arcs":[[[121,122,123,-113,-112,-361,-306,-287]]],"properties":{"name":"上反町"}},{"type":"Polygon","arcs":[[125,126,127]],"properties":{"name":"恵比須町"}},{"type":"Polygon","arcs":[[128,-128,129,-28,130]],"properties":{"name":"宝町"}},{"type":"Polygon","arcs":[[131,132,133,-58,134,135,-32,-44]],"properties":{"name":"七島町"}},{"type":"MultiPolygon","arcs":[[[-164,143,144,-75,139,140,141,178,174,175,176,-310,-189,-256,-202]]],"properties":{"name":"千若町"}},{"type":"Polygon","arcs":[[145,146,147,148,149]],"properties":{"name":"白幡西町"}},{"type":"Polygon","arcs":[[150,151]],"properties":{"name":"鈴繁町"}},{"type":"Polygon","arcs":[[152,-118,-149,153,154]],"properties":{"name":"白幡南町"}},{"type":"Polygon","arcs":[[-136,155,-138,-23,-90,-72,-33]],"properties":{"name":"大口通"}},{"type":"MultiPolygon","arcs":[[[162,157,158,159,160,-208,-120,-82,-203,255,-188]]],"properties":{"name":"東神奈川"}},{"type":"MultiPolygon","arcs":[[[-144,163,164,165,-174,-76,-145]]],"properties":{"name":"新浦島町"}},{"type":"MultiPolygon","arcs":[[[216,-89,-88,167,168,217,218,219,354]]],"properties":{"name":"橋本町"}},{"type":"Polygon","arcs":[[170,-51,-107,171,-147]],"properties":{"name":"白幡上町"}},{"type":"Polygon","arcs":[[-166,172,-84,-41,-77,173]],"properties":{"name":"浦島町"}},{"type":"Polygon","arcs":[[-135,-57,179,-79,-137,-156]],"properties":{"name":"大口仲町"}},{"type":"Polygon","arcs":[[180,181,-150,-117,182]],"properties":{"name":"鳥越"}},{"type":"MultiPolygon","arcs":[[[183,184,185,186,-163,187,188,189,239,-218,-169,240]]],"properties":{"name":"神奈川"}},{"type":"MultiPolygon","arcs":[[[191]],[[345,346]]],"properties":{"name":"菅田町"}},{"type":"MultiPolygon","arcs":[[[-296,-242,193,194,233,234,235,236,231,270,-338]]],"properties":{"name":"神大寺"}},{"type":"Polygon","arcs":[[197,198,199]],"properties":{"name":"三枚町"}},{"type":"Polygon","arcs":[[-154,-148,-172,-109,-59,-134,200]],"properties":{"name":"白幡仲町"}},{"type":"Polygon","arcs":[[-85,-173,-165,201,202]],"properties":{"name":"新町"}},{"type":"Polygon","arcs":[[-155,-201,-133,203]],"properties":{"name":"白幡東町"}},{"type":"MultiPolygon","arcs":[[[-227,-226,248,237,204,313,-228]]],"properties":{"name":"羽沢南"}},{"type":"Polygon","arcs":[[207,-161,208,-183,-116]],"properties":{"name":"富家町"}},{"type":"Polygon","arcs":[[-153,-204,-132,-43,-83,-119]],"properties":{"name":"浦島丘"}},{"type":"Polygon","arcs":[[209,210,211,212,-159,213]],"properties":{"name":"二ツ谷町"}},{"type":"MultiPolygon","arcs":[[[230,225,226,227,228,366,-346,367]]],"properties":{"name":"羽沢町"}},{"type":"MultiPolygon","arcs":[[[293,353,251,344,-200,-199,245,-194,241,295]]],"properties":{"name":"片倉"}},{"type":"Polygon","arcs":[[-98,-104,-115,249,-185,250]],"properties":{"name":"青木町"}},{"type":"Polygon","arcs":[[256,257,258,259]],"properties":{"name":"中丸"}},{"type":"MultiPolygon","arcs":[[[261,262,263,266,341,-293,339,347,-123,-291]]],"properties":{"name":"反町"}},{"type":"Polygon","arcs":[[271,272,273,274,275,276]],"properties":{"name":"三ツ沢南町"}},{"type":"Polygon","arcs":[[277,-272,278]],"properties":{"name":"三ツ沢西町"}},{"type":"Polygon","arcs":[[-151,279,-175,280]],"properties":{"name":"瑞穂町"}},{"type":"MultiPolygon","arcs":[[[282,315,-312,-224,-223,342,302,-259,-258,352,-235,-234,-195,330]]],"properties":{"name":"六角橋"}},{"type":"Polygon","arcs":[[285,-214,-158,-187]],"properties":{"name":"神奈川本町"}},{"type":"MultiPolygon","arcs":[[[-335,-358,-357,-371,350,365,308,288,289,-262,290,-122,286,305,306,-360,-322,-321,-320,-319]]],"properties":{"name":"松本町"}},{"type":"Polygon","arcs":[[291,292,-210,-286,-186,-250]],"properties":{"name":"幸ケ谷"}},{"type":"Polygon","arcs":[[296,297,298]],"properties":{"name":"二本榎"}},{"type":"Polygon","arcs":[[-92,-251,-184,-241,-168,-87,303,304]],"properties":{"name":"栄町"}},{"type":"Polygon","arcs":[[-240,-190,309,-177,310,-219]],"properties":{"name":"星野町"}},{"type":"Polygon","arcs":[[-248,-68,-225,311,312,-52,-171,-146,-182]],"properties":{"name":"白楽"}},{"type":"Polygon","arcs":[[316,317,318,319,320,321,322]],"properties":{"name":"松ケ丘"}},{"type":"Polygon","arcs":[[323,-298,324,-221,-66,-247,-212,325]],"properties":{"name":"平川町"}},{"type":"Polygon","arcs":[[326,-299,-324,327,-263,-290,328]],"properties":{"name":"旭ケ丘"}},{"type":"Polygon","arcs":[[-275,332,333,334,-318,335]],"properties":{"name":"三ツ沢東町"}},{"type":"Polygon","arcs":[[-273,-278,336,-294,337,338]],"properties":{"name":"三ツ沢上町"}},{"type":"Polygon","arcs":[[343,-260,-303,-343,-222,-325,-297,-327]],"properties":{"name":"斎藤分町"}},{"type":"Polygon","arcs":[[-274,-339,-271,-232,348,-333]],"properties":{"name":"三ツ沢中町"}},{"type":"Polygon","arcs":[[-349,-237,355,356,357,-334]],"properties":{"name":"三ツ沢下町"}},{"type":"Polygon","arcs":[[-323,359,-307,360,-111,361]],"properties":{"name":"泉町"}},{"type":"Polygon","arcs":[[-276,-336,-317,-362,-110,-102,362]],"properties":{"name":"沢渡"}},{"type":"Polygon","arcs":[[363,364,-93,-305]],"properties":{"name":"大野町"}},{"type":"Polygon","arcs":[[-124,-348,-340,-292,-114]],"properties":{"name":"桐畑"}},{"type":"Polygon","arcs":[[-126,-129,368,-364,-304,-86,-217,-355,-220,-311,-176,-280,-152,-281,-179,-142,369,-140,-74,-105,-139]],"properties":{"name":"公有水面"}},{"type":"Polygon","arcs":[[-141,-370]],"properties":{"name":"出田町"}},{"type":"Polygon","arcs":[[-289,-309,-366,-351,370,-356,-236,-353,-257,-344,-329]],"properties":{"name":"栗田谷"}},{"type":"Polygon","arcs":[[-342,-267,-264,-328,-326,-211]],"properties":{"name":"広台太田町"}}]}},"arcs":[[[139.64419337515827,35.499045993474276],[139.64341036473084,35.500682468841596]],[[139.64341036473084,35.500682468841596],[139.64223089332745,35.50317189500643]],[[139.64223089332745,35.50317189500643],[139.64115053716804,35.50518029659361]],[[139.64115053716804,35.50518029659361],[139.64381673723116,35.505765460512826],[139.6447285974758,35.50509103430084],[139.64373744503595,35.50314709992511],[139.64666134473342,35.50186767372884]],[[139.64666134473342,35.50186767372884],[139.64740470906327,35.50143623931382],[139.64419337515827,35.499045993474276]],[[139.64943657156488,35.49529697717822],[139.64663161016023,35.496283821414885]],[[139.64663161016023,35.496283821414885],[139.6468100175994,35.497146690244925],[139.6509530347978,35.49935345248268]],[[139.6509530347978,35.49935345248268],[139.6550861404718,35.49613009191068],[139.65595835461883,35.494513452608416]],[[139.65595835461883,35.494513452608416],[139.65259834784788,35.49546062471496],[139.64943657156488,35.49529697717822]],[[139.65166666455445,35.48997595272629],[139.6498726786384,35.49186533792311]],[[139.6498726786384,35.49186533792311],[139.65299480882382,35.49201410841105],[139.65420401480037,35.493209231330816]],[[139.65420401480037,35.493209231330816],[139.65584932785046,35.49272324773689]],[[139.65584932785046,35.49272324773689],[139.65166666455445,35.48997595272629]],[[139.63678946643287,35.49867406725443],[139.63691831625005,35.50121308358191]],[[139.63691831625005,35.50121308358191],[139.63920787838603,35.50257681305468],[139.64223089332745,35.50317189500643]],[[139.64341036473084,35.500682468841596],[139.63852398320256,35.49878812462851],[139.63678946643287,35.49867406725443]],[[139.6510025924198,35.48966353470162],[139.65166666455445,35.48997595272629]],[[139.65584932785046,35.49272324773689],[139.6571675605954,35.49177607563035],[139.6577424290105,35.4892172232378]],[[139.6577424290105,35.4892172232378],[139.65496720217902,35.48759562491927]],[[139.65496720217902,35.48759562491927],[139.6509034771758,35.485864928242925]],[[139.6509034771758,35.485864928242925],[139.65255870175028,35.48759562491927],[139.6510025924198,35.48966353470162]],[[139.64663161016023,35.496283821414885],[139.64585851125716,35.4947961165355]],[[139.64585851125716,35.4947961165355],[139.64564045772042,35.49556972307278]],[[139.64564045772042,35.49556972307278],[139.6446195707074,35.49804923120509]],[[139.6446195707074,35.49804923120509],[139.64419337515827,35.499045993474276]],[[139.64666134473342,35.50186767372884],[139.65080436193182,35.50108910817529]],[[139.65080436193182,35.50108910817529],[139.6509530347978,35.49935345248268]],[[139.66615731322452,35.48544341186043],[139.6593778305362,35.48345484633832]],[[139.6593778305362,35.48345484633832],[139.6576829598641,35.48643521511335]],[[139.6576829598641,35.48643521511335],[139.66209358822127,35.4894552560185]],[[139.66209358822127,35.4894552560185],[139.66418491986929,35.48682201838199],[139.66615731322452,35.48544341186043]],[[139.64575939601318,35.48532439547008],[139.64683975217258,35.486415379048296]],[[139.64683975217258,35.486415379048296],[139.64703798266055,35.48923705930286]],[[139.64703798266055,35.48923705930286],[139.6510025924198,35.48966353470162]],[[139.6509034771758,35.485864928242925],[139.6492383410769,35.48563681349475]],[[139.6492383410769,35.48563681349475],[139.64575939601318,35.48532439547008]],[[139.65420401480037,35.493209231330816],[139.65595835461883,35.494513452608416]],[[139.65595835461883,35.494513452608416],[139.6577325174861,35.49643755091908]],[[139.6577325174861,35.49643755091908],[139.65804968626685,35.49436964113674]],[[139.65804968626685,35.49436964113674],[139.65584932785046,35.49272324773689]],[[139.64468895137819,35.48230931358119],[139.6435986836944,35.48398546107863]],[[139.6435986836944,35.48398546107863],[139.64316257662088,35.484635092209295]],[[139.64316257662088,35.484635092209295],[139.64317248814527,35.48464005122556]],[[139.64317248814527,35.48464005122556],[139.64575939601318,35.48532439547008]],[[139.6492383410769,35.48563681349475],[139.65025922808994,35.48419869877801]],[[139.65025922808994,35.48419869877801],[139.65015020132154,35.48412431353404]],[[139.65015020132154,35.48412431353404],[139.6471965670509,35.483281280769056]],[[139.6471965670509,35.483281280769056],[139.64468895137819,35.48230931358119]],[[139.627779890755,35.49058591172684],[139.62750236807184,35.492063698573695],[139.6304560023425,35.492271977256806],[139.631962554051,35.49363570672958]],[[139.631962554051,35.49363570672958],[139.6315462700263,35.49302078871276]],[[139.6315462700263,35.49302078871276],[139.6283250245969,35.49039251009252]],[[139.6283250245969,35.49039251009252],[139.627779890755,35.49058591172684]],[[139.65496720217902,35.48759562491927],[139.65588897394807,35.485909559389306]],[[139.65588897394807,35.485909559389306],[139.65025922808994,35.48419869877801]],[[139.63629389021298,35.490561116645516],[139.6378202649703,35.49246041987486],[139.63537211844394,35.493253862477204]],[[139.63537211844394,35.493253862477204],[139.63695796234765,35.49546062471496]],[[139.63695796234765,35.49546062471496],[139.6394358434472,35.49364066574584],[139.64228045094944,35.489212264221536]],[[139.64228045094944,35.489212264221536],[139.6404468189358,35.489742878961856]],[[139.6404468189358,35.489742878961856],[139.63922770143483,35.48935111667695],[139.63629389021298,35.490561116645516]],[[139.6498726786384,35.49186533792311],[139.64972400577244,35.49277283789953]],[[139.64972400577244,35.49277283789953],[139.64943657156488,35.49529697717822]],[[139.6577424290105,35.4892172232378],[139.6609240283423,35.49082394450754]],[[139.6609240283423,35.49082394450754],[139.66209358822127,35.4894552560185]],[[139.6576829598641,35.48643521511335],[139.65588897394807,35.485909559389306]],[[139.62954414209787,35.4828548053703],[139.62964325734185,35.482507674231776]],[[139.62964325734185,35.482507674231776],[139.6277600677062,35.48473427253459]],[[139.6277600677062,35.48473427253459],[139.62864219337763,35.4854334938279]],[[139.62864219337763,35.4854334938279],[139.62954414209787,35.4828548053703]],[[139.62055438946877,35.467928166413806],[139.61641137227036,35.46838439591015],[139.61658977970953,35.46912824834984]],[[139.61658977970953,35.46912824834984],[139.620336335932,35.46953488768354]],[[139.620336335932,35.46953488768354],[139.62055438946877,35.467928166413806]],[[139.64703798266055,35.48923705930286],[139.64626488375748,35.49308525592421]],[[139.64626488375748,35.49308525592421],[139.64972400577244,35.49277283789953]],[[139.64800931205156,35.482225010304695],[139.64890134924738,35.48065796116507],[139.6461558569891,35.48049927264461]],[[139.6461558569891,35.48049927264461],[139.64590806887915,35.48073730542531]],[[139.64590806887915,35.48073730542531],[139.64457992460981,35.48224484636975]],[[139.64457992460981,35.48224484636975],[139.64468895137819,35.48230931358119]],[[139.6471965670509,35.483281280769056],[139.64800931205156,35.482225010304695]],[[139.63942593192277,35.49557964110531],[139.63686875862808,35.496819395171464]],[[139.63686875862808,35.496819395171464],[139.63678946643287,35.49867406725443]],[[139.6446195707074,35.49804923120509],[139.6435788606456,35.49864431315684],[139.64051619960657,35.49732025581419],[139.63942593192277,35.49557964110531]],[[139.6394160203984,35.48101005131986],[139.6388015058857,35.483192018476295]],[[139.6388015058857,35.483192018476295],[139.64316257662088,35.484635092209295]],[[139.6435986836944,35.48398546107863],[139.64105142192406,35.48216550210952]],[[139.64105142192406,35.48216550210952],[139.6394160203984,35.48101005131986]],[[139.6382761950926,35.468478617219176],[139.63807796460463,35.46520070746826],[139.6340836202722,35.465552797623054],[139.63294379496642,35.46776451887707]],[[139.63294379496642,35.46776451887707],[139.63550096826114,35.468627387707116]],[[139.63550096826114,35.468627387707116],[139.63740398094558,35.468974518845634]],[[139.63740398094558,35.468974518845634],[139.6382761950926,35.468478617219176]],[[139.64626488375748,35.49308525592421],[139.64585851125716,35.4947961165355]],[[139.65080436193182,35.50108910817529],[139.65374808467806,35.49886746888875],[139.65740543718098,35.49784095252197],[139.6577325174861,35.49643755091908]],[[139.62772042160861,35.46991673193592],[139.6282159978285,35.46741738773855]],[[139.6282159978285,35.46741738773855],[139.62840431679209,35.46609333039589]],[[139.62840431679209,35.46609333039589],[139.62647156953443,35.465612305818226],[139.6235377583126,35.46758599429155]],[[139.6235377583126,35.46758599429155],[139.62357740441018,35.46764550248672]],[[139.62357740441018,35.46764550248672],[139.62577776282657,35.47012501061903]],[[139.62577776282657,35.47012501061903],[139.6266896230712,35.47113664993701]],[[139.6266896230712,35.47113664993701],[139.62772042160861,35.46991673193592]],[[139.62577776282657,35.47012501061903],[139.62325032410504,35.46979771554556]],[[139.62325032410504,35.46979771554556],[139.620336335932,35.46953488768354]],[[139.61658977970953,35.46912824834984],[139.61649066446554,35.469822510626884]],[[139.61649066446554,35.469822510626884],[139.6193550950166,35.470710174538254]],[[139.6193550950166,35.470710174538254],[139.62005881324885,35.470278740123234],[139.62591652416816,35.47146890402674],[139.6267193576444,35.47118128108339]],[[139.6267193576444,35.47118128108339],[139.6266896230712,35.47113664993701]],[[139.6504079009559,35.48370775616782],[139.65155763778608,35.481634887369204],[139.6494068369917,35.48085136279939],[139.64800931205156,35.482225010304695]],[[139.65015020132154,35.48412431353404],[139.6504079009559,35.48370775616782]],[[139.63349884033272,35.490863616637654],[139.6315462700263,35.49302078871276]],[[139.631962554051,35.49363570672958],[139.63537211844394,35.493253862477204]],[[139.63629389021298,35.490561116645516],[139.63349884033272,35.490863616637654]],[[139.6193550950166,35.470710174538254],[139.61925597977262,35.47232185482425]],[[139.61925597977262,35.47232185482425],[139.62156536495738,35.47381947773617]],[[139.62156536495738,35.47381947773617],[139.6235674928858,35.47271361710916]],[[139.6235674928858,35.47271361710916],[139.62549032861904,35.47266898596278]],[[139.62549032861904,35.47266898596278],[139.62739334130347,35.471999518767056]],[[139.62739334130347,35.471999518767056],[139.6267193576444,35.47118128108339]],[[139.63547123368792,35.48077201853916],[139.63535229539517,35.48193738736135]],[[139.63535229539517,35.48193738736135],[139.63488645374844,35.4842284528756]],[[139.63488645374844,35.4842284528756],[139.63498556899242,35.48419373976174]],[[139.63498556899242,35.48419373976174],[139.6388015058857,35.483192018476295]],[[139.6388015058857,35.483192018476295],[139.63547123368792,35.48077201853916]],[[139.6235674928858,35.47271361710916],[139.62429103416684,35.474841035086676]],[[139.62429103416684,35.474841035086676],[139.62532183270426,35.474945174428235]],[[139.62532183270426,35.474945174428235],[139.62522271746028,35.474543494110804]],[[139.62522271746028,35.474543494110804],[139.62549032861904,35.47266898596278]],[[139.63691831625005,35.50121308358191],[139.63921778991042,35.50632087033446],[139.64115053716804,35.50518029659361]],[[139.660319425354,35.4803455431404],[139.66176650791616,35.47724119895875],[139.6594174766338,35.476789928478674],[139.65384719992204,35.47666099405579],[139.65175586827405,35.48074722345784],[139.65679092266828,35.48223988735349],[139.65662242675353,35.482626690622126]],[[139.65662242675353,35.482626690622126],[139.65858490858434,35.48321681355762]],[[139.65858490858434,35.48321681355762],[139.660319425354,35.4803455431404]],[[139.6671881117619,35.4837375102654],[139.66593925968775,35.48288951848415],[139.66918032816594,35.47756353501595],[139.66282704102673,35.47725111699128],[139.660319425354,35.4803455431404]],[[139.65858490858434,35.48321681355762],[139.6593778305362,35.48345484633832]],[[139.66615731322452,35.48544341186043],[139.6671881117619,35.4837375102654]],[[139.64317248814527,35.48464005122556],[139.64258770820578,35.486018657747124]],[[139.64258770820578,35.486018657747124],[139.6404567304602,35.48767496917951],[139.64050628808218,35.48868164948122]],[[139.64050628808218,35.48868164948122],[139.6404468189358,35.489742878961856]],[[139.64228045094944,35.489212264221536],[139.644708774427,35.48852296096076]],[[139.644708774427,35.48852296096076],[139.64683975217258,35.486415379048296]],[[139.64179478625394,35.49444898539697],[139.63942593192277,35.49557964110531]],[[139.64564045772042,35.49556972307278],[139.6446195707074,35.49452337064094],[139.64179478625394,35.49444898539697]],[[139.65662242675353,35.482626690622126],[139.65193427571322,35.4817340676945],[139.6504079009559,35.48370775616782]],[[139.6461558569891,35.48049927264461],[139.64681992912378,35.479447961196506]],[[139.64681992912378,35.479447961196506],[139.6472758592461,35.47891734645619],[139.6445997476586,35.476031198990185]],[[139.6445997476586,35.476031198990185],[139.64272646954737,35.47694861699914]],[[139.64272646954737,35.47694861699914],[139.64234983162024,35.47719656781237]],[[139.64234983162024,35.47719656781237],[139.64411408296309,35.478957018586314]],[[139.64411408296309,35.478957018586314],[139.64590806887915,35.48073730542531]],[[139.631912996429,35.483906116818396],[139.6304560023425,35.48744189541507]],[[139.6304560023425,35.48744189541507],[139.6336078671011,35.487471649512656]],[[139.6336078671011,35.487471649512656],[139.63442061210174,35.48749148557771]],[[139.63442061210174,35.48749148557771],[139.63488645374844,35.4842284528756]],[[139.63488645374844,35.4842284528756],[139.6334393711863,35.48291927258174],[139.631912996429,35.483906116818396]],[[139.65107197309058,35.46780419100719],[139.64941674851607,35.46945058440704],[139.6440843483899,35.473388043321144]],[[139.6440843483899,35.473388043321144],[139.6456602807692,35.474781526891505],[139.6503484318095,35.47455341214333],[139.6561268505336,35.47021427291179],[139.65230100211593,35.466921486112085],[139.65107197309058,35.46780419100719]],[[139.6388510635077,35.48455574794907],[139.63733460027478,35.4849574282665],[139.63498556899242,35.48419373976174]],[[139.63442061210174,35.48749148557771],[139.63662097051812,35.48779398556986]],[[139.63662097051812,35.48779398556986],[139.6372553080796,35.48650960035732],[139.6388312404589,35.48659390363382],[139.6388510635077,35.48455574794907]],[[139.644708774427,35.48852296096076],[139.64429249040225,35.490828903523806],[139.64179478625394,35.49444898539697]],[[139.65804968626685,35.49436964113674],[139.65944721120698,35.49271332970436],[139.6604978327932,35.49317451821697],[139.6609240283423,35.49082394450754]],[[139.6340637972234,35.475242715404114],[139.63218060758777,35.47728087108887]],[[139.63218060758777,35.47728087108887],[139.63224998825854,35.47736517436537]],[[139.63224998825854,35.47736517436537],[139.6335781325279,35.47896693661884]],[[139.6335781325279,35.47896693661884],[139.6350648611876,35.4803455431404]],[[139.6350648611876,35.4803455431404],[139.63525318015118,35.47633369898233]],[[139.63525318015118,35.47633369898233],[139.6340637972234,35.475242715404114]],[[139.64234983162024,35.47719656781237],[139.63968363155715,35.47894710055378]],[[139.63968363155715,35.47894710055378],[139.64163620186358,35.48054390379099]],[[139.64163620186358,35.48054390379099],[139.64180469777833,35.48065300214881]],[[139.64180469777833,35.48065300214881],[139.64411408296309,35.478957018586314]],[[139.63550096826114,35.468627387707116],[139.63498556899242,35.46960927292751]],[[139.63498556899242,35.46960927292751],[139.6366606166157,35.470546527001524]],[[139.6366606166157,35.470546527001524],[139.63740398094558,35.468974518845634]],[[139.6304560023425,35.48744189541507],[139.6283250245969,35.49039251009252]],[[139.63349884033272,35.490863616637654],[139.6336078671011,35.487471649512656]],[[139.64163620186358,35.48054390379099],[139.64105142192406,35.48216550210952]],[[139.64457992460981,35.48224484636975],[139.64180469777833,35.48065300214881]],[[139.64185425540032,35.472465666295925],[139.64156682119278,35.47224251056402]],[[139.64156682119278,35.47224251056402],[139.64017920777704,35.47298140398745],[139.63814734527543,35.47248054334472]],[[139.63814734527543,35.47248054334472],[139.6378103534459,35.47272353514169]],[[139.6378103534459,35.47272353514169],[139.64234983162024,35.47719656781237]],[[139.64272646954737,35.47694861699914],[139.6441735521095,35.47570886293299],[139.64177496320514,35.47329878102838],[139.64185425540032,35.472465666295925]],[[139.63695796234765,35.49546062471496],[139.63686875862808,35.496819395171464]],[[139.63234910350252,35.48132246934453],[139.63028750642772,35.48224980538602]],[[139.63028750642772,35.48224980538602],[139.631912996429,35.483906116818396]],[[139.63535229539517,35.48193738736135],[139.63234910350252,35.48132246934453]],[[139.6325473339905,35.471543289270706],[139.6323788380757,35.471915215490554]],[[139.6323788380757,35.471915215490554],[139.63202202319738,35.47257476465375]],[[139.63202202319738,35.47257476465375],[139.63155618155068,35.473239272833204]],[[139.63155618155068,35.473239272833204],[139.6340637972234,35.475242715404114]],[[139.63525318015118,35.47633369898233],[139.6366507050913,35.47544603507096]],[[139.6366507050913,35.47544603507096],[139.63556043740752,35.47414677280963]],[[139.63556043740752,35.47414677280963],[139.63467831173608,35.473130174475386]],[[139.63467831173608,35.473130174475386],[139.6325473339905,35.471543289270706]],[[139.58446652913523,35.50176353438729],[139.58171112535254,35.501143657354206],[139.58106687626668,35.50179328848487],[139.5839511298665,35.502452837648065],[139.58446652913523,35.50176353438729]],[[139.61003826208236,35.48789812491142],[139.60913631336214,35.488483288830636]],[[139.60913631336214,35.488483288830636],[139.61044463458268,35.49077435434489],[139.61335862275573,35.49226701824054]],[[139.61335862275573,35.49226701824054],[139.61310092312138,35.49089337073524],[139.61608429196522,35.489286649465505],[139.6166789834291,35.486921198707286]],[[139.6166789834291,35.486921198707286],[139.6150138473302,35.486792264284404]],[[139.6150138473302,35.486792264284404],[139.61003826208236,35.48789812491142]],[[139.60432922402904,35.496105296829356],[139.60648993634783,35.4993088213363],[139.6087398523862,35.4996162803447],[139.61006799665554,35.498039313172555],[139.60935436689888,35.49529201816196]],[[139.60935436689888,35.49529201816196],[139.60742161964126,35.495173001771605]],[[139.60742161964126,35.495173001771605],[139.60432922402904,35.496105296829356]],[[139.64050628808218,35.48868164948122],[139.63662097051812,35.48779398556986]],[[139.63968363155715,35.47894710055378],[139.63900964789806,35.47824787926047]],[[139.63900964789806,35.47824787926047],[139.63736433484797,35.47942812513145],[139.6394160203984,35.48101005131986]],[[139.64258770820578,35.486018657747124],[139.6394160203984,35.48534423153514],[139.6388510635077,35.48455574794907]],[[139.5792629788262,35.47585763342092],[139.57841058772797,35.47864460056164]],[[139.57841058772797,35.47864460056164],[139.5824644012068,35.47978021528624]],[[139.5824644012068,35.47978021528624],[139.58213732090167,35.476338657998596],[139.5792629788262,35.47585763342092]],[[139.63547123368792,35.48077201853916],[139.6350648611876,35.4803455431404]],[[139.6335781325279,35.47896693661884],[139.63234910350252,35.48132246934453]],[[139.63057494063526,35.47552042031493],[139.63055511758645,35.47555017441252]],[[139.63055511758645,35.47555017441252],[139.6288701584388,35.4788330431797]],[[139.6288701584388,35.4788330431797],[139.629871222403,35.48209607588181]],[[139.629871222403,35.48209607588181],[139.63055511758645,35.47782140386171],[139.63224998825854,35.47736517436537]],[[139.63218060758777,35.47728087108887],[139.63057494063526,35.47552042031493]],[[139.62357740441018,35.46764550248672],[139.62325032410504,35.46979771554556]],[[139.64043690741138,35.47101267453039],[139.6403377921674,35.47007542045638]],[[139.6403377921674,35.47007542045638],[139.6398719505207,35.46838439591015],[139.6382761950926,35.468478617219176]],[[139.6366606166157,35.470546527001524],[139.63734451179917,35.471260625343625]],[[139.63734451179917,35.471260625343625],[139.6387618597881,35.4718953794255]],[[139.6387618597881,35.4718953794255],[139.64043690741138,35.47101267453039]],[[139.6277600677062,35.48473427253459],[139.6271257301447,35.484783862697235]],[[139.6271257301447,35.484783862697235],[139.62539121337505,35.48667820691032]],[[139.62539121337505,35.48667820691032],[139.62594625874135,35.486712920024175]],[[139.62594625874135,35.486712920024175],[139.6277105100842,35.48766009213071]],[[139.6277105100842,35.48766009213071],[139.62864219337763,35.4854334938279]],[[139.59018547871293,35.48050919067714],[139.58905556493156,35.48103980541745],[139.58480352096475,35.47844128089479]],[[139.58480352096475,35.47844128089479],[139.58646865706365,35.48165968245053],[139.5824644012068,35.47978021528624]],[[139.5824644012068,35.47978021528624],[139.5835051112686,35.4818034939222],[139.5782817379108,35.48024140379885],[139.5776969579713,35.480548862807254]],[[139.5776969579713,35.480548862807254],[139.57702297431223,35.48123320705177]],[[139.57702297431223,35.48123320705177],[139.58111643388864,35.48291431356547],[139.58263289712156,35.48518554301467],[139.58643892249043,35.48688648559343],[139.59041344377408,35.48608808397483],[139.59180105718983,35.486802182316936]],[[139.59180105718983,35.486802182316936],[139.59432849591136,35.48616742823506],[139.59675681938887,35.48447640368883],[139.59570619780268,35.481262961149355],[139.5919398185314,35.48170927261317],[139.59018547871293,35.48050919067714]],[[139.61231791269392,35.481218330002974],[139.6098003854968,35.481188575905385]],[[139.6098003854968,35.481188575905385],[139.61000852750917,35.48246800210166],[139.61320003836536,35.483459805354585],[139.6150138473302,35.486792264284404]],[[139.6166789834291,35.486921198707286],[139.6166888949535,35.48688648559343]],[[139.6166888949535,35.48688648559343],[139.61578694623327,35.483430051256995],[139.6160743804408,35.48152082999512]],[[139.6160743804408,35.48152082999512],[139.6151030510498,35.48127287918189]],[[139.6151030510498,35.48127287918189],[139.61231791269392,35.481218330002974]],[[139.5818697097429,35.47248054334472],[139.5792629788262,35.47585763342092]],[[139.58480352096475,35.47844128089479],[139.5819688249869,35.47427074821625],[139.5818697097429,35.47248054334472]],[[139.63467831173608,35.473130174475386],[139.63734451179917,35.471260625343625]],[[139.63498556899242,35.46960927292751],[139.6325473339905,35.471543289270706]],[[139.60913631336214,35.488483288830636],[139.60897772897175,35.48847832981438]],[[139.60897772897175,35.48847832981438],[139.60694586647014,35.490709887133455]],[[139.60694586647014,35.490709887133455],[139.60736215049488,35.49323402641214]],[[139.60736215049488,35.49323402641214],[139.60742161964126,35.495173001771605]],[[139.60935436689888,35.49529201816196],[139.61173313275444,35.49444898539697],[139.61335862275573,35.49226701824054]],[[139.629871222403,35.48209607588181],[139.62964325734185,35.482507674231776]],[[139.62954414209787,35.4828548053703],[139.63028750642772,35.48224980538602]],[[139.59018547871293,35.48050919067714],[139.58593343474612,35.476760174381084],[139.58421874102527,35.47426083018372],[139.58280139303633,35.4736607892157],[139.58262298559717,35.47124078927857],[139.5818697097429,35.47248054334472]],[[139.62739334130347,35.471999518767056],[139.62808714801133,35.4713201335388],[139.63202202319738,35.47257476465375]],[[139.6323788380757,35.471915215490554],[139.63035688709851,35.4699613630823],[139.62772042160861,35.46991673193592]],[[139.60125665146563,35.489405665855855],[139.6034272753088,35.49167193628879]],[[139.6034272753088,35.49167193628879],[139.6046067467122,35.49292160838747],[139.60736215049488,35.49323402641214]],[[139.60694586647014,35.490709887133455],[139.6060637407987,35.48960898552271]],[[139.6060637407987,35.48960898552271],[139.6045076314682,35.488929600294455],[139.60125665146563,35.489405665855855]],[[139.63900964789806,35.47824787926047],[139.6366507050913,35.47544603507096]],[[139.62104996568868,35.47969591200974],[139.61911721843103,35.48190267424749]],[[139.61911721843103,35.48190267424749],[139.6213869575182,35.48362841190758]],[[139.6213869575182,35.48362841190758],[139.6230124475195,35.483935870915985]],[[139.6230124475195,35.483935870915985],[139.6225961634948,35.48181341195473],[139.62131757684742,35.48150595294632],[139.62104996568868,35.47969591200974]],[[139.62698696880315,35.475822920307074],[139.6261345777049,35.47647255143774]],[[139.6261345777049,35.47647255143774],[139.62602555093653,35.47659156782809]],[[139.62602555093653,35.47659156782809],[139.62738342977906,35.4775288219021]],[[139.62738342977906,35.4775288219021],[139.62848360898727,35.477112264535876]],[[139.62848360898727,35.477112264535876],[139.62698696880315,35.475822920307074]],[[139.6262535159977,35.475079067867384],[139.62698696880315,35.475822920307074]],[[139.62848360898727,35.477112264535876],[139.62910803502433,35.47679488749494]],[[139.62910803502433,35.47679488749494],[139.6262535159977,35.475079067867384]],[[139.6235377583126,35.46758599429155],[139.62055438946877,35.467928166413806]],[[139.6073125928729,35.48131751032827],[139.60785772671477,35.48404992829007],[139.61003826208236,35.48789812491142]],[[139.6098003854968,35.481188575905385],[139.6073125928729,35.48131751032827]],[[139.60745135421445,35.47072009257078],[139.6055780761032,35.476031198990185]],[[139.6055780761032,35.476031198990185],[139.60752073488524,35.47571382194925]],[[139.60752073488524,35.47571382194925],[139.61095012232698,35.47561960064022]],[[139.61095012232698,35.47561960064022],[139.6108906531806,35.47261939580013]],[[139.6108906531806,35.47261939580013],[139.61109879519296,35.47227722367787]],[[139.61109879519296,35.47227722367787],[139.60745135421445,35.47072009257078]],[[139.60217842323465,35.47642792029136],[139.6055780761032,35.476031198990185]],[[139.60745135421445,35.47072009257078],[139.60681701665297,35.46922742867513],[139.60434904707785,35.46790833034874],[139.60255506116178,35.46893484671552],[139.59927434658601,35.46804222378789],[139.60077098677013,35.473422756435],[139.60217842323465,35.47642792029136]],[[139.65107197309058,35.46780419100719],[139.65055657382186,35.46732316642952],[139.6541048995564,35.46464033863036],[139.653024543397,35.46362869931238],[139.64523408522007,35.46942083030945],[139.64212186655908,35.46838439591015],[139.6436185067432,35.46990185488712],[139.64156682119278,35.47224251056402]],[[139.64185425540032,35.472465666295925],[139.6440843483899,35.473388043321144]],[[139.62013810544406,35.490709887133455],[139.617273674893,35.49083882155633],[139.6140920755612,35.492643903476655]],[[139.6140920755612,35.492643903476655],[139.6198011136145,35.49547550176375],[139.62055438946877,35.49253480511883],[139.62178341849415,35.49108677236956]],[[139.62178341849415,35.49108677236956],[139.6213671344694,35.49062558385695]],[[139.6213671344694,35.49062558385695],[139.62013810544406,35.490709887133455]],[[139.63155618155068,35.473239272833204],[139.63057494063526,35.47552042031493]],[[139.62429103416684,35.474841035086676],[139.62440997245963,35.47506914983485]],[[139.62440997245963,35.47506914983485],[139.62394413081293,35.476219641608246]],[[139.62394413081293,35.476219641608246],[139.6251335137407,35.47638824816124]],[[139.6251335137407,35.47638824816124],[139.62602555093653,35.47659156782809]],[[139.6261345777049,35.47647255143774],[139.62532183270426,35.474945174428235]],[[139.62739334130347,35.471999518767056],[139.62885033538998,35.4736607892157]],[[139.62885033538998,35.4736607892157],[139.63055511758645,35.47555017441252]],[[139.60234691914943,35.4801918136362],[139.60114762469726,35.48031578904281]],[[139.60114762469726,35.48031578904281],[139.60217842323465,35.48356394469614],[139.6060637407987,35.48960898552271]],[[139.60897772897175,35.48847832981438],[139.60746126573886,35.48727328886207],[139.60758020403162,35.485364067600194],[139.60449771994382,35.48472435450206],[139.6023568306738,35.48239857587396],[139.60234691914943,35.4801918136362]],[[139.62420183044728,35.47957689561939],[139.62588678959494,35.48292919061427],[139.62692749965674,35.48290935454921]],[[139.62692749965674,35.48290935454921],[139.62636254276606,35.48174894474329],[139.62734378368148,35.479165297269425]],[[139.62734378368148,35.479165297269425],[139.62420183044728,35.47957689561939]],[[139.6213869575182,35.48362841190758],[139.61978129056573,35.48423837090813],[139.61957314855334,35.48676746920308]],[[139.61957314855334,35.48676746920308],[139.62064359318836,35.486757551170555]],[[139.62064359318836,35.486757551170555],[139.62374590032496,35.48649968232479]],[[139.62374590032496,35.48649968232479],[139.6230124475195,35.483935870915985]],[[139.63294379496642,35.46776451887707],[139.63267618380766,35.4679430434626]],[[139.63267618380766,35.4679430434626],[139.63233919197813,35.46862242869085],[139.6282159978285,35.46741738773855]],[[139.62440997245963,35.47506914983485],[139.623547669837,35.47503939573726]],[[139.623547669837,35.47503939573726],[139.62235828690922,35.47541628097338]],[[139.62235828690922,35.47541628097338],[139.6229430668487,35.47642792029136]],[[139.6229430668487,35.47642792029136],[139.62394413081293,35.476219641608246]],[[139.63556043740752,35.47414677280963],[139.6378103534459,35.47272353514169]],[[139.63814734527543,35.47248054334472],[139.6387618597881,35.4718953794255]],[[139.6277105100842,35.48766009213071],[139.62651121563204,35.489668493717886]],[[139.62651121563204,35.489668493717886],[139.627779890755,35.49058591172684]],[[139.57841058772797,35.47864460056164],[139.5776969579713,35.480548862807254]],[[139.62594625874135,35.486712920024175],[139.62327014715385,35.489465174051034],[139.6213671344694,35.49062558385695]],[[139.62178341849415,35.49108677236956],[139.62537139032625,35.48950484618115],[139.62651121563204,35.489668493717886]],[[139.6188198726991,35.472644190881454],[139.6157076540381,35.47371533839461]],[[139.6157076540381,35.47371533839461],[139.61634199159957,35.475644395721545]],[[139.61634199159957,35.475644395721545],[139.6182053581864,35.47666099405579]],[[139.6182053581864,35.47666099405579],[139.61866128830872,35.47667587110459]],[[139.61866128830872,35.47667587110459],[139.62031651288322,35.47643783832388]],[[139.62031651288322,35.47643783832388],[139.62223934861643,35.47529230556676]],[[139.62223934861643,35.47529230556676],[139.6188198726991,35.472644190881454]],[[139.6282358208773,35.478808248098375],[139.62734378368148,35.479165297269425]],[[139.62692749965674,35.48290935454921],[139.6271257301447,35.484783862697235]],[[139.6288701584388,35.4788330431797],[139.6282358208773,35.478808248098375]],[[139.6219519144089,35.479299190708566],[139.62420183044728,35.47957689561939]],[[139.6282358208773,35.478808248098375],[139.62738342977906,35.4775288219021]],[[139.6251335137407,35.47638824816124],[139.62490554867955,35.4776131251786],[139.6219519144089,35.479299190708566]],[[139.61957314855334,35.48676746920308],[139.6166888949535,35.48688648559343]],[[139.61335862275573,35.49226701824054],[139.6140920755612,35.492643903476655]],[[139.62013810544406,35.490709887133455],[139.62064359318836,35.486757551170555]],[[139.61095012232698,35.47561960064022],[139.61221879744994,35.475629518672754]],[[139.61221879744994,35.475629518672754],[139.61603473434323,35.47587746948599]],[[139.61603473434323,35.47587746948599],[139.61634199159957,35.475644395721545]],[[139.6157076540381,35.47371533839461],[139.6108906531806,35.47261939580013]],[[139.60217842323465,35.47642792029136],[139.60114762469726,35.48031578904281]],[[139.60234691914943,35.4801918136362],[139.6073125928729,35.48131751032827]],[[139.6073125928729,35.48131751032827],[139.60838303750788,35.477920584187004],[139.60752073488524,35.47571382194925]],[[139.62885033538998,35.4736607892157],[139.6262336929489,35.47490550229812]],[[139.6262336929489,35.47490550229812],[139.6262535159977,35.475079067867384]],[[139.62910803502433,35.47679488749494],[139.63055511758645,35.47555017441252]],[[139.62539121337505,35.48667820691032],[139.62374590032496,35.48649968232479]],[[139.6219519144089,35.479299190708566],[139.62104996568868,35.47969591200974]],[[139.6034272753088,35.49167193628879],[139.60257488421058,35.492286854305604],[139.60408143591908,35.49402250999822],[139.60432922402904,35.496105296829356]],[[139.59653876585213,35.4909975100768],[139.59681628853528,35.49292160838747],[139.59893735475646,35.49322906739588]],[[139.59893735475646,35.49322906739588],[139.59653876585213,35.4909975100768]],[[139.6262336929489,35.47490550229812],[139.62522271746028,35.474543494110804]],[[139.61231791269392,35.481218330002974],[139.61221879744994,35.475629518672754]],[[139.61866128830872,35.47667587110459],[139.61922624519943,35.47775693665027]],[[139.61922624519943,35.47775693665027],[139.6208616467251,35.477072592405754]],[[139.6208616467251,35.477072592405754],[139.62031651288322,35.47643783832388]],[[139.61911721843103,35.48190267424749],[139.6160743804408,35.48152082999512]],[[139.60114762469726,35.48031578904281],[139.59749027219434,35.48336062502929],[139.60073134067252,35.487114600341606],[139.60125665146563,35.489405665855855]],[[139.64043690741138,35.47101267453039],[139.6403377921674,35.47007542045638]],[[139.6151030510498,35.48127287918189],[139.619216333675,35.47776189566654]],[[139.619216333675,35.47776189566654],[139.61643119531914,35.47663123995821]],[[139.61643119531914,35.47663123995821],[139.61603473434323,35.47587746948599]],[[139.61643119531914,35.47663123995821],[139.6182053581864,35.47666099405579]],[[139.62223934861643,35.47529230556676],[139.62235828690922,35.47541628097338]],[[139.623547669837,35.47503939573726],[139.62156536495738,35.47381947773617]],[[139.61925597977262,35.47232185482425],[139.6188198726991,35.472644190881454]],[[139.61649066446554,35.469822510626884],[139.6151526086718,35.47008037947265],[139.6146471209275,35.47205406794596],[139.61211968220596,35.471498658124325],[139.61109879519296,35.47227722367787]],[[139.63267618380766,35.4679430434626],[139.6320517577706,35.467338043478314]],[[139.6320517577706,35.467338043478314],[139.62840431679209,35.46609333039589]],[[139.6208616467251,35.477072592405754],[139.6229430668487,35.47642792029136]],[[139.57702297431223,35.48123320705177],[139.57591288357963,35.482701075866096],[139.57573447614047,35.48588476430798],[139.57311783369937,35.49115619859727],[139.57530828059134,35.493655542794635],[139.58229590529203,35.49250009200498],[139.5909189315184,35.49385886246149],[139.59551787883913,35.496164805024534],[139.59893735475646,35.49322906739588]],[[139.59653876585213,35.4909975100768],[139.59375362749626,35.49063054287322],[139.59044317834727,35.489331280611886],[139.59180105718983,35.486802182316936]],[[139.6671881117619,35.4837375102654],[139.67222316615616,35.47547083015228],[139.66264863358757,35.472807838418184],[139.663629874503,35.46042021578917],[139.65785145577888,35.45679517489974],[139.64594771497676,35.46047972398435],[139.6440149677191,35.4643130435569],[139.6345791964921,35.46447669109363],[139.6320517577706,35.467338043478314]],[[139.6445997476586,35.476031198990185],[139.6514089649201,35.47651222356785],[139.6515477262617,35.47774205960148],[139.64847515369826,35.479968657904294],[139.64681992912378,35.479447961196506]],[[139.61922624519943,35.47775693665027],[139.619216333675,35.47776189566654]]]}