{"type":"Topology","bbox":[139.47270349318583,35.38771369618435,139.53127221581659,35.44961347843511],"objects":{"town":{"type":"GeometryCollection","geometries":[{"type":"MultiPolygon","arcs":[[[11,0,12,13],[14]]],"properties":{"name":"岡津町"}},{"type":"MultiPolygon","arcs":[[[2,3,4,5,6,7,8,9]]],"properties":{"name":"新橋町"}},{"type":"MultiPolygon","arcs":[[[58,20,21,103,104,105,17,18,60,152]]],"properties":{"name":"下和泉"}},{"type":"Polygon","arcs":[[23,24,25,26]],"properties":{"name":"下飯田町"}},{"type":"MultiPolygon","arcs":[[[71,72,73,-109,177,178,32,33,27,28,29,85,86]]],"properties":{"name":"中田西"}},{"type":"MultiPolygon","arcs":[[[93,-34,-33,-179,184,-79,-78,-77,-188,-54,37,34,96]]],"properties":{"name":"中田南"}},{"type":"MultiPolygon","arcs":[[[-169,179,189,-13,-1,-12,191,41,181,-151]]],"properties":{"name":"領家"}},{"type":"Polygon","arcs":[[42,43,-5,44]],"properties":{"name":"池の谷"}},{"type":"MultiPolygon","arcs":[[[-174,-126,-130,-9,174,-107,47,48,163,-160,164]]],"properties":{"name":"西が岡"}},{"type":"MultiPolygon","arcs":[[[150,151,-56,49,50,166,-162,167,168]]],"properties":{"name":"白百合"}},{"type":"MultiPolygon","arcs":[[[157,158,159,160,161,-167,-51,-50,55,56,-38,53,187,76,77,78,79]]],"properties":{"name":"中田東"}},{"type":"MultiPolygon","arcs":[[[-105,134,82,61,62,63,83,135,-86,-30,136]]],"properties":{"name":"和泉が丘"}},{"type":"MultiPolygon","arcs":[[[-149,154,171,68,69,100,101,-73,-72,-87,-136,-84,-64,-63,99,65,66,169,170,-113,-116]]],"properties":{"name":"和泉中央南"}},{"type":"MultiPolygon","arcs":[[[119,137,156,120,-7,-6,-44,-43,88,117]]],"properties":{"name":"緑園"}},{"type":"MultiPolygon","arcs":[[[-94,97,98,-28]],[[-111,123,124,125,126,127]]],"properties":{"name":"中田町"}},{"type":"Polygon","arcs":[[-48,106,107]],"properties":{"name":"桂坂"}},{"type":"MultiPolygon","arcs":[[[-158,-80,-185,-178,108,-74,-102,109,110,-128,-127,173,-165,-159]]],"properties":{"name":"中田北"}},{"type":"MultiPolygon","arcs":[[[-26,-25,114,115,112,-171,175,-66,-100,-62,-83,-135,-104,-22,176]],[[132,-3,-129,-124,-110,-101,-70,133,130,143,144]],[[-29,-99,153,-18,-106,-137]]],"properties":{"name":"和泉町"}},{"type":"Polygon","arcs":[[-125,128,-10,129]],"properties":{"name":"弥生台"}},{"type":"MultiPolygon","arcs":[[[147,148,-115,-24,145,142,182,-144,-131,183]]],"properties":{"name":"上飯田町"}}]}},"arcs":[[[139.52226344539892,35.422548187105946],[139.52041248866814,35.42197246155846]],[[139.52041248866814,35.42197246155846],[139.52226344539892,35.422548187105946]],[[139.50211964730642,35.43081882507845],[139.50118245402498,35.4355236790149]],[[139.50118245402498,35.4355236790149],[139.50412875540346,35.43512129019138],[139.50511866580695,35.43705275654424],[139.51039623547294,35.437851343593984],[139.51139200333446,35.43980757233598],[139.50918959912312,35.441076644779365],[139.5107593978695,35.44201142496937],[139.51132171383836,35.443732411014544],[139.51044895259503,35.44571959274297],[139.51312581090508,35.44589292946694]],[[139.51312581090508,35.44589292946694],[139.515703092429,35.44539149108687],[139.517015163023,35.44168332331328]],[[139.517015163023,35.44168332331328],[139.51662271333637,35.43946708948532]],[[139.51662271333637,35.43946708948532],[139.51703859285502,35.43577749350357]],[[139.51703859285502,35.43577749350357],[139.51635327026798,35.43429175015522],[139.51845024023515,35.432589335901895],[139.51806364800657,35.4297354705536],[139.51490062068177,35.427612095684914]],[[139.51490062068177,35.427612095684914],[139.51283879546264,35.426683506092196]],[[139.51283879546264,35.426683506092196],[139.51176102318902,35.42907926724141],[139.50934775048935,35.428020675105714],[139.5074616490105,35.43150598137706],[139.50650688335506,35.43050929521421],[139.5032911389082,35.43007595340427],[139.50211964730642,35.43081882507845]],[[139.5092481737032,35.4352389115398],[139.5114154331665,35.43501605003754],[139.51050752717512,35.43648322159404],[139.5092481737032,35.4352389115398]],[[139.52273789949766,35.42272152382992],[139.52226344539892,35.422548187105946]],[[139.52041248866814,35.42197246155846],[139.52025433730188,35.42174340945892]],[[139.52025433730188,35.42174340945892],[139.51912970536418,35.42246151874396],[139.5209220875149,35.42314867504257],[139.5204534908742,35.42481394571218],[139.52333536021456,35.42508014139543],[139.52273789949766,35.42272152382992]],[[139.5217187018041,35.4249315670606],[139.5217187018041,35.4249315670606]],[[139.49442880494075,35.39300665686286],[139.49223811564542,35.395179556509824]],[[139.49223811564542,35.395179556509824],[139.49514927227585,35.39851628844633],[139.4963734809997,35.39874534054587]],[[139.4963734809997,35.39874534054587],[139.49645548541181,35.39660958448261]],[[139.49645548541181,35.39660958448261],[139.49442880494075,35.39300665686286]],[[139.49134778202807,35.39560051712519],[139.48922738222888,35.395866712808434]],[[139.48922738222888,35.395866712808434],[139.48898722645052,35.39791580050971]],[[139.48898722645052,35.39791580050971],[139.48897551153448,35.39905487041011],[139.4923494073476,35.39907963279925]],[[139.4923494073476,35.39907963279925],[139.49134778202807,35.39560051712519]],[[139.47574937135045,35.41044556941415],[139.48095079406232,35.41029080448203],[139.48405524680703,35.409702697739974]],[[139.48405524680703,35.409702697739974],[139.48414310867716,35.4074926545093]],[[139.48414310867716,35.4074926545093],[139.4842954025854,35.405982148771805],[139.4837037993265,35.398596766211035]],[[139.4837037993265,35.398596766211035],[139.4838326634027,35.39497526679943],[139.4830419065715,35.39039422480867],[139.48415482359317,35.38970087791277],[139.48420168325725,35.38780036454634],[139.48109723051255,35.389515159994225],[139.4803416184294,35.39135376738781],[139.47904126275142,35.39161996307106],[139.47778776673755,35.396652918663605],[139.4777760518215,35.398633909794746],[139.4749996167253,35.402540176681455],[139.4761828232431,35.40405068241895],[139.47574937135045,35.41044556941415]],[[139.50526510225717,35.401066814527674],[139.50169791032977,35.40221207502536]],[[139.50169791032977,35.40221207502536],[139.50161590591765,35.40222445621993]],[[139.50161590591765,35.40222445621993],[139.5012644584371,35.404292115713055]],[[139.5012644584371,35.404292115713055],[139.50403503607532,35.40479974469041]],[[139.50403503607532,35.40479974469041],[139.50558140498964,35.40447164303431]],[[139.50558140498964,35.40447164303431],[139.5056106922797,35.40445926183975]],[[139.5056106922797,35.40445926183975],[139.5064014491109,35.402162550247084],[139.50526510225717,35.401066814527674]],[[139.51910627553215,35.40520832411121],[139.5133425368514,35.405264039486774],[139.51122213705221,35.40458307378544]],[[139.51122213705221,35.40458307378544],[139.510431380221,35.404985462608956]],[[139.510431380221,35.404985462608956],[139.51215933033362,35.407950758708374],[139.51487719084975,35.40799409288937]],[[139.51487719084975,35.40799409288937],[139.51910627553215,35.40520832411121]],[[139.52272032712364,35.41623996847273],[139.52301320002408,35.41786190496135]],[[139.52301320002408,35.41786190496135],[139.52426669603798,35.42023909431871]],[[139.52426669603798,35.42023909431871],[139.52631680634107,35.42217675126886]],[[139.52631680634107,35.42217675126886],[139.5257427754562,35.419477650852684],[139.5246181435185,35.41901954665361],[139.5240909722977,35.416759978644656],[139.52272032712364,35.41623996847273]],[[139.52181827859025,35.44817106926775],[139.52175970401018,35.44489624330409],[139.5205179229123,35.44316906666163]],[[139.5205179229123,35.44316906666163],[139.517015163023,35.44168332331328]],[[139.51312581090508,35.44589292946694],[139.51601939516146,35.44889536915007],[139.51898912637196,35.44917394602789],[139.52181827859025,35.44817106926775]],[[139.51884268992174,35.41965098757666],[139.5132136727752,35.42348296729595]],[[139.5132136727752,35.42348296729595],[139.5139927146904,35.424201076580985]],[[139.5139927146904,35.424201076580985],[139.51776491764812,35.42352011087966]],[[139.51776491764812,35.42352011087966],[139.51917656502826,35.42064148314223],[139.51884268992174,35.41965098757666]],[[139.51724946134334,35.41195607515164],[139.51606039736754,35.413181813414035]],[[139.51606039736754,35.413181813414035],[139.5164177023061,35.41522471051802]],[[139.5164177023061,35.41522471051802],[139.51891297941785,35.417100461495316]],[[139.51891297941785,35.417100461495316],[139.51724946134334,35.41195607515164]],[[139.51487719084975,35.40799409288937],[139.51231748169985,35.410649859124554]],[[139.51231748169985,35.410649859124554],[139.51493576542984,35.41157225811999],[139.51606039736754,35.413181813414035]],[[139.51724946134334,35.41195607515164],[139.51957487217285,35.410426997622295]],[[139.51957487217285,35.410426997622295],[139.52008447101963,35.40700978792108],[139.51910627553215,35.40520832411121]],[[139.4931343067208,35.39179329979503],[139.48995370702198,35.393495714048356]],[[139.48995370702198,35.393495714048356],[139.48922738222888,35.395866712808434]],[[139.49134778202807,35.39560051712519],[139.49223811564542,35.395179556509824]],[[139.49442880494075,35.39300665686286],[139.4931343067208,35.39179329979503]],[[139.4916992295086,35.40283113475384],[139.4891746651068,35.403450194482325],[139.49433508561262,35.40825409797533],[139.49494426124554,35.409275546527326]],[[139.49494426124554,35.409275546527326],[139.49607475064124,35.40813647662692]],[[139.49607475064124,35.40813647662692],[139.49674250085425,35.40763503824685]],[[139.49674250085425,35.40763503824685],[139.4916992295086,35.40283113475384]],[[139.49454009664294,35.40953555161329],[139.4916933720506,35.41001222760421]],[[139.4916933720506,35.41001222760421],[139.49084989809734,35.4106684309164]],[[139.49084989809734,35.4106684309164],[139.49212682394327,35.41229036740502],[139.49268913991213,35.41586853263564]],[[139.49268913991213,35.41586853263564],[139.4931284492628,35.41580043606551]],[[139.4931284492628,35.41580043606551],[139.4953777131382,35.41522471051802]],[[139.4953777131382,35.41522471051802],[139.49572916061874,35.414091831214904],[139.49414764695632,35.4115660675227],[139.49454009664294,35.40953555161329]],[[139.50088372366653,35.406638352083995],[139.49964194256864,35.413937066282784]],[[139.49964194256864,35.413937066282784],[139.49956579561453,35.41491518065378]],[[139.49956579561453,35.41491518065378],[139.5039530316632,35.413466580889136]],[[139.5039530316632,35.413466580889136],[139.50253552682503,35.41144844617429],[139.50289283176357,35.410241279703754]],[[139.50289283176357,35.410241279703754],[139.50088372366653,35.406638352083995]],[[139.51191917455526,35.41087891122409],[139.51189574472323,35.41089129241866]],[[139.51189574472323,35.41089129241866],[139.5098339195041,35.411807500816806]],[[139.5098339195041,35.411807500816806],[139.50819383126162,35.41209226829191]],[[139.50819383126162,35.41209226829191],[139.50873857485644,35.41461803198411]],[[139.50873857485644,35.41461803198411],[139.5124756330661,35.41394325688007]],[[139.5124756330661,35.41394325688007],[139.51191917455526,35.41087891122409]],[[139.49301715756062,35.40209445367695],[139.4916992295086,35.40283113475384]],[[139.49674250085425,35.40763503824685],[139.49989381326304,35.405480710391735]],[[139.49989381326304,35.405480710391735],[139.49923192050804,35.404762601106704],[139.4957174457027,35.40416830376736],[139.49301715756062,35.40209445367695]],[[139.5012644584371,35.404292115713055],[139.50113559436093,35.40502260619267]],[[139.50113559436093,35.40502260619267],[139.50088372366653,35.406638352083995]],[[139.50289283176357,35.410241279703754],[139.50402917861732,35.40727598360433],[139.50403503607532,35.40479974469041]],[[139.52181827859025,35.44817106926775],[139.52394453584748,35.44770677447139],[139.52453028164837,35.44897584691478]],[[139.52453028164837,35.44897584691478],[139.52603564835664,35.44679056607324],[139.52584820970037,35.445150057792766]],[[139.52584820970037,35.445150057792766],[139.52508674015922,35.44316287606434]],[[139.52508674015922,35.44316287606434],[139.52341150716867,35.443206210245336]],[[139.52341150716867,35.443206210245336],[139.5205179229123,35.44316906666163]],[[139.50690519049965,35.39924058832865],[139.50526510225717,35.401066814527674]],[[139.5056106922797,35.40445926183975],[139.50794196056722,35.40447164303431]],[[139.50794196056722,35.40447164303431],[139.510431380221,35.404985462608956]],[[139.51122213705221,35.40458307378544],[139.50988077916816,35.40145063155933],[139.50690519049965,35.39924058832865]],[[139.50690519049965,35.39924058832865],[139.507127773904,35.39704911688983],[139.50528853208922,35.39435620707094]],[[139.50528853208922,35.39435620707094],[139.5050893785169,35.39582956922473],[139.5020376428943,35.400887287206416],[139.50169791032977,35.40221207502536]],[[139.49494426124554,35.409275546527326],[139.49454009664294,35.40953555161329]],[[139.4953777131382,35.41522471051802],[139.4995482232405,35.41492137125107]],[[139.4995482232405,35.41492137125107],[139.49956579561453,35.41491518065378]],[[139.49964194256864,35.413937066282784],[139.49607475064124,35.40813647662692]],[[139.4923494073476,35.39907963279925],[139.49387234642992,35.39943249684448],[139.49634419370966,35.40137634439191]],[[139.49634419370966,35.40137634439191],[139.49792570737205,35.40098633676297]],[[139.49792570737205,35.40098633676297],[139.4963734809997,35.39874534054587]],[[139.5139927146904,35.424201076580985],[139.51288565512672,35.425581579775496],[139.5152403532463,35.42719113506955]],[[139.5152403532463,35.42719113506955],[139.51572652226102,35.42543300544067],[139.51776491764812,35.42352011087966]],[[139.5039588891212,35.413466580889136],[139.5039530316632,35.413466580889136]],[[139.4995482232405,35.41492137125107],[139.50033898007172,35.41868525440022]],[[139.50033898007172,35.41868525440022],[139.5025706715731,35.41755856569439],[139.50570441160784,35.41730475120571]],[[139.50570441160784,35.41730475120571],[139.50445091559394,35.41607282234604],[139.5039588891212,35.413466580889136]],[[139.4887880728782,35.41135558721502],[139.48973698107565,35.41003698999336]],[[139.48973698107565,35.41003698999336],[139.48656223883484,35.407108837477644],[139.48414310867716,35.4074926545093]],[[139.48405524680703,35.409702697739974],[139.48426611529536,35.41082938644581]],[[139.48426611529536,35.41082938644581],[139.48833119115352,35.409801747296534],[139.4887880728782,35.41135558721502]],[[139.52595950140253,35.445119104806345],[139.52584820970037,35.445150057792766]],[[139.52453028164837,35.44897584691478],[139.52477629488473,35.449594906643256],[139.52807990120175,35.44889536915007],[139.52868907683467,35.44961347843511],[139.53109063461832,35.447812014625235],[139.52763473439308,35.44738486341258],[139.52595950140253,35.445119104806345]],[[139.52650424499737,35.43917613141293],[139.52703141621816,35.44316287606434],[139.52508674015922,35.44316287606434]],[[139.52595950140253,35.445119104806345],[139.53026473303905,35.44302668292408],[139.53054003356547,35.44144808061645],[139.52940954416977,35.43989424069797],[139.52650424499737,35.43917613141293]],[[139.51983845778327,35.4345455646439],[139.51703859285502,35.43577749350357]],[[139.51662271333637,35.43946708948532],[139.5219705724985,35.439138987829224]],[[139.5219705724985,35.439138987829224],[139.51997317931747,35.43619845411894],[139.51983845778327,35.4345455646439]],[[139.50033898007172,35.41868525440022],[139.50161004845964,35.423179628029],[139.50163347829167,35.42650397877094]],[[139.50163347829167,35.42650397877094],[139.50358986926665,35.424857279893175],[139.507783809201,35.42409583642715]],[[139.507783809201,35.42409583642715],[139.50992178137423,35.42317343743171]],[[139.50992178137423,35.42317343743171],[139.50872685994042,35.42231294440912],[139.50678218388148,35.417409991359555]],[[139.50678218388148,35.417409991359555],[139.50570441160784,35.41730475120571]],[[139.50163347829167,35.42650397877094],[139.50211964730642,35.43081882507845]],[[139.51283879546264,35.426683506092196],[139.509775344924,35.426237783087686],[139.507783809201,35.42409583642715]],[[139.48471713956204,35.42283914517833],[139.48400252968494,35.426801127440605]],[[139.48400252968494,35.426801127440605],[139.4903813014566,35.42730875641796],[139.49277114432425,35.42698684535915],[139.49264228024805,35.428652116028765],[139.4942589386585,35.42891831171201],[139.49427065357452,35.43094263702414],[139.49708223341878,35.43088692164858],[139.49767383667768,35.434749854354294],[139.4947216778412,35.4359694020194],[139.4959751738551,35.43789467777498]],[[139.4959751738551,35.43789467777498],[139.50118245402498,35.4355236790149]],[[139.4931284492628,35.41580043606551],[139.49463967342908,35.418350962146846],[139.49513169990183,35.42072196090693],[139.494604528681,35.4224862811331],[139.4930581597667,35.421452451386536],[139.4869312586894,35.422201513657996],[139.48719484429978,35.42316105623714],[139.48471713956204,35.42283914517833]],[[139.49634419370966,35.40137634439191],[139.49301715756062,35.40209445367695]],[[139.49989381326304,35.405480710391735],[139.50113559436093,35.40502260619267]],[[139.50161590591765,35.40222445621993],[139.49792570737205,35.40098633676297]],[[139.52650424499737,35.43917613141293],[139.52556705171594,35.43775848463471],[139.52595364394452,35.435474154236616]],[[139.52595364394452,35.435474154236616],[139.52433698553406,35.43935565873419],[139.5219705724985,35.439138987829224]],[[139.5219705724985,35.439138987829224],[139.52341150716867,35.443206210245336]],[[139.47969144059041,35.42837972974823],[139.4796035787203,35.42680731803789]],[[139.4796035787203,35.42680731803789],[139.4784320871185,35.426243973684976],[139.4732013771166,35.4274139965718]],[[139.4732013771166,35.4274139965718],[139.47404485106986,35.43039167386579],[139.47284407217805,35.43223028125938],[139.47328338152872,35.4349912876484],[139.47643469393748,35.436136548146095],[139.47806306726395,35.43116549852639],[139.47721373585267,35.429364034716514],[139.47969144059041,35.42837972974823]],[[139.48400252968494,35.426801127440605],[139.48441255174558,35.42860259125048]],[[139.48441255174558,35.42860259125048],[139.4847581417681,35.435226530345226],[139.48434226224947,35.43908327245366],[139.48452970090577,35.442890489783814],[139.49014114567825,35.443651933249846],[139.4912306328679,35.44306382650779],[139.49517270210788,35.44277905903269],[139.4949149739555,35.43825373241749],[139.4959751738551,35.43789467777498]],[[139.47574937135045,35.41044556941415],[139.47594266746475,35.41444469526014],[139.47798692030983,35.417007602536046],[139.47798106285182,35.42008432938659],[139.47590752271668,35.42200341454488],[139.47357625442916,35.422393422173826],[139.47270935064384,35.4237491629792],[139.4732013771166,35.4274139965718]],[[139.4796035787203,35.42680731803789],[139.47935170802592,35.424702514961055],[139.4776940474094,35.421669122291505],[139.48023032672725,35.41877192276221],[139.48187041496973,35.420263856707855],[139.48537317485903,35.41931050472599]],[[139.48537317485903,35.41931050472599],[139.4851623063707,35.41687140939578]],[[139.4851623063707,35.41687140939578],[139.48426611529536,35.41082938644581]],[[139.51891297941785,35.417100461495316],[139.5192058523183,35.41752142211068]],[[139.5192058523183,35.41752142211068],[139.519006698746,35.414525173024835],[139.52140239907163,35.414506601232986]],[[139.52140239907163,35.414506601232986],[139.5194518655547,35.41175797603853],[139.51957487217285,35.410426997622295]],[[139.4931343067208,35.39179329979503],[139.4936087608195,35.39091423498059],[139.49040473128866,35.389799927469326],[139.48995370702198,35.393495714048356]],[[139.50528853208922,35.39435620707094],[139.50136403522328,35.39323570896239],[139.49814829077638,35.39436239766823],[139.49645548541181,35.39660958448261]],[[139.4851623063707,35.41687140939578],[139.48796217129896,35.41696426835505]],[[139.48796217129896,35.41696426835505],[139.48807346300111,35.41223465202946],[139.4887880728782,35.41135558721502]],[[139.52595364394452,35.435474154236616],[139.52262660779547,35.4358889242547],[139.51983845778327,35.4345455646439]],[[139.50873857485644,35.41461803198411],[139.5089845880928,35.415534240382264]],[[139.5089845880928,35.415534240382264],[139.5098397769621,35.41762047166724],[139.51080625753357,35.41749046912426],[139.51211832812757,35.41986765848162],[139.51343625617955,35.42007813878931]],[[139.51343625617955,35.42007813878931],[139.51508805933807,35.419285742336854]],[[139.51508805933807,35.419285742336854],[139.5155918007268,35.41846858349526]],[[139.5155918007268,35.41846858349526],[139.51541021952855,35.41703855552247]],[[139.51541021952855,35.41703855552247],[139.5124756330661,35.41394325688007]],[[139.51884268992174,35.41965098757666],[139.51843852531914,35.41889573470791],[139.51508805933807,35.419285742336854]],[[139.51343625617955,35.42007813878931],[139.51229990932583,35.42148959497025]],[[139.51229990932583,35.42148959497025],[139.5132136727752,35.42348296729595]],[[139.5164177023061,35.41522471051802],[139.51541021952855,35.41703855552247]],[[139.5155918007268,35.41846858349526],[139.51737832541954,35.41771333062651],[139.51936986114254,35.418289056174]],[[139.51936986114254,35.418289056174],[139.5192058523183,35.41752142211068]],[[139.49084989809734,35.4106684309164],[139.48980141311375,35.41003079939607]],[[139.48980141311375,35.41003079939607],[139.48973698107565,35.41003698999336]],[[139.48796217129896,35.41696426835505],[139.49268913991213,35.41586853263564]],[[139.5089845880928,35.415534240382264],[139.50678218388148,35.417409991359555]],[[139.50992178137423,35.42317343743171],[139.51181959776912,35.4228515263729],[139.51229990932583,35.42148959497025]],[[139.51490062068177,35.427612095684914],[139.5152403532463,35.42719113506955]],[[139.48980141311375,35.41003079939607],[139.4916933720506,35.41001222760421]],[[139.48898722645052,35.39791580050971],[139.48821989945134,35.40043537360462],[139.48577148200363,35.39842962008434],[139.4837037993265,35.398596766211035]],[[139.5039588891212,35.413466580889136],[139.5061964380806,35.412147983667474]],[[139.5061964380806,35.412147983667474],[139.5054291110814,35.41044556941415],[139.50558140498964,35.40447164303431]],[[139.51936986114254,35.418289056174],[139.52050620799628,35.41815286303373]],[[139.52050620799628,35.41815286303373],[139.52301320002408,35.41786190496135]],[[139.52272032712364,35.41623996847273],[139.52140239907163,35.414506601232986]],[[139.47969144059041,35.42837972974823],[139.48441255174558,35.42860259125048]],[[139.48471713956204,35.42283914517833],[139.48537317485903,35.41931050472599]],[[139.5061964380806,35.412147983667474],[139.50819383126162,35.41209226829191]],[[139.5098339195041,35.411807500816806],[139.50807668210143,35.40813647662692],[139.50683490100354,35.406929310156386],[139.50770180478887,35.40514641813836]],[[139.50770180478887,35.40514641813836],[139.50794196056722,35.40447164303431]],[[139.51231748169985,35.410649859124554],[139.51191917455526,35.41087891122409]],[[139.50770180478887,35.40514641813836],[139.5085862809482,35.40689835716996],[139.51189574472323,35.41089129241866]],[[139.52050620799628,35.41815286303373],[139.52136139686556,35.420920060020045],[139.52025433730188,35.42174340945892]],[[139.52025433730188,35.42174340945892],[139.52426669603798,35.42023909431871]],[[139.52273789949766,35.42272152382992],[139.52503402303714,35.42319200922356],[139.52631680634107,35.42217675126886]]]}