{"type":"Topology","bbox":[139.47708578686402,35.49202579317776,139.5868778340619,35.53875552083486],"objects":{"town":{"type":"GeometryCollection","geometries":[{"type":"Polygon","arcs":[[0,1,2,3,4,5]],"properties":{"name":"鴨居町"}},{"type":"MultiPolygon","arcs":[[[-111,7,8,9,10,-3,-2,-1,144]]],"properties":{"name":"竹山"}},{"type":"Polygon","arcs":[[16,17,18,19,20,21,22]],"properties":{"name":"寺山町"}},{"type":"MultiPolygon","arcs":[[[-20,-82,24,25,26,-33,119,120,121,122],[123]]],"properties":{"name":"中山町"}},{"type":"MultiPolygon","arcs":[[[-22,39,28,140,-122,141,142,30,31,40,41]]],"properties":{"name":"上山"}},{"type":"Polygon","arcs":[[32,-27,33,34,35,36,37,38]],"properties":{"name":"小山町"}},{"type":"MultiPolygon","arcs":[[[-4,-11,-10,-9,-8,110,111,112,99,-77,-76,-167,45,46,47,48,49,50,-54,131,-61,151,-5]]],"properties":{"name":"鴨居"}},{"type":"MultiPolygon","arcs":[[[53,-51,106,107,179,59,60,-132]]],"properties":{"name":"東本郷"}},{"type":"MultiPolygon","arcs":[[[127,154,155,67,72,73,-88,-137,-118,173,172,134]]],"properties":{"name":"長津田"}},{"type":"Polygon","arcs":[[-18,69]],"properties":{"name":"森の台"}},{"type":"MultiPolygon","arcs":[[[75,76,-100,-113,143,-42,-41,-32,-31,-143,165,-46,166]]],"properties":{"name":"白山"}},{"type":"Polygon","arcs":[[-17,79,80,-25,81,-19,-70]],"properties":{"name":"台村町"}},{"type":"MultiPolygon","arcs":[[[136,-87,-86,-170,149,163,162,161,82,116,117]]],"properties":{"name":"長津田みなみ台"}},{"type":"Polygon","arcs":[[85,86,87,-74,88,89]],"properties":{"name":"いぶき野"}},{"type":"MultiPolygon","arcs":[[[174,-178,-168,114,-98,94,95,-109,176]]],"properties":{"name":"霧が丘"}},{"type":"Polygon","arcs":[[96,-95,97,98,-35]],"properties":{"name":"新治町"}},{"type":"Polygon","arcs":[[108,-96,-97,-34,-26,-81,109]],"properties":{"name":"三保町"}},{"type":"Polygon","arcs":[[-120,-39,124,125]],"properties":{"name":"青砥町"}},{"type":"Polygon","arcs":[[145,146,147,-37]],"properties":{"name":"西八朔町"}},{"type":"Polygon","arcs":[[-38,-148,153,-125]],"properties":{"name":"北八朔町"}},{"type":"Polygon","arcs":[[-107,-50,158,-48,159]],"properties":{"name":"東本郷町"}},{"type":"Polygon","arcs":[[-115,167,168,-164,-150,169,-90,170,-146,-36,-99]],"properties":{"name":"十日市場町"}},{"type":"Polygon","arcs":[[-155,-128,-135,-173,-174,-117,-83,-162,-163,-169,177,-175,178]],"properties":{"name":"長津田町"}}]}},"arcs":[[[139.56487330735078,35.49592811566938],[139.56396194222253,35.49665717232649]],[[139.56396194222253,35.49665717232649],[139.5654442830938,35.49688617089187],[139.56543330279104,35.499213544066514],[139.56419252858026,35.49851720149016],[139.56350076950702,35.50087728874557],[139.56429135130503,35.502531686544415]],[[139.56429135130503,35.502531686544415],[139.56392900131428,35.50305978527681]],[[139.56392900131428,35.50305978527681],[139.56626780580004,35.50309249935758],[139.56734387546953,35.501213776433474],[139.57013287236805,35.5037280872125]],[[139.57013287236805,35.5037280872125],[139.57279010563357,35.503218682240544]],[[139.57279010563357,35.503218682240544],[139.56991326631305,35.49903127990223],[139.56765132394654,35.49709647569681],[139.56487330735078,35.49592811566938]],[[139.558625515086,35.49703104753527],[139.5579886575265,35.497110496017136]],[[139.5579886575265,35.497110496017136],[139.558405909031,35.49812930596106],[139.55661611968273,35.499003239261576],[139.55883414083826,35.49964817399672],[139.5605800089755,35.50141473435819]],[[139.5605800089755,35.50141473435819],[139.56243568014025,35.50346170112625]],[[139.56243568014025,35.50346170112625],[139.56351174980978,35.50361592464987]],[[139.56351174980978,35.50361592464987],[139.56392900131428,35.50305978527681]],[[139.56429135130503,35.502531686544415],[139.56146941349826,35.5002183336901],[139.56140353168175,35.49879293445664]],[[139.56140353168175,35.49879293445664],[139.558625515086,35.49703104753527]],[[139.56396194222253,35.49665717232649],[139.56240273923203,35.49691421153253]],[[139.56240273923203,35.49691421153253],[139.56140353168175,35.49879293445664]],[[139.56240273923203,35.49691421153253],[139.562490581654,35.49557293422104],[139.56055804837,35.49527383405402],[139.558625515086,35.49703104753527]],[[139.5326351384766,35.50450387827072],[139.53451277024686,35.504821672198176],[139.53473237630186,35.50643400903603]],[[139.53473237630186,35.50643400903603],[139.5364782444391,35.507406084578854],[139.53744451108113,35.50935958254472],[139.5358633474851,35.50925209342219],[139.53670883079687,35.51192997460506]],[[139.53670883079687,35.51192997460506],[139.53866332468638,35.51277586726492],[139.53848763984237,35.51537897340604]],[[139.53848763984237,35.51537897340604],[139.53993703980538,35.514448958824204]],[[139.53993703980538,35.514448958824204],[139.53944292618164,35.51128503986992],[139.54045311403465,35.50880344317166],[139.54387896849266,35.50830338507992],[139.54505386088692,35.50466277523444],[139.5447024911989,35.502452238062546],[139.5454271911804,35.50077914650327]],[[139.5454271911804,35.50077914650327],[139.5474805077947,35.49904530022256]],[[139.5474805077947,35.49904530022256],[139.54267113519015,35.49770869635118],[139.5405080155484,35.50055949481811],[139.53356846421036,35.499690234957704],[139.53126260063283,35.500447332255476],[139.53121867942184,35.50356919024877],[139.5326351384766,35.50450387827072]],[[139.53847665953964,35.51677633199884],[139.5377299989526,35.51572480797416]],[[139.5377299989526,35.51572480797416],[139.5352264899256,35.51693522896257]],[[139.5352264899256,35.51693522896257],[139.53590726869612,35.518743850285034]],[[139.53590726869612,35.518743850285034],[139.53847665953964,35.51677633199884]],[[139.5496765683447,35.50269993038836],[139.5482052077762,35.503008377435606],[139.54804050323494,35.50468614243499],[139.5465691426664,35.504349654747095]],[[139.5465691426664,35.504349654747095],[139.54609698964816,35.50789212235026],[139.5485126562532,35.509583907669985]],[[139.5485126562532,35.509583907669985],[139.5523777228212,35.508065039634324]],[[139.5523777228212,35.508065039634324],[139.55194949101394,35.507392064258525]],[[139.55194949101394,35.507392064258525],[139.5497863713722,35.50602274630638],[139.5496765683447,35.50269993038836]],[[139.5415840852179,35.5172390025697],[139.53847665953964,35.51677633199884]],[[139.53590726869612,35.518743850285034],[139.53354650360484,35.51912707237403],[139.5328327839261,35.518267159393844]],[[139.5328327839261,35.518267159393844],[139.53183357637585,35.51875787060536],[139.5338649323846,35.52136565018659],[139.53007672793584,35.522613458695886],[139.5283857613123,35.524160367372204],[139.5269144007438,35.52345935135575]],[[139.5269144007438,35.52345935135575],[139.52365325082704,35.525104402274366],[139.52240149631353,35.527118654961654]],[[139.52240149631353,35.527118654961654],[139.52510265079005,35.52588019333258],[139.5277489037528,35.52706257368034],[139.52945085067907,35.526160599739164],[139.53172377334835,35.52655316870838],[139.53323905512784,35.524936158430414]],[[139.53323905512784,35.524936158430414],[139.53424924298085,35.52296396670411],[139.53729078684262,35.52259943837556],[139.5393880246679,35.519398131900395],[139.54152918370414,35.5191597864548]],[[139.54152918370414,35.5191597864548],[139.5415840852179,35.5172390025697]],[[139.5454271911804,35.50077914650327],[139.5465691426664,35.504349654747095]],[[139.5496765683447,35.50269993038836],[139.55032440620695,35.501601671962575]],[[139.55032440620695,35.501601671962575],[139.5474805077947,35.49904530022256]],[[139.56947405420306,35.50993441567821],[139.56833210271705,35.510341004967756]],[[139.56833210271705,35.510341004967756],[139.56448899675453,35.5093502356645]],[[139.56448899675453,35.5093502356645],[139.56335802557126,35.50946707166724]],[[139.56335802557126,35.50946707166724],[139.56151333470928,35.511579466596835]],[[139.56151333470928,35.511579466596835],[139.56457683917654,35.51282260166602],[139.56863955119405,35.51286933606712],[139.57098933598257,35.51487424187419],[139.57319637683534,35.51470132459013]],[[139.57319637683534,35.51470132459013],[139.57286696775282,35.51409377737586]],[[139.57286696775282,35.51409377737586],[139.57169207535858,35.51393488041213],[139.56951797541407,35.51144861027376],[139.5733610813766,35.51210756532923]],[[139.5733610813766,35.51210756532923],[139.57338304198208,35.51207952468857]],[[139.57338304198208,35.51207952468857],[139.57345990410133,35.51164956819848]],[[139.57345990410133,35.51164956819848],[139.57094541477156,35.510051251680956],[139.56947405420306,35.50993441567821]],[[139.57662223129336,35.50779865354807],[139.5749422449726,35.50765845034478],[139.5738881359086,35.50923807310186]],[[139.5738881359086,35.50923807310186],[139.57345990410133,35.51164956819848]],[[139.57345990410133,35.51164956819848],[139.57695164037585,35.51135514147157]],[[139.57695164037585,35.51135514147157],[139.57662223129336,35.50779865354807]],[[139.57242775564282,35.50600405254593],[139.5767869358346,35.506457376236575]],[[139.5767869358346,35.506457376236575],[139.57960887364138,35.50619566359043]],[[139.57960887364138,35.50619566359043],[139.58054219937512,35.50412065618172]],[[139.58054219937512,35.50412065618172],[139.57774222217387,35.50389165761634],[139.57609517676136,35.5044945313905],[139.57333912077107,35.50426553282512]],[[139.57333912077107,35.50426553282512],[139.57242775564282,35.50600405254593]],[[139.5767869358346,35.506457376236575],[139.57662223129336,35.50779865354807]],[[139.57695164037585,35.51135514147157],[139.58195865842987,35.51051859569193]],[[139.58195865842987,35.51051859569193],[139.58285904325538,35.50889223853375],[139.58155238722813,35.507027535929964],[139.57960887364138,35.50619566359043]],[[139.49823384996066,35.531689279388964],[139.49557661669513,35.53165189186809]],[[139.49557661669513,35.53165189186809],[139.49514838488787,35.53411479480591]],[[139.49514838488787,35.53411479480591],[139.49530210912638,35.5354093377163],[139.49845345601565,35.536643125905265]],[[139.49845345601565,35.536643125905265],[139.5015608816939,35.5345914856971],[139.5035922377027,35.53498872810643]],[[139.5035922377027,35.53498872810643],[139.50109970897842,35.53280155813508],[139.49823384996066,35.531689279388964]],[[139.53473237630186,35.50643400903603],[139.5335355233021,35.50752292058159],[139.53099907336684,35.507878102029935],[139.53042809762383,35.51013537360293],[139.53154808850434,35.51203746372759],[139.53240455211883,35.509686723352395],[139.53334885815534,35.5118037917221],[139.53528139143936,35.51099996002323],[139.53670883079687,35.51192997460506]],[[139.50287851802392,35.530619061603836],[139.50225264076718,35.530815346088445]],[[139.50225264076718,35.530815346088445],[139.49823384996066,35.531689279388964]],[[139.5035922377027,35.53498872810643],[139.50825886637145,35.534899932744345]],[[139.50825886637145,35.534899932744345],[139.50287851802392,35.530619061603836]],[[139.5523777228212,35.508065039634324],[139.55855963326948,35.506653660721184],[139.56002001353525,35.50857444460628],[139.56303959679153,35.50943435758647]],[[139.56303959679153,35.50943435758647],[139.56124980744326,35.508546403965624],[139.5599651120215,35.50489644723993]],[[139.5599651120215,35.50489644723993],[139.5561878878755,35.50341029328504]],[[139.5561878878755,35.50341029328504],[139.55512279850873,35.50429824690589]],[[139.55512279850873,35.50429824690589],[139.55376124096773,35.50496654884158],[139.55194949101394,35.507392064258525]],[[139.5326351384766,35.50450387827072],[139.52956065370657,35.50305043839659],[139.5271340067988,35.503985126418534]],[[139.5271340067988,35.503985126418534],[139.52746341588133,35.50614892918934],[139.52891281584434,35.50900440109638],[139.52877007190858,35.511509364995185],[139.53081240822007,35.51251882805889],[139.53196534000884,35.51464524330881],[139.53508374598985,35.51571546109393],[139.5352264899256,35.51693522896257]],[[139.5377299989526,35.51572480797416],[139.53848763984237,35.51537897340604]],[[139.49101979105384,35.51783252946364],[139.49244723041136,35.52162268939262],[139.49374290613588,35.52284713070137]],[[139.49374290613588,35.52284713070137],[139.49570838032813,35.52068800137068]],[[139.49570838032813,35.52068800137068],[139.49343545765888,35.519281295897656],[139.49367702431937,35.517968059226824],[139.49101979105384,35.51783252946364]],[[139.50949964058222,35.52721212376385],[139.50525026341793,35.52721679720396],[139.5018683301709,35.5254549102826]],[[139.5018683301709,35.5254549102826],[139.4996063878044,35.52827766810886]],[[139.4996063878044,35.52827766810886],[139.50287851802392,35.530619061603836]],[[139.50825886637145,35.534899932744345],[139.50984002996745,35.53361473671417],[139.51141021326072,35.53089479457031],[139.51323294351724,35.529866637746174]],[[139.51323294351724,35.529866637746174],[139.51177256325147,35.528151485225905],[139.50949964058222,35.52721212376385]],[[139.5030102816569,35.50897636045572],[139.50297734074869,35.511102775705645]],[[139.50297734074869,35.511102775705645],[139.5048659528217,35.513411455119844]],[[139.5048659528217,35.513411455119844],[139.50724867851844,35.514369510342334]],[[139.50724867851844,35.514369510342334],[139.5095216011877,35.51372457560719]],[[139.5095216011877,35.51372457560719],[139.50951062088495,35.51364045368522]],[[139.50951062088495,35.51364045368522],[139.50918121180246,35.51107940850509],[139.5076329891147,35.51048120817105],[139.50564555431694,35.51118222418751],[139.5030102816569,35.50897636045572]],[[139.5328327839261,35.518267159393844],[139.53176769455933,35.51799142642737],[139.52939594916532,35.520071107276195],[139.52314815690053,35.519407478780614],[139.52060072666254,35.51765026529936],[139.51979916456176,35.5146873042698],[139.52042504181853,35.5132946191171],[139.5190195630665,35.51192062772484],[139.51696624645226,35.511495344674856],[139.51744937977327,35.51049990193149],[139.51639527070924,35.50821458971783],[139.51354039199424,35.50804167243378],[139.5114321738662,35.5131497424737],[139.50951062088495,35.51364045368522]],[[139.5095216011877,35.51372457560719],[139.51036708449948,35.5182952000345],[139.51203609051748,35.51917380677513]],[[139.51203609051748,35.51917380677513],[139.51365019502174,35.51985612903115],[139.51780074946126,35.519482253822375],[139.52181954026778,35.52116001882176],[139.52400462051506,35.520800163933316],[139.52699126286305,35.52242184765139],[139.5269144007438,35.52345935135575]],[[139.5557925969765,35.501690467324664],[139.5561878878755,35.50341029328504]],[[139.5599651120215,35.50489644723993],[139.56243568014025,35.50346170112625]],[[139.5605800089755,35.50141473435819],[139.5557925969765,35.501690467324664]],[[139.5048659528217,35.513411455119844],[139.50315302559267,35.5178605701043]],[[139.50315302559267,35.5178605701043],[139.50669966338094,35.520080454156414]],[[139.50669966338094,35.520080454156414],[139.5082918072797,35.5179119779455],[139.50724867851844,35.514369510342334]],[[139.5847915765394,35.50999049695953],[139.58195865842987,35.51051859569193]],[[139.57338304198208,35.51207952468857],[139.57879633123787,35.51299551895008],[139.5844621674569,35.512444053017134]],[[139.5844621674569,35.512444053017134],[139.58348492051215,35.51134112115124],[139.5847915765394,35.50999049695953]],[[139.50295538014316,35.50892962605462],[139.5030102816569,35.50897636045572]],[[139.5271340067988,35.503985126418534],[139.52479520231304,35.504363675067424],[139.52233561449702,35.501129654511494],[139.52032621909376,35.50193348621037],[139.517108990388,35.50072306522195],[139.51400156470973,35.498830321977515],[139.50572241643619,35.50209705661421],[139.50546986947293,35.50600872598604],[139.50295538014316,35.50892962605462]],[[139.5579886575265,35.497110496017136],[139.558186302976,35.496278623677604]],[[139.558186302976,35.496278623677604],[139.5548812318482,35.496816069290226],[139.55331104855497,35.49809191844018]],[[139.55331104855497,35.49809191844018],[139.55522162123347,35.499405155111006],[139.5557925969765,35.501690467324664]],[[139.50669966338094,35.520080454156414],[139.50856631484845,35.521407711147575]],[[139.50856631484845,35.521407711147575],[139.50900552695845,35.520150555758065],[139.51203609051748,35.51917380677513]],[[139.49691621363064,35.51998698535422],[139.49570838032813,35.52068800137068]],[[139.49374290613588,35.52284713070137],[139.49581818335562,35.52574933700951],[139.49555465608964,35.52702518615946]],[[139.49555465608964,35.52702518615946],[139.49757503179563,35.52756263177208]],[[139.49757503179563,35.52756263177208],[139.49851933783214,35.52236109292996],[139.49691621363064,35.51998698535422]],[[139.5415840852179,35.5172390025697],[139.54330799274965,35.517682979380126],[139.54585542298767,35.51670155695709],[139.54790873960192,35.51489293563463],[139.5511698895187,35.514374183782444]],[[139.5511698895187,35.514374183782444],[139.5519604713167,35.51313572215337]],[[139.5519604713167,35.51313572215337],[139.54868834109718,35.512831948546236],[139.54828206989544,35.51148599779464]],[[139.54828206989544,35.51148599779464],[139.5435166185019,35.51268707190284],[139.53993703980538,35.514448958824204]],[[139.5454271911804,35.51499107787693],[139.5454271911804,35.51499107787693]],[[139.54152918370414,35.5191597864548],[139.54286878063965,35.519958944713565],[139.54326407153866,35.52362759519969],[139.54690953205167,35.523954736007376]],[[139.54690953205167,35.523954736007376],[139.54835893201468,35.52083755145419],[139.55104910618846,35.5186784221235],[139.5511698895187,35.514374183782444]],[[139.55512279850873,35.50429824690589],[139.5527949743257,35.503199988480105],[139.55085146073895,35.50381220913447],[139.55032440620695,35.501601671962575]],[[139.49255703343886,35.531502341784574],[139.49121743650335,35.53327824902627],[139.49235938798935,35.537021674554154]],[[139.49235938798935,35.537021674554154],[139.49514838488787,35.53411479480591]],[[139.49557661669513,35.53165189186809],[139.49255703343886,35.531502341784574]],[[139.57242775564282,35.50600405254593],[139.5701877738818,35.507013515609636],[139.56947405420306,35.50993441567821]],[[139.5738881359086,35.50923807310186],[139.57192266171631,35.507593022183244],[139.57242775564282,35.50600405254593]],[[139.50225264076718,35.530815346088445],[139.49554367578688,35.52999749406924]],[[139.49554367578688,35.52999749406924],[139.49436878339262,35.529871311186284]],[[139.49436878339262,35.529871311186284],[139.49255703343886,35.531502341784574]],[[139.49698209544715,35.519977638474],[139.49691621363064,35.51998698535422]],[[139.49757503179563,35.52756263177208],[139.4996063878044,35.52827766810886]],[[139.5018683301709,35.5254549102826],[139.50190127107916,35.524833342748]],[[139.50190127107916,35.524833342748],[139.50051775293267,35.52174887227559]],[[139.50051775293267,35.52174887227559],[139.4991671756944,35.520435635604755],[139.49698209544715,35.519977638474]],[[139.5485126562532,35.509583907669985],[139.54828206989544,35.51148599779464]],[[139.5519604713167,35.51313572215337],[139.55353065460997,35.51094387874191]],[[139.55353065460997,35.51094387874191],[139.5523777228212,35.508065039634324]],[[139.55331104855497,35.49809191844018],[139.55241066372946,35.497610554108874],[139.5474805077947,35.49904530022256]],[[139.56487330735078,35.49592811566938],[139.56316038012176,35.49279223735575],[139.56083255593876,35.49203514005798],[139.559196490829,35.49546077165841],[139.558186302976,35.496278623677604]],[[139.52240149631353,35.527118654961654],[139.52214894935028,35.527604692733064]],[[139.52214894935028,35.527604692733064],[139.5236422705243,35.529661006381346],[139.52362030991878,35.53174536067028],[139.5298022203671,35.53406806040481]],[[139.5298022203671,35.53406806040481],[139.53006574763307,35.5320911952384],[139.5316908324401,35.529600251659915],[139.53514962780636,35.525679235407864],[139.53323905512784,35.524936158430414]],[[139.50190127107916,35.524833342748],[139.50454752404193,35.524912791229866],[139.50552477098668,35.52266019309698]],[[139.50552477098668,35.52266019309698],[139.50307616347342,35.520557145047604]],[[139.50307616347342,35.520557145047604],[139.50051775293267,35.52174887227559]],[[139.57333912077107,35.50426553282512],[139.57279010563357,35.503218682240544]],[[139.57013287236805,35.5037280872125],[139.5686066102858,35.50410196242128],[139.5681673981758,35.50591058374374],[139.56833210271705,35.510341004967756]],[[139.5298022203671,35.53406806040481],[139.53374414905434,35.536802022869],[139.53435904600835,35.536157088133855],[139.53854254135612,35.53515697195038],[139.54137545946566,35.53630196477726],[139.5428358397314,35.53535325643499],[139.54505386088692,35.531852849792806],[139.5449879790704,35.52915627484949],[139.54710717750118,35.52604843717653],[139.54690953205167,35.523954736007376]],[[139.49235938798935,35.537021674554154],[139.49156880619137,35.53776007809149]],[[139.49156880619137,35.53776007809149],[139.49542289245662,35.538629337951896],[139.49845345601565,35.536643125905265]],[[139.50297734074869,35.511102775705645],[139.50117657109766,35.51173836356056],[139.49970521052916,35.515500482848886]],[[139.49970521052916,35.515500482848886],[139.50315302559267,35.5178605701043]],[[139.5733610813766,35.51210756532923],[139.57286696775282,35.51409377737586]],[[139.57319637683534,35.51470132459013],[139.57443715104608,35.51586033773734],[139.57748967521061,35.515407014046694],[139.5790049569901,35.51413583833685],[139.58293590537463,35.51362175992478],[139.5844621674569,35.512444053017134]],[[139.49698209544715,35.519977638474],[139.49669660757564,35.518739176844925],[139.4980691454194,35.51704739152521]],[[139.4980691454194,35.51704739152521],[139.4939734924936,35.51531821868461],[139.49243625010863,35.51693990240268],[139.49031705167786,35.5164678849516],[139.49101979105384,35.51783252946364]],[[139.49904639236416,35.51755679649717],[139.4980691454194,35.51704739152521]],[[139.50307616347342,35.520557145047604],[139.49904639236416,35.51755679649717]],[[139.56351174980978,35.50361592464987],[139.56448899675453,35.5093502356645]],[[139.55353065460997,35.51094387874191],[139.5544639803437,35.511509364995185],[139.55815336206774,35.510822369299056],[139.56151333470928,35.511579466596835]],[[139.56335802557126,35.50946707166724],[139.56303959679153,35.50943435758647]],[[139.50856631484845,35.521407711147575],[139.50202205440942,35.519229888056444],[139.5009240241344,35.51678100543895],[139.4987279635844,35.51600054094063]],[[139.4987279635844,35.51600054094063],[139.49904639236416,35.51755679649717]],[[139.50552477098668,35.52266019309698],[139.50843455121546,35.52496887251118],[139.5074792648762,35.52618396693971],[139.50949964058222,35.52721212376385]],[[139.51323294351724,35.529866637746174],[139.51709801008525,35.53046483808021],[139.51978818425903,35.53009563631155],[139.52214894935028,35.527604692733064]],[[139.49554367578688,35.52999749406924],[139.49542289245662,35.52703453303968]],[[139.49542289245662,35.52703453303968],[139.4924142895031,35.5256979291683],[139.49251311222787,35.526992472078696],[139.4906354804576,35.52810475082481],[139.49436878339262,35.529871311186284]],[[139.49555465608964,35.52702518615946],[139.49542289245662,35.52703453303968]],[[139.49915619539166,35.50898570733594],[139.49667464697015,35.51260294998086]],[[139.49667464697015,35.51260294998086],[139.49970521052916,35.515500482848886]],[[139.50295538014316,35.50892962605462],[139.49915619539166,35.50898570733594]],[[139.4987279635844,35.51600054094063],[139.49709189847465,35.51450504010552],[139.49667464697015,35.51260294998086]],[[139.49915619539166,35.50898570733594],[139.4983326726854,35.50803232555356],[139.4926338955581,35.50752292058159],[139.48939470624686,35.505513341334414],[139.48839549869658,35.50280274607078],[139.4809837943403,35.50595731814484],[139.47708578686402,35.5110840819452],[139.4804567398083,35.514364836902224],[139.48270770187204,35.51741659329387],[139.4832237761013,35.51908501141305],[139.48509042756882,35.51964582422621],[139.48552963967882,35.522267624127764],[139.4871876653941,35.52392669536672],[139.4874072714491,35.52554837908479],[139.48628728056858,35.526627943750135],[139.48774766083434,35.52791313978031],[139.48550767907332,35.531292036979636],[139.4877147199261,35.53573647852398],[139.49156880619137,35.53776007809149]],[[139.5847915765394,35.50999049695953],[139.5868778340619,35.50851836332497],[139.5825955159894,35.50525630212838],[139.58251865387012,35.504069248340514],[139.58054219937512,35.50412065618172]]]}