{"type":"Topology","bbox":[139.4839572873631,35.357539699867054,139.5763706518111,35.44771084527842],"objects":{"town":{"type":"GeometryCollection","geometries":[{"type":"Polygon","arcs":[[0,1,2,3,4,5,6,7,8]],"properties":{"name":"上倉田町"}},{"type":"MultiPolygon","arcs":[[[-1,10,11,146,-2]]],"properties":{"name":"下倉田町"}},{"type":"MultiPolygon","arcs":[[[-6,-5,-4,15,12,13,16,-71,-48,30,31,32,33,34,-7]]],"properties":{"name":"戸塚町"}},{"type":"MultiPolygon","arcs":[[[19,20,-72,-13,151,-77,65,74,72,-132,-43,-127,134]]],"properties":{"name":"原宿"}},{"type":"MultiPolygon","arcs":[[[25,26,100,138,139,111,46,-31,47,48,62,24,-70]]],"properties":{"name":"汲沢"}},{"type":"MultiPolygon","arcs":[[[-104,135,140,141,38,51,49,-105]]],"properties":{"name":"平戸"}},{"type":"Polygon","arcs":[[40,41,42,43]],"properties":{"name":"東俣野町"}},{"type":"Polygon","arcs":[[52,53,54,55,56,57,58]],"properties":{"name":"上矢部町"}},{"type":"Polygon","arcs":[[-21,66,67,68,-26,69,-25,-63,-49,70,-17,-14,71]],"properties":{"name":"汲沢町"}},{"type":"Polygon","arcs":[[75,-75,-66,76,77]],"properties":{"name":"小雀町"}},{"type":"Polygon","arcs":[[78,79,80,81,82]],"properties":{"name":"秋葉町"}},{"type":"Polygon","arcs":[[83,84,85,-80,86,87]],"properties":{"name":"前田町"}},{"type":"Polygon","arcs":[[-35,88,-53,89,90,-8]],"properties":{"name":"吉田町"}},{"type":"MultiPolygon","arcs":[[[92,93,113,95,96,-117]]],"properties":{"name":"南舞岡"}},{"type":"Polygon","arcs":[[-84,102,103,104,-50,105]],"properties":{"name":"平戸町"}},{"type":"MultiPolygon","arcs":[[[-58,-57,106,107,121,-83,-119]]],"properties":{"name":"名瀬町"}},{"type":"Polygon","arcs":[[-91,114,115,-93,116,-97,117,-11,-9]],"properties":{"name":"舞岡町"}},{"type":"Polygon","arcs":[[-90,-59,118,-82,119,120,-115]],"properties":{"name":"柏尾町"}},{"type":"MultiPolygon","arcs":[[[-135,-129,122,123,-68,-67,-20]]],"properties":{"name":"深谷町"}},{"type":"Polygon","arcs":[[-120,-81,-86,125]],"properties":{"name":"上柏尾町"}},{"type":"Polygon","arcs":[[126,-42,127,-123,128]],"properties":{"name":"俣野町"}},{"type":"Polygon","arcs":[[129,-55,130]],"properties":{"name":"鳥が丘"}},{"type":"Polygon","arcs":[[-44,131,-73,-76,132],[133]],"properties":{"name":"影取町"}},{"type":"Polygon","arcs":[[-88,142,143,144,145,-141,-136,-103]],"properties":{"name":"品濃町"}},{"type":"Polygon","arcs":[[-47,-112,-140,147,-131,-54,-89,-34,148,-32]],"properties":{"name":"矢部町"}},{"type":"Polygon","arcs":[[-79,-122,-108,149,-145,150,-143,-87]],"properties":{"name":"川上町"}},{"type":"Polygon","arcs":[[-151,-144]],"properties":{"name":"上品濃"}}]}},"arcs":[[[139.54758100982133,35.38640637018027],[139.54524271787162,35.38707370338963]],[[139.54524271787162,35.38707370338963],[139.5436253222542,35.38759674833751],[139.5424885241917,35.38929213540995],[139.53926297521755,35.388606766167904]],[[139.53926297521755,35.388606766167904],[139.53749770342944,35.38824604551419],[139.53266400109857,35.38859774815156]],[[139.53266400109857,35.38859774815156],[139.53279339274795,35.389878306472234]],[[139.53279339274795,35.389878306472234],[139.53322777899947,35.39449553083973]],[[139.53322777899947,35.39449553083973],[139.5335050468196,35.39811175539318]],[[139.5335050468196,35.39811175539318],[139.53597273041873,35.40113279086801]],[[139.53597273041873,35.40113279086801],[139.53647181249497,35.399798124449276],[139.5415365713426,35.398670872406434],[139.54271958070848,35.397660854576046],[139.5447066667527,35.39858971025935]],[[139.5447066667527,35.39858971025935],[139.5469895051384,35.39560474684989],[139.54677693314298,35.39197048626375],[139.54814478772226,35.391366279168786],[139.5472760152192,35.38995946861932],[139.54758100982133,35.38640637018027]],[[139.53957721208036,35.38038233526329],[139.54223898315357,35.38400757783309],[139.54385637877098,35.38435026245411],[139.54413364659112,35.38725406371648],[139.54524271787162,35.38707370338963]],[[139.54758100982133,35.38640637018027],[139.5516845735592,35.3833131905747]],[[139.5516845735592,35.3833131905747],[139.5493370393488,35.3815005692898],[139.54767343242804,35.37758675019703],[139.54367153355756,35.37885829050136],[139.54094506665965,35.37906570487725],[139.53957721208036,35.38038233526329]],[[139.51928120764714,35.38070698385163],[139.51773775011512,35.380030632625925],[139.51646231814254,35.38297050595367],[139.51471553087575,35.38356569503229]],[[139.51471553087575,35.38356569503229],[139.5187266720069,35.38772300056631],[139.52014073788953,35.38840836980836]],[[139.52014073788953,35.38840836980836],[139.52636077932104,35.387479514125054],[139.53279339274795,35.389878306472234]],[[139.53266400109857,35.38859774815156],[139.5322665838897,35.38431419038874],[139.53265475883788,35.37892141661577],[139.53137008460465,35.3767570926935],[139.52710940243537,35.378281137455424],[139.52588942402681,35.37922802917142],[139.52254372566395,35.37954365974342],[139.52191525193834,35.38091439822752],[139.51928120764714,35.38070698385163]],[[139.52014073788953,35.38840836980836],[139.52242357627523,35.390211973076916],[139.51918878504043,35.39352158507471],[139.51942908381787,35.394865269509786]],[[139.51942908381787,35.394865269509786],[139.52499292474175,35.39352158507471],[139.52615744958626,35.39449553083973],[139.52905027717625,35.39330515268249],[139.53038116271287,35.3946578551339],[139.53322777899947,35.39449553083973]],[[139.5053438785555,35.377162903428925],[139.50338451929326,35.38007572270764]],[[139.50338451929326,35.38007572270764],[139.50252498905087,35.381744055731055],[139.50567659993962,35.38233924480967],[139.50712763486496,35.38431419038874],[139.51027000349305,35.38238433489139],[139.5124419347507,35.38222201059722]],[[139.5124419347507,35.38222201059722],[139.51322752690774,35.38171700168202]],[[139.51322752690774,35.38171700168202],[139.51100014208606,35.37990438039713],[139.5053438785555,35.377162903428925]],[[139.51110180695343,35.39445945877436],[139.51186891458912,35.395262062228866]],[[139.51186891458912,35.395262062228866],[139.51303343943366,35.39319693648637],[139.51505749452056,35.39334122474786]],[[139.51505749452056,35.39334122474786],[139.51367115541993,35.39096046843336],[139.5103162147964,35.39055465769794],[139.50999273567294,35.39295345004512],[139.51110180695343,35.39445945877436]],[[139.51059348261654,35.39581216122578],[139.50846776266224,35.4003301874135]],[[139.50846776266224,35.4003301874135],[139.50988182854488,35.40144842144001],[139.51049181774914,35.40391935791793]],[[139.51049181774914,35.40391935791793],[139.51157316224766,35.40166485383223]],[[139.51157316224766,35.40166485383223],[139.51148073964094,35.39655163856588],[139.51059348261654,35.39581216122578]],[[139.5335050468196,35.39811175539318],[139.53162886790344,35.39835524183444],[139.5320170428516,35.399725980318536],[139.5304643430589,35.40068189005087],[139.528523468318,35.398571674226666],[139.52886543196283,35.3978412149029],[139.52239584949322,35.397985503164385],[139.5219337364597,35.39840033191615]],[[139.5219337364597,35.39840033191615],[139.52275629765938,35.40043840360961],[139.5219984322844,35.40371194354204]],[[139.5219984322844,35.40371194354204],[139.5252054967372,35.402016556469604],[139.5275160619049,35.40378408767278],[139.53222037258635,35.405389294581795],[139.5337915569004,35.40456865509461],[139.5346233603608,35.40272897976068]],[[139.5346233603608,35.40272897976068],[139.5351963805224,35.402260042910854]],[[139.5351963805224,35.402260042910854],[139.53597273041873,35.401836196142746]],[[139.53597273041873,35.401836196142746],[139.53597273041873,35.40113279086801]],[[139.57076059958388,35.427050569837135],[139.56902305457774,35.428610686664435],[139.56863487962957,35.43036919985127]],[[139.56863487962957,35.43036919985127],[139.56863487962957,35.430396253900305]],[[139.56863487962957,35.430396253900305],[139.56923562657317,35.431325109583604],[139.57191588216773,35.431667794204635],[139.5719251244284,35.43299344260702],[139.57366266943453,35.4333902353261]],[[139.57366266943453,35.4333902353261],[139.5749381014071,35.43127100148555]],[[139.5749381014071,35.43127100148555],[139.57368115395587,35.429368200037224],[139.57076059958388,35.427050569837135]],[[139.49339363550806,35.35836935737059],[139.4904915656574,35.35897356446556],[139.48913295333878,35.35846855555036],[139.48555619845916,35.35951464544612],[139.48667451200032,35.3631579240486],[139.48907749977477,35.367468535860446],[139.4892161336848,35.370516625384305],[139.49026050914063,35.372148886342345],[139.49295000699584,35.37362784102256],[139.4936339342855,35.37533224611134]],[[139.4936339342855,35.37533224611134],[139.4953437525096,35.3771358493799],[139.49945655850814,35.374105795888724]],[[139.49945655850814,35.374105795888724],[139.4992162597307,35.37174307560692],[139.50056562978864,35.369939472338366]],[[139.50056562978864,35.369939472338366],[139.49692417908432,35.363572752800366],[139.49482618591205,35.36132726673102],[139.49339363550806,35.35836935737059]],[[139.5171092763895,35.397435404167474],[139.51751593585902,35.398228989605634]],[[139.51751593585902,35.398228989605634],[139.51826455897336,35.40014080907031],[139.52044573249168,35.40173699796298],[139.5214161698621,35.40396444799964]],[[139.5214161698621,35.40396444799964],[139.5219984322844,35.40371194354204]],[[139.5219337364597,35.39840033191615],[139.5219337364597,35.39600153956897],[139.52032558310296,35.395622782882576]],[[139.52032558310296,35.395622782882576],[139.5171092763895,35.397435404167474]],[[139.56988258482014,35.42546339896081],[139.5694204717866,35.42567081333669]],[[139.5694204717866,35.42567081333669],[139.57076059958388,35.427050569837135]],[[139.5749381014071,35.43127100148555],[139.57577914712815,35.4290255154162],[139.57533551861596,35.42654556092194],[139.57634292502908,35.424462399146755],[139.5746793181083,35.423930336182536],[139.57419872055343,35.42601349795771],[139.56988258482014,35.42546339896081]],[[139.53689695648583,35.40990732076953],[139.5363978744096,35.409059627233304]],[[139.5363978744096,35.409059627233304],[139.53456790679675,35.40923096954382],[139.534364577062,35.412666833770416],[139.53390246402847,35.41050250984815],[139.530686157315,35.412910320211665],[139.52941072534242,35.41148547362951],[139.5284310457113,35.41227004105133]],[[139.5284310457113,35.41227004105133],[139.52581548594145,35.41358667143738],[139.52375446181185,35.416652796993915]],[[139.52375446181185,35.416652796993915],[139.5246232343149,35.41902453529207],[139.5257415478561,35.41947543610921],[139.52628684123567,35.42176601226027],[139.52781181424635,35.422180841012036],[139.5281537778912,35.42824094799438],[139.52955860151314,35.42925998384111]],[[139.52955860151314,35.42925998384111],[139.53190613572355,35.42770888503016],[139.5348451746169,35.428421308321234]],[[139.5348451746169,35.428421308321234],[139.53577864294465,35.427086641902505],[139.540205685806,35.42747441660524],[139.54121309221912,35.425265002601265],[139.5392814597389,35.42227102117546],[139.53617606015348,35.4204854539396],[139.538773135402,35.41724798607254],[139.5383295068898,35.41476803157828]],[[139.5383295068898,35.41476803157828],[139.53689695648583,35.40990732076953]],[[139.51186891458912,35.395262062228866],[139.51488189156782,35.39904962909283]],[[139.51488189156782,35.39904962909283],[139.51560278790015,35.39964481817145]],[[139.51560278790015,35.39964481817145],[139.51751593585902,35.398228989605634]],[[139.5171092763895,35.397435404167474],[139.515242339734,35.39617288187949],[139.51505749452056,35.39334122474786]],[[139.5073032378177,35.3752601019806],[139.5053438785555,35.377162903428925]],[[139.51322752690774,35.38171700168202],[139.5152053706913,35.38063483972089],[139.51606490093369,35.37852462389668]],[[139.51606490093369,35.37852462389668],[139.5106304516592,35.377235047559665],[139.5073032378177,35.3752601019806]],[[139.5124419347507,35.38222201059722],[139.51091696174,35.38578412705262],[139.50835685553417,35.38808372122002]],[[139.50835685553417,35.38808372122002],[139.50687809382686,35.38938231557338],[139.50528842499145,35.39436026059459]],[[139.50528842499145,35.39436026059459],[139.50695203191222,35.39645244038611],[139.50690582060886,35.39923900743603],[139.50846776266224,35.4003301874135]],[[139.51059348261654,35.39581216122578],[139.51110180695343,35.39445945877436]],[[139.52032558310296,35.395622782882576],[139.51942908381787,35.394865269509786]],[[139.51471553087575,35.38356569503229],[139.51322752690774,35.38171700168202]],[[139.50350466868198,35.36983125614225],[139.50102774282217,35.3705797514987]],[[139.50102774282217,35.3705797514987],[139.5053438785555,35.377162903428925]],[[139.5073032378177,35.3752601019806],[139.50506661073535,35.37263585922485],[139.50525145594878,35.370949490168755],[139.50350466868198,35.36983125614225]],[[139.5024787777475,35.367684968252675],[139.50350466868198,35.36983125614225]],[[139.51606490093369,35.37852462389668],[139.51813516732395,35.37769496639315],[139.5185972803575,35.3763783360071],[139.519706351638,35.377559696148005]],[[139.519706351638,35.377559696148005],[139.5216472263789,35.37613484956585],[139.5225622101853,35.3737631112677],[139.5188190946136,35.37493545339226],[139.51632368423247,35.37275309343731],[139.51905939339105,35.36961482375003],[139.51817213636664,35.368253103282264],[139.51944756833922,35.364447500385616],[139.51871742974623,35.36162486127033],[139.51336616081778,35.36246353679021],[139.5115269509443,35.364185977911674],[139.5058152338497,35.366115833409026],[139.5048263119579,35.36722504941919],[139.5024787777475,35.367684968252675]],[[139.54513181074356,35.42735718239279],[139.54645345401948,35.42681610141222]],[[139.54645345401948,35.42681610141222],[139.5480061538122,35.42379506593739],[139.55050156419333,35.42050348997228]],[[139.55050156419333,35.42050348997228],[139.54620391298138,35.418880247030586]],[[139.54620391298138,35.418880247030586],[139.54112991187307,35.41591331965381]],[[139.54112991187307,35.41591331965381],[139.54026113937002,35.416733959141006],[139.54072325240355,35.419736958583144],[139.54189701950875,35.42002553510611],[139.5418508082054,35.422685849927234],[139.54441091441123,35.425589651189604],[139.54513181074356,35.42735718239279]],[[139.55649054910805,35.42081912054428],[139.55659221397545,35.42053956203765]],[[139.55659221397545,35.42053956203765],[139.5565644871934,35.42053956203765]],[[139.5565644871934,35.42053956203765],[139.55050156419333,35.42050348997228]],[[139.54645345401948,35.42681610141222],[139.54675844862163,35.42720387611496],[139.5527381912757,35.42732111032742],[139.55598222477116,35.42698744372274]],[[139.55598222477116,35.42698744372274],[139.5556587456477,35.424318110885274],[139.55649054910805,35.42081912054428]],[[139.53597273041873,35.401836196142746],[139.53769179090352,35.40396444799964],[139.53680453387912,35.40588528548065],[139.5363978744096,35.409059627233304]],[[139.53689695648583,35.40990732076953],[139.53940160912762,35.409167843429415],[139.5398822066825,35.41070992422403],[139.54168444751332,35.41115180702483]],[[139.54168444751332,35.41115180702483],[139.54356986869018,35.40871694261228],[139.54476212031673,35.408734978644965],[139.5465551188869,35.40562376300671],[139.54709117000579,35.40272897976068],[139.54503014587618,35.40057367385476],[139.5447066667527,35.39858971025935]],[[139.5565460026721,35.393539621107394],[139.55659221397545,35.39651556650051]],[[139.55659221397545,35.39651556650051],[139.55751644004252,35.39953660197534]],[[139.55751644004252,35.39953660197534],[139.56058487058525,35.397110755579135],[139.55840369706692,35.39358471118911]],[[139.55840369706692,35.39358471118911],[139.5565460026721,35.393539621107394]],[[139.55560329208365,35.389553657883894],[139.55492860705468,35.388426405841045]],[[139.55492860705468,35.388426405841045],[139.55344060308667,35.38902159491967],[139.55231304728483,35.39091537835165],[139.55205426398604,35.39457669298682]],[[139.55205426398604,35.39457669298682],[139.5562225235486,35.392718981620206]],[[139.5562225235486,35.392718981620206],[139.55560329208365,35.389553657883894]],[[139.51360645959522,35.40040233154424],[139.51157316224766,35.40166485383223]],[[139.51049181774914,35.40391935791793],[139.51333843403577,35.405263042353],[139.5171092763895,35.405064645993455]],[[139.5171092763895,35.405064645993455],[139.51480795348246,35.40352256519884],[139.51360645959522,35.40040233154424]],[[139.55649054910805,35.42081912054428],[139.55968837130018,35.42470588558801],[139.56130576691757,35.427483434621585],[139.56299710062035,35.42876399294226]],[[139.56299710062035,35.42876399294226],[139.5649841866646,35.42924194780843]],[[139.5649841866646,35.42924194780843],[139.56573280977892,35.426365200595086],[139.567414901221,35.42476901170241],[139.5694204717866,35.42567081333669]],[[139.56988258482014,35.42546339896081],[139.5705942388918,35.42372292180665],[139.57343161291774,35.421919318538095],[139.57089923349395,35.41918685958624],[139.5685979105869,35.42014276931857],[139.56937426048324,35.41733816623597],[139.567359447657,35.4173020941706],[139.56344997139323,35.41929507578235],[139.5595497373901,35.41925900371698],[139.55659221397545,35.42053956203765]],[[139.52955860151314,35.42925998384111],[139.52771939163964,35.43429203696038],[139.52556594490335,35.437754955236],[139.52598184663353,35.43914372975279],[139.52941072534242,35.43989222510924],[139.53053828114426,35.4414433239202],[139.53026101332415,35.44302147678018],[139.52588018176615,35.44464471972188],[139.5276362112936,35.44738619669008],[139.53260854753455,35.44741325073911],[139.53542743703915,35.445871169944496],[139.53662893092635,35.44338219743389],[139.5381354194157,35.44312969297629]],[[139.5381354194157,35.44312969297629],[139.53800602776633,35.439432306275755],[139.54147187551789,35.437917279530176],[139.5431169979173,35.43524794669271],[139.54602831002865,35.431956370727605],[139.54519650656826,35.42798844353678]],[[139.54519650656826,35.42798844353678],[139.539531000777,35.43141528974704],[139.53809845037304,35.42994535308316],[139.5348451746169,35.428421308321234]],[[139.5649841866646,35.42924194780843],[139.56588068594965,35.43029705572053],[139.56863487962957,35.43036919985127]],[[139.51560278790015,35.39964481817145],[139.51915181599776,35.40511875409151]],[[139.51915181599776,35.40511875409151],[139.5214161698621,35.40396444799964]],[[139.5562225235486,35.392718981620206],[139.5565460026721,35.393539621107394]],[[139.55840369706692,35.39358471118911],[139.5589489904465,35.39207870245987],[139.55560329208365,35.389553657883894]],[[139.54168444751332,35.41115180702483],[139.54184156594474,35.41253156352527],[139.54618542846003,35.412224950969616],[139.54675844862163,35.4116928880054],[139.55135185217506,35.412224950969616],[139.55186017651195,35.411097698926774],[139.55374559768882,35.411133770992144]],[[139.55374559768882,35.411133770992144],[139.55554783851963,35.40870792459594],[139.55674009014618,35.408554618318114],[139.55626873485195,35.403504529166156],[139.55751644004252,35.39953660197534]],[[139.55659221397545,35.39651556650051],[139.55461437019187,35.39850854811226],[139.55205426398604,35.39457669298682]],[[139.55492860705468,35.388426405841045],[139.55328348465525,35.38441338856851],[139.5516845735592,35.3833131905747]],[[139.5383295068898,35.41476803157828],[139.54112991187307,35.41591331965381]],[[139.54620391298138,35.418880247030586],[139.54788600442348,35.41772594093871],[139.54893962213995,35.41844738224613],[139.55217441337476,35.41805058952705],[139.5523869853702,35.416409310552666],[139.5539304429022,35.41460570728411]],[[139.5539304429022,35.41460570728411],[139.55374559768882,35.411133770992144]],[[139.54519650656826,35.42798844353678],[139.54513181074356,35.42735718239279]],[[139.49643433926877,35.38727209974917],[139.49478921686935,35.38798452304025],[139.4936062075035,35.39091537835165]],[[139.4936062075035,35.39091537835165],[139.4930331873419,35.391916378165696],[139.49533451024894,35.39404463002259],[139.49646206605078,35.39660574666394],[139.49814415749287,35.39436026059459],[139.50205363375665,35.39326006260077],[139.50528842499145,35.39436026059459]],[[139.50835685553417,35.38808372122002],[139.50722005747167,35.386568694474434],[139.50254347357222,35.38568492887284],[139.49871717765447,35.38630717200049],[139.4980332503648,35.38781318072974],[139.49643433926877,35.38727209974917]],[[139.5565644871934,35.42053956203765],[139.55818188281083,35.418176841755844],[139.5583759702849,35.41598546378455],[139.5539304429022,35.41460570728411]],[[139.499151563906,35.37678414674253],[139.49945655850814,35.374105795888724]],[[139.4936339342855,35.37533224611134],[139.49295000699584,35.37770398440949],[139.49112928164368,35.37982321825004],[139.48654512035094,35.38197852415596],[139.48540832228844,35.383015596035385],[139.48550074489512,35.38496348756542],[139.4839572873631,35.38771398254997],[139.48416061709784,35.389697946145375],[139.4878575213662,35.38820997344882],[139.48995551453848,35.38967991011269],[139.4936062075035,35.39091537835165]],[[139.49643433926877,35.38727209974917],[139.49440104192118,35.386541640425406],[139.4948723972154,35.3853602802845],[139.49929944007673,35.38183423589448],[139.4967763029136,35.37848855183131],[139.496933421345,35.3768833449223],[139.499151563906,35.37678414674253]],[[139.52033482536362,35.412910320211665],[139.52192449419903,35.415381256689585],[139.52375446181185,35.416652796993915]],[[139.5284310457113,35.41227004105133],[139.52896709683023,35.4109353746326],[139.52762696903295,35.40940231185433],[139.52388385346123,35.410159825227126],[139.52489125987435,35.40843738410565],[139.5219891900237,35.4086357804652],[139.52017770693223,35.40990732076953],[139.52033482536362,35.412910320211665]],[[139.50056562978864,35.369939472338366],[139.50102774282217,35.3705797514987]],[[139.5024787777475,35.367684968252675],[139.50058411431,35.36396052750311],[139.49795931227945,35.36218397828358],[139.4968040296956,35.358594807779156],[139.49339363550806,35.35836935737059]],[[139.5015915207231,35.36805470692273],[139.5015915207231,35.36805470692273]],[[139.499151563906,35.37678414674253],[139.4988742960859,35.37861480406011],[139.5009907737795,35.37856069596205],[139.50338451929326,35.38007572270764]],[[139.56299710062035,35.42876399294226],[139.56332057974382,35.43112671322407],[139.5652614544847,35.43425596489501]],[[139.5652614544847,35.43425596489501],[139.56867184867227,35.43289424442725],[139.56863487962957,35.430396253900305]],[[139.51488189156782,35.39904962909283],[139.51360645959522,35.40040233154424]],[[139.5171092763895,35.405064645993455],[139.5190778779124,35.40516384417323]],[[139.5190778779124,35.40516384417323],[139.51915181599776,35.40511875409151]],[[139.5652614544847,35.43425596489501],[139.56693430366613,35.436744937405614]],[[139.56693430366613,35.436744937405614],[139.57200830477444,35.43770084713795],[139.57366266943453,35.4333902353261]],[[139.55598222477116,35.42698744372274],[139.55670312110348,35.42937721805357],[139.55645358006538,35.43295737054165],[139.5544757362818,35.43210967700543],[139.55287682518573,35.432786028231135]],[[139.55287682518573,35.432786028231135],[139.5544757362818,35.43550045115031],[139.55282137162172,35.43540125297054],[139.54823721032898,35.44028901782832],[139.54591740290059,35.43899042347496]],[[139.54591740290059,35.43899042347496],[139.54618542846003,35.44120885549528],[139.54528892917497,35.44204753101516],[139.54567710412314,35.444013458577885],[139.54454030606064,35.444752935918]],[[139.54454030606064,35.444752935918],[139.54619467072072,35.447611647098654],[139.54875477692653,35.44737717867374],[139.5486346275378,35.44526696284953],[139.55162911999517,35.44451846749308],[139.55177699616593,35.44290424256773],[139.555594049823,35.44328299925412],[139.55844066610962,35.4413801978058],[139.558597784541,35.438025495726286],[139.5620543900319,35.43556357726471],[139.56693430366613,35.436744937405614]],[[139.53957721208036,35.38038233526329],[139.5363701476276,35.38263683934898],[139.53628696728154,35.384683929058795],[139.53783042481356,35.38688432504643],[139.53917055261084,35.38665887463786],[139.53926297521755,35.388606766167904]],[[139.5190778779124,35.40516384417323],[139.52008528432552,35.4070125375235],[139.51942908381787,35.41154859974391],[139.52033482536362,35.412910320211665]],[[139.5351963805224,35.402260042910854],[139.5346233603608,35.40272897976068]],[[139.5381354194157,35.44312969297629],[139.53904116096146,35.444491413444055],[139.5406493143182,35.44419381890474],[139.54324638956672,35.44544732317639],[139.54454030606064,35.444752935918]],[[139.54591740290059,35.43899042347496],[139.54611149037467,35.437367180533265],[139.54764570564603,35.43552750519934],[139.55089898140218,35.434679811663116],[139.55287682518573,35.432786028231135]],[[139.51928120764714,35.38070698385163],[139.519706351638,35.377559696148005]]]}