{"type":"Topology","bbox":[139.46481956572757,35.43495607968438,139.51139409733577,35.50378128090199],"objects":{"town":{"type":"GeometryCollection","geometries":[{"type":"Polygon","arcs":[[0,1,2,3,4,5,6,7,8,9,10]],"properties":{"name":"瀬谷町"}},{"type":"MultiPolygon","arcs":[[[43,44,123,-150,-88,-132,99,14,15,34,-22,35,36,11,12,97,-117,-165,125,126,46]]],"properties":{"name":"瀬谷"}},{"type":"MultiPolygon","arcs":[[[-34,156,157,17,18,-86]]],"properties":{"name":"阿久和南"}},{"type":"Polygon","arcs":[[21,22,23,24,25,26,27]],"properties":{"name":"二ツ橋町"}},{"type":"Polygon","arcs":[[28,-10,29,-25]],"properties":{"name":"東野台"}},{"type":"MultiPolygon","arcs":[[[81,82,83,-110,51,52,53,47,48,49,127,32,33,85]]],"properties":{"name":"阿久和東"}},{"type":"MultiPolygon","arcs":[[[96,39,40,41,79,80,77,78,37,93,94,120,121,-36,-28,122,-103]]],"properties":{"name":"宮沢"}},{"type":"Polygon","arcs":[[54,55,56,57,58]],"properties":{"name":"北新"}},{"type":"Polygon","arcs":[[59,60,61,62,-7,63]],"properties":{"name":"上瀬谷町"}},{"type":"MultiPolygon","arcs":[[[-35,-16,-15,-100,131,-93,-92,129,110,111,-3,-2,-1,67,76,-23],[175]]],"properties":{"name":"相沢"}},{"type":"MultiPolygon","arcs":[[[-58,133,-120,134,70,71,72,73,106,-59]]],"properties":{"name":"下瀬谷"}},{"type":"MultiPolygon","arcs":[[[-54,-104,-123,-27,169,-49,170]]],"properties":{"name":"三ツ境"}},{"type":"Polygon","arcs":[[87,88,89,90,91,92]],"properties":{"name":"中央"}},{"type":"Polygon","arcs":[[-77,-68,-11,-29,-24]],"properties":{"name":"東野"}},{"type":"MultiPolygon","arcs":[[[-83,-82,-19,-80,-42,-41,-40,-97,102,103,-53,-52,109,-84]]],"properties":{"name":"阿久和西"}},{"type":"Polygon","arcs":[[104,105]],"properties":{"name":"卸本町"}},{"type":"MultiPolygon","arcs":[[[-126,164,116,-98,-13,117,118,119,-134,-57,-56,174,-47,-127]]],"properties":{"name":"橋戸"}},{"type":"Polygon","arcs":[[135,136,-61]],"properties":{"name":"目黒町"}},{"type":"MultiPolygon","arcs":[[[-112,153,-172,-168,138,139,140,141,-167,-5,-4]]],"properties":{"name":"中屋敷"}},{"type":"MultiPolygon","arcs":[[[-121,-95,144,-71,-135,-119,-118,-12,-37,-122]]],"properties":{"name":"南台"}},{"type":"MultiPolygon","arcs":[[[-79,-78,148,-73,-72,-145,-94,-38]]],"properties":{"name":"南瀬谷"}},{"type":"MultiPolygon","arcs":[[[-139,167,171,-154,-111,-130,-91,-90,-89,149,-124,-45,150,158,-140]]],"properties":{"name":"本郷"}},{"type":"Polygon","arcs":[[160,-8,-63,161,162,-105]],"properties":{"name":"北町"}},{"type":"Polygon","arcs":[[165,-64,-6,166,-142]],"properties":{"name":"竹村町"}},{"type":"Polygon","arcs":[[172,-162,-62,-137]],"properties":{"name":"五貫目町"}}]}},"arcs":[[[139.49077349013209,35.47722586273042],[139.49225470835907,35.480337072946476],[139.48974409004356,35.47954550397558],[139.4887053741171,35.4802269416114]],[[139.4887053741171,35.4802269416114],[139.48775050073178,35.481541634423934],[139.4867257585622,35.480433437864676],[139.48498835479282,35.48081201432902],[139.48445269411326,35.48264294777475]],[[139.48445269411326,35.48264294777475],[139.48446200995116,35.48266359740008]],[[139.48446200995116,35.48266359740008],[139.48510480276664,35.484301801009416],[139.48051675259822,35.484081538339254]],[[139.48051675259822,35.484081538339254],[139.4769534445994,35.48430868421786],[139.47620817756695,35.485327399067366]],[[139.47620817756695,35.485327399067366],[139.47625475675648,35.488610689494486]],[[139.47625475675648,35.488610689494486],[139.47495519736867,35.4957210438157],[139.4769441287615,35.49822653168881]],[[139.4769441287615,35.49822653168881],[139.47986464394484,35.497565743678315],[139.48783434327294,35.49724223288152]],[[139.48783434327294,35.49724223288152],[139.4888031904151,35.49286451231202],[139.48847713608842,35.489257711088094],[139.49381511120822,35.48428115138409],[139.49760665723574,35.48227125451885],[139.4994232456273,35.478974197674845]],[[139.4994232456273,35.478974197674845],[139.49804450161727,35.4789673144664],[139.49708497031304,35.47715703064599]],[[139.49708497031304,35.47715703064599],[139.49315834463587,35.47814132945329],[139.49077349013209,35.47722586273042]],[[139.4910203598366,35.466384809433315],[139.48836534603353,35.46631597734889]],[[139.48836534603353,35.46631597734889],[139.48777379032654,35.46628844451512]],[[139.48777379032654,35.46628844451512],[139.48783434327294,35.46768573582897],[139.48652546804723,35.470549150541096]],[[139.48652546804723,35.470549150541096],[139.4901819344251,35.470549150541096]],[[139.4901819344251,35.470549150541096],[139.49020056610092,35.470549150541096]],[[139.49020056610092,35.470549150541096],[139.49133709832537,35.468676917844704],[139.4910203598366,35.466384809433315]],[[139.50116064939664,35.43578894790594],[139.49873853154125,35.43634648778979],[139.49491438008107,35.43826001973683],[139.49517056562345,35.442775404475185],[139.49327945052866,35.443264112274605]],[[139.49327945052866,35.443264112274605],[139.49977258954874,35.44581778260682]],[[139.49977258954874,35.44581778260682],[139.50096035888168,35.442093966839366]],[[139.50096035888168,35.442093966839366],[139.5015006774802,35.44026991660208],[139.50116064939664,35.43578894790594]],[[139.49400142796634,35.46643987510086],[139.49222210292638,35.47056980016642]],[[139.49222210292638,35.47056980016642],[139.49180289022064,35.47259346344855]],[[139.49180289022064,35.47259346344855],[139.49572485797884,35.47433491518453]],[[139.49572485797884,35.47433491518453],[139.49897608540783,35.47503011923723],[139.50106283309864,35.477735220155175],[139.50119325482933,35.479001730508614]],[[139.50119325482933,35.479001730508614],[139.50206894359243,35.478568088376726],[139.50095104304378,35.475160900197636],[139.5024741825413,35.46947537002405]],[[139.5024741825413,35.46947537002405],[139.49959558862855,35.46797483058356],[139.4998145108193,35.466171429971595],[139.4984264509714,35.462633460832095],[139.49667507344518,35.46107097251563]],[[139.49667507344518,35.46107097251563],[139.49306052833788,35.463046453338656],[139.49400142796634,35.46643987510086]],[[139.49572485797884,35.47433491518453],[139.49708497031304,35.47715703064599]],[[139.4994232456273,35.478974197674845],[139.50119325482933,35.479001730508614]],[[139.5043094026087,35.44740780375705],[139.50334521338547,35.44994082446394]],[[139.50334521338547,35.44994082446394],[139.50500343253265,35.450236802426964],[139.5069271530601,35.45254956046368]],[[139.5069271530601,35.45254956046368],[139.5085713984504,35.45075304306016],[139.50940516594295,35.44836456973058]],[[139.50940516594295,35.44836456973058],[139.5068479684379,35.44744910300771],[139.5043094026087,35.44740780375705]],[[139.49020056610092,35.470549150541096],[139.49222210292638,35.47056980016642]],[[139.49400142796634,35.46643987510086],[139.4929301066072,35.466426108683976]],[[139.4929301066072,35.466426108683976],[139.4910203598366,35.466384809433315]],[[139.48783434327294,35.448281971229264],[139.48840260938516,35.454428676368515]],[[139.48840260938516,35.454428676368515],[139.49223607668324,35.45395373498597],[139.49374524242393,35.45503439871146],[139.49464887870076,35.45418776407302]],[[139.49464887870076,35.45418776407302],[139.4946069574302,35.454118931988596]],[[139.4946069574302,35.454118931988596],[139.49335863515086,35.44923185399435]],[[139.49335863515086,35.44923185399435],[139.49251555182042,35.44900470811574]],[[139.49251555182042,35.44900470811574],[139.49052196250864,35.448997824907295],[139.48987916969318,35.447917161181806],[139.48783434327294,35.448281971229264]],[[139.47223031478134,35.46436802935963],[139.47346932122275,35.46596493371832],[139.4745685900956,35.46988147932216]],[[139.4745685900956,35.46988147932216],[139.47603117664676,35.46996407782347]],[[139.47603117664676,35.46996407782347],[139.47617557213428,35.46524908004029]],[[139.47617557213428,35.46524908004029],[139.47223031478134,35.46436802935963]],[[139.50337781881814,35.45813184251063],[139.50362934644158,35.45833145555547]],[[139.50362934644158,35.45833145555547],[139.50599556926957,35.459632381951124]],[[139.50599556926957,35.459632381951124],[139.50777955222847,35.45685844894875]],[[139.50777955222847,35.45685844894875],[139.50628436024465,35.45575025238949],[139.50221799699892,35.45511699721277],[139.50112804396397,35.45351320964565]],[[139.50112804396397,35.45351320964565],[139.50016385474078,35.45679650007277]],[[139.50016385474078,35.45679650007277],[139.50061567287918,35.456810266489654]],[[139.50061567287918,35.456810266489654],[139.50120257066723,35.45794599588268],[139.50337781881814,35.45813184251063]],[[139.47566785896845,35.45482101924974],[139.47382798098212,35.45790469663203],[139.47312463522024,35.460189921834974]],[[139.47312463522024,35.460189921834974],[139.47689754957196,35.46147708181374],[139.47864426917923,35.46126370235202]],[[139.47864426917923,35.46126370235202],[139.47883990177525,35.45921250623612],[139.48078225397853,35.45877886410424]],[[139.48078225397853,35.45877886410424],[139.48055867386879,35.458641199935386]],[[139.48055867386879,35.458641199935386],[139.47566785896845,35.45482101924974]],[[139.47094938706934,35.489106280502355],[139.47089814996087,35.49020759385317]],[[139.47089814996087,35.49020759385317],[139.47539304175024,35.49823341489725]],[[139.47539304175024,35.49823341489725],[139.47544893677767,35.49826783093946]],[[139.47544893677767,35.49826783093946],[139.4769441287615,35.49822653168881]],[[139.47625475675648,35.488610689494486],[139.47375811219783,35.48810133206974],[139.47094938706934,35.489106280502355]],[[139.4905964892119,35.47577350574903],[139.48827684557344,35.475897403500994]],[[139.48827684557344,35.475897403500994],[139.48687946988764,35.476585724345256]],[[139.48687946988764,35.476585724345256],[139.4887053741171,35.4802269416114]],[[139.49077349013209,35.47722586273042],[139.4905964892119,35.47577350574903]],[[139.4806844376805,35.448756912611806],[139.482705974506,35.45205396945581]],[[139.482705974506,35.45205396945581],[139.48378195378407,35.45630779227334]],[[139.48378195378407,35.45630779227334],[139.48591062274545,35.456500522109735]],[[139.48591062274545,35.456500522109735],[139.48599912320557,35.45402945027884],[139.48438282532896,35.450305634511395]],[[139.48438282532896,35.450305634511395],[139.4840474551644,35.448068591767544]],[[139.4840474551644,35.448068591767544],[139.4806844376805,35.448756912611806]],[[139.4901819344251,35.470549150541096],[139.48859358406222,35.472559047406335]],[[139.48859358406222,35.472559047406335],[139.48827684557344,35.475897403500994]],[[139.4905964892119,35.47577350574903],[139.49180289022064,35.47259346344855]],[[139.48668383729162,35.442961251103135],[139.48783900119187,35.44753170150902]],[[139.48783900119187,35.44753170150902],[139.48783434327294,35.448281971229264]],[[139.49251555182042,35.44900470811574],[139.49364276820697,35.44535660764116],[139.49327945052866,35.443264112274605]],[[139.49327945052866,35.443264112274605],[139.49014467107347,35.4436495719474],[139.48668383729162,35.442961251103135]],[[139.49977258954874,35.44581778260682],[139.49898540124573,35.449094189825495]],[[139.49898540124573,35.449094189825495],[139.4988503215961,35.44970679537688]],[[139.4988503215961,35.44970679537688],[139.5030377907346,35.450704860601064]],[[139.5030377907346,35.450704860601064],[139.50334521338547,35.44994082446394]],[[139.5043094026087,35.44740780375705],[139.50207825943033,35.44709805937714],[139.49977258954874,35.44581778260682]],[[139.50436529763613,35.45972874686932],[139.50436529763613,35.45972874686932]],[[139.48459708960078,35.47056291695798],[139.4805866213825,35.4703082382456]],[[139.4805866213825,35.4703082382456],[139.48073101687004,35.474630893147555]],[[139.48073101687004,35.474630893147555],[139.48070306935634,35.47623468071468]],[[139.48070306935634,35.47623468071468],[139.4820957871232,35.47666143963813]],[[139.4820957871232,35.47666143963813],[139.48243115728778,35.474940637527475],[139.4842011664898,35.4718913761874]],[[139.4842011664898,35.4718913761874],[139.48459708960078,35.47056291695798]],[[139.48840260938516,35.454428676368515],[139.48875661122557,35.45753988658457]],[[139.48875661122557,35.45753988658457],[139.4898093009089,35.459226272653005]],[[139.4898093009089,35.459226272653005],[139.4946442207818,35.45853795180875],[139.49580870051997,35.45985952782973]],[[139.49580870051997,35.45985952782973],[139.49581801635787,35.456128828853835],[139.49464887870076,35.45418776407302]],[[139.48777379032654,35.46628844451512],[139.48565443720307,35.46606818184496]],[[139.48565443720307,35.46606818184496],[139.48461106335765,35.47051473449888]],[[139.48461106335765,35.47051473449888],[139.48652546804723,35.470549150541096]],[[139.50016385474078,35.45679650007277],[139.49733649793646,35.45468335508089]],[[139.49733649793646,35.45468335508089],[139.4946069574302,35.454118931988596]],[[139.49580870051997,35.45985952782973],[139.4967635739053,35.46089200909612]],[[139.4967635739053,35.46089200909612],[139.49783023734545,35.459226272653005],[139.50061567287918,35.456810266489654]],[[139.48762007900112,35.49780665597381],[139.48431761446363,35.49794432014266],[139.48424774567934,35.500573705767735],[139.48723812964698,35.5030723104324]],[[139.48723812964698,35.5030723104324],[139.48839329354726,35.50280386530314],[139.4874523939188,35.498935502158396],[139.49012138147873,35.49897680140905],[139.48985122217945,35.49774470709782],[139.48762007900112,35.49780665597381]],[[139.4806844376805,35.448756912611806],[139.47870016420666,35.449810043503525],[139.47830424109569,35.45131058294401],[139.47566785896845,35.45482101924974]],[[139.48055867386879,35.458641199935386],[139.48006027654085,35.45645922285908],[139.4807729381406,35.452907487302696],[139.482705974506,35.45205396945581]],[[139.4988503215961,35.44970679537688],[139.49733649793646,35.45468335508089]],[[139.50112804396397,35.45351320964565],[139.5030377907346,35.450704860601064]],[[139.48208647128527,35.47667520605501],[139.4827246061818,35.48189956126295]],[[139.4827246061818,35.48189956126295],[139.48446200995116,35.48266359740008]],[[139.48445269411326,35.48264294777475],[139.48459708960078,35.47988278118927],[139.4857802010148,35.47772833694673]],[[139.4857802010148,35.47772833694673],[139.48531440911952,35.47767327127919]],[[139.48531440911952,35.47767327127919],[139.48208647128527,35.47667520605501]],[[139.48266405323542,35.46010044012522],[139.48199797082518,35.465668955755284]],[[139.48199797082518,35.465668955755284],[139.48565443720307,35.46606818184496]],[[139.48836534603353,35.46631597734889],[139.48625996666692,35.46266099366587]],[[139.48625996666692,35.46266099366587],[139.48615749244996,35.462571511956114]],[[139.48615749244996,35.462571511956114],[139.48266405323542,35.46010044012522]],[[139.4898093009089,35.459226272653005],[139.49013069731663,35.4616973444839]],[[139.49013069731663,35.4616973444839],[139.49105296526926,35.46149773143907],[139.49138833543387,35.46361775963939],[139.4929301066072,35.466426108683976]],[[139.49667507344518,35.46107097251563],[139.4967635739053,35.46089200909612]],[[139.47603117664676,35.46996407782347],[139.4804794892466,35.47025317257806]],[[139.4804794892466,35.47025317257806],[139.47991122313437,35.46549687554422]],[[139.47991122313437,35.46549687554422],[139.4798879335396,35.465489992335776]],[[139.4798879335396,35.465489992335776],[139.47617557213428,35.46524908004029]],[[139.50777955222847,35.45685844894875],[139.5069271530601,35.45254956046368]],[[139.48636709880282,35.47284125895248],[139.4842011664898,35.4718913761874]],[[139.4820957871232,35.47666143963813],[139.48208647128527,35.47667520605501]],[[139.48531440911952,35.47767327127919],[139.48541688333648,35.4743142655592],[139.48636709880282,35.47284125895248]],[[139.48461106335765,35.47051473449888],[139.48459708960078,35.47056291695798]],[[139.48636709880282,35.47284125895248],[139.48859358406222,35.472559047406335]],[[139.48078225397853,35.45877886410424],[139.48266405323542,35.46010044012522]],[[139.48615749244996,35.462571511956114],[139.48378195378407,35.45630779227334]],[[139.47089814996087,35.49020759385317],[139.47067456985113,35.49240333734637],[139.46867166470147,35.494709212174634],[139.46633804730615,35.49532181772603],[139.46481956572757,35.49726976571529],[139.46724168358298,35.50075266918724]],[[139.46724168358298,35.50075266918724],[139.47109844047583,35.49848809360962],[139.47539304175024,35.49823341489725]],[[139.49335863515086,35.44923185399435],[139.49898540124573,35.449094189825495]],[[139.4753650942365,35.48059175165886],[139.4753744100744,35.47997226289902]],[[139.4753744100744,35.47997226289902],[139.47043701598454,35.4796625185191]],[[139.47043701598454,35.4796625185191],[139.47081430741972,35.481761897094096],[139.46967777519524,35.484735443141304]],[[139.46967777519524,35.484735443141304],[139.47203002426636,35.48474920955819],[139.473841954739,35.48587117253433]],[[139.473841954739,35.48587117253433],[139.47508561909936,35.48289074327868],[139.4753650942365,35.48059175165886]],[[139.48625996666692,35.46266099366587],[139.49013069731663,35.4616973444839]],[[139.48875661122557,35.45753988658457],[139.48611557117937,35.45762248508588],[139.48591062274545,35.456500522109735]],[[139.50721128611622,35.442775404475185],[139.50242294543284,35.441722273583466],[139.50096035888168,35.442093966839366]],[[139.5043094026087,35.44740780375705],[139.50532948685932,35.4450881625119],[139.50721128611622,35.442775404475185]],[[139.48438282532896,35.450305634511395],[139.48783900119187,35.44753170150902]],[[139.48668383729162,35.442961251103135],[139.48452722081652,35.442892419018705],[139.4840474551644,35.448068591767544]],[[139.4805866213825,35.4703082382456],[139.4804794892466,35.47025317257806]],[[139.4745685900956,35.46988147932216],[139.47196015548207,35.47201527393937]],[[139.47196015548207,35.47201527393937],[139.4773959468999,35.47397698834551]],[[139.4773959468999,35.47397698834551],[139.48073101687004,35.474630893147555]],[[139.4827246061818,35.48189956126295],[139.48056333178775,35.481947743722046]],[[139.48056333178775,35.481947743722046],[139.48051675259822,35.484081538339254]],[[139.50919090167113,35.438315085404376],[139.50730444449528,35.439925756179946],[139.50721128611622,35.442775404475185]],[[139.50940516594295,35.44836456973058],[139.51131957063254,35.443732170448705],[139.51076062035818,35.44201136833805],[139.50918624375217,35.4410821351983],[139.51139409733577,35.43980874163642],[139.51039730267988,35.437847027230276],[139.50919090167113,35.438315085404376]],[[139.50919090167113,35.438315085404376],[139.50511988050647,35.43704857505094],[139.50412774376954,35.435121276687006],[139.50116064939664,35.43578894790594]],[[139.47196015548207,35.47201527393937],[139.4701249354147,35.47801743170132],[139.47043701598454,35.4796625185191]],[[139.4753744100744,35.47997226289902],[139.4757889648612,35.47666143963813],[139.4773959468999,35.47397698834551]],[[139.48762007900112,35.49780665597381],[139.48783434327294,35.49724223288152]],[[139.47544893677767,35.49826783093946],[139.4788911388837,35.50217061012642]],[[139.4788911388837,35.50217061012642],[139.48297613380524,35.50369868240068],[139.48594322817814,35.50375374806822],[139.48723812964698,35.5030723104324]],[[139.47864426917923,35.46126370235202],[139.47881195426152,35.46404451856283],[139.4798879335396,35.465489992335776]],[[139.47991122313437,35.46549687554422],[139.48199797082518,35.465668955755284]],[[139.46967777519524,35.484735443141304],[139.46943090549075,35.48596753745253],[139.47094938706934,35.489106280502355]],[[139.47620817756695,35.485327399067366],[139.473841954739,35.48587117253433]],[[139.4753650942365,35.48059175165886],[139.47913800858822,35.480116810276314],[139.48058196346355,35.480887729621884]],[[139.48058196346355,35.480887729621884],[139.48070306935634,35.47623468071468]],[[139.5024741825413,35.46947537002405],[139.50550182986058,35.4664467583093],[139.50473327323337,35.46346632905365],[139.50493356374835,35.46122240310137],[139.50599556926957,35.459632381951124]],[[139.50362934644158,35.45833145555547],[139.50337781881814,35.45813184251063]],[[139.48058196346355,35.480887729621884],[139.48056333178775,35.481947743722046]],[[139.46724168358298,35.50075266918724],[139.46770747547825,35.50235645675437],[139.47157820612796,35.50192969783093],[139.47311531938234,35.50123449377823],[139.47697673419415,35.50139280757241],[139.4788911388837,35.50217061012642]],[[139.4857802010148,35.47772833694673],[139.48687946988764,35.476585724345256]],[[139.47312463522024,35.460189921834974],[139.47196481340103,35.463005154087995],[139.47223031478134,35.46436802935963]],[[139.48667917937266,35.47981394910484],[139.48667917937266,35.47981394910484]]]}