{"type":"Topology","bbox":[139.46811794974747,35.52760609163019,139.56788378198004,35.59291031763418],"objects":{"town":{"type":"GeometryCollection","geometries":[{"type":"Polygon","arcs":[[0,1,2,3,4,5,6,7,8,9]],"properties":{"name":"元石川町"}},{"type":"MultiPolygon","arcs":[[[28,29,30,26,22,51,49,50,-9,-8,112,113]]],"properties":{"name":"美しが丘"}},{"type":"MultiPolygon","arcs":[[[18,13,14,15,16,19,20,21]]],"properties":{"name":"桂台"}},{"type":"MultiPolygon","arcs":[[[43,-42,44,45,-54,145,61,33,198,-134,-194,31,59,48]]],"properties":{"name":"荏田西"}},{"type":"MultiPolygon","arcs":[[[36,82]],[[165]]],"properties":{"name":"荏田町"}},{"type":"MultiPolygon","arcs":[[[53,-46,-45,41,42,37,38,54,55,56,57,58]]],"properties":{"name":"荏田北"}},{"type":"MultiPolygon","arcs":[[[95,-73,63,64,65,66,96]]],"properties":{"name":"青葉台"}},{"type":"Polygon","arcs":[[-21,67,68,69,70,71,-64,72]],"properties":{"name":"桜台"}},{"type":"MultiPolygon","arcs":[[[135,136,78,79,80,81,73,74,75,76,137]]],"properties":{"name":"奈良町"}},{"type":"Polygon","arcs":[[83,84]],"properties":{"name":"成合町"}},{"type":"Polygon","arcs":[[-65,-72,85,86,87,88]],"properties":{"name":"もえぎ野"}},{"type":"MultiPolygon","arcs":[[[227,190,191,-122,-153,92,93,94,89,-223]]],"properties":{"name":"すすき野"}},{"type":"Polygon","arcs":[[97,98,99,-97,-67,100]],"properties":{"name":"榎が丘"}},{"type":"MultiPolygon","arcs":[[[-121,164,102,103,104,-70,-69]]],"properties":{"name":"たちばな台"}},{"type":"Polygon","arcs":[[105,106,-98,107]],"properties":{"name":"田奈町"}},{"type":"MultiPolygon","arcs":[[[-175,-89,-88,109,110,111,-116,-179]]],"properties":{"name":"藤が丘"}},{"type":"Polygon","arcs":[[114,115,-112,116,117]],"properties":{"name":"千草台"}},{"type":"Polygon","arcs":[[118,119,120,-68,-20,-17]],"properties":{"name":"若草台"}},{"type":"MultiPolygon","arcs":[[[-3,154,-93,152,121,122,-5,-4]]],"properties":{"name":"荏子田"}},{"type":"Polygon","arcs":[[125,126,-95,127]],"properties":{"name":"黒須田"}},{"type":"MultiPolygon","arcs":[[[-6,-123,-192,225,128,212,-113,-7]]],"properties":{"name":"美しが丘西"}},{"type":"MultiPolygon","arcs":[[[-49,-60,-32,193,133,134,131,-183,-182,-172,199,200,201,202,-43,-44]]],"properties":{"name":"市ケ尾町"}},{"type":"MultiPolygon","arcs":[[[-207,213,-1,-10,-51,-50,203,187,-168,188,-196]]],"properties":{"name":"あざみ野"}},{"type":"Polygon","arcs":[[140]],"properties":{"name":"寺家町"}},{"type":"MultiPolygon","arcs":[[[141,142,143,204]]],"properties":{"name":"あかね台"}},{"type":"MultiPolygon","arcs":[[[-75,224,231,230,159,146,-138,-77,-76]]],"properties":{"name":"奈良"}},{"type":"Polygon","arcs":[[-108,-101,149,150,151]],"properties":{"name":"しらとり台"}},{"type":"MultiPolygon","arcs":[[[-119,-16,155,-81,156,-84,157]]],"properties":{"name":"鴨志田町"}},{"type":"MultiPolygon","arcs":[[[207,-188,-204,-52,-23,-27,-31,-30,163,210]]],"properties":{"name":"新石川"}},{"type":"MultiPolygon","arcs":[[[-39,194,195,-189,167,-208,228,-58,-57,-56,-55]]],"properties":{"name":"あざみ野南"}},{"type":"Polygon","arcs":[[-87,169,170,171,172,-110]],"properties":{"name":"柿の木台"}},{"type":"Polygon","arcs":[[-82,-156,-15,173]],"properties":{"name":"すみよし台"}},{"type":"Polygon","arcs":[[-150,-66,174,175,176]],"properties":{"name":"つつじが丘"}},{"type":"Polygon","arcs":[[177,-176,178,-115,179]],"properties":{"name":"梅が丘"}},{"type":"Polygon","arcs":[[180,-117,-111,-173,181,182,-132]],"properties":{"name":"下谷本町"}},{"type":"Polygon","arcs":[[197,-19,-22,-96,-100]],"properties":{"name":"松風台"}},{"type":"Polygon","arcs":[[205,206,-195,-38,-203]],"properties":{"name":"みすずが丘"}},{"type":"Polygon","arcs":[[-151,-177,-178,215]],"properties":{"name":"さつきが丘"}},{"type":"Polygon","arcs":[[-79,-137,216]],"properties":{"name":"緑山"}},{"type":"Polygon","arcs":[[-201,217,218,219,-126,220]],"properties":{"name":"鉄町"}},{"type":"Polygon","arcs":[[221,222,-90,-127,-220]],"properties":{"name":"もみの木台"}},{"type":"Polygon","arcs":[[-71,-105,226,-170,-86]],"properties":{"name":"みたけ台"}},{"type":"Polygon","arcs":[[-200,-171,-227,-104,229,-218]],"properties":{"name":"上谷本町"}},{"type":"Polygon","arcs":[[-221,-128,-94,-155,-2,-214,-206,-202]],"properties":{"name":"大場町"}},{"type":"Polygon","arcs":[[232,-142,-205,-144,233,-232,-225,-74,-174,-14,-198,-99,-107]],"properties":{"name":"恩田町"}}]}},"arcs":[[[139.53875922309547,35.57187372277881],[139.53872929035253,35.57187372277881]],[[139.53872929035253,35.57187372277881],[139.5372326532053,35.57242233313828]],[[139.5372326532053,35.57242233313828],[139.53599543316363,35.57411388174664],[139.53780137532127,35.57783006382448],[139.53935787795436,35.578574606455184]],[[139.53935787795436,35.578574606455184],[139.54412716166343,35.57824152159408],[139.54600294688794,35.57732063991926],[139.54614263302167,35.5789991263762],[139.5445162873217,35.58028574829067],[139.5410939770451,35.581376437933905]],[[139.5410939770451,35.581376437933905],[139.53539677830474,35.582245071003065]],[[139.53539677830474,35.582245071003065],[139.53808074758874,35.58445910566807],[139.53688343787098,35.58662089172741],[139.53776146499732,35.587580959856474]],[[139.53776146499732,35.587580959856474],[139.5398667345844,35.58782260965767],[139.5420618024003,35.587058473799836],[139.5437180808432,35.58836468894143]],[[139.5437180808432,35.58836468894143],[139.54491539056096,35.58692132120997]],[[139.54491539056096,35.58692132120997],[139.5429098967837,35.586829886150056],[139.54393758762478,35.583538223993244],[139.54738983064433,35.5804686184105],[139.54850731971425,35.57685040246828]],[[139.54850731971425,35.57685040246828],[139.54237110741073,35.575857678960666],[139.53875922309547,35.57187372277881]],[[139.54491539056096,35.58692132120997],[139.54790866485536,35.58428276662395],[139.55193960757182,35.58313982837505]],[[139.55193960757182,35.58313982837505],[139.55160036981846,35.581800957854924],[139.5538852358632,35.57847010924386]],[[139.5538852358632,35.57847010924386],[139.54850731971425,35.57685040246828]],[[139.49941762128597,35.545788606401175],[139.5007945274614,35.54764343190224],[139.4991382490185,35.55047138768379],[139.49684340539278,35.551098370951756]],[[139.49684340539278,35.551098370951756],[139.4973722171848,35.554762304423924]],[[139.4973722171848,35.554762304423924],[139.50055506551786,35.554259411594415]],[[139.50055506551786,35.554259411594415],[139.50479553743494,35.55341690282808]],[[139.50479553743494,35.55341690282808],[139.50334878819262,35.54962887891747],[139.50365809320306,35.546983793255734]],[[139.50365809320306,35.546983793255734],[139.49941762128597,35.545788606401175]],[[139.50479553743494,35.55341690282808],[139.5074894842999,35.55048444983521]],[[139.5074894842999,35.55048444983521],[139.50900607660907,35.548185511186006]],[[139.50900607660907,35.548185511186006],[139.50365809320306,35.546983793255734]],[[139.5579062009987,35.5771116454966],[139.5555415143061,35.575433159039655]],[[139.5555415143061,35.575433159039655],[139.55583086415456,35.57756228972045],[139.5538852358632,35.57847010924386]],[[139.55193960757182,35.58313982837505],[139.5526081054976,35.584374201683865]],[[139.5526081054976,35.584374201683865],[139.55605037093616,35.58315942160218],[139.558814160868,35.5784243917139],[139.56021102220538,35.57762760047753]],[[139.56021102220538,35.57762760047753],[139.5579062009987,35.5771116454966]],[[139.5526081054976,35.584374201683865],[139.55269790372643,35.58868471165112]],[[139.55269790372643,35.58868471165112],[139.55546169365826,35.587711581370634],[139.55735743404472,35.584883625589086],[139.56111898207467,35.58318554590501],[139.56275530535564,35.57993307020244],[139.56585833304084,35.577810470597356]],[[139.56585833304084,35.577810470597356],[139.56487055252367,35.577803939521644]],[[139.56487055252367,35.577803939521644],[139.56021102220538,35.57762760047753]],[[139.5467113551376,35.546951137877194],[139.54779891146458,35.547983047839054]],[[139.54779891146458,35.547983047839054],[139.54903613150626,35.549818280112994],[139.55217906951538,35.54820510441313]],[[139.55217906951538,35.54820510441313],[139.55217906951538,35.54619353309507]],[[139.55217906951538,35.54619353309507],[139.55015362057617,35.54581473070401],[139.5467113551376,35.546951137877194]],[[139.56556898319238,35.565904319581726],[139.563633332482,35.566328839502745]],[[139.563633332482,35.566328839502745],[139.56398254781632,35.56704072675491],[139.56700575485368,35.566472523168315],[139.56556898319238,35.565904319581726]],[[139.54086449268254,35.55858298371309],[139.54139330447455,35.56065333471252]],[[139.54139330447455,35.56065333471252],[139.54196202659048,35.560072068974506]],[[139.54196202659048,35.560072068974506],[139.54308949324138,35.558674418773]],[[139.54308949324138,35.558674418773],[139.54592312624007,35.55529785263198]],[[139.54592312624007,35.55529785263198],[139.54418702714932,35.55455984107698]],[[139.54418702714932,35.55455984107698],[139.54210171272422,35.55476883549964],[139.54064498590094,35.55616648570114],[139.54086449268254,35.55858298371309]],[[139.54438657876895,35.55410919685313],[139.54418702714932,35.55455984107698]],[[139.54592312624007,35.55529785263198],[139.5499241362136,35.55725064426866]],[[139.5499241362136,35.55725064426866],[139.55233871081109,35.55808662195928]],[[139.55233871081109,35.55808662195928],[139.54864700584798,35.55263970481884]],[[139.54864700584798,35.55263970481884],[139.54610272269775,35.5490867996337]],[[139.54610272269775,35.5490867996337],[139.54540429202905,35.54953091278185],[139.5450051887898,35.55369120800782],[139.54438657876895,35.55410919685313]],[[139.55476326298955,35.571109586920976],[139.55258815033562,35.57136429887359],[139.54983433798478,35.57405510206527]],[[139.54983433798478,35.57405510206527],[139.54850731971425,35.57685040246828]],[[139.5555415143061,35.575433159039655],[139.55476326298955,35.571109586920976]],[[139.54308949324138,35.558674418773],[139.55026337396697,35.55890953749849],[139.5499241362136,35.55725064426866]],[[139.5524285090399,35.558125808413536],[139.55233871081109,35.55808662195928]],[[139.54196202659048,35.560072068974506],[139.54589319349714,35.56060761718256]],[[139.54589319349714,35.56060761718256],[139.54584330559223,35.559908792081806],[139.5504729031676,35.56084926698376]],[[139.5504729031676,35.56084926698376],[139.55279767953624,35.56086232913517]],[[139.55279767953624,35.56086232913517],[139.55251830726877,35.558791978135744]],[[139.55251830726877,35.558791978135744],[139.5524285090399,35.558125808413536]],[[139.54779891146458,35.547983047839054],[139.54610272269775,35.5490867996337]],[[139.54864700584798,35.55263970481884],[139.55228882290618,35.55156207732702],[139.55515238864783,35.55177760282539]],[[139.55515238864783,35.55177760282539],[139.55217906951538,35.54820510441313]],[[139.51649923992605,35.54169362193228],[139.51702805171809,35.54747362393383],[139.5160502487819,35.54934151158631]],[[139.5160502487819,35.54934151158631],[139.5203805189278,35.55033423509393]],[[139.5203805189278,35.55033423509393],[139.51991157262168,35.54847287851715],[139.52072973426215,35.54732340919255],[139.51949251422047,35.54579513747689],[139.5216776044554,35.54306514783095]],[[139.5216776044554,35.54306514783095],[139.51655910541194,35.540746615954625]],[[139.51655910541194,35.540746615954625],[139.51649923992605,35.54169362193228]],[[139.5074894842999,35.55048444983521],[139.5104827585943,35.552162936292156],[139.51094172731945,35.55313606657264]],[[139.51094172731945,35.55313606657264],[139.51399486709974,35.553508337888]],[[139.51399486709974,35.553508337888],[139.51543163876104,35.55290747892286],[139.5179260340064,35.554246349443]],[[139.5179260340064,35.554246349443],[139.52207670769465,35.55120286816308]],[[139.52207670769465,35.55120286816308],[139.5203805189278,35.55033423509393]],[[139.5160502487819,35.54934151158631],[139.51329643643103,35.54842062991149],[139.50900607660907,35.548185511186006]],[[139.49107636358556,35.54938069804056],[139.4902582019451,35.54922395222357]],[[139.4902582019451,35.54922395222357],[139.49002871758253,35.55228702673061],[139.488711676893,35.554024292868924]],[[139.488711676893,35.554024292868924],[139.48734474829854,35.555552564584595],[139.48622725922863,35.55836092713902]],[[139.48622725922863,35.55836092713902],[139.48348342445874,35.56002635144455],[139.48199676489253,35.561985674156944],[139.48070965694595,35.56174402435575]],[[139.48070965694595,35.56174402435575],[139.4825056215226,35.56389274826367]],[[139.4825056215226,35.56389274826367],[139.48315416428636,35.56656395822823],[139.48580820082742,35.56773955185567]],[[139.48580820082742,35.56773955185567],[139.48733477071755,35.566936229543586],[139.48904093706537,35.56369681599243],[139.4888214302838,35.56222079288243],[139.49107636358556,35.56131297335902],[139.49356078124993,35.56322657854145]],[[139.49356078124993,35.56322657854145],[139.49679351748787,35.56210976459539],[139.49767154461424,35.55983041917331],[139.495666050837,35.55737473470712]],[[139.495666050837,35.55737473470712],[139.49296212639103,35.557760068173884],[139.49111627390948,35.55518029326924],[139.49033802259294,35.552554800834635],[139.49107636358556,35.54938069804056]],[[139.56556898319238,35.565904319581726],[139.563633332482,35.566328839502745]],[[139.50935529194342,35.564493607228805],[139.50928544887654,35.56459810444013]],[[139.50928544887654,35.56459810444013],[139.50935529194342,35.564493607228805]],[[139.52207670769465,35.55120286816308],[139.52325406225043,35.55211068768649]],[[139.52325406225043,35.55211068768649],[139.5253194215136,35.549948901627154],[139.5262772692878,35.54645477612339]],[[139.5262772692878,35.54645477612339],[139.5269058568896,35.54558614305423]],[[139.5269058568896,35.54558614305423],[139.5216776044554,35.54306514783095]],[[139.53016852587052,35.571893316005934],[139.52940025213496,35.573401994494475]],[[139.52940025213496,35.573401994494475],[139.52731493770986,35.57726186023788]],[[139.52731493770986,35.57726186023788],[139.53027827926132,35.57668059449988],[139.5322737954576,35.57730757776784]],[[139.5322737954576,35.57730757776784],[139.53291236064038,35.5739179494754]],[[139.53291236064038,35.5739179494754],[139.5330620243551,35.572853384135]],[[139.5330620243551,35.572853384135],[139.53016852587052,35.571893316005934]],[[139.51335630191693,35.543287204405026],[139.51221885768507,35.54610862911087],[139.50900607660907,35.548185511186006]],[[139.51649923992605,35.54169362193228],[139.51400484468073,35.54162178009949],[139.51335630191693,35.543287204405026]],[[139.51144060636852,35.537520264554885],[139.507429618814,35.54017841236803],[139.50451616516744,35.54070089842467],[139.5017523752356,35.54239897810874]],[[139.5017523752356,35.54239897810874],[139.5017623528166,35.54242510241157]],[[139.5017623528166,35.54242510241157],[139.5027800660767,35.543581102811885],[139.50573343004717,35.54373131755317],[139.51062244472803,35.54286268448401],[139.51335630191693,35.543287204405026]],[[139.51655910541194,35.540746615954625],[139.51144060636852,35.537520264554885]],[[139.51399486709974,35.553508337888],[139.512787579801,35.55969979765915]],[[139.512787579801,35.55969979765915],[139.51478309599727,35.56008513112592],[139.5167387018696,35.559236091283886]],[[139.5167387018696,35.559236091283886],[139.5167486794506,35.55896831717986]],[[139.5167486794506,35.55896831717986],[139.51662894847883,35.55684571757477],[139.5179260340064,35.554246349443]],[[139.50834755626428,35.53497314502878],[139.50095416875712,35.53464659124338],[139.49844979593078,35.536684286864265]],[[139.49844979593078,35.536684286864265],[139.4992978903142,35.53998248009679],[139.5017523752356,35.54239897810874]],[[139.51144060636852,35.537520264554885],[139.50834755626428,35.53497314502878]],[[139.53127603735945,35.54230101197312],[139.52821291999817,35.543019430301],[139.5269058568896,35.54558614305423]],[[139.5262772692878,35.54645477612339],[139.5325232349821,35.55108530880034]],[[139.5325232349821,35.55108530880034],[139.53341123968946,35.54999461915711],[139.53487794409372,35.54571676456839],[139.53685350512802,35.54232713627595]],[[139.53685350512802,35.54232713627595],[139.53127603735945,35.54230101197312]],[[139.5437180808432,35.58836468894143],[139.54520474040942,35.58982111882431]],[[139.54520474040942,35.58982111882431],[139.5457634849444,35.59020645229108],[139.54988422588968,35.58833203356289],[139.55269790372643,35.58868471165112]],[[139.53139576833124,35.535084173315816],[139.52885148518098,35.53756598208484]],[[139.52885148518098,35.53756598208484],[139.53127603735945,35.54230101197312]],[[139.53685350512802,35.54232713627595],[139.53653422253663,35.54027637850365],[139.53744218240593,35.539126909179046],[139.53854969389485,35.5351560151486]],[[139.53854969389485,35.5351560151486],[139.5343591098827,35.53615526973192],[139.53374049986184,35.536801846227014],[139.53139576833124,35.535084173315816]],[[139.50055506551786,35.554259411594415],[139.5024009179994,35.55450106139561],[139.50359822771716,35.5562971072153],[139.50541414745578,35.55634282474526]],[[139.50541414745578,35.55634282474526],[139.50714026896554,35.55726370642008],[139.5080781615778,35.55595096020278]],[[139.5080781615778,35.55595096020278],[139.51094172731945,35.55313606657264]],[[139.5322737954576,35.57732717099496],[139.53090686686315,35.58216669809457]],[[139.53090686686315,35.58216669809457],[139.5342493564919,35.58334882279771],[139.53539677830474,35.582245071003065]],[[139.5410939770451,35.581376437933905],[139.53838007501818,35.57856807537948]],[[139.53838007501818,35.57856807537948],[139.5322737954576,35.57732717099496]],[[139.5295299606877,35.56342251081269],[139.52879161969508,35.566407212411235],[139.53026830168034,35.57034545106314]],[[139.53026830168034,35.57034545106314],[139.53016852587052,35.571893316005934]],[[139.5330620243551,35.572853384135],[139.53498769748452,35.56833387974509],[139.53176493882754,35.56735421838889],[139.5315653872079,35.565865133127474],[139.53346112759436,35.56367722276531],[139.5295299606877,35.56342251081269]],[[139.5263870226786,35.58747646264515],[139.52821291999817,35.58787485826333],[139.52603780734424,35.59196331165652],[139.52629722444976,35.59291031763418],[139.52861202323743,35.592315989744755],[139.53064744975762,35.592727447514356],[139.5363845588219,35.5912122379501],[139.53791112871204,35.59204168456502]],[[139.53791112871204,35.59204168456502],[139.5387891558384,35.590415446713735],[139.53698321368077,35.58785526503621]],[[139.53698321368077,35.58785526503621],[139.53336135178455,35.588057728383156],[139.52796348047363,35.58704541164842],[139.5263870226786,35.58747646264515]],[[139.54137334931258,35.5363054844732],[139.54005630862304,35.53896363228635],[139.54071482896782,35.54405134026286]],[[139.54071482896782,35.54405134026286],[139.54283007613586,35.5446587303037],[139.54573355220143,35.54423421038268]],[[139.54573355220143,35.54423421038268],[139.54790866485536,35.544090526717106],[139.55124117690315,35.54269940759131]],[[139.55124117690315,35.54269940759131],[139.55168019046633,35.53953183587294],[139.54851729729523,35.5396624573871],[139.5461725657646,35.537520264554885],[139.54541426961003,35.537912129097364],[139.54137334931258,35.5363054844732]],[[139.47790595669017,35.560496588895525],[139.47635943163806,35.56271715463623],[139.47520203224423,35.560072068974506],[139.47037288304927,35.56028759447287],[139.46940505769405,35.56237100762371],[139.46821772555728,35.56280858969615],[139.46956469898976,35.56540142675221],[139.46897602171185,35.566426805638365],[139.46953476624682,35.56970540564376],[139.47346593315348,35.56950947337252],[139.4757507991982,35.57144920285779],[139.47843476848217,35.571272863813675]],[[139.47843476848217,35.571272863813675],[139.47798577733803,35.5710508072396],[139.48096907405144,35.56735421838889],[139.48050012774533,35.56613943830721],[139.4825056215226,35.56389274826367]],[[139.48070965694595,35.56174402435575],[139.47790595669017,35.560496588895525]],[[139.5439774979487,35.569894806839294],[139.53875922309547,35.57187372277881]],[[139.54983433798478,35.57405510206527],[139.54482559233213,35.57255295465244],[139.5439774979487,35.569894806839294]],[[139.5089761438661,35.573911418399696],[139.5089761438661,35.573911418399696]],[[139.4888214302838,35.539042005194844],[139.4869855553832,35.53985185858264],[139.4861973264857,35.538878728302144],[139.4838326397931,35.539107315951924]],[[139.4838326397931,35.539107315951924],[139.48140808761462,35.54025025420082],[139.48098902921342,35.54177199484078]],[[139.48098902921342,35.54177199484078],[139.48509979257773,35.54417543070131]],[[139.48509979257773,35.54417543070131],[139.4888214302838,35.539042005194844]],[[139.5524285090399,35.558125808413536],[139.55434420458835,35.556551819167915],[139.55515238864783,35.55177760282539]],[[139.47968196610486,35.5590793454669],[139.47790595669017,35.560496588895525]],[[139.48622725922863,35.55836092713902],[139.48350337962071,35.557420452237075]],[[139.48350337962071,35.557420452237075],[139.4835233347827,35.55886381996853],[139.47968196610486,35.5590793454669]],[[139.51655910541194,35.540746615954625],[139.51762670657695,35.53544991355546],[139.51746706528124,35.53407838765679]],[[139.51746706528124,35.53407838765679],[139.5173373567285,35.53051895139595]],[[139.5173373567285,35.53051895139595],[139.51277760222,35.52992462350652],[139.51141067362556,35.53089775378701],[139.50834755626428,35.53497314502878]],[[139.5322737954576,35.57730757776784],[139.5322737954576,35.57732717099496]],[[139.53838007501818,35.57856807537948],[139.53935787795436,35.578574606455184]],[[139.5372326532053,35.57242233313828],[139.53291236064038,35.5739179494754]],[[139.4973722171848,35.554762304423924],[139.49579575938975,35.555565626736005],[139.495666050837,35.55737473470712]],[[139.49356078124993,35.56322657854145],[139.49513723904496,35.56498996898261],[139.4969431812026,35.56405602515637],[139.50048522245098,35.564905064998406],[139.50423679289997,35.56692316739217],[139.50786863237718,35.56607412755013],[139.50928544887654,35.56459810444013]],[[139.50935529194342,35.564493607228805],[139.50814800464465,35.56378171997663],[139.50863690611274,35.56212935782252],[139.50564363181834,35.561201945071986],[139.506362017649,35.55968673550774],[139.50380775691778,35.55954958291787],[139.5037977793368,35.55780578570384],[139.50541414745578,35.55634282474526]],[[139.50268029026688,35.55889647534707],[139.50268029026688,35.55889647534707]],[[139.4823958681318,35.5490867996337],[139.48164754955818,35.55177760282539],[139.48166750472015,35.556075050641226],[139.47968196610486,35.5590793454669]],[[139.48350337962071,35.557420452237075],[139.48390248285997,35.553554055417955]],[[139.48390248285997,35.553554055417955],[139.4823958681318,35.5490867996337]],[[139.56209678501085,35.567896297672654],[139.56402245814027,35.5721937454885],[139.56487055252367,35.577803939521644]],[[139.56585833304084,35.577810470597356],[139.5673250374451,35.574747396090316],[139.56788378198004,35.571730039113234],[139.56577851239297,35.56922210604137],[139.56209678501085,35.567896297672654]],[[139.5080781615778,35.55595096020278],[139.51078208602374,35.55791028291517],[139.50948500049617,35.55912506299685],[139.512787579801,35.55969979765915]],[[139.55625990013675,35.55821071239774],[139.55483310605644,35.55898137933128],[139.55804588713244,35.560659865788224],[139.56387279442555,35.55881157136287],[139.5626156192219,35.5553958187676],[139.55738736678765,35.5571134916788],[139.55625990013675,35.55821071239774]],[[139.5504729031676,35.56084926698376],[139.54937536925962,35.56374906459809],[139.55128108722707,35.564872409619866]],[[139.55128108722707,35.564872409619866],[139.55363579633865,35.565375302449375]],[[139.55363579633865,35.565375302449375],[139.55279767953624,35.56086232913517]],[[139.52325406225043,35.55211068768649],[139.52555888345714,35.55520641757207]],[[139.52555888345714,35.55520641757207],[139.5295399382687,35.55475577334822],[139.53180484915146,35.55288788569574]],[[139.53180484915146,35.55288788569574],[139.53230372820053,35.55150982872136]],[[139.53230372820053,35.55150982872136],[139.5325232349821,35.55108530880034]],[[139.49684340539278,35.551098370951756],[139.49632457118176,35.55056935381941],[139.49107636358556,35.54938069804056]],[[139.5216776044554,35.54306514783095],[139.52246583335292,35.54156300041812],[139.5214980079977,35.5397408302956],[139.5225855643247,35.53905506734626]],[[139.5225855643247,35.53905506734626],[139.52139823218792,35.53592015100644]],[[139.52139823218792,35.53592015100644],[139.51972199858304,35.53456168725918],[139.51746706528124,35.53407838765679]],[[139.52362323274676,35.531740262553335],[139.52139823218792,35.53592015100644]],[[139.5225855643247,35.53905506734626],[139.52613758315405,35.5378598804917],[139.52885148518098,35.53756598208484]],[[139.53139576833124,35.535084173315816],[139.5288415076,35.5335167151459],[139.52666639494606,35.53320322351192],[139.52362323274676,35.531740262553335]],[[139.54137334931258,35.5363054844732],[139.53854969389485,35.5351560151486]],[[139.53230372820053,35.55150982872136],[139.53615507445934,35.5520388458537],[139.53853971631386,35.54848594066857]],[[139.53853971631386,35.54848594066857],[139.53987671216538,35.547166663375556],[139.54071482896782,35.54405134026286]],[[139.488711676893,35.554024292868924],[139.4856585371127,35.55361283509932]],[[139.4856585371127,35.55361283509932],[139.48390248285997,35.553554055417955]],[[139.5455340005818,35.564865878544154],[139.54321920179413,35.568536343092035],[139.5439774979487,35.569894806839294]],[[139.5439774979487,35.569894806839294],[139.5461127002787,35.56905229807297],[139.55277772437427,35.56815754070097],[139.55432424942637,35.56887595902885]],[[139.55432424942637,35.56887595902885],[139.55363579633865,35.565375302449375]],[[139.55128108722707,35.564872409619866],[139.5494951002314,35.5644087032446],[139.5455340005818,35.564865878544154]],[[139.52731493770986,35.57726186023788],[139.52688590172764,35.57890769131629]],[[139.52688590172764,35.57890769131629],[139.52695574479452,35.581049884148506],[139.52918074535336,35.58225160207877],[139.52898119373373,35.58392355746001]],[[139.52898119373373,35.58392355746001],[139.53090686686315,35.58216669809457]],[[139.53853971631386,35.54848594066857],[139.54438657876895,35.55410919685313]],[[139.5467113551376,35.546951137877194],[139.54712043595785,35.54469138568224],[139.54573355220143,35.54423421038268]],[[139.54139330447455,35.56065333471252],[139.54193209384755,35.56234488332088]],[[139.54193209384755,35.56234488332088],[139.54477570442722,35.564963844679774],[139.5455340005818,35.564865878544154]],[[139.5455340005818,35.564865878544154],[139.54637211738424,35.56378171997663],[139.54589319349714,35.56060761718256]],[[139.5017623528166,35.54242510241157],[139.50017591744057,35.54382928368879],[139.49941762128597,35.545788606401175]],[[139.55217906951538,35.54619353309507],[139.55246841936386,35.543875001218744],[139.55124117690315,35.54269940759131]],[[139.53180484915146,35.55288788569574],[139.52919072293435,35.55706777414884]],[[139.52919072293435,35.55706777414884],[139.5300188621558,35.56009166220163]],[[139.5300188621558,35.56009166220163],[139.5314656113981,35.55899444148269],[139.52967962440243,35.557831910006676],[139.5322239075527,35.5568718418776],[139.53332144146063,35.55835439606331],[139.53476819070292,35.557420452237075],[139.5392680797255,35.55888341319566],[139.5388390437433,35.559366712798045]],[[139.5388390437433,35.559366712798045],[139.54086449268254,35.55858298371309]],[[139.55476326298955,35.571109586920976],[139.55432424942637,35.56887595902885]],[[139.48509979257773,35.54417543070131],[139.48573835776054,35.545220402814586],[139.48945001788562,35.54523999604171],[139.49146548924384,35.54635680998777],[139.49177479425427,35.544808945044984],[139.4934210951162,35.54324801795078],[139.48961963676228,35.54094907930157],[139.49006862790645,35.53923793746608],[139.4888214302838,35.539042005194844]],[[139.5388390437433,35.559366712798045],[139.53960731747887,35.56229263471522],[139.53866942486664,35.56405602515637],[139.53999644313714,35.564722194878584]],[[139.53999644313714,35.564722194878584],[139.54193209384755,35.56234488332088]],[[139.55706808419626,35.56527080523805],[139.55363579633865,35.565375302449375]],[[139.55476326298955,35.571109586920976],[139.55775653728398,35.5704760725773],[139.56086954255014,35.568438376956415]],[[139.56086954255014,35.568438376956415],[139.56209678501085,35.567896297672654]],[[139.56209678501085,35.567896297672654],[139.56079969948328,35.56570838731049],[139.55866449715327,35.56480709886279],[139.55706808419626,35.56527080523805]],[[139.53776146499732,35.587580959856474],[139.53698321368077,35.58785526503621]],[[139.53791112871204,35.59204168456502],[139.54112390978804,35.59174778615816],[139.54267043484015,35.58997133356559],[139.54520474040942,35.58982111882431]],[[139.53999644313714,35.564722194878584],[139.53792110629303,35.568471032334955],[139.53872929035253,35.57187372277881]],[[139.5579062009987,35.5771116454966],[139.55885407119192,35.57668712557558],[139.5596622552514,35.57365670644708],[139.56176752483847,35.56999930405062],[139.56086954255014,35.568438376956415]],[[139.52362323274676,35.531740262553335],[139.5236431879087,35.5296633804782],[139.5221465507615,35.52760609163019],[139.51927300743887,35.53037526773037],[139.5173373567285,35.53051895139595]],[[139.47843476848217,35.571272863813675],[139.4815876840723,35.57182147417314],[139.4861873489047,35.56903923592155],[139.48580820082742,35.56773955185567]],[[139.52919072293435,35.55706777414884],[139.52614756073504,35.55864829447017],[139.52431168583448,35.55873972953008],[139.5211887029873,35.56038556060849],[139.5170080965561,35.56005900682309]],[[139.5170080965561,35.56005900682309],[139.5145037237298,35.561724431128624],[139.51313679513535,35.56371640921955],[139.5137454275752,35.567765676158494],[139.51651919508802,35.56921557496567],[139.5210689720155,35.57069159807567],[139.52287491417314,35.572239463018455]],[[139.52287491417314,35.572239463018455],[139.52650675365035,35.57054791441009],[139.53026830168034,35.57034545106314]],[[139.5295299606877,35.56342251081269],[139.5300188621558,35.56009166220163]],[[139.52287491417314,35.572239463018455],[139.52451123745408,35.573610988917125],[139.52319419676456,35.57498904589151],[139.52408220147188,35.57561602915948]],[[139.52408220147188,35.57561602915948],[139.52574845749578,35.573369339115935],[139.52721516190005,35.5726835761666],[139.52940025213496,35.573401994494475]],[[139.4866064073059,35.54855125142565],[139.4856585371127,35.55361283509932]],[[139.4902582019451,35.54922395222357],[139.4866064073059,35.54855125142565]],[[139.52898119373373,35.58392355746001],[139.52655664155526,35.58600043953515],[139.5263870226786,35.58747646264515]],[[139.5167486794506,35.55896831717986],[139.52126852363514,35.55889647534707],[139.52350350177497,35.55815846379207],[139.52302457788787,35.55739432793424],[139.52555888345714,35.55520641757207]],[[139.52408220147188,35.57561602915948],[139.52515978021788,35.576543441910005],[139.52463096842587,35.57890769131629],[139.52688590172764,35.57890769131629]],[[139.55706808419626,35.56527080523805],[139.55771662696003,35.563135143481546],[139.55251830726877,35.558791978135744]],[[139.5167387018696,35.559236091283886],[139.5170080965561,35.56005900682309]],[[139.48246571119864,35.547525872539495],[139.4823958681318,35.5490867996337]],[[139.4866064073059,35.54855125142565],[139.48246571119864,35.547525872539495]],[[139.49844979593078,35.536684286864265],[139.49542658889342,35.53863054742524],[139.49219385265548,35.53806887491436],[139.48771391879484,35.535737280886615],[139.4845809583667,35.5363838573817],[139.48518959080656,35.53690634343834],[139.4838326397931,35.539107315951924]],[[139.48098902921342,35.54177199484078],[139.4801908227349,35.54289533986255],[139.48073958968888,35.54603025620237],[139.48246571119864,35.547525872539495]]]}