{"type":"Topology","bbox":[139.54137311070792,35.510823896149915,139.61361381609134,35.57174909867995],"objects":{"town":{"type":"GeometryCollection","geometries":[{"type":"MultiPolygon","arcs":[[[126,1,2,3,4,5,6,127,128,129]]],"properties":{"name":"池辺町"}},{"type":"MultiPolygon","arcs":[[[139,66,67,-15,68,28,-20,10,11,12,7,140,141]]],"properties":{"name":"牛久保西"}},{"type":"Polygon","arcs":[[13,14,15,16,17,18]],"properties":{"name":"牛久保町"}},{"type":"MultiPolygon","arcs":[[[-52,21,22,23,-11,19,-29,-69,-14,-19,181,-53]]],"properties":{"name":"牛久保"}},{"type":"MultiPolygon","arcs":[[[-203,-16,-68,-67,-140,-142,-141,-59,-58,73,69,70,-139,-154,274,24,113]]],"properties":{"name":"中川"}},{"type":"MultiPolygon","arcs":[[[-60,-13,142,33,34,35,97,-45,30,31,143]]],"properties":{"name":"牛久保東"}},{"type":"Polygon","arcs":[[37,38,39,40,41,42,43,-31,44,45]],"properties":{"name":"大棚町"}},{"type":"MultiPolygon","arcs":[[[92,93,94,95,96,50,46,261,-151,-137,-71,262]]],"properties":{"name":"荏田東"}},{"type":"Polygon","arcs":[[51,52,53,54,55,-22]],"properties":{"name":"すみれが丘"}},{"type":"MultiPolygon","arcs":[[[220,-74,57,58,-8,59,60,221,-43]]],"properties":{"name":"中川中央"}},{"type":"MultiPolygon","arcs":[[[185,186,208,82,83,84,85,64,61,206,207,183,256,-134,-95,-94,257]]],"properties":{"name":"茅ケ崎南"}},{"type":"MultiPolygon","arcs":[[[-187,247,75,-42,-99,-40,216,110,111,107,-85,-84,-83,-209]]],"properties":{"name":"茅ケ崎東"}},{"type":"MultiPolygon","arcs":[[[267,78,79,-264,268,-155,-245,269]]],"properties":{"name":"川和町"}},{"type":"MultiPolygon","arcs":[[[249,250,104,105,-152,-262,-47,-51,-97,-133,233,86,-243]]],"properties":{"name":"荏田南"}},{"type":"Polygon","arcs":[[98,-41]],"properties":{"name":"茅ケ崎町"}},{"type":"MultiPolygon","arcs":[[[234,101,102,99,235,-38,-218,170,171,172]]],"properties":{"name":"早渕"}},{"type":"MultiPolygon","arcs":[[[210,273,-246,120,115,116,117,212,236,-180,237]]],"properties":{"name":"東山田"}},{"type":"MultiPolygon","arcs":[[[194,259,-65,-215,123,175,-146,-145,266,-253,197,198]]],"properties":{"name":"仲町台"}},{"type":"Polygon","arcs":[[130,131,132,-96,133,134,135]],"properties":{"name":"葛が谷"}},{"type":"Polygon","arcs":[[136,137,138]],"properties":{"name":"荏田東町"}},{"type":"Polygon","arcs":[[144,145,146,147,148,-103,149]],"properties":{"name":"新栄町"}},{"type":"Polygon","arcs":[[150,151,-106,152,153,-138]],"properties":{"name":"荏田南町"}},{"type":"Polygon","arcs":[[154,155,156,157]],"properties":{"name":"川和台"}},{"type":"MultiPolygon","arcs":[[[-23,-56,-55,178,179,-237,-213,-118,-117,168,166,162,158,177,-12,-24]]],"properties":{"name":"北山田"}},{"type":"MultiPolygon","arcs":[[[-86,-108,-112,189,-148,-147,-176,-124,214]]],"properties":{"name":"勝田南"}},{"type":"MultiPolygon","arcs":[[[-157,191,192,-3,193,243,244,-158]]],"properties":{"name":"加賀原"}},{"type":"MultiPolygon","arcs":[[[-163,-167,-169,-116,200,201,-219,-35,-34,-143,-178,-159]]],"properties":{"name":"南山田"}},{"type":"Polygon","arcs":[[-17,202,203]],"properties":{"name":"あゆみが丘"}},{"type":"Polygon","arcs":[[217,-46,-98,-36,218,-202,219,-171]],"properties":{"name":"南山田町"}},{"type":"Polygon","arcs":[[-6,222,-136,223,224,225]],"properties":{"name":"平台"}},{"type":"Polygon","arcs":[[226,-199,227,228,229]],"properties":{"name":"折本町"}},{"type":"Polygon","arcs":[[-129,230,-229,231,232]],"properties":{"name":"川向町"}},{"type":"Polygon","arcs":[[238,239,240,-131,-223,-5]],"properties":{"name":"高山"}},{"type":"Polygon","arcs":[[241,242,-87,-234,-132,-241]],"properties":{"name":"大丸"}},{"type":"Polygon","arcs":[[-172,-220,-201,-121,245,246]],"properties":{"name":"東山田町"}},{"type":"Polygon","arcs":[[-228,-198,252,253,-232]],"properties":{"name":"大熊町"}},{"type":"Polygon","arcs":[[-128,-7,-226,254,-230,-231]],"properties":{"name":"東方町"}},{"type":"Polygon","arcs":[[258,-239,-4,-193]],"properties":{"name":"二の丸"}},{"type":"Polygon","arcs":[[263,-80,264,-250,-242,265]],"properties":{"name":"見花山"}},{"type":"Polygon","arcs":[[-270,-244,-194,-2,-127,270]],"properties":{"name":"佐江戸町"}},{"type":"Polygon","arcs":[[-190,-111,-217,-39,-236,-100,-149]],"properties":{"name":"勝田町"}},{"type":"Polygon","arcs":[[-186,-258,-93,-263,-70,-221,-76,-248]],"properties":{"name":"茅ケ崎中央"}},{"type":"Polygon","arcs":[[-32,-44,-222,-61,-144]],"properties":{"name":"大棚西"}},{"type":"Polygon","arcs":[[-192,-156,-269,-266,-240,-259]],"properties":{"name":"富士見が丘"}},{"type":"Polygon","arcs":[[-135,-257,-184,-208,272,-224]],"properties":{"name":"長坂"}},{"type":"Polygon","arcs":[[-255,-225,-273,-207,-62,-260,-195,-227]],"properties":{"name":"桜並木"}}]}},"arcs":[[[139.58031474507303,35.51981735538927],[139.57534408747688,35.52232772477045],[139.57279373554167,35.5219255782191],[139.57004108940194,35.520554624066754],[139.56972319850917,35.521754970591246],[139.56435517729705,35.523400115574056],[139.56246228152642,35.52208399958781]],[[139.56246228152642,35.52208399958781],[139.56176147660372,35.522321631640885]],[[139.56176147660372,35.522321631640885],[139.56004197586552,35.524880746058585],[139.55921112466848,35.52787247267547]],[[139.55921112466848,35.52787247267547],[139.56054771137676,35.528640207000784],[139.5626645757309,35.53152835041505]],[[139.5626645757309,35.53152835041505],[139.56398671285314,35.53475161595544]],[[139.56398671285314,35.53475161595544],[139.56814819363132,35.53441040069975]],[[139.56814819363132,35.53441040069975],[139.57014223650418,35.532966328992615],[139.57419534538707,35.531107924474995],[139.57688296838964,35.526434494097906],[139.57544523457912,35.5239119384576],[139.58068320951693,35.52258363621222],[139.58031474507303,35.51981735538927]],[[139.58217874167158,35.55543169770231],[139.57790888899814,35.55704637703729]],[[139.57790888899814,35.55704637703729],[139.57889146084855,35.55905101666449]],[[139.57889146084855,35.55905101666449],[139.5789131352276,35.559087575441886]],[[139.5789131352276,35.559087575441886],[139.5812973169234,35.55839905180093]],[[139.5812973169234,35.55839905180093],[139.5832624606242,35.55714996023991]],[[139.5832624606242,35.55714996023991],[139.58217874167158,35.55543169770231]],[[139.5768612940106,35.564607950828645],[139.57402195035465,35.56365132948679]],[[139.57402195035465,35.56365132948679],[139.57279373554167,35.56525382256264],[139.57105978521741,35.56463841647648],[139.57066964639446,35.566350585884514]],[[139.57066964639446,35.566350585884514],[139.5694920051326,35.56616779199753],[139.56790977546174,35.567642329352495]],[[139.56790977546174,35.567642329352495],[139.56907296713757,35.57089606054072],[139.5668405060951,35.57056093841459]],[[139.5668405060951,35.57056093841459],[139.5715366215566,35.571712539902556],[139.57240359671871,35.571450535331216]],[[139.57240359671871,35.571450535331216],[139.57098753728724,35.56837350490041],[139.57229522482345,35.56704520265503],[139.57500452220506,35.56634449275494],[139.5768612940106,35.564607950828645]],[[139.5789131352276,35.559087575441886],[139.58007632690345,35.562042743281374]],[[139.58007632690345,35.562042743281374],[139.58047369051943,35.564047382908576]],[[139.58047369051943,35.564047382908576],[139.5808421549633,35.56401691726075]],[[139.5808421549633,35.56401691726075],[139.5837031729983,35.563645236357225]],[[139.5837031729983,35.563645236357225],[139.58317576310802,35.56166496924829],[139.58405718785616,35.5610190975143],[139.5812973169234,35.55839905180093]],[[139.56387111616488,35.55881338461142],[139.56141468653885,35.56062913722207],[139.56220218897778,35.562968898975406],[139.5652293772522,35.56544270957918]],[[139.5652293772522,35.56544270957918],[139.5674546135016,35.56443125007123],[139.56431905333196,35.56201837076311],[139.5657206631774,35.56107393568039]],[[139.5657206631774,35.56107393568039],[139.56387111616488,35.55881338461142]],[[139.5724830694419,35.560775372331655],[139.57417367100803,35.56248144861013]],[[139.57417367100803,35.56248144861013],[139.5771864096964,35.56163450360046],[139.58007632690345,35.562042743281374]],[[139.57889146084855,35.55905101666449],[139.5767023485642,35.55891696781404],[139.5724830694419,35.560775372331655]],[[139.5882547925994,35.55031956199647],[139.58623185055447,35.54997834674077]],[[139.58623185055447,35.54997834674077],[139.58540822415046,35.55045361084692]],[[139.58540822415046,35.55045361084692],[139.58581281255945,35.5540729298091]],[[139.58581281255945,35.5540729298091],[139.58777073146723,35.55415214049346]],[[139.58777073146723,35.55415214049346],[139.58831259094356,35.55276900008199],[139.59038610653963,35.55241559856716]],[[139.59038610653963,35.55241559856716],[139.59042945529774,35.55204391766364]],[[139.59042945529774,35.55204391766364],[139.5882547925994,35.55031956199647]],[[139.59895471105855,35.548369760535365],[139.59634656077918,35.54796152085444]],[[139.59634656077918,35.54796152085444],[139.59461983524795,35.54762030559875],[139.58724332157695,35.54757156056222]],[[139.58724332157695,35.54757156056222],[139.5846423960906,35.54828445672144],[139.58265557801073,35.54786403078139]],[[139.58265557801073,35.54786403078139],[139.58156463426508,35.54772388880137]],[[139.58156463426508,35.54772388880137],[139.57762712207045,35.547266904083926]],[[139.57762712207045,35.547266904083926],[139.5787830889533,35.54941168569114]],[[139.5787830889533,35.54941168569114],[139.58283619783617,35.549234984933726],[139.58623185055447,35.54997834674077]],[[139.5882547925994,35.55031956199647],[139.59040055612564,35.548832838382374],[139.59261134278904,35.55077045358435],[139.5932832485397,35.55230592223497]],[[139.5932832485397,35.55230592223497],[139.5955373839612,35.55188549629492],[139.59895471105855,35.548369760535365]],[[139.5595940386984,35.545049004921914],[139.56153028322714,35.54698662012389],[139.5625345294566,35.549472616986804]],[[139.5625345294566,35.549472616986804],[139.56582181027963,35.546505262888175]],[[139.56582181027963,35.546505262888175],[139.56442742522722,35.54397661411831]],[[139.56442742522722,35.54397661411831],[139.5612196171274,35.543007806517316]],[[139.5612196171274,35.543007806517316],[139.5595940386984,35.545049004921914]],[[139.58047369051943,35.564047382908576],[139.57706358821508,35.56513195997132]],[[139.57706358821508,35.56513195997132],[139.57537298664894,35.56686240876805],[139.57631220974125,35.568769558322195]],[[139.57631220974125,35.568769558322195],[139.57980900956179,35.56929966059444],[139.5846062721255,35.56847708810303]],[[139.5846062721255,35.56847708810303],[139.58600065717792,35.56554019965224]],[[139.58600065717792,35.56554019965224],[139.58402106389107,35.56560722407746],[139.5808421549633,35.56401691726075]],[[139.57859524433482,35.54945433759811],[139.5752718395467,35.551586932946186]],[[139.5752718395467,35.551586932946186],[139.57651450394573,35.55412167484563]],[[139.57651450394573,35.55412167484563],[139.57790888899814,35.55704637703729]],[[139.58217874167158,35.55543169770231],[139.5802641715219,35.5523729466602]],[[139.5802641715219,35.5523729466602],[139.57859524433482,35.54945433759811]],[[139.58376819613545,35.535293904486814],[139.5785880195418,35.536421133456514]],[[139.5785880195418,35.536421133456514],[139.57892758481364,35.538279537974134]],[[139.57892758481364,35.538279537974134],[139.5819836722601,35.53876698833941],[139.58511923242975,35.537926136459305]],[[139.58511923242975,35.537926136459305],[139.58376819613545,35.535293904486814]],[[139.5724830694419,35.560775372331655],[139.57225187606534,35.560659602869904]],[[139.57225187606534,35.560659602869904],[139.57208570582594,35.560866769275144]],[[139.57208570582594,35.560866769275144],[139.57299602974615,35.56240223792577],[139.5712548546289,35.56348681498851],[139.57066964639446,35.566350585884514]],[[139.57402195035465,35.56365132948679],[139.57417367100803,35.56248144861013]],[[139.57425314373123,35.549545734541596],[139.57152217197054,35.55203782453407],[139.5690007192074,35.552665416879364]],[[139.5690007192074,35.552665416879364],[139.56861058038444,35.55295788709853]],[[139.56861058038444,35.55295788709853],[139.56918856382586,35.55348798937077]],[[139.56918856382586,35.55348798937077],[139.57357401318757,35.552781186341115],[139.5752718395467,35.551586932946186]],[[139.5752718395467,35.551586932946186],[139.57425314373123,35.549545734541596]],[[139.57920935174133,35.545664411008076],[139.57680349566644,35.54560957284198]],[[139.57680349566644,35.54560957284198],[139.57762712207045,35.547266904083926]],[[139.58156463426508,35.54772388880137],[139.58142736319775,35.54559738658285]],[[139.58142736319775,35.54559738658285],[139.57920935174133,35.545664411008076]],[[139.54507220473295,35.53042549396361],[139.54283251889748,35.53535483578247],[139.54137311070792,35.536305363994764],[139.5454117700048,35.53791395020018],[139.54617037327165,35.53752398990795],[139.54851843100238,35.539662678385604],[139.55167566555107,35.53953472266472],[139.5519285333067,35.540747255448345]],[[139.5519285333067,35.540747255448345],[139.55317842249875,35.537883484552346],[139.55288943077804,35.53425197933103]],[[139.55288943077804,35.53425197933103],[139.54954435161088,35.53282009388303],[139.54921923592508,35.53086419929236],[139.54794044756096,35.530187861910534],[139.54507220473295,35.53042549396361]],[[139.57892758481364,35.538279537974134],[139.57667344939213,35.53837093491762],[139.57916600298321,35.54087521116923]],[[139.57916600298321,35.54087521116923],[139.58105167396081,35.541167681388394]],[[139.58105167396081,35.541167681388394],[139.58446177626516,35.541709969919765]],[[139.58446177626516,35.541709969919765],[139.58651361748215,35.541076284444905]],[[139.58651361748215,35.541076284444905],[139.58511923242975,35.537926136459305]],[[139.55727488013974,35.54228881722853],[139.55512911661353,35.54161247984671],[139.5538142042843,35.5428311057599]],[[139.5538142042843,35.5428311057599],[139.55461615630927,35.545877670542886],[139.55715205865846,35.54781528574486]],[[139.55715205865846,35.54781528574486],[139.5595940386984,35.545049004921914]],[[139.5595940386984,35.545049004921914],[139.55764334458365,35.54451280952011],[139.55727488013974,35.54228881722853]],[[139.5669994515415,35.54054618217267],[139.56442742522722,35.54397661411831]],[[139.56582181027963,35.546505262888175],[139.56816986801036,35.544110662968755]],[[139.56816986801036,35.544110662968755],[139.56967262495803,35.54285547827817]],[[139.56967262495803,35.54285547827817],[139.5669994515415,35.54054618217267]],[[139.5669994515415,35.54054618217267],[139.56353877568606,35.53918741427946]],[[139.56353877568606,35.53918741427946],[139.56325700875837,35.53923615931599]],[[139.56325700875837,35.53923615931599],[139.5612196171274,35.543007806517316]],[[139.59042945529774,35.55204391766364],[139.5932832485397,35.55230592223497]],[[139.58265557801073,35.54786403078139],[139.58156463426508,35.54772388880137]],[[139.59464150962702,35.54060102033876],[139.59604311947243,35.541642945494544],[139.5958263756819,35.54381209962003]],[[139.5958263756819,35.54381209962003],[139.59878854081913,35.5437633545835],[139.60044301842018,35.54614576824379],[139.60111492417082,35.54439094692879],[139.6024659604651,35.54409847670962]],[[139.6024659604651,35.54409847670962],[139.6022203175025,35.541076284444905],[139.5985212234775,35.54114330887013],[139.5981599838266,35.54024152569437]],[[139.5981599838266,35.54024152569437],[139.59464150962702,35.54060102033876]],[[139.5571376090724,35.54783356513356],[139.5551724653716,35.55155646729836]],[[139.5551724653716,35.55155646729836],[139.5578673131672,35.55328691609509],[139.55916055111737,35.552238897809744],[139.56152305843412,35.55248871612195]],[[139.56152305843412,35.55248871612195],[139.56132798902266,35.5520682901819]],[[139.56132798902266,35.5520682901819],[139.55948566680317,35.54932028874765],[139.5571376090724,35.54783356513356]],[[139.5865786406193,35.54106409818578],[139.58651361748215,35.541076284444905]],[[139.58446177626516,35.541709969919765],[139.5822365400157,35.54531100949325]],[[139.5822365400157,35.54531100949325],[139.58611625386618,35.54621279266901],[139.5856683166991,35.54529273010455]],[[139.5856683166991,35.54529273010455],[139.585624967941,35.54270924316859],[139.58705547695848,35.542185234025915]],[[139.58705547695848,35.542185234025915],[139.5865786406193,35.54106409818578]],[[139.56668156064873,35.56165887611872],[139.5657206631774,35.56107393568039]],[[139.5652293772522,35.56544270957918],[139.567194520953,35.5666918011402]],[[139.567194520953,35.5666918011402],[139.56832158866374,35.56686240876805],[139.56861780517747,35.56349290811808],[139.56668156064873,35.56165887611872]],[[139.60063808783167,35.55683921063205],[139.59719908635526,35.55961767771412]],[[139.59719908635526,35.55961767771412],[139.59823223175678,35.56056211279685]],[[139.59823223175678,35.56056211279685],[139.60042856883413,35.56081193110905]],[[139.60042856883413,35.56081193110905],[139.60465507274947,35.56139077841782]],[[139.60465507274947,35.56139077841782],[139.60506688595146,35.560263549448116]],[[139.60506688595146,35.560263549448116],[139.6038169967594,35.56024527005942],[139.60215529436536,35.55697935261207],[139.60063808783167,35.55683921063205]],[[139.59301593119804,35.533008980899574],[139.58793690170663,35.534166675517106]],[[139.58793690170663,35.534166675517106],[139.5871782984398,35.534897851065026],[139.58818254466925,35.53773724944276]],[[139.58818254466925,35.53773724944276],[139.59017658754212,35.53757882807405]],[[139.59017658754212,35.53757882807405],[139.5903355329885,35.53559246783554],[139.59321100060953,35.5345444495502]],[[139.59321100060953,35.5345444495502],[139.59301593119804,35.533008980899574]],[[139.56403728640427,35.5126701144084],[139.56293189307257,35.51904352793439],[139.56189874767105,35.52016466377453],[139.56246228152642,35.52208399958781]],[[139.58031474507303,35.51981735538927],[139.5811672706491,35.51844640123693],[139.57974398642463,35.51836109742301],[139.57848687243956,35.51599087002185]],[[139.57848687243956,35.51599087002185],[139.57691909235473,35.51556435095223]],[[139.57691909235473,35.51556435095223],[139.57499007261902,35.51596040437402],[139.57319109915764,35.514699126553865],[139.5709803124942,35.51487582731128],[139.5686394795565,35.51287118768408],[139.56403728640427,35.5126701144084]],[[139.56407341036936,35.534849106028496],[139.561877073292,35.53561074722424],[139.56017924693285,35.53791395020018]],[[139.56017924693285,35.53791395020018],[139.56133521381568,35.53848670437937]],[[139.56133521381568,35.53848670437937],[139.56325700875837,35.53923615931599]],[[139.56353877568606,35.53918741427946],[139.5653160747684,35.53716449526356]],[[139.5653160747684,35.53716449526356],[139.5652438268382,35.53702435328354]],[[139.5652438268382,35.53702435328354],[139.56407341036936,35.534849106028496]],[[139.56861058038444,35.55295788709853],[139.56702835071357,35.551477256614],[139.56592295738187,35.553420964945545]],[[139.56592295738187,35.553420964945545],[139.5660602284492,35.55571807479191],[139.56733179202033,35.55698544574163]],[[139.56733179202033,35.55698544574163],[139.56861058038444,35.55295788709853]],[[139.57053237532713,35.55829546859831],[139.57279373554167,35.55996498609939],[139.57225187606534,35.560659602869904]],[[139.57790888899814,35.55704637703729],[139.5740363999407,35.55733884725645]],[[139.5740363999407,35.55733884725645],[139.57053237532713,35.55829546859831]],[[139.5832624606242,35.55714996023991],[139.58581281255945,35.5540729298091]],[[139.58540822415046,35.55045361084692],[139.5820631449833,35.551020271896554],[139.5802641715219,35.5523729466602]],[[139.59502442365695,35.536354109031286],[139.59445366500856,35.53676844184177]],[[139.59445366500856,35.53676844184177],[139.5912386321157,35.53834046926979]],[[139.5912386321157,35.53834046926979],[139.59124585690873,35.53838921430632]],[[139.59124585690873,35.53838921430632],[139.59224287834516,35.539479884498625]],[[139.59224287834516,35.539479884498625],[139.59464150962702,35.54060102033876]],[[139.5981599838266,35.54024152569437],[139.59634656077918,35.5365125304],[139.59502442365695,35.536354109031286]],[[139.56592295738187,35.553420964945545],[139.56415288309256,35.55150772226183]],[[139.56415288309256,35.55150772226183],[139.5624478319404,35.55032565512604],[139.56132798902266,35.5520682901819]],[[139.56152305843412,35.55248871612195],[139.5632642335514,35.555864309901494],[139.56387111616488,35.558807291481855]],[[139.56387111616488,35.558807291481855],[139.56733179202033,35.55698544574163]],[[139.5544644356559,35.52531335825777],[139.55295445391522,35.525258520091676],[139.55198633165085,35.5284939718912],[139.55340961587532,35.52885955966516],[139.55460893151624,35.531674585524634]],[[139.55460893151624,35.531674585524634],[139.5563501066335,35.52983446039571]],[[139.5563501066335,35.52983446039571],[139.55706536114224,35.52874379020341],[139.55629953308238,35.52531945138733]],[[139.55629953308238,35.52531945138733],[139.5544644356559,35.52531335825777]],[[139.58780685543232,35.557533827402565],[139.58551659604572,35.559952799840254]],[[139.58551659604572,35.559952799840254],[139.588074172774,35.56235958601881]],[[139.588074172774,35.56235958601881],[139.59157097259452,35.56120798453084]],[[139.59157097259452,35.56120798453084],[139.59042945529774,35.55776536632607]],[[139.59042945529774,35.55776536632607],[139.58780685543232,35.557533827402565]],[[139.58600065717792,35.56554019965224],[139.58678093482382,35.56455311266255],[139.58826924218545,35.5655645721705],[139.59093519080895,35.564778558456496]],[[139.59093519080895,35.564778558456496],[139.588074172774,35.56235958601881]],[[139.588074172774,35.56235958601881],[139.5837031729983,35.563645236357225]],[[139.5925463196519,35.55747898923647],[139.59042945529774,35.55776536632607]],[[139.59157097259452,35.56120798453084],[139.59719908635526,35.55961767771412]],[[139.59719908635526,35.55961767771412],[139.5957396781657,35.55800909150871],[139.5925463196519,35.55747898923647]],[[139.60284887449507,35.546298096482936],[139.60236481336287,35.54731564912045],[139.59921480360717,35.548412412442325]],[[139.59921480360717,35.548412412442325],[139.60079703327804,35.54968587652161],[139.60046469279922,35.5517819130923],[139.60283442490902,35.55353064127773]],[[139.60283442490902,35.55353064127773],[139.6062228528343,35.55238513291933]],[[139.6062228528343,35.55238513291933],[139.60476344464473,35.55049626275388],[139.60526195536295,35.548107755964026],[139.60284887449507,35.546298096482936]],[[139.59093519080895,35.564778558456496],[139.59100743873913,35.564821210363455]],[[139.59100743873913,35.564821210363455],[139.59266191634018,35.562426610444035],[139.59823223175678,35.56056211279685]],[[139.59017658754212,35.53757882807405],[139.5912386321157,35.53834046926979]],[[139.59445366500856,35.53676844184177],[139.59321100060953,35.5345444495502]],[[139.58551659604572,35.559952799840254],[139.5832624606242,35.55714996023991]],[[139.5846062721255,35.56847708810303],[139.59552293437517,35.56656384541932],[139.59958326805108,35.56740469729942]],[[139.59958326805108,35.56740469729942],[139.59428026997614,35.565832669871405]],[[139.59428026997614,35.565832669871405],[139.59100743873913,35.564821210363455]],[[139.57240359671871,35.571450535331216],[139.57631220974125,35.568769558322195]],[[139.57706358821508,35.56513195997132],[139.5768612940106,35.564607950828645]],[[139.57511289410033,35.537932229588876],[139.57103088604535,35.53871215017332],[139.56820599197545,35.537810366997554],[139.56674658378589,35.538401400565455]],[[139.56674658378589,35.538401400565455],[139.5695353538907,35.539431139462096],[139.57241804630473,35.54161247984671]],[[139.57241804630473,35.54161247984671],[139.57549580813026,35.54121033329536]],[[139.57549580813026,35.54121033329536],[139.57558973043948,35.541198147036226]],[[139.57558973043948,35.541198147036226],[139.57511289410033,35.537932229588876]],[[139.59124585690873,35.53838921430632],[139.5865786406193,35.54106409818578]],[[139.58705547695848,35.542185234025915],[139.59087739246482,35.54101535314925],[139.59224287834516,35.539479884498625]],[[139.55730377931184,35.519847821037104],[139.5563573314265,35.52275424384007],[139.55629953308238,35.52531945138733]],[[139.5563501066335,35.52983446039571],[139.55653795125195,35.52991976420964]],[[139.55653795125195,35.52991976420964],[139.55921112466848,35.52787247267547]],[[139.56176147660372,35.522321631640885],[139.5600347510725,35.5221205583652],[139.55730377931184,35.519847821037104]],[[139.58508310846466,35.534258072460595],[139.58564664232006,35.53469677778935]],[[139.58564664232006,35.53469677778935],[139.58793690170663,35.534166675517106]],[[139.59301593119804,35.533008980899574],[139.59284976095864,35.53131509088024]],[[139.59284976095864,35.53131509088024],[139.5927486138564,35.53029753824273]],[[139.5927486138564,35.53029753824273],[139.59108691146233,35.529889298561805],[139.59076179577653,35.53125415958458],[139.58508310846466,35.534258072460595]],[[139.59282808657957,35.55710730833295],[139.5925463196519,35.55747898923647]],[[139.60063808783167,35.55683921063205],[139.60006732918328,35.55669906865203]],[[139.60006732918328,35.55669906865203],[139.5976686979014,35.55457256643351],[139.594229696425,35.55507220305792],[139.59282808657957,35.55710730833295]],[[139.56790977546174,35.567642329352495],[139.567194520953,35.5666918011402]],[[139.567194520953,35.5666918011402],[139.56426847978085,35.56708785456199],[139.5668405060951,35.57056093841459]],[[139.56918856382586,35.55348798937077],[139.56946310596052,35.554737080931794],[139.57389190408034,35.555230624426635]],[[139.57389190408034,35.555230624426635],[139.57386300490828,35.55428009621434],[139.57651450394573,35.55412167484563]],[[139.5785880195418,35.536421133456514],[139.5748961503098,35.5365490891774]],[[139.5748961503098,35.5365490891774],[139.57511289410033,35.537932229588876]],[[139.57558973043948,35.541198147036226],[139.57916600298321,35.54087521116923]],[[139.59810218548247,35.56205492954051],[139.60087650600124,35.56535740576526]],[[139.60087650600124,35.56535740576526],[139.60300059514842,35.564869955399985]],[[139.60300059514842,35.564869955399985],[139.60465507274947,35.56139077841782]],[[139.60042856883413,35.56081193110905],[139.59810218548247,35.56205492954051]],[[139.57208570582594,35.560866769275144],[139.56959315223483,35.559514094511506],[139.56668156064873,35.56165887611872]],[[139.58818254466925,35.53773724944276],[139.58511923242975,35.537926136459305]],[[139.5822365400157,35.54531100949325],[139.58142736319775,35.54559738658285]],[[139.58724332157695,35.54757156056222],[139.5871132753026,35.545591293453285],[139.5856683166991,35.54529273010455]],[[139.59921480360717,35.548412412442325],[139.59895471105855,35.548369760535365]],[[139.59038610653963,35.55241559856716],[139.59310262871426,35.55440195880566],[139.5920550337267,35.55556574655276],[139.59282808657957,35.55710730833295]],[[139.60006732918328,35.55669906865203],[139.60283442490902,35.55353064127773]],[[139.57762712207045,35.547266904083926],[139.57626886098313,35.547492349877864],[139.57425314373123,35.549545734541596]],[[139.57859524433482,35.54945433759811],[139.5787830889533,35.54941168569114]],[[139.56398671285314,35.53475161595544],[139.56407341036936,35.534849106028496]],[[139.5652438268382,35.53702435328354],[139.5674546135016,35.536451599104346],[139.57486725113773,35.536372388419984]],[[139.57486725113773,35.536372388419984],[139.57457825941702,35.534477425124976]],[[139.57457825941702,35.534477425124976],[139.57251196861398,35.53433119001539],[139.56962927619992,35.535105017470265],[139.56814819363132,35.53441040069975]],[[139.58356590193097,35.533581735078776],[139.58508310846466,35.534258072460595]],[[139.5927486138564,35.53029753824273],[139.5948799277966,35.52978571535918],[139.59465595921304,35.52773233069546],[139.59734358221561,35.52527679948037],[139.59740138055975,35.52059118284415]],[[139.59740138055975,35.52059118284415],[139.59100021394613,35.52073741795373],[139.58916511651964,35.51992703172146]],[[139.58916511651964,35.51992703172146],[139.58507588367166,35.521054260691166],[139.58511923242975,35.52443594760027],[139.5858344869385,35.524832001022055],[139.58489526384622,35.52721441468235],[139.58588506048963,35.52772014443632],[139.58549492166668,35.53002334741225],[139.58364537465417,35.53193659009597],[139.58356590193097,35.533581735078776]],[[139.57848687243956,35.51599087002185],[139.5833780573125,35.51608226696534],[139.58338528210552,35.518574356957814],[139.5850542092926,35.518318445516044],[139.58916511651964,35.51992703172146]],[[139.59740138055975,35.52059118284415],[139.60268270425564,35.52021950194062]],[[139.60268270425564,35.52021950194062],[139.60185907785163,35.51887901343611],[139.6025020844302,35.51689874632718],[139.59667890125797,35.51744712798811],[139.59431639394123,35.51625896772275],[139.59212728165687,35.51369985330505],[139.58977199913312,35.51346222125198],[139.58740226702332,35.51228624724575],[139.5829662441105,35.51361454949112],[139.57899983274382,35.51413246550423],[139.57691909235473,35.51556435095223]],[[139.56133521381568,35.53848670437937],[139.5587993114665,35.53984547227258],[139.55969518580068,35.54122251955449],[139.55727488013974,35.54228881722853]],[[139.60284887449507,35.546298096482936],[139.6024659604651,35.54409847670962]],[[139.5958263756819,35.54381209962003],[139.59634656077918,35.54796152085444]],[[139.59810218548247,35.56205492954051],[139.59428026997614,35.565832669871405]],[[139.59958326805108,35.56740469729942],[139.60087650600124,35.56535740576526]],[[139.5626645757309,35.53152835041505],[139.56106789647401,35.53317349539786]],[[139.56106789647401,35.53317349539786],[139.55775894127194,35.536372388419984]],[[139.55775894127194,35.536372388419984],[139.56017924693285,35.53791395020018]],[[139.55775894127194,35.536372388419984],[139.55228977295758,35.54169169053107]],[[139.55228977295758,35.54169169053107],[139.5538142042843,35.5428311057599]],[[139.55730377931184,35.519847821037104],[139.55516524057862,35.51935427754226]],[[139.55516524057862,35.51935427754226],[139.55395870014465,35.52169403929559],[139.5544644356559,35.52531335825777]],[[139.60506688595146,35.560263549448116],[139.60806517505378,35.561177518883014],[139.60919224276455,35.560519460889886],[139.6102470625451,35.56459576456952]],[[139.6102470625451,35.56459576456952],[139.61146082777208,35.56455311266255],[139.61307918140804,35.561061749421256],[139.61283353844544,35.55821016478439],[139.61062997657507,35.55743633732951],[139.611012890605,35.555486535868404],[139.6105577286449,35.55200735888624],[139.6062228528343,35.55238513291933]],[[139.57549580813026,35.54121033329536],[139.57680349566644,35.54560957284198]],[[139.57920935174133,35.545664411008076],[139.57786554024005,35.544061917932225],[139.58027862110794,35.54305045842428],[139.58105167396081,35.541167681388394]],[[139.55228977295758,35.54169169053107],[139.55181293661843,35.54214867524852]],[[139.55181293661843,35.54214867524852],[139.55247039278302,35.54388521717482],[139.55189963413463,35.54793105520661],[139.5551724653716,35.55155646729836]],[[139.5571376090724,35.54783356513356],[139.55715205865846,35.54781528574486]],[[139.59284976095864,35.53131509088024],[139.59534231454973,35.53011474435574],[139.59626708805598,35.53297851525175]],[[139.59626708805598,35.53297851525175],[139.59922925319322,35.53263120686649],[139.59953269449997,35.529017981033874],[139.60206137205614,35.52701334140667],[139.60375919841528,35.52343667435145],[139.60268270425564,35.52021950194062]],[[139.57457825941702,35.534477425124976],[139.57660120146195,35.5348125472511],[139.57905040629493,35.53382546026142],[139.5797367616316,35.53491003732416],[139.58104444916782,35.53378890148402],[139.58234491191098,35.53455054267977],[139.58356590193097,35.533581735078776]],[[139.57389190408034,35.555230624426635],[139.5740363999407,35.55733884725645]],[[139.56674658378589,35.538401400565455],[139.5653160747684,35.53716449526356]],[[139.56967262495803,35.54285547827817],[139.57241804630473,35.54161247984671]],[[139.55653795125195,35.52991976420964],[139.55873428832933,35.531491791637656],[139.55869816436424,35.532801814494334],[139.56106789647401,35.53317349539786]],[[139.58564664232006,35.53469677778935],[139.58376819613545,35.535293904486814]],[[139.58777073146723,35.55415214049346],[139.5870193529934,35.55606538317717],[139.58780685543232,35.557533827402565]],[[139.5625345294566,35.549472616986804],[139.56415288309256,35.55150772226183]],[[139.5690007192074,35.552665416879364],[139.56828546469865,35.551818471869694],[139.5701061125391,35.5472181590474],[139.56816986801036,35.544110662968755]],[[139.55304115143142,35.532686045032584],[139.55288943077804,35.53425197933103]],[[139.5519285333067,35.540747255448345],[139.55181293661843,35.54214867524852]],[[139.55775894127194,35.536372388419984],[139.55304115143142,35.532686045032584]],[[139.59502442365695,35.536354109031286],[139.59626708805598,35.53297851525175]],[[139.5514011234164,35.51737401043332],[139.54691452695246,35.52309545909576],[139.5471023715709,35.52604453380568],[139.54539009562572,35.52802480091462],[139.54507220473295,35.53042549396361]],[[139.55304115143142,35.532686045032584],[139.55460893151624,35.531674585524634]],[[139.55516524057862,35.51935427754226],[139.55411042079803,35.51722777532374],[139.5514011234164,35.51737401043332]],[[139.56403728640427,35.5126701144084],[139.562288886494,35.51175005184394],[139.55815630488792,35.510823896149915],[139.5544644356559,35.511506326661305],[139.5535324373566,35.51094575874124],[139.55093151187026,35.51466866090604],[139.5514011234164,35.51737401043332]],[[139.56733179202033,35.55698544574163],[139.5693691836513,35.557156053369475],[139.57053237532713,35.55829546859831]],[[139.5748961503098,35.5365490891774],[139.57486725113773,35.536372388419984]],[[139.60300059514842,35.564869955399985],[139.6102470625451,35.56459576456952]],[[139.56387111616488,35.558807291481855],[139.56387111616488,35.55881338461142]]]}