{"type":"Topology","bbox":[139.4874356097551,35.44308276313059,139.5691095971074,35.50898848198043],"objects":{"town":{"type":"GeometryCollection","geometries":[{"type":"Polygon","arcs":[[0,1,2,3]],"properties":{"name":"川島町"}},{"type":"MultiPolygon","arcs":[[[52,53,-30,5,6,7,8,9,54,55]]],"properties":{"name":"鶴ケ峰"}},{"type":"MultiPolygon","arcs":[[[-16,-68,-21,11,12,13,213]]],"properties":{"name":"市沢町"}},{"type":"MultiPolygon","arcs":[[[15,16,17,63,64,65,66,-62,-19,67]]],"properties":{"name":"左近山"}},{"type":"Polygon","arcs":[[18,19,-12,20]],"properties":{"name":"小高町"}},{"type":"MultiPolygon","arcs":[[[70,106,107,108,100,92,-3,-2,165,-9,-8,138,21,22,82,83,84,-36,85]]],"properties":{"name":"白根"}},{"type":"MultiPolygon","arcs":[[[-22,-139,-7,-6,29,30,31,26,220,-83,-23]]],"properties":{"name":"鶴ケ峰本町"}},{"type":"Polygon","arcs":[[32,33,34]],"properties":{"name":"白根町"}},{"type":"MultiPolygon","arcs":[[[-33,219,-108,-107,-71,-86,35,36,37,-178,181,-34]]],"properties":{"name":"中白根"}},{"type":"MultiPolygon","arcs":[[[217,223,-48,-47,42,-46,196]]],"properties":{"name":"若葉台"}},{"type":"Polygon","arcs":[[43,44,45,-43,46,47,48,49,50,51]],"properties":{"name":"上川井町"}},{"type":"Polygon","arcs":[[56,57,58,59,60]],"properties":{"name":"都岡町"}},{"type":"Polygon","arcs":[[61,62,-13,-20]],"properties":{"name":"三反田町"}},{"type":"MultiPolygon","arcs":[[[189,-156,74,-155,176,177,-38,-37,-85]]],"properties":{"name":"上白根"}},{"type":"MultiPolygon","arcs":[[[76,77,78,79,80,145,-135,146,147]]],"properties":{"name":"東希望が丘"}},{"type":"Polygon","arcs":[[86,87,88,89]],"properties":{"name":"善部町"}},{"type":"Polygon","arcs":[[94,95,96,97]],"properties":{"name":"大池町"}},{"type":"Polygon","arcs":[[101,-98,102,103,104,-65,105]],"properties":{"name":"南本宿町"}},{"type":"Polygon","arcs":[[109,110,111,-53,112,-66,-105]],"properties":{"name":"本宿町"}},{"type":"MultiPolygon","arcs":[[[-138,-157,-216,-179,115,-110,-104,116,113,-208]]],"properties":{"name":"二俣川"}},{"type":"Polygon","arcs":[[117,118,119,120,-57,121,122,123]],"properties":{"name":"今宿南町"}},{"type":"Polygon","arcs":[[124,125,-124,126,-32,127]],"properties":{"name":"今川町"}},{"type":"MultiPolygon","arcs":[[[-191,131,132,128,129,210,-164,-119,-193]]],"properties":{"name":"今宿"}},{"type":"MultiPolygon","arcs":[[[156,137,133,134,135,157,-133,158,159,160]]],"properties":{"name":"中尾"}},{"type":"Polygon","arcs":[[-44,140,141,142,143,144]],"properties":{"name":"矢指町"}},{"type":"MultiPolygon","arcs":[[[153,154,-75,155,148,149,-60,150,151,184]]],"properties":{"name":"上白根町"}},{"type":"MultiPolygon","arcs":[[[-202,-200,161,-142,162,-120,163,-211,-130,214,212]]],"properties":{"name":"金が谷"}},{"type":"Polygon","arcs":[[-106,-64,-18,166]],"properties":{"name":"桐が作"}},{"type":"MultiPolygon","arcs":[[[-143,-162,199,201,202,-80,-79,168,221,-144]]],"properties":{"name":"笹野台"}},{"type":"Polygon","arcs":[[-122,-61,-150,172]],"properties":{"name":"今宿西町"}},{"type":"Polygon","arcs":[[-50,173,-151,-59,174,175]],"properties":{"name":"川井宿町"}},{"type":"Polygon","arcs":[[-116,178,179,180,-111]],"properties":{"name":"本村町"}},{"type":"Polygon","arcs":[[185,186,187,188,-88]],"properties":{"name":"南希望が丘"}},{"type":"MultiPolygon","arcs":[[[215,-161,-160,-159,-132,190,192,-118,-126,-125,216,-180]]],"properties":{"name":"中沢"}},{"type":"Polygon","arcs":[[-97,194,195,-117,-103]],"properties":{"name":"万騎が原"}},{"type":"Polygon","arcs":[[-51,-176,203]],"properties":{"name":"川井本町"}},{"type":"MultiPolygon","arcs":[[[-187,204,-77,-148,-207,-188]]],"properties":{"name":"中希望が丘"}},{"type":"Polygon","arcs":[[-89,-189,206,-147,-134,207,-114,-196,208]],"properties":{"name":"さちが丘"}},{"type":"Polygon","arcs":[[-55,-10,-166,-1,209]],"properties":{"name":"西川島町"}},{"type":"Polygon","arcs":[[-81,-203,-213,-215,-129,-158,-136,-146]],"properties":{"name":"今宿町"}},{"type":"Polygon","arcs":[[-163,-141,-52,-204,-175,-58,-121]],"properties":{"name":"下川井町"}},{"type":"Polygon","arcs":[[-217,-128,-31,-54,-112,-181]],"properties":{"name":"四季美台"}},{"type":"Polygon","arcs":[[-90,-209,-195,-96,222]],"properties":{"name":"柏町"}},{"type":"Polygon","arcs":[[-127,-123,-173,-149,-190,-84,-221,-27]],"properties":{"name":"今宿東町"}}]}},"arcs":[[[139.56106390478396,35.478682001805254],[139.55809884253685,35.47964432153244]],[[139.55809884253685,35.47964432153244],[139.55782929142347,35.47963773030143]],[[139.55782929142347,35.47963773030143],[139.55691445128113,35.48467343079161]],[[139.55691445128113,35.48467343079161],[139.56044312040166,35.48379020583652],[139.56080252188616,35.48513481696217],[139.5627792300509,35.48419227092801],[139.56455990104226,35.484561379864466],[139.56518885364014,35.48272242641321],[139.56696135641596,35.48094938527204],[139.56150498842402,35.47997388308284],[139.56106390478396,35.478682001805254]],[[139.55283034350273,35.47212372695221],[139.54811728312646,35.47483931412754],[139.5444987636348,35.475452298611295]],[[139.5444987636348,35.475452298611295],[139.54467029616148,35.47646075695553]],[[139.54467029616148,35.47646075695553],[139.5485665349821,35.47838539640989]],[[139.5485665349821,35.47838539640989],[139.54866455356876,35.478378805178885]],[[139.54866455356876,35.478378805178885],[139.5505840842246,35.475973005860936],[139.5518174847737,35.47598618832295],[139.55265881097603,35.47803606116646],[139.55420260371628,35.47849744733703]],[[139.55420260371628,35.47849744733703],[139.55486422917636,35.47704737651525],[139.55283034350273,35.47212372695221]],[[139.56776184154052,35.459270826486446],[139.56563810549576,35.4600485917454],[139.56380025699548,35.461867771503634],[139.56389827558218,35.45859852092362],[139.56196240849522,35.45946197218568],[139.56179904418408,35.46093181670049],[139.55740454421453,35.461103188706694],[139.556179311881,35.46204573474085]],[[139.556179311881,35.46204573474085],[139.55783745963905,35.46417470235646],[139.55613030258766,35.46598729088368]],[[139.55613030258766,35.46598729088368],[139.5593567477326,35.467852609258976]],[[139.5593567477326,35.467852609258976],[139.56286908042202,35.46511724839062],[139.5673697671938,35.46341671079053],[139.5685214855873,35.4640428777363],[139.5691095971074,35.460575890226046],[139.56776184154052,35.459270826486446]],[[139.55216871804262,35.45714845010184],[139.55319791320278,35.45733959580108]],[[139.55319791320278,35.45733959580108],[139.5549704159786,35.45672661131733],[139.5571676659634,35.45759665381039],[139.55649787228774,35.45606748821652],[139.5575597403101,35.45517767203042],[139.56083519474836,35.45518426326144],[139.56028792430607,35.453839652135784]],[[139.56028792430607,35.453839652135784],[139.55653054514994,35.45410330137611]],[[139.55653054514994,35.45410330137611],[139.5519481762226,35.45538859142268],[139.55216871804262,35.45714845010184]],[[139.55471720129634,35.46099113777956],[139.55072294388907,35.46277736138275]],[[139.55072294388907,35.46277736138275],[139.55133556005583,35.464510855137874],[139.55452116412297,35.4668968807628],[139.55613030258766,35.46598729088368]],[[139.556179311881,35.46204573474085],[139.55471720129634,35.46099113777956]],[[139.5485665349821,35.47862927195719],[139.54583835098612,35.479472949526226],[139.54569949132164,35.4805934587976],[139.5432326902235,35.48159532591083]],[[139.5432326902235,35.48159532591083],[139.54311016699015,35.48172715053099]],[[139.54311016699015,35.48172715053099],[139.54482549225708,35.48437023416523]],[[139.54482549225708,35.48437023416523],[139.5468267050685,35.48280152118531]],[[139.5468267050685,35.48280152118531],[139.54868905821544,35.48039572186736],[139.5485665349821,35.47862927195719]],[[139.53689415495143,35.477166018673394],[139.53740875253152,35.47919611782389]],[[139.53740875253152,35.47919611782389],[139.54048816979642,35.47860949826417]],[[139.54048816979642,35.47860949826417],[139.54467029616148,35.47646075695553]],[[139.5444987636348,35.475452298611295],[139.54440891326368,35.4743186068779]],[[139.54440891326368,35.4743186068779],[139.54382896995915,35.474292241953876]],[[139.54382896995915,35.474292241953876],[139.54144385101657,35.47614437786714],[139.54043916050307,35.47560389692448],[139.53689415495143,35.477166018673394]],[[139.55037987883568,35.49465914576886],[139.54728412513967,35.49626740613483],[139.5483541613776,35.49726927324806],[139.54603438815948,35.49728904694108]],[[139.54603438815948,35.49728904694108],[139.54569949132164,35.498758891455886]],[[139.54569949132164,35.498758891455886],[139.54748016231304,35.49904890562024],[139.55241376450934,35.497605426029466],[139.5526261381138,35.49642559567902],[139.55037987883568,35.49465914576886]],[[139.54297130732567,35.48738242673593],[139.5426282422723,35.487817447982465]],[[139.5426282422723,35.487817447982465],[139.5400389179408,35.48966958389573]],[[139.5400389179408,35.48966958389573],[139.54292229803235,35.49371000850369]],[[139.54292229803235,35.49371000850369],[139.54580567812388,35.49340681187732]],[[139.54580567812388,35.49340681187732],[139.5463121074884,35.489247745111214],[139.54297130732567,35.48738242673593]],[[139.49475433089398,35.5026872651367],[139.4974335055966,35.50459213089804],[139.49823399072116,35.50678041959272]],[[139.49823399072116,35.50678041959272],[139.4993775408991,35.5066815511276],[139.5000963438681,35.50438121150578],[139.49945105483914,35.502364294817305]],[[139.49945105483914,35.502364294817305],[139.4992468494502,35.50121082939089],[139.49549763850965,35.501929273570774],[139.49475433089398,35.5026872651367]],[[139.50093767007047,35.48433068677919],[139.500725296466,35.482175354239544],[139.50168097768614,35.478932468583565]],[[139.50168097768614,35.478932468583565],[139.4989119526124,35.47928180382699],[139.49760503812328,35.482267631473654],[139.49271227700478,35.485016174804024],[139.48848114134637,35.489260927573234],[139.48879970175307,35.49286633093465],[139.48761531049735,35.49780975419072],[139.4898534015599,35.49774384188064],[139.4901229526733,35.49897640207915],[139.4874519461862,35.49893026346209],[139.4893061311176,35.505185341688765]],[[139.4893061311176,35.505185341688765],[139.49199347403578,35.50353094270574],[139.49332489317155,35.50403187626235],[139.49475433089398,35.5026872651367]],[[139.49945105483914,35.502364294817305],[139.50071712825044,35.502858637142914],[139.50195869701506,35.50175131033355]],[[139.50195869701506,35.50175131033355],[139.50422946093985,35.50074944322032],[139.50578142189565,35.50196222972581]],[[139.50578142189565,35.50196222972581],[139.5085504469694,35.50108559600174],[139.51293677872337,35.49889071607605],[139.51474195436143,35.499226868857455]],[[139.51474195436143,35.499226868857455],[139.5155261030549,35.496867208156566]],[[139.5155261030549,35.496867208156566],[139.51264272296334,35.495113940708414],[139.5088690073761,35.4938022857378],[139.5068677945647,35.493822059430826],[139.50569973974007,35.490401210537634]],[[139.50569973974007,35.490401210537634],[139.50239161243957,35.48837111138714],[139.50237527600845,35.48617623146145],[139.50093767007047,35.48433068677919]],[[139.54601805172837,35.46696279307288],[139.5452584076816,35.470798889519585]],[[139.5452584076816,35.470798889519585],[139.54440891326368,35.4743186068779]],[[139.55283034350273,35.47212372695221],[139.55390037974067,35.47164256708862]],[[139.55390037974067,35.47164256708862],[139.54601805172837,35.46696279307288]],[[139.52161959186026,35.483823161991566],[139.52158691899803,35.48382975322257]],[[139.52158691899803,35.48382975322257],[139.52050871454452,35.486466245625806],[139.5181889413264,35.48830519907706]],[[139.5181889413264,35.48830519907706],[139.51783770805744,35.48979481728489],[139.5209824710468,35.49144262503691],[139.5209334617535,35.4932288486401],[139.52311437530713,35.49618831136273]],[[139.52311437530713,35.49618831136273],[139.52458465410737,35.49541054610378],[139.52471534555627,35.492905878320705],[139.52696977304993,35.49038143684461]],[[139.52696977304993,35.49038143684461],[139.52525444778303,35.48906319064299],[139.5250502423941,35.487336288118875],[139.52161959186026,35.483823161991566]],[[139.55072294388907,35.46277736138275],[139.54999597270452,35.4630607843161]],[[139.54999597270452,35.4630607843161],[139.5505105702846,35.464886555305334],[139.55253628774267,35.46702211415195],[139.5489422728977,35.467391223088406],[139.54924449687329,35.46824149188845],[139.55189916692925,35.46873583421406],[139.55669390946107,35.46733849324034],[139.5593567477326,35.467852609258976]],[[139.55216871804262,35.45714845010184],[139.5519481762226,35.458506243689506],[139.5480682738331,35.45867761569572],[139.54584651920166,35.461551392415245]],[[139.54584651920166,35.461551392415245],[139.54509504337045,35.46215119443698]],[[139.54509504337045,35.46215119443698],[139.54617324782393,35.46296850708198]],[[139.54617324782393,35.46296850708198],[139.54697373294852,35.46366717756884],[139.54999597270452,35.4630607843161]],[[139.55471720129634,35.46099113777956],[139.55319791320278,35.45733959580108]],[[139.5509434857091,35.483368367052],[139.55063309351794,35.48395498661173],[139.5468267050685,35.48280152118531]],[[139.54482549225708,35.48437023416523],[139.54435990397033,35.485016174804024]],[[139.54435990397033,35.485016174804024],[139.54792941416866,35.488212921842944]],[[139.54792941416866,35.488212921842944],[139.5485093574732,35.487909725216575]],[[139.5485093574732,35.487909725216575],[139.55167862510922,35.48582689621802],[139.5509434857091,35.483368367052]],[[139.5400389179408,35.48966958389573],[139.53854413449392,35.49088237040122]],[[139.53854413449392,35.49088237040122],[139.5372617246515,35.492444492150135],[139.53314494401087,35.494079117440144],[139.53598748302463,35.49646514306507]],[[139.53598748302463,35.49646514306507],[139.54006342258748,35.49589170596737],[139.54085573949646,35.49394729281998],[139.54292229803235,35.49371000850369]],[[139.51262638653222,35.46089886054544],[139.5092855863695,35.46217755936101],[139.50542202041115,35.46638276474417]],[[139.50542202041115,35.46638276474417],[139.50493192747774,35.4675494126326]],[[139.50493192747774,35.4675494126326],[139.50772545719815,35.46840627266365]],[[139.50772545719815,35.46840627266365],[139.51205461144326,35.466956201841874]],[[139.51205461144326,35.466956201841874],[139.5125365361611,35.46684415091474]],[[139.5125365361611,35.46684415091474],[139.51262638653222,35.46089886054544]],[[139.54311016699015,35.48172715053099],[139.5407740573409,35.482986075653535]],[[139.5407740573409,35.482986075653535],[139.53794785475827,35.48589939975911]],[[139.53794785475827,35.48589939975911],[139.5426282422723,35.487817447982465]],[[139.54297130732567,35.48738242673593],[139.54435990397033,35.485016174804024]],[[139.5213255361002,35.44844143394016],[139.51898942645096,35.44917306058206],[139.5160161959883,35.44889622887972],[139.5131246476812,35.44589062754003],[139.51080487446305,35.4456203870687],[139.50857495161605,35.45074836479299],[139.50673710311577,35.45313439041792]],[[139.50673710311577,35.45313439041792],[139.51058433264302,35.45279823763651],[139.5129531151545,35.451572268669004],[139.5183768102842,35.452323669003924],[139.51882606213982,35.45178318806126],[139.52071291993343,35.4544196804645]],[[139.52071291993343,35.4544196804645],[139.5224772544937,35.45489424909708],[139.52244458163148,35.45298938333574]],[[139.52244458163148,35.45298938333574],[139.52071291993343,35.45021447508134],[139.5213255361002,35.44844143394016]],[[139.55431695873406,35.47925543890296],[139.5506984392424,35.48077142203482],[139.54948954334,35.48266969656515],[139.5505514113624,35.48266310533414]],[[139.5505514113624,35.48266310533414],[139.55345112788504,35.48463388340556],[139.55657138622774,35.48533255389241]],[[139.55657138622774,35.48533255389241],[139.55691445128113,35.48467343079161]],[[139.55782929142347,35.47963773030143],[139.55431695873406,35.47925543890296]],[[139.54492351084374,35.45002992061311],[139.5467286864818,35.44779549330137],[139.5452747441127,35.447024319273424],[139.54453960471258,35.44475034457564],[139.54324902665462,35.44544242383149],[139.54065153410755,35.44419008993995],[139.53904239564287,35.444486695335314],[139.53802136869828,35.44308276313059],[139.53662460383805,35.44338595975696],[139.5354238761512,35.44587085384701],[139.5291506866036,35.44944330105339]],[[139.5291506866036,35.44944330105339],[139.5318952070307,35.45138771420078]],[[139.5318952070307,35.45138771420078],[139.533234794382,35.4529564271807],[139.5366000991914,35.45269277794038],[139.53836443375167,35.45420876107224]],[[139.53836443375167,35.45420876107224],[139.5400389179408,35.453866017059816],[139.54283244766123,35.44992446091698],[139.54492351084374,35.45002992061311]],[[139.5505514113624,35.48266310533414],[139.5509434857091,35.483368367052]],[[139.5485093574732,35.487909725216575],[139.54953855263335,35.488911592329806],[139.5527241567005,35.48924115388021]],[[139.5527241567005,35.48924115388021],[139.55547684534312,35.485747801445925],[139.55657138622774,35.48533255389241]],[[139.54673685469737,35.451539312513965],[139.54492351084374,35.45002992061311]],[[139.53836443375167,35.45420876107224],[139.53707385569368,35.45830191552826],[139.53568525904902,35.45813713475306]],[[139.53568525904902,35.45813713475306],[139.5361263426891,35.46013427774851]],[[139.5361263426891,35.46013427774851],[139.53918942352288,35.46093840793149],[139.54059435659866,35.462816908768794],[139.54509504337045,35.46215119443698]],[[139.54584651920166,35.461551392415245],[139.5444252496948,35.45839419276237],[139.54426188538366,35.455204036954456],[139.5468430414996,35.45300256579776],[139.54673685469737,35.451539312513965]],[[139.54792941416866,35.488212921842944],[139.54686754614627,35.491752412894286]],[[139.54686754614627,35.491752412894286],[139.55005315021342,35.49264882031139]],[[139.55005315021342,35.49264882031139],[139.5527241567005,35.48924115388021]],[[139.5361263426891,35.46013427774851],[139.53784983617157,35.462019369816815],[139.53459071816442,35.46453722006191]],[[139.53459071816442,35.46453722006191],[139.5377518175849,35.46497224130844],[139.53945897463626,35.46727258093026],[139.54263641048786,35.46972451886527]],[[139.54263641048786,35.46972451886527],[139.5452584076816,35.470798889519585]],[[139.54601805172837,35.46696279307288],[139.54617324782393,35.46296850708198]],[[139.53235262710186,35.45791962412979],[139.53036775072155,35.462065508433874]],[[139.53036775072155,35.462065508433874],[139.5337820648243,35.464583358678965]],[[139.5337820648243,35.464583358678965],[139.53459071816442,35.46453722006191]],[[139.53568525904902,35.45813713475306],[139.53235262710186,35.45791962412979]],[[139.52754971635449,35.47556434953843],[139.52733734275,35.47549184599735]],[[139.52733734275,35.47549184599735],[139.5264878483321,35.4763552972594],[139.517127073304,35.48017162001308]],[[139.517127073304,35.48017162001308],[139.5184339877931,35.48183261022712]],[[139.5184339877931,35.48183261022712],[139.52158691899803,35.48382975322257]],[[139.52161959186026,35.483823161991566],[139.52465816804738,35.482010573464336],[139.5262754747276,35.482544463176],[139.53061279718827,35.48195784361627]],[[139.53061279718827,35.48195784361627],[139.5314214505284,35.480520955256516],[139.53381473768653,35.47997388308284],[139.53371671909986,35.47800969624243]],[[139.53371671909986,35.47800969624243],[139.5305147786016,35.47724511344549],[139.52754971635449,35.47556434953843]],[[139.53091502116388,35.47275648512899],[139.52787644497676,35.47544570738029]],[[139.52787644497676,35.47544570738029],[139.52754971635449,35.47556434953843]],[[139.53371671909986,35.47800969624243],[139.53689415495143,35.477166018673394]],[[139.54382896995915,35.474292241953876],[139.54233418651225,35.473171732682495],[139.53843794769168,35.473020134369314],[139.53206673955737,35.47360675392903],[139.53091502116388,35.47275648512899]],[[139.51697187720845,35.470330912118015],[139.5144070575236,35.4708054807506],[139.5147827954392,35.47259170435379],[139.51697187720845,35.47592686724388],[139.51483997294812,35.477251704676505]],[[139.51483997294812,35.477251704676505],[139.51517486978594,35.47803606116646]],[[139.51517486978594,35.47803606116646],[139.52107232141793,35.475795042623716]],[[139.52107232141793,35.475795042623716],[139.52035351844896,35.47278285005302],[139.5174701383574,35.471655749550635],[139.51706989579512,35.47073297720951]],[[139.51706989579512,35.47073297720951],[139.51697187720845,35.470330912118015]],[[139.52335942177385,35.46511065715961],[139.521366377178,35.464464716520816]],[[139.521366377178,35.464464716520816],[139.51834413742196,35.46505792731155],[139.51505234655258,35.467167121234134]],[[139.51505234655258,35.467167121234134],[139.51648178427502,35.46862378328692]],[[139.51648178427502,35.46862378328692],[139.51970822941996,35.46807011988224],[139.52122751751352,35.46849854989777],[139.52528712064523,35.46733849324034]],[[139.52528712064523,35.46733849324034],[139.52585072751867,35.46500519746348],[139.52426609370065,35.465993882114695],[139.52335942177385,35.46511065715961]],[[139.5485665349821,35.47838539640989],[139.5485665349821,35.47862927195719]],[[139.55431695873406,35.47925543890296],[139.54866455356876,35.478378805178885]],[[139.50093767007047,35.48433068677919],[139.5042539655865,35.48437682539624],[139.50819921370044,35.48321676873882],[139.5102085947274,35.4842581832381],[139.5131246476812,35.483842935684585],[139.51456225361918,35.482715835182205]],[[139.51456225361918,35.482715835182205],[139.5110989302231,35.48025071478518],[139.50993904361405,35.478391987640904],[139.50824822299379,35.477614222381945]],[[139.50824822299379,35.477614222381945],[139.50736605571365,35.476414618338474],[139.50335546187526,35.474984321209725]],[[139.50335546187526,35.474984321209725],[139.50109286616603,35.474147234871694]],[[139.50109286616603,35.474147234871694],[139.5020648838173,35.47856335964711],[139.50168097768614,35.478932468583565]],[[139.5125365361611,35.46684415091474],[139.51505234655258,35.467167121234134]],[[139.521366377178,35.464464716520816],[139.5210396485557,35.46283009123081],[139.52272230096042,35.461235013326856]],[[139.52272230096042,35.461235013326856],[139.51672683074173,35.46009473036246],[139.51262638653222,35.46089886054544]],[[139.5367471270714,35.48661125270798],[139.53159298305508,35.48825906046]],[[139.53159298305508,35.48825906046],[139.52696977304993,35.49038143684461]],[[139.52311437530713,35.49618831136273],[139.5221995351648,35.501177873235854]],[[139.5221995351648,35.501177873235854],[139.52497672845408,35.50446030627788],[139.52955909738145,35.50304978284215],[139.53112739476833,35.504223021961586],[139.5313806094506,35.502304973738234]],[[139.5313806094506,35.502304973738234],[139.53033507785935,35.502990461763076],[139.52688809089437,35.50119764692887],[139.5341578027399,35.495456684720835],[139.53557090403123,35.49684084323253],[139.53526051184008,35.500037590271454]],[[139.53526051184008,35.500037590271454],[139.53879734917618,35.50055829752109],[139.5407005434009,35.50017600612262]],[[139.5407005434009,35.50017600612262],[139.53598748302463,35.49646514306507]],[[139.53854413449392,35.49088237040122],[139.5367471270714,35.48661125270798]],[[139.52863608902354,35.46793829526208],[139.52528712064523,35.46733849324034]],[[139.51648178427502,35.46862378328692],[139.51697187720845,35.470330912118015]],[[139.51706989579512,35.47073297720951],[139.52403738366505,35.47034409458003]],[[139.52403738366505,35.47034409458003],[139.52651235297876,35.46913789930555]],[[139.52651235297876,35.46913789930555],[139.52863608902354,35.46793829526208]],[[139.51038829546965,35.47581481631674],[139.50824822299379,35.477614222381945]],[[139.51456225361918,35.482715835182205],[139.5184339877931,35.48183261022712]],[[139.517127073304,35.48017162001308],[139.51573847665935,35.478589724571144]],[[139.51573847665935,35.478589724571144],[139.5129531151545,35.47952567937429],[139.511801396761,35.47916316166884],[139.51038829546965,35.47581481631674]],[[139.55809884253685,35.47964432153244],[139.55834388900357,35.47873473165332],[139.55420260371628,35.47849744733703]],[[139.55653054514994,35.45410330137611],[139.5515887747381,35.45364850643655],[139.5499796362734,35.45252799716518],[139.54673685469737,35.451539312513965]],[[139.54048816979642,35.47860949826417],[139.5411334588254,35.48031662709526],[139.5432326902235,35.48159532591083]],[[139.50493192747774,35.4675494126326],[139.50267749998406,35.46918403792261]],[[139.50267749998406,35.46918403792261],[139.5038782276709,35.470119992725756],[139.5042376291554,35.47240055865455]],[[139.5042376291554,35.47240055865455],[139.5062225055357,35.47255874819874]],[[139.5062225055357,35.47255874819874],[139.50772545719815,35.472347828806484],[139.50772545719815,35.46840627266365]],[[139.53159298305508,35.48825906046],[139.52952642451922,35.486182822692456],[139.53066180648162,35.48604440684129],[139.53133160015727,35.48313108273572],[139.53061279718827,35.48195784361627]],[[139.51474195436143,35.499226868857455],[139.52032901380227,35.50193586480178],[139.5221995351648,35.501177873235854]],[[139.5181889413264,35.48830519907706],[139.51507685119927,35.48951139435154]],[[139.51507685119927,35.48951139435154],[139.51645727962836,35.49121852318263],[139.51671049431062,35.49439549652853],[139.5155261030549,35.496867208156566]],[[139.5407005434009,35.50017600612262],[139.54207280361445,35.498205228051205]],[[139.54207280361445,35.498205228051205],[139.54309383055903,35.49519303548051],[139.54292229803235,35.49371000850369]],[[139.5337820648243,35.464583358678965],[139.53213208528183,35.46497224130844],[139.530286068566,35.466943019379855]],[[139.530286068566,35.466943019379855],[139.53273653323302,35.47025181734592]],[[139.53273653323302,35.47025181734592],[139.53897704991843,35.47077252459555],[139.54263641048786,35.46972451886527]],[[139.54207280361445,35.498205228051205],[139.5426690833501,35.497710885725596],[139.54569949132164,35.498758891455886]],[[139.54603438815948,35.49728904694108],[139.54580567812388,35.49340681187732]],[[139.54580567812388,35.49340681187732],[139.54686754614627,35.491752412894286]],[[139.5313806094506,35.502304973738234],[139.53125808621726,35.50044624659395],[139.53396993378212,35.49963552517996],[139.53526051184008,35.500037590271454]],[[139.50673710311577,35.45313439041792],[139.50782347578485,35.45505902987228],[139.50780713935373,35.456897983323536]],[[139.50780713935373,35.456897983323536],[139.5116870417432,35.45726709225999]],[[139.5116870417432,35.45726709225999],[139.51772335303966,35.45513812464438],[139.51992877124,35.45588293374829]],[[139.51992877124,35.45588293374829],[139.52071291993343,35.4544196804645]],[[139.53794785475827,35.48589939975911],[139.5367471270714,35.48661125270798]],[[139.52107232141793,35.475795042623716],[139.52317155281602,35.47522819675702]],[[139.52317155281602,35.47522819675702],[139.5242905983473,35.47238078496153],[139.52403738366505,35.47034409458003]],[[139.52317155281602,35.47522819675702],[139.52733734275,35.47549184599735]],[[139.52787644497676,35.47544570738029],[139.52688809089437,35.47330355730266],[139.52651235297876,35.46913789930555]],[[139.5318952070307,35.45138771420078],[139.53003285388374,35.45160522482404],[139.52678190409213,35.45555337219789]],[[139.52678190409213,35.45555337219789],[139.5306454700505,35.457893259205754],[139.53235262710186,35.45791962412979]],[[139.4893061311176,35.505185341688765],[139.49263876306478,35.50751863746563],[139.49479517197176,35.50743954269353],[139.49915699907908,35.50898848198043]],[[139.49915699907908,35.50898848198043],[139.49823399072116,35.50678041959272]],[[139.5042376291554,35.47240055865455],[139.50335546187526,35.474984321209725]],[[139.51038829546965,35.47581481631674],[139.5100043893385,35.475419342456256]],[[139.5100043893385,35.475419342456256],[139.5062225055357,35.47255874819874]],[[139.5100043893385,35.475419342456256],[139.51113160308535,35.473580389005],[139.51065784658303,35.47143823892737],[139.5119892657188,35.470601152589346]],[[139.5119892657188,35.470601152589346],[139.51205461144326,35.466956201841874]],[[139.51507685119927,35.48951139435154],[139.51280608727447,35.488931366022825],[139.50569973974007,35.490401210537634]],[[139.50780713935373,35.456897983323536],[139.50493192747774,35.46122183086484],[139.50473589030437,35.463515579255656],[139.50542202041115,35.46638276474417]],[[139.51262638653222,35.46089886054544],[139.50993087539848,35.45888194385697],[139.5117768921143,35.4584996524585],[139.5116870417432,35.45726709225999]],[[139.51992877124,35.45588293374829],[139.52248542270925,35.458802849084876],[139.52144805933355,35.45942901603064],[139.52272230096042,35.461235013326856]],[[139.52335942177385,35.46511065715961],[139.5269779412655,35.46368036003086],[139.52699427769662,35.46223688044009],[139.53036775072155,35.462065508433874]],[[139.52678190409213,35.45555337219789],[139.52244458163148,35.45298938333574]],[[139.56106390478396,35.478682001805254],[139.56051663434167,35.47756149253388],[139.56308962224205,35.47783173300521],[139.5605493072039,35.47368584870113],[139.558409234728,35.47385062947633],[139.5585807672547,35.46996180318156],[139.5578619642857,35.469223585308654],[139.55390037974067,35.47164256708862]],[[139.51517486978594,35.47803606116646],[139.51573847665935,35.478589724571144]],[[139.51038829546965,35.47581481631674],[139.51366374990795,35.475992779553955]],[[139.51366374990795,35.475992779553955],[139.5119892657188,35.470601152589346]],[[139.56776184154052,35.459270826486446],[139.5664222541892,35.45885557893294],[139.56656111385368,35.45550723358083],[139.56323665012206,35.45530290541958],[139.56153766128625,35.45331894488615],[139.56028792430607,35.453839652135784]],[[139.51483997294812,35.477251704676505],[139.51366374990795,35.475992779553955]],[[139.530286068566,35.466943019379855],[139.52863608902354,35.46793829526208]],[[139.53091502116388,35.47275648512899],[139.53273653323302,35.47025181734592]],[[139.49915699907908,35.50898848198043],[139.50301239682187,35.50877756258817]],[[139.50301239682187,35.50877756258817],[139.50302056503745,35.50667495989659],[139.50437648881987,35.503339797006504],[139.50195869701506,35.50175131033355]],[[139.55037987883568,35.49465914576886],[139.55005315021342,35.49264882031139]],[[139.53740875253152,35.47919611782389],[139.54078222555646,35.48176010668603],[139.5407740573409,35.482986075653535]],[[139.50267749998406,35.46918403792261],[139.50109286616603,35.474147234871694]],[[139.5291506866036,35.44944330105339],[139.52808065036567,35.44889622887972],[139.5247806912807,35.44959489936658],[139.52393936507838,35.44770321606726],[139.5213255361002,35.44844143394016]],[[139.50301239682187,35.50877756258817],[139.50547102970447,35.506009245564776],[139.50578142189565,35.50196222972581]]]}