{"type":"Topology","bbox":[139.5162512822675,35.334744653326894,139.5927172181659,35.38487069404093],"objects":{"town":{"type":"GeometryCollection","geometries":[{"type":"MultiPolygon","arcs":[[[19,20,21,22,23,24,25,26,27,28,0,1,2,29,30,15,16,17,18,5,6,7,8,9,10,11,12,13]]],"properties":{"name":"上郷町"}},{"type":"MultiPolygon","arcs":[[[-90,123,124,-105,-91,71]],[[59,60,61,-1,62]]],"properties":{"name":"公田町"}},{"type":"MultiPolygon","arcs":[[[-25,-146,-23,-22,36,168,34,-28,31,-164,-26]]],"properties":{"name":"庄戸"}},{"type":"MultiPolygon","arcs":[[[-49,97,98,99,100,101,52,53,54,55,56,57,64,65,66,67,68,69,41,42,38,102]]],"properties":{"name":"小菅ケ谷"}},{"type":"Polygon","arcs":[[-10,43]],"properties":{"name":"鍛冶ケ谷町"}},{"type":"Polygon","arcs":[[44,45,46,47]],"properties":{"name":"金井町"}},{"type":"Polygon","arcs":[[48,49,50]],"properties":{"name":"笠間町"}},{"type":"MultiPolygon","arcs":[[[-108,177,72,73,74,-155]]],"properties":{"name":"元大橋"}},{"type":"Polygon","arcs":[[-42,-70,76,77,78]],"properties":{"name":"柏陽"}},{"type":"MultiPolygon","arcs":[[[-30,-3,79,80,81,-16,-31]]],"properties":{"name":"野七里"}},{"type":"Polygon","arcs":[[-81,83,84,85,86,-18,87]],"properties":{"name":"犬山町"}},{"type":"MultiPolygon","arcs":[[[-60,169,88,89,-72,90,91,92,-153,-160,170]]],"properties":{"name":"桂台西"}},{"type":"Polygon","arcs":[[94,-7,95,96]],"properties":{"name":"亀井町"}},{"type":"Polygon","arcs":[[103,-92,104,105,106,107,108,-13,109,-11,-44,-9]],"properties":{"name":"中野町"}},{"type":"Polygon","arcs":[[-62,110,-84,-80,-2]],"properties":{"name":"桂台南ニ丁目"}},{"type":"MultiPolygon","arcs":[[[164,120,121,140,142,-55,-54,-53,-102,-101]]],"properties":{"name":"本郷台"}},{"type":"MultiPolygon","arcs":[[[172,-159,148,-158,-136,165,-50,-103,-39,117,118,162]]],"properties":{"name":"笠間"}},{"type":"Polygon","arcs":[[-125,125,-118,-43,-79,126,-106]],"properties":{"name":"桂町"}},{"type":"MultiPolygon","arcs":[[[-58,-57,128,171,-65]]],"properties":{"name":"小山台"}},{"type":"Polygon","arcs":[[-77,-69,129,130]],"properties":{"name":"鍛冶ケ谷ニ丁目"}},{"type":"Polygon","arcs":[[131,132,-97,133,-86,134]],"properties":{"name":"桂台東"}},{"type":"MultiPolygon","arcs":[[[-51,-166,135,136,-46,137,138,-145,174,-121,-165,-100,175,-98]]],"properties":{"name":"飯島町"}},{"type":"Polygon","arcs":[[143,144,-139]],"properties":{"name":"長沼町"}},{"type":"Polygon","arcs":[[-24,145]],"properties":{"name":"東上郷町"}},{"type":"Polygon","arcs":[[146,-48,147]],"properties":{"name":"田谷町"}},{"type":"Polygon","arcs":[[152,-93,-104,-8,-95,-133,153]],"properties":{"name":"桂台北"}},{"type":"Polygon","arcs":[[-88,-17,-82]],"properties":{"name":"上之町"}},{"type":"Polygon","arcs":[[-20,-14,-109,154,-75,155]],"properties":{"name":"若竹町"}},{"type":"Polygon","arcs":[[156,-148,-47,-137,157,-149,158]],"properties":{"name":"長尾台町"}},{"type":"Polygon","arcs":[[159,-154,-132,160]],"properties":{"name":"桂台中"}},{"type":"Polygon","arcs":[[163,-32,-27]],"properties":{"name":"長倉町"}},{"type":"Polygon","arcs":[[-134,-96,-6,-19,-87]],"properties":{"name":"尾月"}},{"type":"Polygon","arcs":[[-67,173]],"properties":{"name":"小菅ケ谷町"}},{"type":"Polygon","arcs":[[-61,-171,-161,-135,-85,-111]],"properties":{"name":"桂台南"}},{"type":"Polygon","arcs":[[-127,-78,-131,178,-73,-178,-107]],"properties":{"name":"鍛冶ケ谷"}}]}},"arcs":[[[139.5695763118724,35.34739773131091],[139.56910982301454,35.347768701109175]],[[139.56910982301454,35.347768701109175],[139.57328528066034,35.34919743614303]],[[139.57328528066034,35.34919743614303],[139.57345352254353,35.34887158429321]],[[139.57345352254353,35.34887158429321],[139.5695763118724,35.34739773131091]],[[139.55607872442758,35.358095698195974],[139.55607872442758,35.358095698195974]],[[139.57251289746947,35.36276289930657],[139.57149579881215,35.36291329246802],[139.57151109352878,35.36081781441837],[139.56967572753064,35.36066240815153]],[[139.56967572753064,35.36066240815153],[139.56842156076522,35.36279799104424],[139.56637206873395,35.36243203435136],[139.56694562060838,35.3587273494741]],[[139.56694562060838,35.3587273494741],[139.56712150984987,35.356852448061254],[139.56532438064332,35.35689255290431],[139.56467435518564,35.35957456428365]],[[139.56467435518564,35.35957456428365],[139.5648655391438,35.36412646397045]],[[139.5648655391438,35.36412646397045],[139.56579851685953,35.36474307593243]],[[139.56579851685953,35.36474307593243],[139.5659132272344,35.364642813824794]],[[139.5659132272344,35.364642813824794],[139.5667467892919,35.36465785314094]],[[139.5667467892919,35.36465785314094],[139.56738152003294,35.365304543735206]],[[139.56738152003294,35.365304543735206],[139.56895687584802,35.3647781676701],[139.5710063678793,35.36802164685222],[139.57385883253477,35.36698894714354]],[[139.57385883253477,35.36698894714354],[139.5749065206254,35.36529953062983],[139.576634823607,35.36479320698625],[139.5752353570334,35.36247213919441],[139.57251289746947,35.36276289930657]],[[139.58126147539403,35.3467360014005],[139.5801526084368,35.34896182019008],[139.57993083504536,35.35135808456265],[139.57900550468796,35.350751498811434],[139.57765956962263,35.35213511589685]],[[139.57765956962263,35.35213511589685],[139.5785160737551,35.354736917590074],[139.57768251169762,35.35868223152566],[139.57521241495843,35.36017613692948],[139.57437885290094,35.35913842411542]],[[139.57437885290094,35.35913842411542],[139.57360646971003,35.359414144911426]],[[139.57360646971003,35.359414144911426],[139.5738129483848,35.36182043549476],[139.57251289746947,35.36276289930657]],[[139.57385883253477,35.36698894714354],[139.5740806059262,35.36736493004719]],[[139.5740806059262,35.36736493004719],[139.57577831947452,35.36913956935239],[139.5777131011309,35.3697210895767],[139.57802664282227,35.368703429184166],[139.58075674974452,35.36645755797306],[139.58296683630064,35.36610664059632],[139.58373157213322,35.365018796728435],[139.5893906172942,35.363845730069066],[139.59256427099936,35.361660016122535],[139.5918607140334,35.35782499050535],[139.58907707560286,35.35654664863296]],[[139.58907707560286,35.35654664863296],[139.58624755302236,35.35687751358817]],[[139.58624755302236,35.35687751358817],[139.58606401642254,35.35699782811733]],[[139.58606401642254,35.35699782811733],[139.58588047982275,35.35918354206386],[139.58435865551593,35.36197082865622],[139.5824468159345,35.36209615629077],[139.5801755505118,35.36106846968747],[139.5812002965274,35.356636884529834]],[[139.5812002965274,35.356636884529834],[139.58123853331907,35.354115292522714]],[[139.58123853331907,35.354115292522714],[139.58022908202005,35.35339340534772],[139.5818809114184,35.3492325278807]],[[139.5818809114184,35.3492325278807],[139.58216386367647,35.3452922270505],[139.58432806608263,35.34458537919164],[139.58475631814886,35.34719720709564],[139.5838386351498,35.347964212219075]],[[139.5838386351498,35.347964212219075],[139.58682110489679,35.34772859626612],[139.58802938751225,35.34636503160223]],[[139.58802938751225,35.34636503160223],[139.5890311914529,35.34463049714008],[139.58903883881123,35.3420988789222],[139.5880140927956,35.339346684067515],[139.58781526147914,35.336734856163524],[139.58267623668428,35.335782366140954],[139.58171266953525,35.33475969264304],[139.57918139392945,35.336358873259876],[139.5766042341737,35.335647012295645],[139.57294879689402,35.33725120601787],[139.57291820746073,35.34232446866439],[139.57179404578685,35.34289596267793],[139.5695763118724,35.34739773131091]],[[139.57345352254353,35.34887158429321],[139.57431767403432,35.34751804584008],[139.57741485415622,35.346480333026015]],[[139.57741485415622,35.346480333026015],[139.5787454945049,35.34217407550293],[139.58159795916035,35.34306139515554],[139.58204915330157,35.34466558887775],[139.58126147539403,35.3467360014005]],[[139.5838386351498,35.347964212219075],[139.5823244582013,35.349412999674456]],[[139.5823244582013,35.349412999674456],[139.5842057083494,35.35096706234285]],[[139.5842057083494,35.35096706234285],[139.58911531239448,35.35035546348626]],[[139.58911531239448,35.35035546348626],[139.58802938751225,35.34636503160223]],[[139.5862552003807,35.3541203056281],[139.58624755302236,35.35687751358817]],[[139.58907707560286,35.35654664863296],[139.59056831047639,35.35413033183886]],[[139.59056831047639,35.35413033183886],[139.5862552003807,35.3541203056281]],[[139.5444623871309,35.363815651436774],[139.54083753928452,35.36271778135813]],[[139.54083753928452,35.36271778135813],[139.54292526810744,35.36607656196403],[139.54424826109778,35.36715939272653],[139.54648128972886,35.3670290519866],[139.55139854113227,35.368136948276]],[[139.55139854113227,35.368136948276],[139.55451866332916,35.36891899271559]],[[139.55451866332916,35.36891899271559],[139.55397570088803,35.36648262349996],[139.55210974545656,35.365184229206044]],[[139.55210974545656,35.365184229206044],[139.54775839856927,35.3647531021432],[139.5444623871309,35.363815651436774]],[[139.5648655391438,35.36412646397045],[139.56579851685953,35.36474307593243]],[[139.52256035288616,35.373756639409166],[139.52135207027072,35.37626319210013],[139.51939434653934,35.3778272809793],[139.51927963616447,35.38070981657392],[139.52215504289492,35.38071984278468],[139.52265212118607,35.379441500912286],[139.52588695375783,35.37922593738086],[139.52711053108993,35.378283473569056],[139.53127834137743,35.37680460748138]],[[139.53127834137743,35.37680460748138],[139.52883118671323,35.36962584057444]],[[139.52883118671323,35.36962584057444],[139.5288005972799,35.36964087989059]],[[139.5288005972799,35.36964087989059],[139.5227515368443,35.37204717047392],[139.52256035288616,35.373756639409166]],[[139.5379391904791,35.363770533488335],[139.53926983082778,35.362893240046496]],[[139.53926983082778,35.362893240046496],[139.5355302726065,35.364141503286596]],[[139.5355302726065,35.364141503286596],[139.5379391904791,35.363770533488335]],[[139.55067204209135,35.37173635794024],[139.55009849021693,35.37132528329892]],[[139.55009849021693,35.37132528329892],[139.54911962835124,35.37193186905014],[139.5495555277758,35.374759260485554]],[[139.5495555277758,35.374759260485554],[139.55171208282363,35.37738612770569],[139.55022084795013,35.37859428610274]],[[139.55022084795013,35.37859428610274],[139.55272918148094,35.37962698581141],[139.55255329223945,35.38185781770638],[139.555008094262,35.38485565472478]],[[139.555008094262,35.38485565472478],[139.55750113307616,35.38129133679822],[139.55701934950164,35.38035889919718]],[[139.55701934950164,35.38035889919718],[139.55457984219575,35.378534128838155]],[[139.55457984219575,35.378534128838155],[139.5540904112629,35.3782985128852]],[[139.5540904112629,35.3782985128852],[139.55295860223072,35.373811783568364],[139.55067204209135,35.37173635794024]],[[139.5595047409575,35.35349868056074],[139.563672551245,35.35123777003348]],[[139.563672551245,35.35123777003348],[139.56467435518564,35.35102721960744]],[[139.56467435518564,35.35102721960744],[139.5671368045665,35.34985415294807],[139.56910982301454,35.347768701109175]],[[139.5695763118724,35.34739773131091],[139.56339724634526,35.346104350122374],[139.5606977288563,35.34629986123227],[139.5573023017597,35.34739271820553],[139.55446513182088,35.351037245818205],[139.55574224066126,35.35068632844147],[139.55814351117553,35.35355382471994],[139.5595047409575,35.35349868056074]],[[139.55139854113227,35.368136948276],[139.55067204209135,35.37173635794024]],[[139.5540904112629,35.3782985128852],[139.55485514709548,35.375586422873575],[139.5542892425794,35.374177740261246],[139.55622402423577,35.37326034197635]],[[139.55622402423577,35.37326034197635],[139.5564993291355,35.37308989639337]],[[139.5564993291355,35.37308989639337],[139.55675169196024,35.373019712918016]],[[139.55675169196024,35.373019712918016],[139.55704993893494,35.37127013913972],[139.55885471549982,35.37001686279424]],[[139.55885471549982,35.37001686279424],[139.5570881757266,35.3695556570991]],[[139.5570881757266,35.3695556570991],[139.55451866332916,35.36891899271559]],[[139.55833469513365,35.356842421850494],[139.56023123999844,35.359875350606565]],[[139.56023123999844,35.359875350606565],[139.56155423298878,35.35880755916021],[139.55967298284065,35.3586170611557],[139.55833469513365,35.356842421850494]],[[139.56580616421783,35.369034294139375],[139.56488083386043,35.36940025083226],[139.5671903360748,35.37245824511524]],[[139.5671903360748,35.37245824511524],[139.57226053464473,35.371019483870626],[139.57187816672842,35.37001184968885]],[[139.57187816672842,35.37001184968885],[139.5700810375219,35.37031764911715],[139.56943101206423,35.3689992024017]],[[139.56943101206423,35.3689992024017],[139.56643324760054,35.369580722626004],[139.56580616421783,35.369034294139375]],[[139.5570881757266,35.3695556570991],[139.55652227121047,35.36729975967722],[139.5583117530587,35.365800841168024]],[[139.5583117530587,35.365800841168024],[139.55785291155914,35.36550005484511]],[[139.55785291155914,35.36550005484511],[139.5554822304782,35.36473806282705],[139.55210974545656,35.365184229206044]],[[139.57328528066034,35.34919743614303],[139.5751512360918,35.34935785551525],[139.574967699492,35.35118262587428]],[[139.574967699492,35.35118262587428],[139.57557184079974,35.35129291419268]],[[139.57557184079974,35.35129291419268],[139.57765956962263,35.35213511589685]],[[139.58126147539403,35.3467360014005],[139.57741485415622,35.346480333026015]],[[139.574967699492,35.35118262587428],[139.57286467595245,35.350992127869766]],[[139.57286467595245,35.350992127869766],[139.57109813617922,35.35140320251109],[139.57093754165436,35.35293721275796]],[[139.57093754165436,35.35293721275796],[139.57062399996303,35.35613056088626],[139.57150344617048,35.35666195005674],[139.571304614854,35.35889278195171]],[[139.571304614854,35.35889278195171],[139.57360646971003,35.359414144911426]],[[139.57437885290094,35.35913842411542],[139.57499064156698,35.35782499050535],[139.57557184079974,35.35129291419268]],[[139.55905354681627,35.355599171715774],[139.55819704268382,35.3565616879491]],[[139.55819704268382,35.3565616879491],[139.55833469513365,35.356842421850494]],[[139.56023123999844,35.359875350606565],[139.56070537621463,35.36087295857757]],[[139.56070537621463,35.36087295857757],[139.56324429917873,35.35951942012445]],[[139.56324429917873,35.35951942012445],[139.5637643195449,35.35615562641316]],[[139.5637643195449,35.35615562641316],[139.56012417698187,35.35619573125622],[139.55905354681627,35.355599171715774]],[[139.56845979755684,35.357634492500836],[139.56694562060838,35.3587273494741]],[[139.56967572753064,35.36066240815153],[139.5706163526047,35.35890782126785]],[[139.5706163526047,35.35890782126785],[139.56845979755684,35.357634492500836]],[[139.5379391904791,35.363770533488335],[139.53959101987743,35.36512407194146]],[[139.53959101987743,35.36512407194146],[139.53956043044414,35.36554015968816]],[[139.53956043044414,35.36554015968816],[139.54037869778497,35.367595532894754],[139.54253525283283,35.36752534941941],[139.54310880470726,35.36859815397114]],[[139.54310880470726,35.36859815397114],[139.54398060355638,35.36810686964372],[139.54745250423622,35.36997675795118]],[[139.54745250423622,35.36997675795118],[139.54761309876108,35.36880870439719],[139.55009849021693,35.37132528329892]],[[139.54083753928452,35.36271778135813],[139.53926983082778,35.362893240046496]],[[139.56467435518564,35.35957456428365],[139.56324429917873,35.35951942012445]],[[139.56070537621463,35.36087295857757],[139.5597188669906,35.363514865113856]],[[139.5597188669906,35.363514865113856],[139.55991005094876,35.364728036616285]],[[139.55991005094876,35.364728036616285],[139.56295369956237,35.365269451997534],[139.56554615403476,35.366718239452915]],[[139.56554615403476,35.366718239452915],[139.56559203818472,35.365389766526704],[139.56712150984987,35.36551509416125]],[[139.56712150984987,35.36551509416125],[139.56738152003294,35.365304543735206]],[[139.5667467892919,35.36465785314094],[139.5659132272344,35.364642813824794]],[[139.56467435518564,35.35102721960744],[139.57286467595245,35.350992127869766]],[[139.54745250423622,35.36997675795118],[139.54608362709592,35.372192550529995]],[[139.54608362709592,35.372192550529995],[139.54712366782823,35.373355590978605]],[[139.54712366782823,35.373355590978605],[139.5495555277758,35.374759260485554]],[[139.53766388557938,35.357208378543376],[139.5404092872183,35.36018115003486],[139.54073812362628,35.3615597540149]],[[139.54073812362628,35.3615597540149],[139.5407993024929,35.36188059275934]],[[139.5407993024929,35.36188059275934],[139.54083753928452,35.36271778135813]],[[139.5444623871309,35.363815651436774],[139.54426355581444,35.36296843662723]],[[139.54426355581444,35.36296843662723],[139.5425811369828,35.359539472545976],[139.54274937886595,35.3571181426465],[139.53896393649472,35.35673213353209],[139.53766388557938,35.357208378543376]],[[139.54608362709592,35.372192550529995],[139.54414884543954,35.37415267473433]],[[139.54414884543954,35.37415267473433],[139.54281820509087,35.374794352223226],[139.54581596955455,35.37797767414076]],[[139.54581596955455,35.37797767414076],[139.54767427762766,35.37759166502635]],[[139.54767427762766,35.37759166502635],[139.5463130478457,35.374433408635724],[139.54712366782823,35.373355590978605]],[[139.55819704268382,35.3565616879491],[139.55500044690368,35.35637118994459],[139.55324920184708,35.35548888339737],[139.55230857677304,35.35740890275865],[139.55330273335537,35.36032151698556],[139.55270623940598,35.36218639218764]],[[139.55270623940598,35.36218639218764],[139.55555870406144,35.36350483890309],[139.5597188669906,35.363514865113856]],[[139.55270623940598,35.36218639218764],[139.54890550231812,35.36043681840935],[139.5468483629285,35.36245208677288],[139.54426355581444,35.36296843662723]],[[139.55785291155914,35.36550005484511],[139.55991005094876,35.364728036616285]],[[139.5602771241484,35.37777714992548],[139.55457984219575,35.378534128838155]],[[139.55701934950164,35.38035889919718],[139.55934414643266,35.38146178238121],[139.560667139423,35.37958688096836],[139.5602771241484,35.37777714992548]],[[139.55885471549982,35.37001686279424],[139.56156188034709,35.370608409229305],[139.56307605729558,35.373350577873225],[139.5658826378011,35.37278409696506]],[[139.5658826378011,35.37278409696506],[139.56387138256144,35.369044320350135],[139.5583117530587,35.365800841168024]],[[139.568322145107,35.352816898228795],[139.56839861869025,35.355483870291984]],[[139.56839861869025,35.355483870291984],[139.56845979755684,35.357634492500836]],[[139.5706163526047,35.35890782126785],[139.571304614854,35.35889278195171]],[[139.57093754165436,35.35293721275796],[139.568322145107,35.352816898228795]],[[139.53013123762858,35.36440719787184],[139.5295118016042,35.36441722408261]],[[139.5295118016042,35.36441722408261],[139.52883118671323,35.36962584057444]],[[139.53127834137743,35.37680460748138],[139.53225720324312,35.37796263482461]],[[139.53225720324312,35.37796263482461],[139.53762564878775,35.37400729467826],[139.53788565897082,35.37514526959996],[139.54024104533514,35.37578694708885],[139.54057752910145,35.3769399613267]],[[139.54057752910145,35.3769399613267],[139.5396674934607,35.37342076134857],[139.5399963298687,35.371982000103955],[139.53626441900576,35.369034294139375],[139.53164541457707,35.36735991694181],[139.53013123762858,35.36440719787184]],[[139.54767427762766,35.37759166502635],[139.54839312931028,35.37865444336732]],[[139.54839312931028,35.37865444336732],[139.55022084795013,35.37859428610274]],[[139.54839312931028,35.37865444336732],[139.54933375438435,35.38150188722426],[139.55317272826383,35.38424906897357],[139.555008094262,35.38485565472478]],[[139.53225720324312,35.37796263482461],[139.532371913618,35.38296070089041],[139.5357367512813,35.38294566157426],[139.5409446023011,35.37906551800864],[139.54281055773254,35.378829902055685]],[[139.54281055773254,35.378829902055685],[139.54229818472473,35.37723072143885],[139.54057752910145,35.3769399613267]],[[139.58606401642254,35.35699782811733],[139.58302036780893,35.35596011530327],[139.5812002965274,35.356636884529834]],[[139.5229809575941,35.36003075687341],[139.52120677046253,35.36164497680639],[139.51872137900668,35.36162492438486],[139.51944787804763,35.364442289609514],[139.51817076920725,35.36824723659441],[139.51905786277302,35.36961581436368],[139.51662600282546,35.373606246247704],[139.51882079466492,35.37493471917392],[139.52256035288616,35.373756639409166]],[[139.5288005972799,35.36964087989059],[139.52768408296436,35.36906437277167],[139.52854058709684,35.36612669301785],[139.5229809575941,35.36003075687341]],[[139.5293588544377,35.359539472545976],[139.52847940823025,35.36106846968747],[139.5290300180297,35.36295841041646]],[[139.5290300180297,35.36295841041646],[139.53831391103705,35.36246211298365],[139.5407993024929,35.36188059275934]],[[139.54073812362628,35.3615597540149],[139.53708268634662,35.360366634933996],[139.53414610074955,35.35838645830813]],[[139.53414610074955,35.35838645830813],[139.53204307721,35.35759940076316],[139.53029947951174,35.35964976086438],[139.5293588544377,35.359539472545976]],[[139.56374902482824,35.35558413239963],[139.5637643195449,35.35615562641316]],[[139.56839861869025,35.355483870291984],[139.56374902482824,35.35558413239963]],[[139.56712150984987,35.36551509416125],[139.56943101206423,35.3689992024017]],[[139.57187816672842,35.37001184968885],[139.5740806059262,35.36736493004719]],[[139.53003946932867,35.35772472839771],[139.5290300180297,35.35841152383504],[139.52771467239768,35.356967749485044],[139.5259710746994,35.356727120426704],[139.5229809575941,35.36003075687341]],[[139.5295118016042,35.36441722408261],[139.5290300180297,35.36295841041646]],[[139.5293588544377,35.359539472545976],[139.53003946932867,35.35772472839771]],[[139.56368019860332,35.352902121020286],[139.56374902482824,35.35558413239963]],[[139.568322145107,35.352816898228795],[139.56368019860332,35.352902121020286]],[[139.5323107347514,35.35451634095327],[139.53414610074955,35.35838645830813]],[[139.53766388557938,35.357208378543376],[139.5367462025803,35.35516804465292],[139.5323107347514,35.35451634095327]],[[139.5818809114184,35.3492325278807],[139.5823244582013,35.349412999674456]],[[139.54310880470726,35.36859815397114],[139.54414884543954,35.37415267473433]],[[139.53013123762858,35.36440719787184],[139.53283075511754,35.364848351145454],[139.5355302726065,35.364141503286596]],[[139.5842057083494,35.35096706234285],[139.58406040854123,35.352115063475324]],[[139.58406040854123,35.352115063475324],[139.5862552003807,35.3541203056281]],[[139.59056831047639,35.35413033183886],[139.59113421499248,35.3527316754373],[139.58911531239448,35.35035546348626]],[[139.5595047409575,35.35349868056074],[139.55905354681627,35.355599171715774]],[[139.56368019860332,35.352902121020286],[139.563672551245,35.35123777003348]],[[139.5602771241484,35.37777714992548],[139.55909943096623,35.37586214366958],[139.55787585363413,35.376218074151694],[139.55622402423577,35.37326034197635]],[[139.5323107347514,35.35451634095327],[139.53069714214467,35.35417043668192],[139.53003946932867,35.35772472839771]],[[139.5564993291355,35.37308989639337],[139.55675169196024,35.373019712918016]],[[139.54281055773254,35.378829902055685],[139.54581596955455,35.37797767414076]],[[139.53956043044414,35.36554015968816],[139.53959101987743,35.36512407194146]],[[139.58406040854123,35.352115063475324],[139.58123853331907,35.354115292522714]],[[139.56554615403476,35.366718239452915],[139.56580616421783,35.369034294139375]],[[139.5658826378011,35.37278409696506],[139.5671903360748,35.37245824511524]]]}