{"type":"Topology","bbox":[139.55367032639396,35.36274125934268,139.60927280867978,35.42266806171908],"objects":{"town":{"type":"GeometryCollection","geometries":[{"type":"MultiPolygon","arcs":[[[4,5,2,3,0,6]]],"properties":{"name":"最戸"}},{"type":"MultiPolygon","arcs":[[[74,-5,-7,-1,7,-50,75,-37,-14,-13,-78,-64,95,96]]],"properties":{"name":"大久保"}},{"type":"MultiPolygon","arcs":[[[15,67,-35,66,9,10,11,12,13,36,37,38]],[[-173,-72,-71,-70,-56,-83,102,103,-174,-107,-106,-188]]],"properties":{"name":"港南"}},{"type":"MultiPolygon","arcs":[[[165,19,-233,201,-141,109,89,32,33,34,35,-73,172,170,-187,-186,-79,21,22,17,166,167,168]]],"properties":{"name":"日野"}},{"type":"MultiPolygon","arcs":[[[169,123,124,125,126,93,225,-190,26,27,-62]]],"properties":{"name":"芹が谷"}},{"type":"MultiPolygon","arcs":[[[173,-104,-103,82,-55,83,118,116,191,43,39,104,105,106]]],"properties":{"name":"笹下"}},{"type":"MultiPolygon","arcs":[[[80,47,44,45,81,-22,78,185,186,-171,187,-105,-40,188]]],"properties":{"name":"日野中央"}},{"type":"Polygon","arcs":[[48]],"properties":{"name":"上永谷町"}},{"type":"MultiPolygon","arcs":[[[54,55,56,-69,-38,-76,49,-8,-4,50,51,52,228,58,59]]],"properties":{"name":"上大岡西"}},{"type":"MultiPolygon","arcs":[[[-12,-11,-123,128,60,61,-28,62,63,77]]],"properties":{"name":"東永谷"}},{"type":"Polygon","arcs":[[-36,-68,-16,-39,68,-57,69,70,71,72]],"properties":{"name":"港南中央通"}},{"type":"MultiPolygon","arcs":[[[86,-23,-82,-46,-45,160,248,200,196,-130,-135,218,219,220,-246]]],"properties":{"name":"港南台"}},{"type":"MultiPolygon","arcs":[[[-195,213,-156,-155,-178,-139,100,-138,237,-184]]],"properties":{"name":"丸山台"}},{"type":"MultiPolygon","arcs":[[[239,-147,240,-151,-214,194,183,184,179,180,113,181,192,241]]],"properties":{"name":"日限山"}},{"type":"MultiPolygon","arcs":[[[154,155,150,-241,-146,-145,-165,-124,-170,-61,-129,122,-10,-67,-34,119,-140,177]]],"properties":{"name":"上永谷"}},{"type":"MultiPolygon","arcs":[[[226,131,132,-234,-169,-168,-167,-18,-87,245,-221,-220,-219,134,129,-197,227,208]]],"properties":{"name":"日野南"}},{"type":"MultiPolygon","arcs":[[[-133,230,-180,231,136,137,-101,138,139,-120,-33,-90,-110,140,-202,232,-20,-166,233],[-49]]],"properties":{"name":"野庭町"}},{"type":"MultiPolygon","arcs":[[[246,235,242,205,-126,-125,164,144,145,146,-240]]],"properties":{"name":"下永谷"}},{"type":"MultiPolygon","arcs":[[[-59,-229,-53,-52,223,149,229]]],"properties":{"name":"上大岡東"}},{"type":"Polygon","arcs":[[-63,-27,189,190,-96]],"properties":{"name":"東芹が谷"}}]}},"arcs":[[[139.59586570949074,35.41177827274839],[139.5931854018138,35.412887029468024]],[[139.5931854018138,35.412887029468024],[139.5938137727007,35.415428180003836]],[[139.5938137727007,35.415428180003836],[139.59562659490547,35.41641707113216],[139.59919107046753,35.415883669250825],[139.5973170794154,35.41280911683367]],[[139.5973170794154,35.41280911683367],[139.59586570949074,35.41177827274839]],[[139.5919620248658,35.40882358592255],[139.59011027703093,35.409129243180395],[139.58875344077953,35.41161645420012]],[[139.58875344077953,35.41161645420012],[139.59130584995737,35.41272521091975],[139.59304638170607,35.41557801199298],[139.5938137727007,35.415428180003836]],[[139.5931854018138,35.412887029468024],[139.5919620248658,35.40882358592255]],[[139.59586570949074,35.41177827274839],[139.59327437468275,35.4068458036659]],[[139.59327437468275,35.4068458036659],[139.59179520073656,35.407379205547244],[139.5919620248658,35.40882358592255]],[[139.5813242062227,35.403225862808284],[139.58160224643814,35.405161692107974]],[[139.58160224643814,35.405161692107974],[139.58255314397496,35.40568310743018]],[[139.58255314397496,35.40568310743018],[139.58335946059978,35.406060684042814]],[[139.58335946059978,35.406060684042814],[139.5837987641402,35.40620452275238]],[[139.5837987641402,35.40620452275238],[139.5848497561546,35.406024724365416]],[[139.5848497561546,35.406024724365416],[139.59115570824102,35.40280633323869]],[[139.59115570824102,35.40280633323869],[139.58960980464312,35.400882490498134]],[[139.58960980464312,35.400882490498134],[139.58685720651013,35.402608555013025],[139.5813242062227,35.403225862808284]],[[139.57728706229435,35.382902651801345],[139.5772036502297,35.382938611478735]],[[139.5772036502297,35.382938611478735],[139.57487367322423,35.38624690179895]],[[139.57487367322423,35.38624690179895],[139.57685331955824,35.38804488566863]],[[139.57685331955824,35.38804488566863],[139.58044559914185,35.38558164776717]],[[139.58044559914185,35.38558164776717],[139.58002297801437,35.38493437357408]],[[139.58002297801437,35.38493437357408],[139.57728706229435,35.382902651801345]],[[139.57338893847373,35.41206595016754],[139.57228233841622,35.41312076737108],[139.57192644694044,35.41661484935783]],[[139.57192644694044,35.41661484935783],[139.57431203198902,35.41622528618606]],[[139.57431203198902,35.41622528618606],[139.57695341403578,35.414493228391606]],[[139.57695341403578,35.414493228391606],[139.574167451077,35.41261133860801]],[[139.574167451077,35.41261133860801],[139.57338893847373,35.41206595016754]],[[139.588113948284,35.39886874856409],[139.58734655728935,35.39798174318839]],[[139.58734655728935,35.39798174318839],[139.58671262559812,35.3982754138871],[139.58350404151182,35.39637554426481]],[[139.58350404151182,35.39637554426481],[139.582247299738,35.396483423296985]],[[139.582247299738,35.396483423296985],[139.5808459770521,35.397358442113564],[139.58025653179536,35.399468076520655],[139.579116566912,35.40011535071374]],[[139.579116566912,35.40011535071374],[139.5784437095906,35.400504913885506]],[[139.5784437095906,35.400504913885506],[139.58125191576667,35.402314884314315]],[[139.58125191576667,35.402314884314315],[139.58298688671107,35.400504913885506],[139.5880639010452,35.39953400259588]],[[139.5880639010452,35.39953400259588],[139.588113948284,35.39886874856409]],[[139.5848497561546,35.406024724365416],[139.58903148099498,35.40616856307499],[139.5903438308119,35.406749911192854],[139.593063064119,35.40618054963412]],[[139.593063064119,35.40618054963412],[139.593063064119,35.40448445151706]],[[139.593063064119,35.40448445151706],[139.59115570824102,35.40280633323869]],[[139.5913392147832,35.386145016046335],[139.59057182378857,35.38967505771047]],[[139.59057182378857,35.38967505771047],[139.59148379569524,35.389573171957856],[139.59340227318185,35.391802671956256]],[[139.59340227318185,35.391802671956256],[139.59455335967382,35.3900706141618],[139.59653856681214,35.389285494538704]],[[139.59653856681214,35.389285494538704],[139.59590463512092,35.387073974379]],[[139.59590463512092,35.387073974379],[139.59334666513877,35.38648063970201],[139.59247361886224,35.38532393674585],[139.5913392147832,35.386145016046335]],[[139.58878680560537,35.37725098917099],[139.58826965080465,35.37712513030011]],[[139.58826965080465,35.37712513030011],[139.58575616725696,35.381116654490796]],[[139.58575616725696,35.381116654490796],[139.5857728496699,35.38234527680174],[139.58885909606138,35.38387356309097]],[[139.58885909606138,35.38387356309097],[139.58920386592854,35.382111538898684],[139.59168954545467,35.381446284866904],[139.59240688921054,35.378539544277594],[139.59005466898782,35.378713349384995],[139.58878680560537,35.37725098917099]],[[139.56267882937456,35.38845842195865],[139.56267882937456,35.38845842195865]],[[139.59341895559479,35.406773884311114],[139.59327437468275,35.4068458036659]],[[139.5973170794154,35.41280911683367],[139.59723922815508,35.412359620866255]],[[139.59723922815508,35.412359620866255],[139.59671651255002,35.40715146092375]],[[139.59671651255002,35.40715146092375],[139.5966998301371,35.407145467644185]],[[139.5966998301371,35.407145467644185],[139.59341895559479,35.406773884311114]],[[139.59735600504555,35.40143387221817],[139.5948647647151,35.4009244434551]],[[139.5948647647151,35.4009244434551],[139.59444770439194,35.40208713969082]],[[139.59444770439194,35.40208713969082],[139.59400840085155,35.403867143721804]],[[139.59400840085155,35.403867143721804],[139.59735600504555,35.40485603485013]],[[139.59735600504555,35.40485603485013],[139.5988629830133,35.40208713969082]],[[139.5988629830133,35.40208713969082],[139.59735600504555,35.40143387221817]],[[139.57483474759405,35.40841004963252],[139.57205434543954,35.410202040222636]],[[139.57205434543954,35.410202040222636],[139.57342786410388,35.41014810070655],[139.57338893847373,35.41206595016754]],[[139.574167451077,35.41261133860801],[139.57575784110935,35.411101032157475],[139.57828800706994,35.412245748554504],[139.58160780724245,35.411286823824014]],[[139.58160780724245,35.411286823824014],[139.5813464494399,35.41053766387831]],[[139.5813464494399,35.41053766387831],[139.57728150149003,35.40873968000863]],[[139.57728150149003,35.40873968000863],[139.57483474759405,35.40841004963252]],[[139.58125191576667,35.402314884314315],[139.5813242062227,35.403225862808284]],[[139.58960980464312,35.400882490498134],[139.5880639010452,35.39953400259588]],[[139.593063064119,35.40448445151706],[139.59400840085155,35.403867143721804]],[[139.59444770439194,35.40208713969082],[139.59199538969168,35.40046296092854]],[[139.59199538969168,35.40046296092854],[139.59073864791785,35.40005541791808]],[[139.59073864791785,35.40005541791808],[139.5897265815336,35.399234338617596]],[[139.5897265815336,35.399234338617596],[139.588113948284,35.39886874856409]],[[139.5837987641402,35.40620452275238],[139.58721865879022,35.40971059129826]],[[139.58721865879022,35.40971059129826],[139.58875344077953,35.41161645420012]],[[139.59341895559479,35.406773884311114],[139.593063064119,35.40618054963412]],[[139.58255314397496,35.40568310743018],[139.58094607152967,35.40689374990243],[139.57951694482225,35.40631240178457],[139.57728150149003,35.40873968000863]],[[139.5813464494399,35.41053766387831],[139.58335946059978,35.406060684042814]],[[139.58044559914185,35.38558164776717],[139.58245861030173,35.39008260072093]],[[139.58245861030173,35.39008260072093],[139.58396558826945,35.38882401201215],[139.58821960356585,35.38682824991681]],[[139.58821960356585,35.38682824991681],[139.58885909606138,35.38387356309097]],[[139.58575616725696,35.381116654490796],[139.58502214108816,35.38199766658694],[139.58284786660334,35.38090089642643],[139.5821416444561,35.38279477276917],[139.58002297801437,35.38493437357408]],[[139.5969445055267,35.395560458243885],[139.5948647647151,35.4009244434551]],[[139.59735600504555,35.40143387221817],[139.59765628847825,35.40004343135895],[139.59999738709234,35.39741238162966]],[[139.59999738709234,35.39741238162966],[139.5969445055267,35.395560458243885]],[[139.57901647243443,35.38004985072812],[139.57833249350443,35.381128641049926]],[[139.57833249350443,35.381128641049926],[139.57728706229435,35.382902651801345]],[[139.58826965080465,35.37712513030011],[139.58879236640968,35.37602836013961],[139.58578953208283,35.37573468944089]],[[139.58578953208283,35.37573468944089],[139.58334833899116,35.380163723039864],[139.58084041624778,35.38073907787816],[139.57901647243443,35.38004985072812]],[[139.5790553980646,35.39625567867349],[139.57786538594246,35.39770605232837],[139.579116566912,35.40011535071374]],[[139.582247299738,35.396483423296985],[139.58044003833754,35.39547655232997],[139.5790553980646,35.39625567867349]],[[139.57192644694044,35.41661484935783],[139.5670941079959,35.417202190755255]],[[139.5670941079959,35.417202190755255],[139.56703849995282,35.41747788161527]],[[139.56703849995282,35.41747788161527],[139.5693684769583,35.417340036185266],[139.56859552515934,35.42014489102196],[139.5709032589476,35.419185966291465],[139.57333889123493,35.421924895052946],[139.57710911655644,35.422242538869924],[139.57859385130695,35.42028872973154]],[[139.57859385130695,35.42028872973154],[139.57464011944325,35.41926387892582],[139.57539082802495,35.41802327005574],[139.57431203198902,35.41622528618606]],[[139.58160780724245,35.411286823824014],[139.5814521047218,35.41273719747888]],[[139.5814521047218,35.41273719747888],[139.58578953208283,35.41137072973793],[139.58507774913127,35.41056763027614],[139.58721865879022,35.40971059129826]],[[139.56732210097258,35.3939902189977],[139.56506441442312,35.395991974372606]],[[139.56506441442312,35.395991974372606],[139.5708532117088,35.40059481307899]],[[139.5708532117088,35.40059481307899],[139.57312758067118,35.39872490985452]],[[139.57312758067118,35.39872490985452],[139.5703471785167,35.395680323835194],[139.56732210097258,35.3939902189977]],[[139.59574893260026,35.395015069803414],[139.59440321795748,35.39550651872779],[139.59199538969168,35.40046296092854]],[[139.5969445055267,35.395560458243885],[139.59691114070085,35.39554247840519]],[[139.59691114070085,35.39554247840519],[139.59574893260026,35.395015069803414]],[[139.59057182378857,35.38967505771047],[139.58971545992497,35.39188058459061]],[[139.58971545992497,35.39188058459061],[139.591533842934,35.393318971686355]],[[139.591533842934,35.393318971686355],[139.59274609827338,35.39316314641765],[139.59477023104188,35.394565573836]],[[139.59477023104188,35.394565573836],[139.59340227318185,35.391802671956256]],[[139.58024541018673,35.391023545612725],[139.5776930010089,35.39192853082713],[139.57909432369476,35.39286947571893],[139.57779309548644,35.393564696148545]],[[139.57779309548644,35.393564696148545],[139.57740939998914,35.395164901792555],[139.5790553980646,35.39625567867349]],[[139.58350404151182,35.39637554426481],[139.58081261222625,35.39242597303108],[139.58066803131422,35.3912033439997]],[[139.58066803131422,35.3912033439997],[139.58024541018673,35.391023545612725]],[[139.55889748244442,35.392048396418446],[139.5608548855612,35.38847640179735]],[[139.5608548855612,35.38847640179735],[139.56058240615005,35.3874575442712],[139.55627834361488,35.38587531846588],[139.55442103497566,35.38713390717466],[139.5555999254892,35.38954919883959],[139.55889748244442,35.392048396418446]],[[139.60167118918935,35.38787707384079],[139.59977495491998,35.392156275450624]],[[139.59977495491998,35.392156275450624],[139.60267213396497,35.3932230792133]],[[139.60267213396497,35.3932230792133],[139.60344508576392,35.39140112222536],[139.60655913617697,35.38716387357248],[139.60507440142646,35.38607309669155],[139.60375649080524,35.38688818271247],[139.60183801331863,35.386306834594606],[139.60167118918935,35.38787707384079]],[[139.59977495491998,35.392156275450624],[139.59918550966322,35.39387634668595],[139.59691114070085,35.39554247840519]],[[139.59999738709234,35.39741238162966],[139.60183245251432,35.397939790231426],[139.60306695107093,35.39536867329779],[139.60432369284476,35.39499708996472],[139.60267213396497,35.3932230792133]],[[139.5784437095906,35.400504913885506],[139.5762749959101,35.401511784852524]],[[139.5762749959101,35.401511784852524],[139.57509054459229,35.40524559802189]],[[139.57509054459229,35.40524559802189],[139.57668649542896,35.405850919258015]],[[139.57668649542896,35.405850919258015],[139.57913881012922,35.404766135656644],[139.58160224643814,35.405161692107974]],[[139.57074199562263,35.41066352274919],[139.56953530108757,35.41164042731838],[139.56833972816113,35.41078938162007]],[[139.56833972816113,35.41078938162007],[139.56431926664573,35.41074742866311],[139.56469740133872,35.41202999049015]],[[139.56469740133872,35.41202999049015],[139.56361304449848,35.41620730634737],[139.56253424846253,35.415871682691694],[139.5623284987031,35.41899418134537]],[[139.5623284987031,35.41899418134537],[139.56703849995282,35.41747788161527]],[[139.5670941079959,35.417202190755255],[139.56979665889008,35.41309080097326],[139.57074199562263,35.41066352274919]],[[139.57668649542896,35.405850919258015],[139.57483474759405,35.40841004963252]],[[139.56711635121314,35.37583058191394],[139.56639900745728,35.374793744549095]],[[139.56639900745728,35.374793744549095],[139.56688835823647,35.375986407182644],[139.56425253699402,35.37725098917099],[139.56027656191307,35.37777839777276]],[[139.56027656191307,35.37777839777276],[139.56008749456655,35.38061921228685]],[[139.56008749456655,35.38061921228685],[139.56191143837992,35.38012177008291],[139.56250644444097,35.37863543675064],[139.5643748746888,35.37850957787976],[139.5653535762472,35.38073907787816],[139.56692728386665,35.38178790180214]],[[139.56692728386665,35.38178790180214],[139.5670106959313,35.379120892395456],[139.5686233291809,35.37732890180534]],[[139.5686233291809,35.37732890180534],[139.56711635121314,35.37583058191394]],[[139.57496820689747,35.39387634668595],[139.57286066206436,35.39411008458901],[139.57098111020792,35.391514994537104],[139.56777808692593,35.39136516254797],[139.56807837035862,35.38897384400129],[139.5654203058989,35.38703801470161],[139.5661765752849,35.39028037894659],[139.56513670487914,35.39092165986011]],[[139.56513670487914,35.39092165986011],[139.56587073104794,35.39310321362199]],[[139.56587073104794,35.39310321362199],[139.56732210097258,35.3939902189977]],[[139.57312758067118,35.39872490985452],[139.57514615263537,35.401847408508196]],[[139.57514615263537,35.401847408508196],[139.5762749959101,35.401511784852524]],[[139.57779309548644,35.393564696148545],[139.57496820689747,35.39387634668595]],[[139.55957590057014,35.40404694210877],[139.56003188652346,35.40815833189077]],[[139.56003188652346,35.40815833189077],[139.56205045848765,35.41087928081355]],[[139.56205045848765,35.41087928081355],[139.56552596118078,35.40790661414901]],[[139.56552596118078,35.40790661414901],[139.5654258667032,35.40787664775119]],[[139.5654258667032,35.40787664775119],[139.56398005758285,35.40546135608625],[139.5646251108827,35.40434660608705],[139.5620226544661,35.404160814420514]],[[139.5620226544661,35.404160814420514],[139.55957590057014,35.40404694210877]],[[139.6033060656562,35.404262700173135],[139.60351737621994,35.40522761818319],[139.6015266082773,35.40630041522544]],[[139.6015266082773,35.40630041522544],[139.60247194500985,35.407600956891166],[139.60511332705664,35.40823624452512]],[[139.60511332705664,35.40823624452512],[139.60615875826673,35.408601834578626],[139.60771022266894,35.40610263699977],[139.6087890187049,35.40610263699977],[139.60844424883774,35.40288424587305],[139.6033060656562,35.404262700173135]],[[139.56500324557572,35.39864699722017],[139.564180246538,35.400648752595075]],[[139.564180246538,35.400648752595075],[139.566771581346,35.40596479156976],[139.56741663464584,35.406246475709345]],[[139.56741663464584,35.406246475709345],[139.56885688296188,35.405431389688424]],[[139.56885688296188,35.405431389688424],[139.57237131128517,35.403399667915686]],[[139.57237131128517,35.403399667915686],[139.57173737959394,35.401907341303854],[139.56848986987748,35.402584581894764]],[[139.56848986987748,35.402584581894764],[139.56500324557572,35.39864699722017]],[[139.58213052284748,35.37377488702294],[139.5814131790916,35.37611825933309],[139.57901647243443,35.38004985072812]],[[139.58578953208283,35.37573468944089],[139.58642346377405,35.373661014711196]],[[139.58642346377405,35.373661014711196],[139.58213052284748,35.37377488702294]],[[139.5902214931171,35.367901473048654],[139.58642346377405,35.373661014711196]],[[139.58878680560537,35.37725098917099],[139.59079981676524,35.37327145153943],[139.59327437468275,35.372636163905476],[139.5948592039108,35.36994518138052]],[[139.5948592039108,35.36994518138052],[139.5902214931171,35.367901473048654]],[[139.56205045848765,35.41087928081355],[139.56143877001364,35.41192211145796]],[[139.56143877001364,35.41192211145796],[139.56469740133872,35.41202999049015]],[[139.56833972816113,35.41078938162007],[139.56722200649503,35.4085538883421],[139.56552596118078,35.40790661414901]],[[139.57070306999248,35.3824052095974],[139.57144821776987,35.38607908997111],[139.57487367322423,35.38624690179895]],[[139.5772036502297,35.382938611478735],[139.57420637670714,35.38235127008131]],[[139.57420637670714,35.38235127008131],[139.57379487718828,35.38206958594173]],[[139.57379487718828,35.38206958594173],[139.5710923262941,35.381608103415175],[139.57070306999248,35.3824052095974]],[[139.57205434543954,35.410202040222636],[139.57074199562263,35.41066352274919]],[[139.58795824576333,35.39428388969641],[139.58631224768786,35.39563237759867]],[[139.58631224768786,35.39563237759867],[139.58734655728935,35.39798174318839]],[[139.5897265815336,35.399234338617596],[139.58864778549764,35.39815554829579],[139.5892983996018,35.396902952866576],[139.58795824576333,35.39428388969641]],[[139.59477023104188,35.394565573836],[139.59574893260026,35.395015069803414]],[[139.59977495491998,35.392156275450624],[139.59653856681214,35.389285494538704]],[[139.57038610414685,35.40618054963412],[139.5699356789978,35.40710950796679],[139.57127583283628,35.41009416119046],[139.57074199562263,35.41066352274919]],[[139.57509054459229,35.40524559802189],[139.57038610414685,35.40618054963412]],[[139.57514615263537,35.401847408508196],[139.57237131128517,35.403399667915686]],[[139.56885688296188,35.405431389688424],[139.57038610414685,35.40618054963412]],[[139.56152218207828,35.38832656980821],[139.56148325644813,35.388410475722125]],[[139.56148325644813,35.388410475722125],[139.5608548855612,35.38847640179735]],[[139.55889748244442,35.392048396418446],[139.55864724625053,35.392665704213705]],[[139.55864724625053,35.392665704213705],[139.56149993886103,35.393726514696816]],[[139.56149993886103,35.393726514696816],[139.5626454645487,35.39427190313728]],[[139.5626454645487,35.39427190313728],[139.56429702342848,35.39173075260147],[139.56390220632255,35.390520110129216],[139.56152218207828,35.38832656980821]],[[139.58245861030173,35.39008260072093],[139.58277001534302,35.39134718270927]],[[139.58277001534302,35.39134718270927],[139.58631224768786,35.39563237759867]],[[139.58795824576333,35.39428388969641],[139.58939849407938,35.39350476335289],[139.58971545992497,35.39188058459061]],[[139.5913392147832,35.386145016046335],[139.58821960356585,35.38682824991681]],[[139.57695341403578,35.414493228391606],[139.58112957807185,35.41366016253199]],[[139.58112957807185,35.41366016253199],[139.5814521047218,35.41273719747888]],[[139.60167118918935,35.38787707384079],[139.59733932263262,35.388140778141675],[139.59590463512092,35.387073974379]],[[139.55864724625053,35.392665704213705],[139.55840813166523,35.393870353406385],[139.56058240615005,35.39710672437181]],[[139.56058240615005,35.39710672437181],[139.56286789672106,35.39741238162966]],[[139.56286789672106,35.39741238162966],[139.56070474384487,35.394511634319905],[139.56149993886103,35.393726514696816]],[[139.59073864791785,35.40005541791808],[139.59210104497353,35.395560458243885],[139.591533842934,35.393318971686355]],[[139.56588741346087,35.37279198917418],[139.56639900745728,35.374793744549095]],[[139.56711635121314,35.37583058191394],[139.57194869015768,35.37241441256155],[139.5773927175762,35.37025083863837]],[[139.5773927175762,35.37025083863837],[139.58165785448122,35.36729615181253]],[[139.58165785448122,35.36729615181253],[139.58074588257455,35.366463085952915]],[[139.58074588257455,35.366463085952915],[139.57802664926743,35.368704572510445],[139.57770968342183,35.3697234300366],[139.5738115596012,35.36752988971559],[139.57219336554726,35.36914208191873],[139.5722545343947,35.37101797842276],[139.56811729598877,35.37307367331377],[139.56588741346087,35.37279198917418]],[[139.57704794770905,35.388889938087374],[139.57496820689747,35.39387634668595]],[[139.58024541018673,35.391023545612725],[139.57937792471452,35.38956118539872],[139.57704794770905,35.388889938087374]],[[139.56143877001364,35.41192211145796],[139.5607992775181,35.41370810876851]],[[139.5607992775181,35.41370810876851],[139.56167788459894,35.41952158994714]],[[139.56167788459894,35.41952158994714],[139.5623284987031,35.41899418134537]],[[139.56741663464584,35.406246475709345],[139.5654258667032,35.40787664775119]],[[139.5598539407856,35.37557287089262],[139.56297355200294,35.37323549186204]],[[139.56297355200294,35.37323549186204],[139.56173905344633,35.37079622707884],[139.55973160309077,35.36984329562791],[139.5598539407856,35.37557287089262]],[[139.58165785448122,35.36729615181253],[139.58295352188523,35.36894430369307],[139.58211940123886,35.373756907184244]],[[139.58211940123886,35.373756907184244],[139.58213052284748,35.37377488702294]],[[139.5902214931171,35.367901473048654],[139.58737436131088,35.36648106579161],[139.58396558826945,35.36618140181333],[139.58165785448122,35.36729615181253]],[[139.56506441442312,35.395991974372606],[139.56286789672106,35.39741238162966]],[[139.56286789672106,35.39741238162966],[139.56500324557572,35.39864699722017]],[[139.56848986987748,35.402584581894764],[139.5708532117088,35.40059481307899]],[[139.57110344790271,35.38003786416899],[139.57379487718828,35.38206958594173]],[[139.57420637670714,35.38235127008131],[139.5749848893104,35.3812904595982],[139.57363917466762,35.37800014911669]],[[139.57363917466762,35.37800014911669],[139.5718430348758,35.377568632987966],[139.57110344790271,35.38003786416899]],[[139.5686233291809,35.37732890180534],[139.56925726087212,35.377874290245806]],[[139.56925726087212,35.377874290245806],[139.57050288103733,35.37474579831257],[139.57199873739646,35.37517132116172],[139.5735724450159,35.377688498579275]],[[139.5735724450159,35.377688498579275],[139.57730930551156,35.37951644884678]],[[139.57730930551156,35.37951644884678],[139.57604700293342,35.378305806374534],[139.57581344915243,35.37622613836527],[139.57692561001426,35.373744920625114]],[[139.57692561001426,35.373744920625114],[139.5773927175762,35.37025083863837]],[[139.59723922815508,35.412359620866255],[139.59919107046753,35.41093322032964],[139.60075921728267,35.41128083054445],[139.6033060656562,35.408685740492544],[139.60511332705664,35.40823624452512]],[[139.6015266082773,35.40630041522544],[139.59671651255002,35.40715146092375]],[[139.57859385130695,35.42028872973154],[139.57903871565168,35.41705835204568],[139.58112957807185,35.41366016253199]],[[139.5598539407856,35.37557287089262],[139.56027656191307,35.37777839777276]],[[139.56588741346087,35.37279198917418],[139.56297355200294,35.37323549186204]],[[139.5966998301371,35.407145467644185],[139.59735600504555,35.40485603485013]],[[139.6033060656562,35.404262700173135],[139.60236072892368,35.40253663565824],[139.5988629830133,35.40208713969082]],[[139.56008749456655,35.38061921228685],[139.55750172056287,35.3812904595982],[139.5560559114425,35.383148376263534],[139.5573404572379,35.38414925395099],[139.5602988051303,35.38368177814487],[139.56179466148942,35.38479053486451],[139.5611662906025,35.38619895556242],[139.56286233591675,35.385911278143276],[139.56148325644813,35.388410475722125]],[[139.56152218207828,35.38832656980821],[139.56513670487914,35.39092165986011]],[[139.57704794770905,35.388889938087374],[139.57685331955824,35.38804488566863]],[[139.57070306999248,35.3824052095974],[139.56692728386665,35.38178790180214]],[[139.56003188652346,35.40815833189077],[139.55781868640847,35.4075949636116],[139.55681218082856,35.40826021764339]],[[139.55681218082856,35.40826021764339],[139.55484921690746,35.40927308188997],[139.55410962993437,35.410903253931814]],[[139.55410962993437,35.410903253931814],[139.55570558077105,35.413162720328046],[139.55829691557906,35.41427147704768],[139.5607992775181,35.41370810876851]],[[139.56587073104794,35.39310321362199],[139.56348514599935,35.39494914372819],[139.5626454645487,35.39427190313728]],[[139.57692561001426,35.373744920625114],[139.58211940123886,35.373756907184244]],[[139.55695120093628,35.400882490498134],[139.55963706941753,35.40330377544264],[139.55957590057014,35.40404694210877]],[[139.5620226544661,35.404160814420514],[139.564180246538,35.400648752595075]],[[139.56058240615005,35.39710672437181],[139.55752952458442,35.399504036198046],[139.55695120093628,35.400882490498134]],[[139.55410962993437,35.410903253931814],[139.55389275856632,35.414870805004234],[139.5583747668394,35.41598555500344],[139.55818013868856,35.41817909532445],[139.55656194463464,35.42054044747329],[139.55941463724517,35.41928185876452],[139.56167788459894,35.41952158994714]],[[139.56925726087212,35.377874290245806],[139.57110344790271,35.38003786416899]],[[139.57363917466762,35.37800014911669],[139.5735724450159,35.377688498579275]],[[139.57833249350443,35.381128641049926],[139.57730930551156,35.37951644884678]],[[139.55695120093628,35.400882490498134],[139.55627278281057,35.403507546947864],[139.55681218082856,35.40826021764339]],[[139.58066803131422,35.3912033439997],[139.58277001534302,35.39134718270927]],[[139.5948592039108,35.36994518138052],[139.59656081002936,35.36794941928518],[139.59365807018006,35.365156551007615],[139.5915171605211,35.36470106176063],[139.5912724851315,35.36279519885877],[139.58938737247075,35.36384402278275],[139.58372647368418,35.365018705577604],[139.58297020429814,35.36610948245854],[139.58074588257455,35.366463085952915]]]}