{"type":"Topology","bbox":[139.68751474852817,35.451424736647695,139.8329598696692,35.545246815403836],"objects":{"town":{"type":"GeometryCollection","geometries":[{"type":"MultiPolygon","arcs":[[[-31,44,8,9,2,3,4,5,6,45]]],"properties":{"name":"中瀬"}},{"type":"Polygon","arcs":[[10,11,12,13,14,15]],"properties":{"name":"伊勢町"}},{"type":"MultiPolygon","arcs":[[[20,21,16,17,18,41,-14,-35,-34,42,43]]],"properties":{"name":"川中島"}},{"type":"MultiPolygon","arcs":[[[23,24,25,26,-16,-15,-42,-19,47,49,50,51,52,48,38,39]]],"properties":{"name":"藤崎"}},{"type":"MultiPolygon","arcs":[[[29,30,31,32,33,34,-13,35,36]]],"properties":{"name":"大師駅前"}},{"type":"MultiPolygon","arcs":[[[59,60,61,53,54,55,56,57,166,167,-77]]],"properties":{"name":"昭和"}},{"type":"Polygon","arcs":[[62,63,64,65,66,67]],"properties":{"name":"浅野町"}},{"type":"MultiPolygon","arcs":[[[268,269,270,71,72,149,-95,148,68,220,221]]],"properties":{"name":"浅田"}},{"type":"Polygon","arcs":[[74,75]],"properties":{"name":"大川町"}},{"type":"Polygon","arcs":[[76,77,78,79,80,-60]],"properties":{"name":"出来野"}},{"type":"Polygon","arcs":[[81,82,83,84,-67,85,86,87,88]],"properties":{"name":"池上町"}},{"type":"MultiPolygon","arcs":[[[-153,-52,-51,90,91,92,-180,-175,-218,226,-89,-88]]],"properties":{"name":"池上新町"}},{"type":"MultiPolygon","arcs":[[[-72,-271,317,-251,-250,106,107,108,109,110,111,-243,-103,-102,-223,97,98,94,-150,-73]]],"properties":{"name":"小田"}},{"type":"MultiPolygon","arcs":[[[104,105,99,100,101,102,242,-112,243,244]]],"properties":{"name":"小田栄"}},{"type":"MultiPolygon","arcs":[[[201,202,115,350,-349,-303,-283,117,203,204]]],"properties":{"name":"殿町"}},{"type":"MultiPolygon","arcs":[[[-148,155,156,121,223,134,135,132,-98,222,-101,-100,118,-230,230,-142]]],"properties":{"name":"鋼管通"}},{"type":"MultiPolygon","arcs":[[[162,-62,163,164,125,126,127,128,-264,-236,329,-82,-227,217,-177]]],"properties":{"name":"塩浜"}},{"type":"Polygon","arcs":[[-32,-46,-7,130,131]],"properties":{"name":"大師本町"}},{"type":"Polygon","arcs":[[136,137,138,139,140,-75]],"properties":{"name":"白石町"}},{"type":"Polygon","arcs":[[141,142,143,144,145,146,147]],"properties":{"name":"追分町"}},{"type":"MultiPolygon","arcs":[[[-66,-209,245,246,150,151,-53,152,-87,-86]]],"properties":{"name":"桜本"}},{"type":"MultiPolygon","arcs":[[[-198,161,157,158,159,252,-182,-189,253]]],"properties":{"name":"砂子"}},{"type":"MultiPolygon","arcs":[[[170,171,-79,168,-234,-4,297,-202,298]]],"properties":{"name":"大師河原"}},{"type":"MultiPolygon","arcs":[[[173,-126,-165,-164,-61,-81,-293,-313]]],"properties":{"name":"日ノ出"}},{"type":"Polygon","arcs":[[174,175,-54,-163,176]],"properties":{"name":"四谷下町"}},{"type":"Polygon","arcs":[[177,178,-55,-176,179,-93]],"properties":{"name":"四谷上町"}},{"type":"MultiPolygon","arcs":[[[187,188,181,182,183,184,185,186,189]]],"properties":{"name":"本町"}},{"type":"Polygon","arcs":[[-43,-33,-132,190,191,192]],"properties":{"name":"大師町"}},{"type":"MultiPolygon","arcs":[[[-50,-48,-18,-17,194,-178,-92,-91]]],"properties":{"name":"観音"}},{"type":"Polygon","arcs":[[195,196,-162,197,198,199,200]],"properties":{"name":"東田町"}},{"type":"MultiPolygon","arcs":[[[-224,-122,-157,-156,-147,-256,-255,-246,208,-65,205,-288,-135]]],"properties":{"name":"浜町"}},{"type":"Polygon","arcs":[[210,211,212,213,214,-109]],"properties":{"name":"渡田山王町"}},{"type":"Polygon","arcs":[[215,-57,216,-21,-44,-193]],"properties":{"name":"大師公園"}},{"type":"Polygon","arcs":[[224,-63,225]],"properties":{"name":"扇町"}},{"type":"Polygon","arcs":[[-106,227,228,229,-119]],"properties":{"name":"田島町"}},{"type":"MultiPolygon","arcs":[[[-58,-216,-192,-191,-131,-6,-5,233,-169,-78,-168,-167]]],"properties":{"name":"東門前"}},{"type":"MultiPolygon","arcs":[[[235,263,-129,264,265,266,267,237,238,342,343,-83,-330]]],"properties":{"name":"夜光"}},{"type":"MultiPolygon","arcs":[[[254,255,-146,-145,-144,-383,-340,399,-371,368,-364,241,-39,-49,-152,-151,-247]]],"properties":{"name":"大島"}},{"type":"MultiPolygon","arcs":[[[-107,249,250,-318,-270,325,247,369,-276,-211,-108]]],"properties":{"name":"京町"}},{"type":"MultiPolygon","arcs":[[[-332,-214,-386,387,258,259,260,261,262,388]]],"properties":{"name":"元木"}},{"type":"Polygon","arcs":[[271,-199,-254,-188,272,273]],"properties":{"name":"宮本町"}},{"type":"MultiPolygon","arcs":[[[-212,275,276,383,-297,384,385,-213]]],"properties":{"name":"池田"}},{"type":"Polygon","arcs":[[-238,-268,277]],"properties":{"name":"千鳥町"}},{"type":"MultiPolygon","arcs":[[[-80,-172,290,313,314,281,282,283,-265,-128,-127,-174,312,292]]],"properties":{"name":"田町"}},{"type":"Polygon","arcs":[[-206,-64,-225,285,-140,286,-136,287]],"properties":{"name":"南渡田町"}},{"type":"Polygon","arcs":[[288,289]],"properties":{"name":"東扇島"}},{"type":"Polygon","arcs":[[293,294,295,296]],"properties":{"name":"下並木"}},{"type":"Polygon","arcs":[[299,300,301,-183,-253,-160]],"properties":{"name":"駅前本町"}},{"type":"Polygon","arcs":[[-266,-284,302,303]],"properties":{"name":"小島町"}},{"type":"MultiPolygon","arcs":[[[-185,376,-323,307,-11,-27,304,305,377]]],"properties":{"name":"旭町"}},{"type":"MultiPolygon","arcs":[[[-25,-24,-40,-242,363,362,308,309,402,-305,-26]]],"properties":{"name":"中島"}},{"type":"Polygon","arcs":[[315,-300,-159,316]],"properties":{"name":"小川町"}},{"type":"Polygon","arcs":[[-195,-22,-217,-56,-179]],"properties":{"name":"台町"}},{"type":"MultiPolygon","arcs":[[[-315,-314,-291,-171,-299,-205,-204,-118,-282]]],"properties":{"name":"江川"}},{"type":"Polygon","arcs":[[322,323,324,-36,-12,-308]],"properties":{"name":"港町"}},{"type":"Polygon","arcs":[[-139,330,-221,-69,-149,-99,-133,-287]],"properties":{"name":"田辺新田"}},{"type":"MultiPolygon","arcs":[[[403,-390,333,-110,-215,331,-389,-263,-360,365]]],"properties":{"name":"渡田新町"}},{"type":"MultiPolygon","arcs":[[[-111,-334,389,390,400,394,335,336,337,338,339,340,-382,395,401,392,-244]]],"properties":{"name":"渡田"}},{"type":"Polygon","arcs":[[341]],"properties":{"name":"浮島町"}},{"type":"Polygon","arcs":[[344,-290,345,346,-137,-76,-141,-286,-226,-68,-85,347,-343,-239,-278,-267,-304,348,349],[-342]],"properties":{"name":"水面"}},{"type":"Polygon","arcs":[[-345,351,-346,-289]],"properties":{"name":"扇島"}},{"type":"Polygon","arcs":[[-338,352,353,-201,354,355]],"properties":{"name":"新川通"}},{"type":"MultiPolygon","arcs":[[[358,359,-262,-261,356,-196,-354,-353,-337]]],"properties":{"name":"貝塚"}},{"type":"Polygon","arcs":[[360,-295,361]],"properties":{"name":"堤根"}},{"type":"MultiPolygon","arcs":[[[-309,-363,-369,370,371,372,373,-380,-397,-186,-378,-306,-403,-310]]],"properties":{"name":"富士見"}},{"type":"Polygon","arcs":[[-200,-272,375,-373,-355]],"properties":{"name":"宮前町"}},{"type":"Polygon","arcs":[[-374,-376,-274,378,379]],"properties":{"name":"榎町"}},{"type":"Polygon","arcs":[[380,381,-341,382,-143,-231,-229]],"properties":{"name":"大島上町"}},{"type":"Polygon","arcs":[[386,-317,-158,-197,-357,-260]],"properties":{"name":"南町"}},{"type":"Polygon","arcs":[[-273,-190,-187,396,-379]],"properties":{"name":"堀之内町"}},{"type":"Polygon","arcs":[[-385,-296,-361,397,-301,-316,-387,-259,-388]],"properties":{"name":"日進町"}},{"type":"Polygon","arcs":[[-84,-344,-348]],"properties":{"name":"水江町"}},{"type":"Polygon","arcs":[[-404,-366,-359,-336,-395,-401,-391]],"properties":{"name":"渡田向町"}},{"type":"Polygon","arcs":[[-339,-356,-372,-400]],"properties":{"name":"境町"}},{"type":"Polygon","arcs":[[404,-9,-45,-30,-37,-325]],"properties":{"name":"鈴木町"}},{"type":"Polygon","arcs":[[-105,-245,-393,-402,-396,-381,-228]],"properties":{"name":"渡田東町"}}]}},"arcs":[[[139.72947986248874,35.53658617147025],[139.72931985685494,35.53936358274256]],[[139.72931985685494,35.53936358274256],[139.73186540102932,35.53979520746731],[139.73186540102932,35.541699986143925]],[[139.73186540102932,35.541699986143925],[139.73490550807188,35.5411557636649]],[[139.73490550807188,35.5411557636649],[139.73487641613846,35.53700841304881]],[[139.73487641613846,35.53700841304881],[139.73486187017173,35.53659555461644]],[[139.73486187017173,35.53659555461644],[139.7317199413622,35.53660493776263]],[[139.7317199413622,35.53660493776263],[139.72947986248874,35.53658617147025]],[[139.72931985685494,35.53936358274256],[139.72635247964593,35.53895072431019]],[[139.72635247964593,35.53895072431019],[139.72514516440896,35.54341710189674]],[[139.72514516440896,35.54341710189674],[139.7292762189548,35.54321067268056],[139.73186540102932,35.541699986143925]],[[139.71894858259014,35.531050115218015],[139.71906495032383,35.53302057591796]],[[139.71906495032383,35.53302057591796],[139.72034499539438,35.53360233098176]],[[139.72034499539438,35.53360233098176],[139.72033044942768,35.53311440737986],[139.72460696364064,35.532870445578915]],[[139.72460696364064,35.532870445578915],[139.72398148707208,35.53145359050419]],[[139.72398148707208,35.53145359050419],[139.72357420000418,35.53059034105469]],[[139.72357420000418,35.53059034105469],[139.71894858259014,35.531050115218015]],[[139.73080354545942,35.52958634441234],[139.72786526018385,35.52945498036567]],[[139.72786526018385,35.52945498036567],[139.72488333700815,35.52940806463472]],[[139.72488333700815,35.52940806463472],[139.72502879667525,35.53133160960372]],[[139.72502879667525,35.53133160960372],[139.72947986248874,35.53121901184944]],[[139.72947986248874,35.53121901184944],[139.73059990192547,35.53044959386184]],[[139.73059990192547,35.53044959386184],[139.73080354545942,35.52958634441234]],[[139.72294872343562,35.52766279944334],[139.7185849334224,35.52795367697524]],[[139.7185849334224,35.52795367697524],[139.7185849334224,35.527972443267615]],[[139.7185849334224,35.527972443267615],[139.71864311728922,35.529445597219485]],[[139.71864311728922,35.529445597219485],[139.71891949065673,35.53052465903136]],[[139.71891949065673,35.53052465903136],[139.71894858259014,35.531050115218015]],[[139.72357420000418,35.53059034105469],[139.72294872343562,35.52766279944334]],[[139.72485424507474,35.53339590176557],[139.72529062407605,35.53561970741266]],[[139.72529062407605,35.53561970741266],[139.7260179224116,35.535995033260264]],[[139.7260179224116,35.535995033260264],[139.72824345531834,35.53648295686216]],[[139.72824345531834,35.53648295686216],[139.72835982305202,35.53517869954172]],[[139.72835982305202,35.53517869954172],[139.72860710448612,35.533536648958425]],[[139.72860710448612,35.533536648958425],[139.72485424507474,35.53339590176557]],[[139.72485424507474,35.53339590176557],[139.72460696364064,35.532870445578915]],[[139.72034499539438,35.53360233098176],[139.7222359710668,35.53498165347172]],[[139.7222359710668,35.53498165347172],[139.72529062407605,35.53561970741266]],[[139.72283235570194,35.525457760088635],[139.71891949065673,35.52565480615863]],[[139.71891949065673,35.52565480615863],[139.7184685656887,35.52569233874339]],[[139.7184685656887,35.52569233874339],[139.7185849334224,35.52795367697524]],[[139.72294872343562,35.52766279944334],[139.72283235570194,35.525457760088635]],[[139.72502879667525,35.53133160960372],[139.72398148707208,35.53145359050419]],[[139.72860710448612,35.533536648958425],[139.72962532215587,35.532457587146546]],[[139.72962532215587,35.532457587146546],[139.72947986248874,35.53121901184944]],[[139.7260179224116,35.535995033260264],[139.72635247964593,35.53895072431019]],[[139.72947986248874,35.53658617147025],[139.72824345531834,35.53648295686216]],[[139.72569791114395,35.52497921963293],[139.72283235570194,35.525457760088635]],[[139.72488333700815,35.52940806463472],[139.72419967657274,35.527174875841446],[139.72533426197617,35.52713734325668],[139.72569791114395,35.52497921963293]],[[139.7219886896327,35.52311197354108],[139.7188758527566,35.52387200838248],[139.71891949065673,35.52565480615863]],[[139.72569791114395,35.52497921963293],[139.72584337081105,35.524819706147696]],[[139.72584337081105,35.524819706147696],[139.7257560950108,35.52456636120056]],[[139.7257560950108,35.52456636120056],[139.72533426197617,35.52384385894391]],[[139.72533426197617,35.52384385894391],[139.7219886896327,35.52311197354108]],[[139.73833835621562,35.5284697500157],[139.73813471268167,35.52824455450713]],[[139.73813471268167,35.52824455450713],[139.7353709790066,35.53078738712469]],[[139.7353709790066,35.53078738712469],[139.73388729040212,35.53220424219941]],[[139.73388729040212,35.53220424219941],[139.73384365250197,35.53239190512322]],[[139.73384365250197,35.53239190512322],[139.73490550807188,35.53235437253846]],[[139.73490550807188,35.53235437253846],[139.73851290781616,35.53233560624607]],[[139.73851290781616,35.53233560624607],[139.74072389475617,35.53235437253846]],[[139.74072389475617,35.53235437253846],[139.73995295852052,35.531134563533726]],[[139.73995295852052,35.531134563533726],[139.73833835621562,35.5284697500157]],[[139.72329782663667,35.50878390930859],[139.72313782100287,35.5085868632386]],[[139.72313782100287,35.5085868632386],[139.72139230499755,35.511148462148526],[139.72098501792965,35.51371944420465]],[[139.72098501792965,35.51371944420465],[139.72433059027313,35.51697539593266]],[[139.72433059027313,35.51697539593266],[139.72434513623986,35.516984779078854]],[[139.72434513623986,35.516984779078854],[139.72556699744356,35.51683464873981]],[[139.72556699744356,35.51683464873981],[139.73039625839152,35.51492987006319],[139.7303671664581,35.51210554305993],[139.72315236696957,35.50980667224333],[139.72329782663667,35.50878390930859]],[[139.70386441511107,35.504974351955354],[139.70316620870898,35.50454272723061]],[[139.70316620870898,35.50454272723061],[139.7015661523708,35.50593143286676]],[[139.7015661523708,35.50593143286676],[139.70110068143603,35.50924368347191]],[[139.70110068143603,35.50924368347191],[139.7031953006424,35.50957209358857]],[[139.7031953006424,35.50957209358857],[139.70350076594332,35.508408583460984]],[[139.70350076594332,35.508408583460984],[139.70386441511107,35.504974351955354]],[[139.70959552599513,35.497702413657926],[139.70987189936264,35.49781501141221]],[[139.70987189936264,35.49781501141221],[139.71435205710955,35.499325697948834],[139.7182067382879,35.49355506304184],[139.71167559923478,35.49082456750048],[139.70796637772352,35.496454455214625],[139.70959552599513,35.497702413657926]],[[139.73851290781616,35.53233560624607],[139.73833835621562,35.53408087143746]],[[139.73833835621562,35.53408087143746],[139.73828017234877,35.5348033736941]],[[139.73828017234877,35.5348033736941],[139.74165483662568,35.534615710770304]],[[139.74165483662568,35.534615710770304],[139.7417130204925,35.53416531975317]],[[139.7417130204925,35.53416531975317],[139.74072389475617,35.53235437253846]],[[139.73580735800795,35.51766974875074],[139.7365492023102,35.51679711615505]],[[139.7365492023102,35.51679711615505],[139.7376546957802,35.514638992531296]],[[139.7376546957802,35.514638992531296],[139.7364037426431,35.51407600375988]],[[139.7364037426431,35.51407600375988],[139.73257815339815,35.51306262397134],[139.73177812522906,35.51544594310366],[139.73027989065784,35.51529581276461],[139.72556699744356,35.51683464873981]],[[139.72434513623986,35.516984779078854],[139.72719614571517,35.51949946225783]],[[139.72719614571517,35.51949946225783],[139.72962532215587,35.52162005329683]],[[139.72962532215587,35.52162005329683],[139.730774453526,35.522417620723]],[[139.730774453526,35.522417620723],[139.73580735800795,35.51766974875074]],[[139.730774453526,35.522417620723],[139.72755979488292,35.524266100522475],[139.7257560950108,35.52456636120056]],[[139.72584337081105,35.524819706147696],[139.72742888118253,35.525176265702925]],[[139.72742888118253,35.525176265702925],[139.73112355672708,35.52567357245101]],[[139.73112355672708,35.52567357245101],[139.73419275570305,35.524876005024836]],[[139.73419275570305,35.524876005024836],[139.730774453526,35.522417620723]],[[139.7059153964173,35.506222310398655],[139.70649723508572,35.507854977835756]],[[139.70649723508572,35.507854977835756],[139.70817002125747,35.51016323179856]],[[139.70817002125747,35.51016323179856],[139.71038100819752,35.511467489119]],[[139.71038100819752,35.511467489119],[139.71038100819752,35.50878390930859]],[[139.71038100819752,35.50878390930859],[139.7059153964173,35.506222310398655]],[[139.7105264678646,35.5146296093851],[139.7109046629991,35.51448886219225]],[[139.7109046629991,35.51448886219225],[139.71224289193648,35.51086696776282],[139.71038100819752,35.51148625541138]],[[139.71038100819752,35.51148625541138],[139.70627904558506,35.513522398134654]],[[139.70627904558506,35.513522398134654],[139.70502809244795,35.514357498145586]],[[139.70502809244795,35.514357498145586],[139.70729726325482,35.51628104311459]],[[139.70729726325482,35.51628104311459],[139.70742817695523,35.51625289367602]],[[139.70742817695523,35.51625289367602],[139.7105264678646,35.5146296093851]],[[139.69641688015517,35.51451701163082],[139.69582049552002,35.5161684453603]],[[139.69582049552002,35.5161684453603],[139.69573321971976,35.51644055659982]],[[139.69573321971976,35.51644055659982],[139.70028610730023,35.517538384704075]],[[139.70028610730023,35.517538384704075],[139.7008097621018,35.51719120829504]],[[139.7008097621018,35.51719120829504],[139.70094067580223,35.51710675997933]],[[139.70094067580223,35.51710675997933],[139.70217708297264,35.51628104311459]],[[139.70217708297264,35.51628104311459],[139.70208980717237,35.51527704647223]],[[139.70208980717237,35.51527704647223],[139.69641688015517,35.51451701163082]],[[139.74649864354035,35.53736497260404],[139.74620772420613,35.5398984220754],[139.74523314443653,35.53988903892921],[139.74516041460296,35.5439331749372]],[[139.74516041460296,35.5439331749372],[139.7491460094817,35.54456184573195]],[[139.7491460094817,35.54456184573195],[139.74933510704895,35.53757140182022]],[[139.74933510704895,35.53757140182022],[139.74649864354035,35.53736497260404]],[[139.7105264678646,35.5146296093851],[139.71275200077136,35.51486418803986]],[[139.71275200077136,35.51486418803986],[139.71464297644377,35.51529581276461]],[[139.71464297644377,35.51529581276461],[139.7149775336781,35.51433873185321]],[[139.7149775336781,35.51433873185321],[139.71519572317877,35.512340121714686]],[[139.71519572317877,35.512340121714686],[139.7109046629991,35.51448886219225]],[[139.7425275946283,35.52604889829862],[139.74226576722754,35.526180262345285]],[[139.74226576722754,35.526180262345285],[139.7436912719652,35.52918286912616]],[[139.7436912719652,35.52918286912616],[139.7465568274072,35.53314255681843]],[[139.7465568274072,35.53314255681843],[139.74726957977603,35.53297366018701]],[[139.74726957977603,35.53297366018701],[139.74985876185056,35.53256080175464]],[[139.74985876185056,35.53256080175464],[139.74930601511554,35.52862926350093],[139.74766232087723,35.525898767959575]],[[139.74766232087723,35.525898767959575],[139.7425275946283,35.52604889829862]],[[139.7317199413622,35.53660493776263],[139.7319963147297,35.534756457963155]],[[139.7319963147297,35.534756457963155],[139.72835982305202,35.53517869954172]],[[139.71042464609764,35.508183387952414],[139.71038100819752,35.50878390930859]],[[139.71038100819752,35.50878390930859],[139.7153411828459,35.51195541272089]],[[139.7153411828459,35.51195541272089],[139.71673759565013,35.51244333632278]],[[139.71673759565013,35.51244333632278],[139.71583574571406,35.51077313630092],[139.71326110960624,35.50991926999761],[139.71042464609764,35.508183387952414]],[[139.70959552599513,35.497702413657926],[139.7073990850218,35.49735523724888],[139.70467898924687,35.501042813701645]],[[139.70467898924687,35.501042813701645],[139.70466444328017,35.50131492494116]],[[139.70466444328017,35.50131492494116],[139.70882458975944,35.502928826085885],[139.71006099692988,35.50481483847012]],[[139.71006099692988,35.50481483847012],[139.7113410420004,35.503867140704905]],[[139.7113410420004,35.503867140704905],[139.71382840230797,35.500048200205484],[139.70987189936264,35.49781501141221]],[[139.71379931037455,35.51785741167455],[139.71270836287124,35.521160279133504]],[[139.71270836287124,35.521160279133504],[139.71286836850504,35.52132917576493]],[[139.71286836850504,35.52132917576493],[139.7129265523719,35.521385474642074]],[[139.7129265523719,35.521385474642074],[139.7159230215143,35.51965897574307]],[[139.7159230215143,35.51965897574307],[139.71729034238513,35.518626829662146]],[[139.71729034238513,35.518626829662146],[139.7157484699138,35.5182796532531]],[[139.7157484699138,35.5182796532531],[139.71379931037455,35.51785741167455]],[[139.7059153964173,35.506222310398655],[139.70386441511107,35.504974351955354]],[[139.70350076594332,35.508408583460984],[139.70649723508572,35.507854977835756]],[[139.72121775339704,35.521610670150636],[139.72123229936375,35.5216482027354]],[[139.72123229936375,35.5216482027354],[139.7219886896327,35.52311197354108]],[[139.72533426197617,35.52384385894391],[139.72962532215587,35.52162005329683]],[[139.72719614571517,35.51949946225783],[139.72121775339704,35.521610670150636]],[[139.71464297644377,35.51529581276461],[139.71379931037455,35.51785741167455]],[[139.7157484699138,35.5182796532531],[139.71679577951696,35.51489233747843]],[[139.71679577951696,35.51489233747843],[139.7149775336781,35.51433873185321]],[[139.70073703226828,35.527559584835245],[139.70056248066774,35.52767218258953]],[[139.70056248066774,35.52767218258953],[139.6987587807956,35.52887322530188]],[[139.6987587807956,35.52887322530188],[139.70028610730023,35.53070293880897]],[[139.70028610730023,35.53070293880897],[139.70203162330552,35.53026193093803]],[[139.70203162330552,35.53026193093803],[139.70073703226828,35.527559584835245]],[[139.74038933752183,35.52668695223956],[139.73833835621562,35.5284697500157]],[[139.73995295852052,35.531134563533726],[139.7421057615937,35.529689559020426]],[[139.7421057615937,35.529689559020426],[139.7436912719652,35.52918286912616]],[[139.74226576722754,35.526180262345285],[139.74038933752183,35.52668695223956]],[[139.73490550807188,35.53235437253846],[139.73627282894267,35.53409963772984]],[[139.73627282894267,35.53409963772984],[139.73833835621562,35.53408087143746]],[[139.73828017234877,35.5348033736941],[139.7380474368814,35.537186692826424]],[[139.7380474368814,35.537186692826424],[139.74156756082542,35.537167926534046]],[[139.74156756082542,35.537167926534046],[139.74161119872554,35.5366330872012]],[[139.74161119872554,35.5366330872012],[139.74165483662568,35.534615710770304]],[[139.7421057615937,35.529689559020426],[139.74364763406504,35.53106888151039],[139.7429057897628,35.53409963772984]],[[139.7429057897628,35.53409963772984],[139.7465568274072,35.53314255681843]],[[139.7355891685073,35.52384385894391],[139.73451276697068,35.52466957580865]],[[139.73451276697068,35.52466957580865],[139.73813471268167,35.52824455450713]],[[139.74038933752183,35.52668695223956],[139.74040388348854,35.52438808142295],[139.73948748758576,35.52358113085059],[139.7355891685073,35.52384385894391]],[[139.73112355672708,35.52567357245101],[139.73106537286023,35.52831961967666]],[[139.73106537286023,35.52831961967666],[139.7323454179308,35.52834776911523],[139.7353709790066,35.53078738712469]],[[139.73451276697068,35.52466957580865],[139.73419275570305,35.524876005024836]],[[139.70505718438136,35.53349911637366],[139.70412624251188,35.53460632762411],[139.70181343380486,35.533592947835565]],[[139.70181343380486,35.533592947835565],[139.7017261580046,35.53363048042033]],[[139.7017261580046,35.53363048042033],[139.7034862199766,35.535582174827894],[139.7026716458408,35.535995033260264]],[[139.7026716458408,35.535995033260264],[139.70865003815894,35.536360975961685]],[[139.70865003815894,35.536360975961685],[139.7080681994905,35.53418408604555]],[[139.7080681994905,35.53418408604555],[139.70802456159035,35.534118404022216]],[[139.70802456159035,35.534118404022216],[139.70611903995126,35.5345218793084],[139.70505718438136,35.53349911637366]],[[139.7037625933441,35.53242005456179],[139.70296256517503,35.53196966354466]],[[139.70296256517503,35.53196966354466],[139.70181343380486,35.533592947835565]],[[139.70505718438136,35.53349911637366],[139.7037625933441,35.53242005456179]],[[139.7319963147297,35.534756457963155],[139.73295634853264,35.53438113211555]],[[139.73295634853264,35.53438113211555],[139.73364000896802,35.53289859501749]],[[139.73364000896802,35.53289859501749],[139.72962532215587,35.532457587146546]],[[139.72742888118253,35.525176265702925],[139.72786526018385,35.52945498036567]],[[139.73080354545942,35.52958634441234],[139.73106537286023,35.52831961967666]],[[139.70262800794066,35.526536821900514],[139.7023807265066,35.526480523023366]],[[139.7023807265066,35.526480523023366],[139.70073703226828,35.527559584835245]],[[139.70203162330552,35.53026193093803],[139.70233708860644,35.53018686576851]],[[139.70233708860644,35.53018686576851],[139.70473717311373,35.52948312980424]],[[139.70473717311373,35.52948312980424],[139.70336985224293,35.527644033150956]],[[139.70336985224293,35.527644033150956],[139.70262800794066,35.526536821900514]],[[139.7416839285591,35.537468187212134],[139.74120391165764,35.54044264455444],[139.74113118182407,35.54520928281907]],[[139.74113118182407,35.54520928281907],[139.74516041460296,35.5439331749372]],[[139.74649864354035,35.53736497260404],[139.74562588553772,35.5373086737269]],[[139.74562588553772,35.5373086737269],[139.7416839285591,35.537468187212134]],[[139.72098501792965,35.51371944420465],[139.72082501229585,35.51373821049703]],[[139.72082501229585,35.51373821049703],[139.71986497849292,35.515821268951264]],[[139.71986497849292,35.515821268951264],[139.72083955826255,35.515549157711746],[139.7214359428977,35.51793247684407]],[[139.7214359428977,35.51793247684407],[139.72433059027313,35.51697539593266]],[[139.7031953006424,35.50957209358857],[139.70817002125747,35.51016323179856]],[[139.69573321971976,35.51644055659982],[139.69435135288222,35.52016566563734]],[[139.69435135288222,35.52016566563734],[139.69366769244684,35.52169511846635]],[[139.69366769244684,35.52169511846635],[139.6937695142138,35.521751417343495]],[[139.6937695142138,35.521751417343495],[139.69519501895147,35.52086001845542]],[[139.69519501895147,35.52086001845542],[139.70028610730023,35.517538384704075]],[[139.73364000896802,35.53289859501749],[139.73384365250197,35.53239190512322]],[[139.73388729040212,35.53220424219941],[139.73190903892944,35.53052465903136],[139.73059990192547,35.53044959386184]],[[139.73515278950595,35.52054099148495],[139.7355891685073,35.52384385894391]],[[139.7425275946283,35.52604889829862],[139.7407529866896,35.52326210388012],[139.73775651754718,35.52125411059541],[139.73515278950595,35.52054099148495]],[[139.69843876952797,35.50571562050438],[139.7015661523708,35.50593143286676]],[[139.70316620870898,35.50454272723061],[139.7032243925758,35.50448642835347]],[[139.7032243925758,35.50448642835347],[139.69880241869572,35.50238460360685],[139.69843876952797,35.50571562050438]],[[139.71038100819752,35.511467489119],[139.71038100819752,35.51148625541138]],[[139.71519572317877,35.512340121714686],[139.7153411828459,35.51195541272089]],[[139.72299236133574,35.508436732899554],[139.72313782100287,35.5085868632386]],[[139.72329782663667,35.50878390930859],[139.73026534469113,35.51118599473329],[139.7315744816951,35.49898790468599],[139.7231960048697,35.49576948554274],[139.71993770832648,35.49410866866707],[139.71406113777533,35.50296635867065],[139.7155157344464,35.50440198003775],[139.72328328066996,35.50790189356671],[139.72299236133574,35.508436732899554]],[[139.73515278950595,35.52054099148495],[139.73580735800795,35.51766974875074]],[[139.70742817695523,35.51625289367602],[139.71001735902973,35.51845793303072]],[[139.71001735902973,35.51845793303072],[139.7110355766995,35.51946192967308]],[[139.7110355766995,35.51946192967308],[139.71275200077136,35.51486418803986]],[[139.7110355766995,35.51946192967308],[139.71270836287124,35.521160279133504]],[[139.73627282894267,35.53409963772984],[139.734396399237,35.5341371703146]],[[139.734396399237,35.5341371703146],[139.73486187017173,35.53659555461644]],[[139.73487641613846,35.53700841304881],[139.7380474368814,35.537186692826424]],[[139.7437058179319,35.52090693418637],[139.74361854213163,35.521113363402556]],[[139.74361854213163,35.521113363402556],[139.74665864917418,35.52394707355201],[139.74758959104366,35.52576740391291]],[[139.74758959104366,35.52576740391291],[139.75023695698502,35.52506366794864],[139.7522443003911,35.52356236455821]],[[139.7522443003911,35.52356236455821],[139.75202611089045,35.523327785903454]],[[139.75202611089045,35.523327785903454],[139.7515606399557,35.52363742972773],[139.7457567992381,35.51897400607118],[139.7437058179319,35.52090693418637]],[[139.72123229936375,35.5216482027354],[139.71599575134786,35.52255836791585]],[[139.71599575134786,35.52255836791585],[139.71627212471537,35.526011365713856]],[[139.71627212471537,35.526011365713856],[139.7184685656887,35.52569233874339]],[[139.70502809244795,35.514357498145586],[139.70217708297264,35.51628104311459]],[[139.70094067580223,35.51710675997933],[139.706482689119,35.51681588244743]],[[139.706482689119,35.51681588244743],[139.70729726325482,35.51628104311459]],[[139.7214359428977,35.51793247684407],[139.71841038182185,35.51907722067928]],[[139.71841038182185,35.51907722067928],[139.7202286276607,35.51999676900592],[139.72121775339704,35.521610670150636]],[[139.69481682381698,35.5109889486633],[139.69305676184499,35.51556792400413]],[[139.69305676184499,35.51556792400413],[139.69582049552002,35.5161684453603]],[[139.69641688015517,35.51451701163082],[139.6974060058915,35.51180528238184]],[[139.6974060058915,35.51180528238184],[139.69744964379163,35.511673918335184]],[[139.69744964379163,35.511673918335184],[139.69481682381698,35.5109889486633]],[[139.70028610730023,35.53070293880897],[139.69992245813248,35.53186644893656],[139.7017261580046,35.53363048042033]],[[139.70296256517503,35.53196966354466],[139.70233708860644,35.53018686576851]],[[139.71841038182185,35.51907722067928],[139.71829401408817,35.51783864538216]],[[139.71829401408817,35.51783864538216],[139.71729034238513,35.518626829662146]],[[139.7159230215143,35.51965897574307],[139.71599575134786,35.52255836791585]],[[139.69798784455992,35.522717881401086],[139.69726054622438,35.52363742972773]],[[139.69726054622438,35.52363742972773],[139.69728963815783,35.523656196020106]],[[139.69728963815783,35.523656196020106],[139.6999806419993,35.52513873311817]],[[139.6999806419993,35.52513873311817],[139.7011734112696,35.52363742972773]],[[139.7011734112696,35.52363742972773],[139.70114431933618,35.52361866343535]],[[139.70114431933618,35.52361866343535],[139.69798784455992,35.522717881401086]],[[139.74758959104366,35.52576740391291],[139.74766232087723,35.525898767959575]],[[139.74985876185056,35.53256080175464],[139.74990239975068,35.53260771748559]],[[139.74990239975068,35.53260771748559],[139.7514297262553,35.53304872535653]],[[139.7514297262553,35.53304872535653],[139.75083334162017,35.530881218586586],[139.7518224673565,35.53013995003756],[139.75403345429655,35.531153329826104],[139.75596806786908,35.52964264328948],[139.75593897593566,35.52762526685858],[139.7523752140915,35.52468834210104],[139.7523461221581,35.5236655791663]],[[139.7523461221581,35.5236655791663],[139.7522443003911,35.52356236455821]],[[139.69843876952797,35.50571562050438],[139.6983805856611,35.50626922612961]],[[139.6983805856611,35.50626922612961],[139.6984824074281,35.50883082503954]],[[139.6984824074281,35.50883082503954],[139.70110068143603,35.50924368347191]],[[139.70489717874756,35.52956757811996],[139.70473717311373,35.52948312980424]],[[139.7037625933441,35.53242005456179],[139.70629359155177,35.531622487135614]],[[139.70629359155177,35.531622487135614],[139.70489717874756,35.52956757811996]],[[139.68959482176783,35.51916166899499],[139.69366769244684,35.52169511846635]],[[139.69435135288222,35.52016566563734],[139.69177671677443,35.51957452742736]],[[139.69177671677443,35.51957452742736],[139.68959482176783,35.51916166899499]],[[139.7523461221581,35.5236655791663],[139.7531606962939,35.52347791624249],[139.75701537747224,35.526677569093366],[139.75893544507807,35.52638669156147],[139.76617933650004,35.513362884649425],[139.7651902107637,35.511476872265185],[139.7580481411087,35.5097316070738],[139.75380071882915,35.5083898171686],[139.75160427785585,35.509346898080004],[139.7483023434125,35.51845793303072],[139.74881145224737,35.52005306788306],[139.75243339795836,35.52293369376346],[139.75202611089045,35.523327785903454]],[[139.7031953006424,35.50957209358857],[139.70271528374093,35.51176774979709]],[[139.70271528374093,35.51176774979709],[139.7064535971856,35.51246210261516],[139.70627904558506,35.513522398134654]],[[139.74726957977603,35.53297366018701],[139.74860780871342,35.534784607401726]],[[139.74860780871342,35.534784607401726],[139.74933510704895,35.53757140182022]],[[139.74933510704895,35.53757140182022],[139.7506006061528,35.537608934404986]],[[139.7506006061528,35.537608934404986],[139.75080424968675,35.534418664700304],[139.74990239975068,35.53260771748559]],[[139.73295634853264,35.53438113211555],[139.734396399237,35.5341371703146]],[[139.72299236133574,35.508436732899554],[139.71640303841576,35.50610032949818],[139.7113410420004,35.503867140704905]],[[139.71006099692988,35.50481483847012],[139.71042464609764,35.508183387952414]],[[139.71673759565013,35.51244333632278],[139.72082501229585,35.51373821049703]],[[139.7388329190838,35.49002700007431],[139.73878928118364,35.49043985850668]],[[139.73878928118364,35.49043985850668],[139.73557462254058,35.495347243964176],[139.7546298389317,35.503510581149676],[139.76092824251745,35.5063724407377],[139.77108132728156,35.50661640253865],[139.7781215751696,35.50516201487916],[139.77575058259572,35.50410171935966],[139.7789361493054,35.49956965974978],[139.78241263534926,35.501014664263074],[139.76171372471984,35.49180979785046],[139.75890635314465,35.495178347332754],[139.7564044468704,35.494099285520875],[139.75858634187702,35.490833950646675],[139.7461495403393,35.48490380225444],[139.74076753265632,35.48915436747862],[139.7388329190838,35.49002700007431]],[[139.74161119872554,35.5366330872012],[139.74255668656173,35.5364360411312]],[[139.74255668656173,35.5364360411312],[139.74286215186265,35.534118404022216]],[[139.74286215186265,35.534118404022216],[139.7417130204925,35.53416531975317]],[[139.68936208630043,35.5207849532859],[139.68776202996224,35.52342161736535]],[[139.68776202996224,35.52342161736535],[139.69008938463597,35.5253920780653],[139.69198036030838,35.525073051094836]],[[139.69198036030838,35.525073051094836],[139.6922858256093,35.52381570950534]],[[139.6922858256093,35.52381570950534],[139.68936208630043,35.5207849532859]],[[139.73490550807188,35.5411557636649],[139.7380474368814,35.544665060340044],[139.74113118182407,35.54520928281907]],[[139.7416839285591,35.537468187212134],[139.74156756082542,35.537167926534046]],[[139.6987587807956,35.52887322530188],[139.69774056312585,35.529520662389004]],[[139.69774056312585,35.529520662389004],[139.69622778258793,35.530637256785646]],[[139.69622778258793,35.530637256785646],[139.7026716458408,35.535995033260264]],[[139.7506006061528,35.537608934404986],[139.75605534366935,35.537993643398785],[139.75969183534704,35.53725237484976],[139.7643756366279,35.53451249616221]],[[139.7643756366279,35.53451249616221],[139.76002639258138,35.5307780039785],[139.7562880791367,35.530215015207084],[139.75361162126194,35.53235437253846],[139.7514297262553,35.53304872535653]],[[139.71891949065673,35.53052465903136],[139.71436660307626,35.53072170510136]],[[139.71436660307626,35.53072170510136],[139.7145411546768,35.533818143344135]],[[139.7145411546768,35.533818143344135],[139.7145702466102,35.534118404022216]],[[139.7145702466102,35.534118404022216],[139.71747943995237,35.532842296140345],[139.71906495032383,35.53302057591796]],[[139.71406113777533,35.52806627472952],[139.71426478130928,35.52928608373425]],[[139.71426478130928,35.52928608373425],[139.71436660307626,35.52937053204996]],[[139.71436660307626,35.52937053204996],[139.71864311728922,35.529445597219485]],[[139.7185849334224,35.527972443267615],[139.71406113777533,35.52806627472952]],[[139.7429057897628,35.53409963772984],[139.74286215186265,35.534118404022216]],[[139.74255668656173,35.5364360411312],[139.74580043713823,35.535281914149806]],[[139.74580043713823,35.535281914149806],[139.74860780871342,35.534784607401726]],[[139.69586413342014,35.52536392862673],[139.69491864558395,35.5265462050467],[139.69774056312585,35.529520662389004]],[[139.70056248066774,35.52767218258953],[139.69586413342014,35.52536392862673]],[[139.6984824074281,35.50883082503954],[139.69744964379163,35.511673918335184]],[[139.6974060058915,35.51180528238184],[139.70251164020698,35.512612232954204]],[[139.70251164020698,35.512612232954204],[139.70271528374093,35.51176774979709]],[[139.70251164020698,35.512612232954204],[139.70208980717237,35.51527704647223]],[[139.74562588553772,35.5373086737269],[139.74580043713823,35.535281914149806]],[[139.7145702466102,35.534118404022216],[139.7109192089658,35.53524438156505],[139.71135558796712,35.53658617147025]],[[139.71135558796712,35.53658617147025],[139.71694123918408,35.53805932542212]],[[139.71694123918408,35.53805932542212],[139.71720306658486,35.53466262650125],[139.7222359710668,35.53498165347172]],[[139.6983805856611,35.50626922612961],[139.69648960998873,35.50603464747485],[139.69481682381698,35.5109889486633]],[[139.71829401408817,35.51783864538216],[139.71977770269268,35.51594324985174]],[[139.71977770269268,35.51594324985174],[139.71679577951696,35.51489233747843]],[[139.71986497849292,35.515821268951264],[139.71977770269268,35.51594324985174]],[[139.74361854213163,35.521113363402556],[139.73798925301455,35.51670328469314],[139.7365492023102,35.51679711615505]],[[139.70466444328017,35.50131492494116],[139.7032243925758,35.50448642835347]],[[139.69519501895147,35.52086001845542],[139.69680962125636,35.52179833307444]],[[139.69680962125636,35.52179833307444],[139.70031519923364,35.52046592631543],[139.70194434750525,35.51927426674927]],[[139.70194434750525,35.51927426674927],[139.7008097621018,35.51719120829504]],[[139.70854821639196,35.521028915086845],[139.7052462819486,35.5225114521849]],[[139.7052462819486,35.5225114521849],[139.70571175288336,35.52340285107297]],[[139.70571175288336,35.52340285107297],[139.70649723508572,35.52478217356294]],[[139.70649723508572,35.52478217356294],[139.70656996491928,35.524791556709125]],[[139.70656996491928,35.524791556709125],[139.7099591751629,35.523018142079174]],[[139.7099591751629,35.523018142079174],[139.71001735902973,35.5229899926406]],[[139.71001735902973,35.5229899926406],[139.70854821639196,35.521028915086845]],[[139.7801725564758,35.51329720262609],[139.77623059949718,35.50955332729619],[139.77186680948395,35.512752980147056],[139.7742378020578,35.514967402647954],[139.7728850271537,35.51553039141937],[139.77007765557852,35.5138695745437],[139.76620842843346,35.520691121823994],[139.7688121564747,35.522999375786796],[139.76783757670506,35.5236655791663],[139.7655684058982,35.521995379144435],[139.76104461025113,35.5301024174528],[139.76507384303002,35.533452200642714],[139.7676339331711,35.53614516359931],[139.7876200914317,35.52464142637008],[139.7912420371427,35.52204229487539],[139.7886819470016,35.52291492747108],[139.78856557926792,35.52150745554255],[139.79013654367267,35.52035332856115],[139.7951694481546,35.51954637798879],[139.796507677092,35.51874881056262],[139.78792555673263,35.50905602054811],[139.7801725564758,35.51329720262609]],[[139.7437058179319,35.52090693418637],[139.7454658799039,35.51874881056262],[139.74073844072288,35.51565237231984],[139.73797470704784,35.514714057700814]],[[139.73797470704784,35.514714057700814],[139.7376546957802,35.514638992531296]],[[139.72531971600947,35.469834469472936],[139.7254651756766,35.46968433913389],[139.73864382151655,35.47545497404088],[139.73937111985208,35.474760621222806],[139.74200393982673,35.47695627743132],[139.74148028502515,35.47867339318413],[139.73829471831547,35.483637077518765],[139.73781470141404,35.48345879774115],[139.7353418870732,35.487240205655816],[139.73915293035142,35.48891040567768],[139.7388329190838,35.49002700007431]],[[139.73878928118364,35.49043985850668],[139.73828017234877,35.49028034502145],[139.7357491741411,35.49413681810564],[139.7341491178029,35.49460597541515],[139.72286144763535,35.489670440519085],[139.7206504606953,35.48909806860148],[139.71443933290982,35.486123611259174]],[[139.71443933290982,35.486123611259174],[139.70467898924687,35.501042813701645]],[[139.7364037426431,35.51407600375988],[139.73298544046605,35.51270606441611],[139.73214177439684,35.51013508235998],[139.73295634853264,35.50154950359592],[139.73391638233554,35.500498591222616],[139.74321125506373,35.5046365586925],[139.74889872804764,35.50679468231626],[139.74929146914883,35.50823030368337],[139.74638227580667,35.51581188580507],[139.74498586300243,35.516299809406966],[139.738469269916,35.51371006105846],[139.73797470704784,35.514714057700814]],[[139.7643756366279,35.53451249616221],[139.76917580564245,35.53870676250924]],[[139.76917580564245,35.53870676250924],[139.7734523198554,35.53621084562264],[139.80942449553118,35.515849418389834],[139.8329598696692,35.502459668776375],[139.77767065020154,35.46834254922869],[139.74997512958424,35.451424736647695],[139.72959623022243,35.46345393006357],[139.72939258668848,35.463238117701195],[139.72531971600947,35.469834469472936]],[[139.7491460094817,35.54456184573195],[139.756826279905,35.544552462585756],[139.76917580564245,35.53870676250924]],[[139.72531971600947,35.469834469472936],[139.71462843047706,35.48606731238203],[139.71443933290982,35.486123611259174]],[[139.70649723508572,35.52478217356294],[139.7048389948807,35.525589124135294]],[[139.7048389948807,35.525589124135294],[139.70262800794066,35.526536821900514]],[[139.70336985224293,35.527644033150956],[139.707239079388,35.52695906347907]],[[139.707239079388,35.52695906347907],[139.70656996491928,35.524791556709125]],[[139.6999806419993,35.52513873311817],[139.7023807265066,35.526480523023366]],[[139.7048389948807,35.525589124135294],[139.7011734112696,35.52363742972773]],[[139.70571175288336,35.52340285107297],[139.70142069270366,35.52326210388012]],[[139.70142069270366,35.52326210388012],[139.70114431933618,35.52361866343535]],[[139.6906566773377,35.526180262345285],[139.69198036030838,35.525073051094836]],[[139.68776202996224,35.52342161736535],[139.68873660973188,35.5266400365086],[139.6906566773377,35.526180262345285]],[[139.713726580541,35.526152112906715],[139.71406113777533,35.52806627472952]],[[139.71627212471537,35.526011365713856],[139.713726580541,35.526152112906715]],[[139.7013188709367,35.52029702968401],[139.69798784455992,35.522717881401086]],[[139.70142069270366,35.52326210388012],[139.7013188709367,35.52029702968401]],[[139.71599575134786,35.52255836791585],[139.71315928783926,35.52273664769346]],[[139.71315928783926,35.52273664769346],[139.71369748860758,35.52613334661433]],[[139.71369748860758,35.52613334661433],[139.713726580541,35.526152112906715]],[[139.69305676184499,35.51556792400413],[139.69177671677443,35.51957452742736]],[[139.71369748860758,35.52613334661433],[139.71030827836395,35.52630224324575]],[[139.71030827836395,35.52630224324575],[139.707239079388,35.52695906347907]],[[139.707239079388,35.52695906347907],[139.7072536253547,35.52898582305616]],[[139.7072536253547,35.52898582305616],[139.70732635518826,35.5290421219333]],[[139.70732635518826,35.5290421219333],[139.71426478130928,35.52928608373425]],[[139.70489717874756,35.52956757811996],[139.7072536253547,35.52898582305616]],[[139.70865003815894,35.536360975961685],[139.71135558796712,35.53658617147025]],[[139.7145411546768,35.533818143344135],[139.7080681994905,35.53418408604555]],[[139.70629359155177,35.531622487135614],[139.70755909065562,35.53332083659605]],[[139.70755909065562,35.53332083659605],[139.70732635518826,35.5290421219333]],[[139.71001735902973,35.51845793303072],[139.7076754583893,35.52019381507591]],[[139.7076754583893,35.52019381507591],[139.70854821639196,35.521028915086845]],[[139.71001735902973,35.5229899926406],[139.71286836850504,35.52132917576493]],[[139.68959482176783,35.51916166899499],[139.68936208630043,35.5207849532859]],[[139.6922858256093,35.52381570950534],[139.69378406018052,35.52178894992825]],[[139.69378406018052,35.52178894992825],[139.6937695142138,35.521751417343495]],[[139.69728963815783,35.523656196020106],[139.69586413342014,35.52536392862673]],[[139.69378406018052,35.52178894992825],[139.69726054622438,35.52363742972773]],[[139.69798784455992,35.522717881401086],[139.69680962125636,35.52179833307444]],[[139.70194434750525,35.51927426674927],[139.70216253700593,35.51971527462021]],[[139.70216253700593,35.51971527462021],[139.70329712240937,35.51897400607118]],[[139.70329712240937,35.51897400607118],[139.70640995928548,35.51687218132457]],[[139.70640995928548,35.51687218132457],[139.706482689119,35.51681588244743]],[[139.70665724071955,35.519199201579745],[139.70424261024556,35.52068173867781]],[[139.70424261024556,35.52068173867781],[139.7052462819486,35.5225114521849]],[[139.7076754583893,35.52019381507591],[139.70665724071955,35.519199201579745]],[[139.70802456159035,35.534118404022216],[139.70755909065562,35.53332083659605]],[[139.6906566773377,35.526180262345285],[139.69563139795278,35.53054342532374],[139.69622778258793,35.530637256785646]],[[139.71315928783926,35.52273664769346],[139.7129265523719,35.521385474642074]],[[139.7099591751629,35.523018142079174],[139.71030827836395,35.52630224324575]],[[139.70329712240937,35.51897400607118],[139.70424261024556,35.52068173867781]],[[139.70665724071955,35.519199201579745],[139.70640995928548,35.51687218132457]],[[139.71436660307626,35.52937053204996],[139.71436660307626,35.53072170510136]],[[139.7013188709367,35.52029702968401],[139.70216253700593,35.51971527462021]],[[139.71694123918408,35.53805932542212],[139.71977770269268,35.539072705210664],[139.72514516440896,35.54341710189674]]]}