{"type":"Topology","bbox":[139.5253983368278,35.56461598370701,139.62066395129463,35.607365990130795],"objects":{"town":{"type":"GeometryCollection","geometries":[{"type":"MultiPolygon","arcs":[[[8,9,10,5,6,0,1,2,74,75,76]]],"properties":{"name":"宮前平"}},{"type":"MultiPolygon","arcs":[[[-35,60,61,12,13,14,15,62]]],"properties":{"name":"神木"}},{"type":"MultiPolygon","arcs":[[[25,26,21,22,161,162,96,97,163,-130,33,34,35,-134,-75,-3,-80,20,27]]],"properties":{"name":"土橋"}},{"type":"MultiPolygon","arcs":[[[86,87,-100,-123,29,30,-212,-211,-195,-152,-180,-179,-139,-138,233]]],"properties":{"name":"菅生"}},{"type":"MultiPolygon","arcs":[[[-216,-228,207,-116,-48,105,40,232]]],"properties":{"name":"野川"}},{"type":"MultiPolygon","arcs":[[[115,116,117,118,44,41,-1,42,119,120,-46]]],"properties":{"name":"馬絹"}},{"type":"Polygon","arcs":[[45,46,47]],"properties":{"name":"梶ケ谷"}},{"type":"MultiPolygon","arcs":[[[90,-166,-56,-55,209,-65,-64,-70,-133,-132,-202,48,49,50,-124,-102,159,160]]],"properties":{"name":"平"}},{"type":"MultiPolygon","arcs":[[[71,72,-13,-62,68,69,63,64,-210,54,55,56,57,58,224,185]]],"properties":{"name":"神木本町"}},{"type":"MultiPolygon","arcs":[[[110,111,81,77,78,-28,-21,79,-2,-42]]],"properties":{"name":"小台"}},{"type":"MultiPolygon","arcs":[[[84,82,-125,-50,127]]],"properties":{"name":"白幡台"}},{"type":"MultiPolygon","arcs":[[[-7,-6,-11,-10,-9,-77,-76,133,-36,-63,-16,-15,-14,-73,128,109,95,126,-120,-43]]],"properties":{"name":"宮崎"}},{"type":"MultiPolygon","arcs":[[[121,-30,122,99,-88,100,101,123,-51,124,-83,125]]],"properties":{"name":"初山"}},{"type":"Polygon","arcs":[[129,130,131,132,-69,-61,-34]],"properties":{"name":"けやき平"}},{"type":"Polygon","arcs":[[135,136,137,138,139]],"properties":{"name":"菅生ケ丘"}},{"type":"MultiPolygon","arcs":[[[-119,-147,-146,176,171,220,219,170,223,-193,-192,198,221,140,-82,-112,-111,-45]]],"properties":{"name":"有馬"}},{"type":"MultiPolygon","arcs":[[[145,146,-118,-117,-208,227,215,216,226,-221,-172,-177]]],"properties":{"name":"東有馬"}},{"type":"MultiPolygon","arcs":[[[-155,-154,-140,178,179,151,152,148,228]]],"properties":{"name":"水沢"}},{"type":"Polygon","arcs":[[-136,153,154,155]],"properties":{"name":"潮見台"}},{"type":"MultiPolygon","arcs":[[[-91,-161,164,157,-58,-57,165]]],"properties":{"name":"五所塚"}},{"type":"MultiPolygon","arcs":[[[191,192,188,234,-205,187,-22,-27,-26,-79,-78,-141,-222,-199]]],"properties":{"name":"鷺沼"}},{"type":"MultiPolygon","arcs":[[[-122,-201,-97,-163,-162,-23,-188,204,202,193,-153,194,210,211,-31]]],"properties":{"name":"犬蔵"}},{"type":"Polygon","arcs":[[-98,200,-126,-85,-128,-49,201,-131,-164]],"properties":{"name":"南平台"}}]}},"arcs":[[[139.59052842388604,35.583919541963176],[139.5901282682897,35.58289771462691],[139.584611837569,35.58394519453228]],[[139.584611837569,35.58394519453228],[139.5807817768614,35.584646364754654]],[[139.5807817768614,35.584646364754654],[139.5810961848299,35.58519361956236]],[[139.5810961848299,35.58519361956236],[139.5840973518023,35.58528340355425]],[[139.5840973518023,35.58528340355425],[139.58946134229583,35.58665154057351]],[[139.58946134229583,35.58665154057351],[139.58989008043477,35.58604442977121]],[[139.58989008043477,35.58604442977121],[139.59052842388604,35.583919541963176]],[[139.5840973518023,35.58528340355425],[139.58349711840782,35.58653182858433],[139.584707112711,35.58994362027612]],[[139.584707112711,35.58994362027612],[139.5882418204785,35.58929375519197]],[[139.5882418204785,35.58929375519197],[139.5882418204785,35.58928947976378]],[[139.5882418204785,35.58928947976378],[139.58946134229583,35.58665154057351]],[[139.58219184896268,35.59300482685672],[139.58099138217372,35.59512116380839]],[[139.58099138217372,35.59512116380839],[139.5821823214485,35.596339660841174],[139.58750820188524,35.59627552941839]],[[139.58750820188524,35.59627552941839],[139.58698418860433,35.595125439236575]],[[139.58698418860433,35.595125439236575],[139.5846023100548,35.59467224384895],[139.58489766299496,35.59315019141501]],[[139.58489766299496,35.59315019141501],[139.58219184896268,35.59300482685672]],[[139.57637053778765,35.58282503234776],[139.57521770856968,35.583902440250434],[139.57238803685286,35.58372714769484],[139.571673473288,35.585214996703286]],[[139.571673473288,35.585214996703286],[139.57329315070166,35.587032053681995]],[[139.57329315070166,35.587032053681995],[139.57333126075847,35.587036329110184]],[[139.57333126075847,35.587036329110184],[139.5802196535237,35.58475752588747]],[[139.5802196535237,35.58475752588747],[139.57839989831186,35.58447962305544],[139.57637053778765,35.58282503234776]],[[139.56903435185512,35.584368461922615],[139.56783388506616,35.58642066745151]],[[139.56783388506616,35.58642066745151],[139.56789105015133,35.58794271988544]],[[139.56789105015133,35.58794271988544],[139.57016812604468,35.58804960559007],[139.57329315070166,35.587032053681995]],[[139.571673473288,35.585214996703286],[139.56903435185512,35.584368461922615]],[[139.57304543533252,35.579896364040906],[139.57189260611455,35.58069586911154]],[[139.57189260611455,35.58069586911154],[139.56903435185512,35.584368461922615]],[[139.57637053778765,35.58282503234776],[139.57304543533252,35.579896364040906]],[[139.55690582628094,35.59164096526564],[139.55886849420574,35.59481333297906],[139.56136470292563,35.595172468946615]],[[139.56136470292563,35.595172468946615],[139.56177438603615,35.59361193765901],[139.56428012227025,35.59354780623624]],[[139.56428012227025,35.59354780623624],[139.56507090594872,35.590409641948305],[139.56184107863555,35.591487049850976],[139.55690582628094,35.59164096526564]],[[139.57797116017292,35.58924672548193],[139.5741220444369,35.58804533016189]],[[139.5741220444369,35.58804533016189],[139.5727214998498,35.590965447612376]],[[139.5727214998498,35.590965447612376],[139.57715179395188,35.59286801315479]],[[139.57715179395188,35.59286801315479],[139.57741856434944,35.59149987613553]],[[139.57741856434944,35.59149987613553],[139.57797116017292,35.58924672548193]],[[139.61556673119864,35.57276494982799],[139.61550956611345,35.572790602397106]],[[139.61550956611345,35.572790602397106],[139.61605263442274,35.57424852340826]],[[139.61605263442274,35.57424852340826],[139.61635751487708,35.575736372416706]],[[139.61635751487708,35.575736372416706],[139.61695774827157,35.57863511272627],[139.6178056970352,35.57907548182934]],[[139.6178056970352,35.57907548182934],[139.6197874199884,35.57946027036601],[139.61929198925012,35.57662566147923],[139.62066395129463,35.57486846049511],[139.61661475776043,35.5727050938334],[139.61556673119864,35.57276494982799]],[[139.5830969628115,35.57996477089186],[139.584611837569,35.58394519453228]],[[139.59052842388604,35.583919541963176],[139.59352006334424,35.583624537418395],[139.59552084132585,35.582739523784056],[139.59629256997587,35.58566391666273]],[[139.59629256997587,35.58566391666273],[139.5971881563105,35.58373142312303],[139.59435848459367,35.581097759360944],[139.58930890206867,35.57892156641468]],[[139.58930890206867,35.57892156641468],[139.5830969628115,35.57996477089186]],[[139.60194238589537,35.578665040723564],[139.60264742194602,35.580764275962494],[139.602695059517,35.58389388939406],[139.60161845041262,35.58462926304192]],[[139.60161845041262,35.58462926304192],[139.60439095704427,35.582919091767835],[139.61014557561992,35.580533402840494]],[[139.61014557561992,35.580533402840494],[139.60599157942954,35.57838286246334],[139.60194238589537,35.578665040723564]],[[139.57216890402628,35.596241325992914],[139.57034914881444,35.59674155109058]],[[139.57034914881444,35.59674155109058],[139.5691582095397,35.598994701744175],[139.5671574315581,35.59799425154884]],[[139.5671574315581,35.59799425154884],[139.5666524733056,35.599931020516735]],[[139.5666524733056,35.599931020516735],[139.56948214502242,35.599524854839146]],[[139.56948214502242,35.599524854839146],[139.57440786986285,35.598622739492065]],[[139.57440786986285,35.598622739492065],[139.57216890402628,35.596241325992914]],[[139.5805626440348,35.60071769930281],[139.58048642392123,35.60131198382056]],[[139.58048642392123,35.60131198382056],[139.57995288312614,35.60294947281549],[139.57638959281604,35.60328723164211],[139.57555117156662,35.60397557557993]],[[139.57555117156662,35.60397557557993],[139.57549400648142,35.604001228149045]],[[139.57549400648142,35.604001228149045],[139.57718037649448,35.6060919125316]],[[139.57718037649448,35.6060919125316],[139.58125815257128,35.60481355950423],[139.58329704060966,35.604881966355194]],[[139.58329704060966,35.604881966355194],[139.5805626440348,35.60071769930281]],[[139.57715179395188,35.59286801315479],[139.5805626440348,35.5945397055752]],[[139.5805626440348,35.5945397055752],[139.58099138217372,35.59512116380839]],[[139.58219184896268,35.59300482685672],[139.57741856434944,35.59149987613553]],[[139.58096279963115,35.595907842594464],[139.5791906819903,35.597831785277805],[139.57943839735944,35.599007528028736]],[[139.57943839735944,35.599007528028736],[139.5806102816058,35.60039704218892]],[[139.5806102816058,35.60039704218892],[139.582687279701,35.60101697927578]],[[139.582687279701,35.60101697927578],[139.58364955863502,35.60015761821055]],[[139.58364955863502,35.60015761821055],[139.5821727939343,35.5989305703214],[139.58096279963115,35.595907842594464]],[[139.5805626440348,35.5945397055752],[139.58054358900642,35.59478340498176]],[[139.58054358900642,35.59478340498176],[139.58096279963115,35.595907842594464]],[[139.58364955863502,35.60015761821055],[139.58639348272405,35.597694971575876]],[[139.58639348272405,35.597694971575876],[139.58798457759514,35.596202847139246]],[[139.58798457759514,35.596202847139246],[139.58750820188524,35.59627552941839]],[[139.61605263442274,35.57424852340826],[139.61635751487708,35.575736372416706]],[[139.5810961848299,35.58519361956236],[139.57799021520134,35.58924672548193]],[[139.57799021520134,35.58924672548193],[139.58210610133492,35.590409641948305],[139.5846785301684,35.59001630255526]],[[139.5846785301684,35.59001630255526],[139.584707112711,35.58994362027612]],[[139.57543684139623,35.578254599617786],[139.57401724178072,35.57920802010309]],[[139.57401724178072,35.57920802010309],[139.57304543533252,35.579896364040906]],[[139.5802196535237,35.58475752588747],[139.5807817768614,35.584646364754654]],[[139.5807817768614,35.584646364754654],[139.57943839735944,35.582183718119985],[139.5796956402428,35.57983650804631]],[[139.5796956402428,35.57983650804631],[139.57583699699256,35.579041278403864],[139.57543684139623,35.578254599617786]],[[139.56647145053583,35.59415064161035],[139.5650518509203,35.59622422428017],[139.5670907389587,35.59747264931025]],[[139.5670907389587,35.59747264931025],[139.56735750935624,35.59615581742921]],[[139.56735750935624,35.59615581742921],[139.56647145053583,35.59415064161035]],[[139.55524803881045,35.59577957974891],[139.55481930067154,35.59833201037547],[139.55265655494858,35.60093147071207],[139.5525136422356,35.60324020193208],[139.55157041833,35.60402688071816]],[[139.55157041833,35.60402688071816],[139.55268513749118,35.60365491846604]],[[139.55268513749118,35.60365491846604],[139.5580586554989,35.601153792977705],[139.55662952836917,35.598956222890514],[139.55772519250198,35.59837476465732],[139.55693440882354,35.59684843679521],[139.55874463652117,35.596048931724575]],[[139.55874463652117,35.596048931724575],[139.55524803881045,35.59577957974891]],[[139.56948214502242,35.599524854839146],[139.56932017728107,35.60144879752248],[139.57179733097257,35.60492044520886]],[[139.57179733097257,35.60492044520886],[139.57592274462033,35.60217134488578]],[[139.57592274462033,35.60217134488578],[139.57433164974927,35.599832685668474],[139.57441739737703,35.598622739492065]],[[139.57441739737703,35.598622739492065],[139.57440786986285,35.598622739492065]],[[139.5958257217802,35.58616841718859],[139.58989008043477,35.58604442977121]],[[139.5882418204785,35.58928947976378],[139.5907570842268,35.588767877525186],[139.59412982425292,35.59005478140893]],[[139.59412982425292,35.59005478140893],[139.59392974645476,35.58929375519197],[139.5958257217802,35.58616841718859]],[[139.56780530252357,35.58814366501015],[139.5670526289019,35.59158966012742]],[[139.5670526289019,35.59158966012742],[139.56966316779219,35.59097827389694]],[[139.56966316779219,35.59097827389694],[139.56780530252357,35.58814366501015]],[[139.56076446953116,35.596339660841174],[139.55874463652117,35.596048931724575]],[[139.55268513749118,35.60365491846604],[139.55376174659557,35.60509146233627],[139.55182766121334,35.60578835713046],[139.5560197674605,35.60538219145286],[139.55589590977593,35.60435181326023],[139.55984982816815,35.60345397334134],[139.5606025017898,35.60489479263975],[139.56294627028254,35.60340266820312],[139.56444209001162,35.604745152653265],[139.56683349607536,35.60234236201319]],[[139.56683349607536,35.60234236201319],[139.5666334182772,35.599935295944924]],[[139.5666334182772,35.599935295944924],[139.56528051126105,35.59958471083374],[139.56076446953116,35.596339660841174]],[[139.61550956611345,35.572790602397106],[139.61266083936823,35.57379532802062],[139.61202249591696,35.57510788447348]],[[139.61202249591696,35.57510788447348],[139.6108982492416,35.57972107148531],[139.61014557561992,35.580533402840494]],[[139.61014557561992,35.580533402840494],[139.6127751695386,35.58159798445861],[139.61618601962152,35.58149109875398],[139.6178056970352,35.57907548182934]],[[139.5882418204785,35.58929375519197],[139.58877536127358,35.59267561888646]],[[139.58877536127358,35.59267561888646],[139.58939464969646,35.59371454793546]],[[139.58939464969646,35.59371454793546],[139.5903283460879,35.592927869149385],[139.59142401022066,35.594231874745866]],[[139.59142401022066,35.594231874745866],[139.59273880717998,35.5936461410845],[139.59412982425292,35.59005478140893]],[[139.5830969628115,35.57996477089186],[139.58189649602255,35.58015288973201]],[[139.58189649602255,35.58015288973201],[139.5796956402428,35.57983650804631]],[[139.58877536127358,35.59267561888646],[139.58493577305174,35.59314164055864]],[[139.58493577305174,35.59314164055864],[139.58489766299496,35.59315019141501]],[[139.58698418860433,35.595125439236575],[139.58939464969646,35.59371454793546]],[[139.60194238589537,35.578665040723564],[139.5951778508147,35.577309729988855]],[[139.5951778508147,35.577309729988855],[139.59095716202495,35.57873344757453]],[[139.59095716202495,35.57873344757453],[139.58946134229583,35.57886598584827]],[[139.58946134229583,35.57886598584827],[139.58930890206867,35.57892156641468]],[[139.59629256997587,35.58566391666273],[139.5962163498623,35.58579217950829]],[[139.5962163498623,35.58579217950829],[139.5991317692069,35.585548480101735],[139.60032270848168,35.58364163913114],[139.60161845041262,35.58462926304192]],[[139.5657092494,35.592684169742824],[139.56428012227025,35.59354780623624]],[[139.56136470292563,35.595172468946615],[139.56076446953116,35.596339660841174]],[[139.5666334182772,35.599935295944924],[139.5666524733056,35.599931020516735]],[[139.5671574315581,35.59799425154884],[139.5670907389587,35.59747264931025]],[[139.56647145053583,35.59415064161035],[139.5657092494,35.592684169742824]],[[139.5958257217802,35.58616841718859],[139.5962163498623,35.58579217950829]],[[139.57034914881444,35.59674155109058],[139.56938686988045,35.59513399009295],[139.56735750935624,35.59615581742921]],[[139.58798457759514,35.596202847139246],[139.59142401022066,35.594231874745866]],[[139.5727214998498,35.590965447612376],[139.5705968641836,35.5909868247533]],[[139.5705968641836,35.5909868247533],[139.5750652683425,35.59525370208213]],[[139.5750652683425,35.59525370208213],[139.57518912602708,35.59536058778676]],[[139.57518912602708,35.59536058778676],[139.5777615548606,35.59397534905476],[139.57881910893656,35.595262252938504],[139.58054358900642,35.59478340498176]],[[139.57799021520134,35.58924672548193],[139.57797116017292,35.58924672548193]],[[139.58493577305174,35.59314164055864],[139.5846785301684,35.59001630255526]],[[139.53700284912108,35.593902666775605],[139.53711717929147,35.59574965175161]],[[139.53711717929147,35.59574965175161],[139.53869874664835,35.59868687091485],[139.54210959673128,35.597600912155805],[139.5455966669278,35.599704422822924],[139.54673044111735,35.59962746511559]],[[139.54673044111735,35.59962746511559],[139.54994121340212,35.598874989755],[139.54973160808976,35.59695959792803]],[[139.54973160808976,35.59695959792803],[139.54792138039213,35.59742134417203],[139.54536800658704,35.59650212711221],[139.54277652272515,35.5963610379821]],[[139.54277652272515,35.5963610379821],[139.5394800028126,35.594330209594126],[139.53700284912108,35.593902666775605]],[[139.57649439547222,35.57612543638156],[139.57543684139623,35.578254599617786]],[[139.58189649602255,35.58015288973201],[139.58147728539782,35.57718574257149]],[[139.58147728539782,35.57718574257149],[139.57649439547222,35.57612543638156]],[[139.57518912602708,35.59536058778676],[139.57943839735944,35.599007528028736]],[[139.59054747891443,35.5733122046357],[139.58789882996734,35.573628586321405]],[[139.58789882996734,35.573628586321405],[139.58877536127358,35.5748128799287],[139.58656497797963,35.57503947762252],[139.58792741250994,35.57836148532242]],[[139.58792741250994,35.57836148532242],[139.58946134229583,35.57886598584827]],[[139.59095716202495,35.57873344757453],[139.59114771230892,35.575257524459964],[139.59054747891443,35.5733122046357]],[[139.55276135760477,35.58868664438967],[139.54988404831693,35.58833605927848],[139.54576816218335,35.59020442139541]],[[139.54576816218335,35.59020442139541],[139.5455109193,35.592786780019274]],[[139.5455109193,35.592786780019274],[139.5475116972816,35.592457572049014]],[[139.5475116972816,35.592457572049014],[139.55229450940905,35.591705096688415],[139.55378080162396,35.59103812989153]],[[139.55378080162396,35.59103812989153],[139.55276135760477,35.58868664438967]],[[139.53700284912108,35.593902666775605],[139.5370123766353,35.593573458805345]],[[139.5370123766353,35.593573458805345],[139.5369456840359,35.59167944411931]],[[139.5369456840359,35.59167944411931],[139.53638356069823,35.59120914701894],[139.53064799715096,35.59272692402468],[139.52670360627295,35.5926328646046],[139.52831375617242,35.59531783350491],[139.53160074857078,35.59705793277629],[139.536421670755,35.59663466538595],[139.53711717929147,35.59574965175161]],[[139.57549400648142,35.604001228149045],[139.57318834804548,35.607135117008795]],[[139.57318834804548,35.607135117008795],[139.57620857004628,35.60723772728524],[139.57718037649448,35.6060919125316]],[[139.57333126075847,35.587036329110184],[139.5741220444369,35.58804533016189]],[[139.56683349607536,35.60234236201319],[139.56770049986739,35.6031760705093],[139.56795774275074,35.60662206562657],[139.57181638600096,35.60496319949071]],[[139.57181638600096,35.60496319949071],[139.57179733097257,35.60492044520886]],[[139.56789105015133,35.58794271988544],[139.56788152263715,35.58794271988544]],[[139.56788152263715,35.58794271988544],[139.56780530252357,35.58814366501015]],[[139.56966316779219,35.59097827389694],[139.5705968641836,35.5909868247533]],[[139.57181638600096,35.60496319949071],[139.57318834804548,35.607135117008795]],[[139.57555117156662,35.60397557557993],[139.57592274462033,35.60217134488578]],[[139.57438881483444,35.56985338323388],[139.57494141065794,35.570584481453544]],[[139.57494141065794,35.570584481453544],[139.57736139926425,35.573384886914845]],[[139.57736139926425,35.573384886914845],[139.58054358900642,35.57164906307165]],[[139.58054358900642,35.57164906307165],[139.57971469527118,35.56926337414431]],[[139.57971469527118,35.56926337414431],[139.57720895903708,35.56859640734743],[139.57438881483444,35.56985338323388]],[[139.58658403300802,35.57161058421799],[139.58657450549381,35.571482321372436]],[[139.58657450549381,35.571482321372436],[139.5846023100548,35.571811529342696]],[[139.5846023100548,35.571811529342696],[139.58376388880538,35.57454780338122]],[[139.58376388880538,35.57454780338122],[139.58291594004174,35.57746792083171]],[[139.58291594004174,35.57746792083171],[139.58792741250994,35.57836148532242]],[[139.58789882996734,35.573628586321405],[139.58595521707093,35.57228610187125],[139.58658403300802,35.57161058421799]],[[139.5455109193,35.592786780019274],[139.53927992501445,35.59379578107098],[139.5370123766353,35.593573458805345]],[[139.54277652272515,35.5963610379821],[139.5435673064036,35.59473637527172],[139.54857877887179,35.59394114562927]],[[139.54857877887179,35.59394114562927],[139.5475116972816,35.592457572049014]],[[139.58048642392123,35.60131198382056],[139.57782824745996,35.598853612614064],[139.57441739737703,35.598622739492065]],[[139.57736139926425,35.573384886914845],[139.57723754157968,35.57378250173607]],[[139.57723754157968,35.57378250173607],[139.58028634612307,35.57485563421056],[139.58376388880538,35.57454780338122]],[[139.5846023100548,35.571811529342696],[139.58054358900642,35.57164906307165]],[[139.582687279701,35.60101697927578],[139.58480238785296,35.601183720975],[139.58806079770872,35.5997386262484]],[[139.58806079770872,35.5997386262484],[139.58639348272405,35.597694971575876]],[[139.57189260611455,35.58069586911154],[139.57033962130026,35.5796355629216],[139.56529956628947,35.58070014453972]],[[139.56529956628947,35.58070014453972],[139.56644286799323,35.58440694077628],[139.56783388506616,35.58642066745151]],[[139.56779577500936,35.571798703058136],[139.56732892681364,35.57474447307774],[139.56600460234012,35.577544878539044]],[[139.56600460234012,35.577544878539044],[139.56939639739466,35.577775751661044]],[[139.56939639739466,35.577775751661044],[139.57147339548982,35.57480860450052]],[[139.57147339548982,35.57480860450052],[139.57136859283364,35.57478722735959]],[[139.57136859283364,35.57478722735959],[139.56850081106003,35.573064229800956],[139.56779577500936,35.571798703058136]],[[139.556620000855,35.58562116238088],[139.5554576441228,35.58771612219163],[139.55276135760477,35.58868664438967]],[[139.55378080162396,35.59103812989153],[139.55435245247583,35.59074312534675]],[[139.55435245247583,35.59074312534675],[139.5580967655557,35.588814907235225],[139.5620030463769,35.58827620328389]],[[139.5620030463769,35.58827620328389],[139.556620000855,35.58562116238088]],[[139.57494141065794,35.570584481453544],[139.57304543533252,35.57163196135892],[139.57136859283364,35.57478722735959]],[[139.57147339548982,35.57480860450052],[139.57650392298643,35.57608695752789]],[[139.57650392298643,35.57608695752789],[139.57723754157968,35.57378250173607]],[[139.5670526289019,35.59158966012742],[139.5657092494,35.592684169742824]],[[139.57216890402628,35.596241325992914],[139.5750652683425,35.59525370208213]],[[139.56484224560796,35.5787975789973],[139.56275571999856,35.579934842894566],[139.5611169875565,35.58318416831532],[139.556620000855,35.58562116238088]],[[139.5620030463769,35.58827620328389],[139.56420390215666,35.587416842218666],[139.56788152263715,35.58794271988544]],[[139.56529956628947,35.58070014453972],[139.56484224560796,35.5787975789973]],[[139.54973160808976,35.59695959792803],[139.554552530274,35.59590356716628]],[[139.554552530274,35.59590356716628],[139.55078916216576,35.59389411591924],[139.54857877887179,35.59394114562927]],[[139.59587335935117,35.57700617458771],[139.5951778508147,35.577309729988855]],[[139.61202249591696,35.57510788447348],[139.60913565911494,35.57247849613959],[139.60566764394682,35.57145666880332],[139.60301899499976,35.5745264262403],[139.6002464883681,35.57457345595033],[139.59587335935117,35.57700617458771]],[[139.5805626440348,35.60071769930281],[139.5806102816058,35.60039704218892]],[[139.55435245247583,35.59074312534675],[139.55418095722027,35.591234799588044]],[[139.55418095722027,35.591234799588044],[139.55690582628094,35.59164096526564]],[[139.59035692863046,35.5676216097212],[139.5912620424793,35.56849807249917],[139.591585977962,35.57111890997669]],[[139.591585977962,35.57111890997669],[139.59657839540182,35.57200819903921]],[[139.59657839540182,35.57200819903921],[139.59660697794442,35.57201674989558]],[[139.59660697794442,35.57201674989558],[139.59852200829823,35.57055027802806],[139.5997510576298,35.567459143450165]],[[139.5997510576298,35.567459143450165],[139.59552084132585,35.566565578959455],[139.59035692863046,35.5676216097212]],[[139.59054747891443,35.5733122046357],[139.594663365048,35.5730514035164],[139.59657839540182,35.57200819903921]],[[139.591585977962,35.57111890997669],[139.58658403300802,35.57161058421799]],[[139.58404018671712,35.56859640734743],[139.57971469527118,35.56926337414431]],[[139.58657450549381,35.571482321372436],[139.58543120379005,35.569186416436985],[139.58404018671712,35.56859640734743]],[[139.57650392298643,35.57608695752789],[139.57649439547222,35.57612543638156]],[[139.58147728539782,35.57718574257149],[139.58291594004174,35.57746792083171]],[[139.57438881483444,35.56985338323388],[139.57196882622813,35.571713194494436],[139.56842459094645,35.5712044185404],[139.56779577500936,35.571798703058136]],[[139.58329704060966,35.604881966355194],[139.5850882132789,35.60457413552586],[139.58450703491283,35.60618597195168],[139.58783213736797,35.606994027878685],[139.58841331573404,35.60136328895878],[139.58806079770872,35.5997386262484]],[[139.56939639739466,35.577775751661044],[139.5731692930171,35.578211845335936],[139.57401724178072,35.57920802010309]],[[139.59035692863046,35.5676216097212],[139.58404018671712,35.56859640734743]],[[139.59587335935117,35.57700617458771],[139.59693091342714,35.57551832557926],[139.59660697794442,35.57201674989558]],[[139.54576816218335,35.59020442139541],[139.54267172006897,35.58997354827341],[139.54112826276886,35.59174785097027],[139.5369456840359,35.59167944411931]],[[139.5551146536117,35.59579240603347],[139.55524803881045,35.59577957974891]],[[139.55418095722027,35.591234799588044],[139.5551146536117,35.59579240603347]],[[139.554552530274,35.59590356716628],[139.5551146536117,35.59579240603347]],[[139.61556673119864,35.57276494982799],[139.61154612020704,35.56728812632276],[139.61013604810572,35.56461598370701],[139.60353348076643,35.56481265340353],[139.60102774453233,35.565261573362974],[139.5997510576298,35.567459143450165]],[[139.54673044111735,35.59962746511559],[139.54766413750878,35.60135046267422],[139.54988404831693,35.60113241583678],[139.54970302554716,35.602308158587704],[139.5470448490859,35.60217134488578],[139.54917901226628,35.604321885262934],[139.55157041833,35.60402688071816]],[[139.56600460234012,35.577544878539044],[139.56484224560796,35.5787975789973]]]}