{"type":"Topology","bbox":[139.62689840490538,35.55248230157377,139.6851669858048,35.598185588011866],"objects":{"town":{"type":"GeometryCollection","geometries":[{"type":"MultiPolygon","arcs":[[[9,10,11,12,5,6,7,0,1,2,25,-14]]],"properties":{"name":"小杉町"}},{"type":"MultiPolygon","arcs":[[[-10,13,14,15,16,22,23,24,-11]]],"properties":{"name":"小杉陣屋町"}},{"type":"MultiPolygon","arcs":[[[-3,142,143,-117,18,19,20,-16,-15,-26]]],"properties":{"name":"小杉御殿町"}},{"type":"MultiPolygon","arcs":[[[-96,149,150,28,157,158,115,-19,116,117,159,156,-132,125,-121,-113,-112,-130,-97]]],"properties":{"name":"上小田中"}},{"type":"MultiPolygon","arcs":[[[32,33,34,-120,-207,209,208,203,-101,-65]]],"properties":{"name":"下新城"}},{"type":"Polygon","arcs":[[36,37,38,39,40,41]],"properties":{"name":"下沼部"}},{"type":"MultiPolygon","arcs":[[[63,-33,64,100,98,221,135,42,43,-128,-127,92,93]]],"properties":{"name":"新城"}},{"type":"MultiPolygon","arcs":[[[-161,-20,-116,-159,-158,-29,-151,166,48,45,-162]]],"properties":{"name":"宮内"}},{"type":"Polygon","arcs":[[49,50,51,52,53,54,55]],"properties":{"name":"木月大町"}},{"type":"Polygon","arcs":[[56,57,58,59,60]],"properties":{"name":"西加瀬"}},{"type":"MultiPolygon","arcs":[[[220,-76,-202,-218,-212,87,88,89,68,-58,-57,102]]],"properties":{"name":"木月"}},{"type":"Polygon","arcs":[[69,-6,-13,70,71,72,73]],"properties":{"name":"新丸子町"}},{"type":"MultiPolygon","arcs":[[[75,76,218,199,200,201]]],"properties":{"name":"井田"}},{"type":"MultiPolygon","arcs":[[[213,219,-210,206,119,-35,-114,120,-126,131,132,81,-51,82,83,-108]]],"properties":{"name":"下小田中"}},{"type":"MultiPolygon","arcs":[[[86,84,-186,186,-174,187]]],"properties":{"name":"上平間"}},{"type":"MultiPolygon","arcs":[[[-111,-93,126,127,-44,128,94,95,96,129]]],"properties":{"name":"上新城"}},{"type":"Polygon","arcs":[[-54,103,-1,104,105,106]],"properties":{"name":"今井南町"}},{"type":"Polygon","arcs":[[107,-84,108,109]],"properties":{"name":"井田杉山町"}},{"type":"Polygon","arcs":[[-34,-64,-94,110,111,112,113]],"properties":{"name":"新城中町"}},{"type":"Polygon","arcs":[[-24,137,138,139,140,141]],"properties":{"name":"上丸子天神町"}},{"type":"MultiPolygon","arcs":[[[153,154,155,145,146,-37,147,148,-7,-70,-74,-73,-166,-170]]],"properties":{"name":"新丸子東"}},{"type":"Polygon","arcs":[[-17,-21,160,161,-46,162,-138,-23]],"properties":{"name":"等々力"}},{"type":"MultiPolygon","arcs":[[[-141,164,165,-72,-71,-12,-25,-142]]],"properties":{"name":"丸子通"}},{"type":"Polygon","arcs":[[-154,169,-165,-140,170,171]],"properties":{"name":"上丸子八幡町"}},{"type":"Polygon","arcs":[[-148,-42,172,173,174,175]],"properties":{"name":"中丸子"}},{"type":"MultiPolygon","arcs":[[[188,-146,-156,-155,-172,176,-40,-39]]],"properties":{"name":"上丸子山王町"}},{"type":"Polygon","arcs":[[-69,-90,178,-106,179,180,-59]],"properties":{"name":"木月住吉町"}},{"type":"Polygon","arcs":[[182,183,184,185,-85]],"properties":{"name":"田尻町"}},{"type":"Polygon","arcs":[[189,190,-143,-2,-104,-53]],"properties":{"name":"今井仲町"}},{"type":"Polygon","arcs":[[191,-60,-181,192,193,194]],"properties":{"name":"苅宿"}},{"type":"Polygon","arcs":[[195,-195]],"properties":{"name":"大倉町"}},{"type":"Polygon","arcs":[[196,-193,-180,-105,-8,-149,-176,197,-184]],"properties":{"name":"市ノ坪"}},{"type":"Polygon","arcs":[[-38,-147,-189]],"properties":{"name":"上丸子"}},{"type":"Polygon","arcs":[[-191,202,-160,-118,-144]],"properties":{"name":"今井上町"}},{"type":"Polygon","arcs":[[-89,210,-55,-107,-179]],"properties":{"name":"木月伊勢町"}},{"type":"Polygon","arcs":[[211,212,-56,-211,-88]],"properties":{"name":"木月祗園町"}},{"type":"Polygon","arcs":[[-198,-175,-187,-185]],"properties":{"name":"北谷町"}},{"type":"Polygon","arcs":[[215,-110,216,217,-201]],"properties":{"name":"井田中ノ町"}},{"type":"Polygon","arcs":[[-82,-133,-157,-203,-190,-52]],"properties":{"name":"今井西町"}},{"type":"Polygon","arcs":[[-109,-83,-50,-213,-217]],"properties":{"name":"井田三舞町"}}]}},"arcs":[[[139.65622791462303,35.57347592039667],[139.65450299213617,35.5759944233297]],[[139.65450299213617,35.5759944233297],[139.65404262431028,35.576707465902395]],[[139.65404262431028,35.576707465902395],[139.65499832460705,35.57670289511667]],[[139.65499832460705,35.57670289511667],[139.65744584975735,35.57668461197378]],[[139.65744584975735,35.57668461197378],[139.65992833955264,35.57666175804517]],[[139.65992833955264,35.57666175804517],[139.6601089902185,35.57626867047304]],[[139.6601089902185,35.57626867047304],[139.65844234213998,35.573320513682106]],[[139.65844234213998,35.573320513682106],[139.65622791462303,35.57347592039667]],[[139.65744584975735,35.57668461197378],[139.6570962033073,35.58225639976936]],[[139.6570962033073,35.58225639976936],[139.65710203074815,35.58225639976936]],[[139.65710203074815,35.58225639976936],[139.65982927305845,35.58230667841231]],[[139.65982927305845,35.58230667841231],[139.65984675538095,35.58227468291226]],[[139.65984675538095,35.58227468291226],[139.65992833955264,35.57666175804517]],[[139.6570962033073,35.58225639976936],[139.65484098370453,35.58217412562636]],[[139.65484098370453,35.58217412562636],[139.65484681114538,35.5823249615552]],[[139.65484681114538,35.5823249615552],[139.65495170508038,35.58597244856166]],[[139.65495170508038,35.58597244856166],[139.6538561462036,35.58771848870761],[139.65517897527292,35.58812985942262],[139.65741088511234,35.58729340563543]],[[139.65741088511234,35.58729340563543],[139.65710203074815,35.58225639976936]],[[139.65028975241316,35.581890736911575],[139.64977111017893,35.582731761484496]],[[139.64977111017893,35.582731761484496],[139.64982355714645,35.58396587362954]],[[139.64982355714645,35.58396587362954],[139.65309275145432,35.58428125784438],[139.65495170508038,35.58597244856166]],[[139.65484681114538,35.5823249615552],[139.65028975241316,35.581890736911575]],[[139.65741088511234,35.58729340563543],[139.6597302065643,35.58764992692178]],[[139.6597302065643,35.58764992692178],[139.66038870737853,35.58621012941922],[139.6597360340051,35.58421726684426]],[[139.6597360340051,35.58421726684426],[139.65982927305845,35.58230667841231]],[[139.65499832460705,35.57670289511667],[139.65484098370453,35.58217412562636]],[[139.63802298945754,35.58587646206149],[139.63668850550656,35.58685461020608],[139.63427011756042,35.58618270470489],[139.6329298061686,35.58854580092336],[139.63324448797363,35.59068949942716]],[[139.63324448797363,35.59068949942716],[139.63623396512148,35.59107344542784]],[[139.63623396512148,35.59107344542784],[139.63844256519758,35.589971886068746],[139.64045303228534,35.587366538206986]],[[139.64045303228534,35.587366538206986],[139.63830270661757,35.587078578706475],[139.6383959456709,35.58588103284721]],[[139.6383959456709,35.58588103284721],[139.63802298945754,35.58587646206149]],[[139.6315778398951,35.577946148833156],[139.63153704780927,35.581826745911464]],[[139.63153704780927,35.581826745911464],[139.6326034694819,35.58184045826863]],[[139.6326034694819,35.58184045826863],[139.63327945261864,35.58064748319509],[139.6354997075764,35.58065662476653]],[[139.6354997075764,35.58065662476653],[139.63566870336058,35.57878717340608]],[[139.63566870336058,35.57878717340608],[139.6315778398951,35.577946148833156]],[[139.66299357343135,35.57313768225321],[139.66383272491143,35.57324281032483]],[[139.66383272491143,35.57324281032483],[139.6662219756534,35.57509854932812]],[[139.6662219756534,35.57509854932812],[139.66880353194287,35.575921290758146],[139.6706741404506,35.57735194668925]],[[139.6706741404506,35.57735194668925],[139.67133264126483,35.577877587047325]],[[139.67133264126483,35.577877587047325],[139.674170604951,35.571524194893215]],[[139.674170604951,35.571524194893215],[139.67132098638317,35.57135507582149],[139.66758559680855,35.570326649033944],[139.66715436618682,35.56939420874658],[139.66492828378824,35.569307363817856],[139.66299357343135,35.57313768225321]],[[139.62828533582388,35.58725683934965],[139.62734129040876,35.58822127513707]],[[139.62734129040876,35.58822127513707],[139.62828533582388,35.587791621279166]],[[139.62828533582388,35.587791621279166],[139.62828533582388,35.58725683934965]],[[139.648856201968,35.59480777736302],[139.6460182382818,35.593555382075095]],[[139.6460182382818,35.593555382075095],[139.64355905824985,35.59148024535713],[139.64099498428288,35.59190532842931]],[[139.64099498428288,35.59190532842931],[139.63711973612826,35.59162193971453],[139.6374868649008,35.59254066764473]],[[139.6374868649008,35.59254066764473],[139.64013252303945,35.593788492146935],[139.643203584359,35.598185588011866],[139.648856201968,35.59480777736302]],[[139.64773733332785,35.5692342312463],[139.64778978029537,35.57151505332177],[139.64650191587106,35.57161103982194]],[[139.64650191587106,35.57161103982194],[139.64649026098937,35.573059978895934]],[[139.64649026098937,35.573059978895934],[139.65018485847816,35.573128540681765]],[[139.65018485847816,35.573128540681765],[139.65280137941264,35.57216867568007]],[[139.65280137941264,35.57216867568007],[139.6528654812618,35.57151048253604]],[[139.6528654812618,35.57151048253604],[139.6534307430227,35.56917938181763]],[[139.6534307430227,35.56917938181763],[139.64773733332785,35.5692342312463]],[[139.65816262497992,35.55791239501196],[139.65753326136985,35.561518744946916]],[[139.65753326136985,35.561518744946916],[139.65745167719817,35.562071810019326]],[[139.65745167719817,35.562071810019326],[139.66019057439019,35.56342933337887]],[[139.66019057439019,35.56342933337887],[139.66320336130136,35.558227779226804]],[[139.66320336130136,35.558227779226804],[139.65907170575005,35.5569205345102],[139.65816262497992,35.55791239501196]],[[139.630738688415,35.58181760434002],[139.6307212060925,35.58380132534353]],[[139.6307212060925,35.58380132534353],[139.63253354019187,35.58380132534353]],[[139.63253354019187,35.58380132534353],[139.6326034694819,35.58184045826863]],[[139.63153704780927,35.581826745911464],[139.630738688415,35.58181760434002]],[[139.65753326136985,35.561518744946916],[139.65352980951687,35.56219065044811],[139.6536696680969,35.56316422780697]],[[139.6536696680969,35.56316422780697],[139.65390859317108,35.56363501873638]],[[139.65390859317108,35.56363501873638],[139.6552605594446,35.566446051955644]],[[139.6552605594446,35.566446051955644],[139.65710785818897,35.56389098273684],[139.65745167719817,35.562071810019326]],[[139.66028381344353,35.57662976254511],[139.6601089902185,35.57626867047304]],[[139.65984675538095,35.58227468291226],[139.66290616181882,35.582219833483585]],[[139.66290616181882,35.582219833483585],[139.6625040684013,35.58129653476767]],[[139.6625040684013,35.58129653476767],[139.66143764672864,35.5791391239067]],[[139.66143764672864,35.5791391239067],[139.66028381344353,35.57662976254511]],[[139.64018497000697,35.56387727037966],[139.6434774740782,35.560773706874166],[139.64808115233706,35.56002866880142]],[[139.64808115233706,35.56002866880142],[139.64811028954122,35.56001038565853]],[[139.64811028954122,35.56001038565853],[139.6431045178648,35.558460889298644],[139.63935747340852,35.55942075430034]],[[139.63935747340852,35.55942075430034],[139.63857659633678,35.56006980587292],[139.64018497000697,35.56387727037966]],[[139.6408434708212,35.5710122668923],[139.63960805336438,35.57102597924947],[139.6402082797703,35.57445406854126]],[[139.6402082797703,35.57445406854126],[139.64047634204866,35.57531794704279]],[[139.64047634204866,35.57531794704279],[139.64652522563438,35.57510769089956]],[[139.64652522563438,35.57510769089956],[139.64649026098937,35.573059978895934]],[[139.64650191587106,35.57161103982194],[139.64501009101753,35.57164760610772]],[[139.64501009101753,35.57164760610772],[139.64165348509712,35.571757304965054],[139.6408434708212,35.5710122668923]],[[139.67198531463825,35.5577981253689],[139.67365196271678,35.55967214751507]],[[139.67365196271678,35.55967214751507],[139.67593631952371,35.560188646301704],[139.68009128483837,35.55955787787202],[139.68119849859684,35.561125657374795]],[[139.68119849859684,35.561125657374795],[139.68161807433688,35.55990068680119],[139.6851669858048,35.5584517477272],[139.68020783365506,35.555855541436884],[139.6797358109475,35.55476312364924],[139.67695029422885,35.553990660862155],[139.67364030783511,35.55534361343598],[139.67198531463825,35.5577981253689]],[[139.64887951173134,35.56717737767123],[139.65454961166284,35.56724136867134]],[[139.65454961166284,35.56724136867134],[139.65517314783207,35.56657860474159]],[[139.65517314783207,35.56657860474159],[139.6552605594446,35.566446051955644]],[[139.65390859317108,35.56363501873638],[139.65104731972158,35.56475943202408],[139.65097739043156,35.5662540789553],[139.64887951173134,35.56717737767123]],[[139.6307212060925,35.58380132534353],[139.63076199817834,35.58673119899158]],[[139.63076199817834,35.58673119899158],[139.63251023042855,35.585867320490046]],[[139.63251023042855,35.585867320490046],[139.63253354019187,35.58380132534353]],[[139.62821540653385,35.58887032670965],[139.62756273316046,35.59269150357356]],[[139.62756273316046,35.59269150357356],[139.62968974906488,35.59073063649866]],[[139.62968974906488,35.59073063649866],[139.63120488368173,35.588605221137755]],[[139.63120488368173,35.588605221137755],[139.62821540653385,35.58887032670965]],[[139.6295032709582,35.58180846276857],[139.62956737280737,35.58379675455781]],[[139.62956737280737,35.58379675455781],[139.6307212060925,35.58380132534353]],[[139.630738688415,35.58181760434002],[139.6295032709582,35.58180846276857]],[[139.6503829914665,35.558561446584534],[139.6536696680969,35.56316422780697]],[[139.65816262497992,35.55791239501196],[139.65830831100078,35.55468999107768],[139.65057529701403,35.55791239501196],[139.6503829914665,35.558561446584534]],[[139.65280137941264,35.57216867568007],[139.6530519593685,35.574979708899335],[139.65450299213617,35.5759944233297]],[[139.65622791462303,35.57347592039667],[139.6589609843742,35.569343930103635]],[[139.6589609843742,35.569343930103635],[139.65641439272972,35.56916109867474]],[[139.65641439272972,35.56916109867474],[139.6539260754936,35.56917938181763],[139.65389693828942,35.571524194893215],[139.6528654812618,35.57151048253604]],[[139.63993439005108,35.56763902702919],[139.6408434708212,35.5710122668923]],[[139.64501009101753,35.57164760610772],[139.64455555063248,35.567026541742386]],[[139.64455555063248,35.567026541742386],[139.63993439005108,35.56763902702919]],[[139.63251023042855,35.585867320490046],[139.63267922621273,35.58579418791849]],[[139.63267922621273,35.58579418791849],[139.6331687312428,35.58551994077514]],[[139.6331687312428,35.58551994077514],[139.635161716008,35.581986723411745]],[[139.635161716008,35.581986723411745],[139.6354997075764,35.58065662476653]],[[139.64717207156696,35.57976075076495],[139.6471487618036,35.58328025577118]],[[139.6471487618036,35.58328025577118],[139.64977111017893,35.582731761484496]],[[139.65028975241316,35.581890736911575],[139.65201467490004,35.579280818264095]],[[139.65201467490004,35.579280818264095],[139.65047623051984,35.58056977983781],[139.64717207156696,35.57976075076495]],[[139.6404821694895,35.5775667736182],[139.6354122959639,35.57790044097593]],[[139.6354122959639,35.57790044097593],[139.63566870336058,35.57878717340608]],[[139.635161716008,35.581986723411745],[139.63893207022764,35.581799321197124],[139.64134463073293,35.580066993408344]],[[139.64134463073293,35.580066993408344],[139.6399693546961,35.57975617997922],[139.6404821694895,35.5775667736182]],[[139.6331687312428,35.58551994077514],[139.63798802481253,35.582855172699]],[[139.63798802481253,35.582855172699],[139.64136211305544,35.58099486290999]],[[139.64136211305544,35.58099486290999],[139.6416476576563,35.580162979908515]],[[139.6416476576563,35.580162979908515],[139.64134463073293,35.580066993408344]],[[139.63076199817834,35.58673119899158],[139.62977133323656,35.58705115399214]],[[139.62977133323656,35.58705115399214],[139.62828533582388,35.587791621279166]],[[139.62734129040876,35.58822127513707],[139.62821540653385,35.58887032670965]],[[139.63120488368173,35.588605221137755],[139.63267922621273,35.58579418791849]],[[139.64047634204866,35.57531794704279],[139.6404821694895,35.5775667736182]],[[139.6416476576563,35.580162979908515],[139.64280149094142,35.58017669226568],[139.64619306150684,35.57842151054829],[139.64741682408197,35.577036562474404]],[[139.64741682408197,35.577036562474404],[139.64652522563438,35.57510769089956]],[[139.63798802481253,35.582855172699],[139.63802298945754,35.58587646206149]],[[139.6383959456709,35.58588103284721],[139.64121642703458,35.58591759913299],[139.64379798332405,35.58198215262602],[139.64136211305544,35.58099486290999]],[[139.62958485512985,35.58472005327373],[139.6283377827914,35.58470634091656],[139.62828533582388,35.58725683934965]],[[139.62977133323656,35.58705115399214],[139.62958485512985,35.58472005327373]],[[139.6597302065643,35.58764992692178],[139.65995164931599,35.589546802996566]],[[139.65995164931599,35.589546802996566],[139.6631042948072,35.58988961192574],[139.66751566751856,35.58709229106365]],[[139.66751566751856,35.58709229106365],[139.6647359782407,35.58491202627407]],[[139.6647359782407,35.58491202627407],[139.6640308578998,35.58429039941583]],[[139.6640308578998,35.58429039941583],[139.6597360340051,35.58421726684426]],[[139.65404262431028,35.576707465902395],[139.65401931454693,35.57672117825956]],[[139.65401931454693,35.57672117825956],[139.65201467490004,35.579280818264095]],[[139.66028381344353,35.57662976254511],[139.66323832594637,35.57660233783078]],[[139.66323832594637,35.57660233783078],[139.6635180431064,35.57658862547361]],[[139.6635180431064,35.57658862547361],[139.66383272491143,35.57324281032483]],[[139.66299357343135,35.57313768225321],[139.65959034798428,35.573119399110325]],[[139.65959034798428,35.573119399110325],[139.65844234213998,35.573320513682106]],[[139.62756273316046,35.59269150357356],[139.62691005978704,35.5938022045041],[139.62886225246643,35.59464779986274],[139.62935758493734,35.59608302657957],[139.63181093752846,35.5950271750777]],[[139.63181093752846,35.5950271750777],[139.63623396512148,35.59107344542784]],[[139.63324448797363,35.59068949942716],[139.62968974906488,35.59073063649866]],[[139.66143764672864,35.5791391239067],[139.6639784109323,35.57912998233525]],[[139.6639784109323,35.57912998233525],[139.66465439406903,35.57867747454874]],[[139.66465439406903,35.57867747454874],[139.66350638822473,35.577228535474745]],[[139.66350638822473,35.577228535474745],[139.66323832594637,35.57660233783078]],[[139.647381859437,35.5778318791901],[139.64741682408197,35.577036562474404]],[[139.64045303228534,35.587366538206986],[139.6415777283663,35.586360965348064]],[[139.6415777283663,35.586360965348064],[139.6471487618036,35.58328025577118]],[[139.64717207156696,35.57976075076495],[139.647381859437,35.5778318791901]],[[139.64982355714645,35.58396587362954],[139.6472478282978,35.585574790203815],[139.64632709264603,35.58807958077968]],[[139.64632709264603,35.58807958077968],[139.64655436283854,35.59207901828676],[139.6460182382818,35.593555382075095]],[[139.648856201968,35.59480777736302],[139.65119300574244,35.59210187221537],[139.65635029088054,35.589583369282344],[139.65995164931599,35.589546802996566]],[[139.66290616181882,35.582219833483585],[139.6640308578998,35.58429039941583]],[[139.6647359782407,35.58491202627407],[139.6658431919992,35.58337167148562],[139.66591312128918,35.581301105553386],[139.66456698245653,35.58129196398194]],[[139.66456698245653,35.58129196398194],[139.6625040684013,35.58129653476767]],[[139.63181093752846,35.5950271750777],[139.63380974973452,35.59536084243543],[139.6374868649008,35.59254066764473]],[[139.64099498428288,35.59190532842931],[139.6410649135729,35.58959708163951],[139.64273738909228,35.58927255585322]],[[139.64273738909228,35.58927255585322],[139.6415777283663,35.586360965348064]],[[139.6639784109323,35.57912998233525],[139.66456698245653,35.58129196398194]],[[139.66751566751856,35.58709229106365],[139.66936296626292,35.584697199345115],[139.67063917580558,35.581049712338654]],[[139.67063917580558,35.581049712338654],[139.66465439406903,35.57867747454874]],[[139.674170604951,35.571524194893215],[139.67658899289714,35.565924982383294]],[[139.67658899289714,35.565924982383294],[139.67369858224345,35.56430692423757]],[[139.67369858224345,35.56430692423757],[139.6696834755088,35.56427949952324]],[[139.6696834755088,35.56427949952324],[139.66691544111265,35.56632264074114],[139.66643759096425,35.568132671887206],[139.66254486048712,35.568233229173096],[139.66005071581014,35.571437349964484],[139.65959034798428,35.573119399110325]],[[139.67063917580558,35.581049712338654],[139.67133264126483,35.577877587047325]],[[139.6706741404506,35.57735194668925],[139.66350638822473,35.577228535474745]],[[139.65517314783207,35.56657860474159],[139.65641439272972,35.56916109867474]],[[139.6589609843742,35.569343930103635],[139.6609306593761,35.56841148981627],[139.6617348462112,35.566738582241875]],[[139.6617348462112,35.566738582241875],[139.6620262182529,35.564288641094684],[139.66019057439019,35.56342933337887]],[[139.64632709264603,35.58807958077968],[139.64273738909228,35.58927255585322]],[[139.67198531463825,35.5577981253689],[139.6702312549472,35.561230785446405]],[[139.6702312549472,35.561230785446405],[139.67023708238804,35.56154159887553]],[[139.67023708238804,35.56154159887553],[139.67352375901842,35.561038812446064]],[[139.67352375901842,35.561038812446064],[139.67365196271678,35.55967214751507]],[[139.67352375901842,35.561038812446064],[139.67287108564503,35.56319165252131],[139.67369858224345,35.56430692423757]],[[139.67658899289714,35.565924982383294],[139.67789433964396,35.56409209730862],[139.68119849859684,35.561125657374795]],[[139.6662219756534,35.57509854932812],[139.6635180431064,35.57658862547361]],[[139.65018485847816,35.573128540681765],[139.65023147800483,35.57701370854579]],[[139.65023147800483,35.57701370854579],[139.65401931454693,35.57672117825956]],[[139.66355883519225,35.55795810286918],[139.66320336130136,35.558227779226804]],[[139.6617348462112,35.566738582241875],[139.66711940154184,35.56204438530499]],[[139.66711940154184,35.56204438530499],[139.66710191921933,35.56127192251791]],[[139.66710191921933,35.56127192251791],[139.66355883519225,35.55795810286918]],[[139.66710191921933,35.56127192251791],[139.66924641744626,35.55248687235949],[139.66405416766312,35.55248230157377],[139.66355883519225,35.55795810286918]],[[139.6702312549472,35.561230785446405],[139.66711940154184,35.56204438530499]],[[139.6696834755088,35.56427949952324],[139.67023708238804,35.56154159887553]],[[139.64018497000697,35.56387727037966],[139.63833184382173,35.56495597581015]],[[139.63833184382173,35.56495597581015],[139.6396430180094,35.565522753239726]],[[139.6396430180094,35.565522753239726],[139.64263249515724,35.56377671309377],[139.6477256784462,35.56297225480664]],[[139.6477256784462,35.56297225480664],[139.64808115233706,35.56002866880142]],[[139.65023147800483,35.57701370854579],[139.647381859437,35.5778318791901]],[[139.63013846200909,35.57750735340381],[139.6295032709582,35.58180846276857]],[[139.6315778398951,35.577946148833156],[139.63013846200909,35.57750735340381]],[[139.6353831587597,35.5747694527561],[139.63555798198473,35.576808023188285]],[[139.63555798198473,35.576808023188285],[139.6354122959639,35.57790044097593]],[[139.6402082797703,35.57445406854126],[139.6353831587597,35.5747694527561]],[[139.63151373804592,35.576122405329926],[139.63013846200909,35.57750735340381]],[[139.63555798198473,35.576808023188285],[139.63151373804592,35.576812593974005],[139.63151373804592,35.576122405329926]],[[139.65454961166284,35.56724136867134],[139.6534307430227,35.56917938181763]],[[139.64887951173134,35.56717737767123],[139.64780726261787,35.56713624059972]],[[139.64780726261787,35.56713624059972],[139.64773733332785,35.5692342312463]],[[139.63993439005108,35.56763902702919],[139.63693908546242,35.57056432989151],[139.63510926904053,35.571295655607095]],[[139.63510926904053,35.571295655607095],[139.6353831587597,35.5747694527561]],[[139.6396430180094,35.565522753239726],[139.63993439005108,35.56763902702919]],[[139.64455555063248,35.567026541742386],[139.64780726261787,35.56713624059972]],[[139.64780726261787,35.56713624059972],[139.64867555130215,35.563644160307824],[139.6477256784462,35.56297225480664]],[[139.63935747340852,35.55942075430034],[139.63545891549057,35.56127649330363],[139.63346593072532,35.561491320232584],[139.63411860409875,35.56367615580788],[139.63693908546242,35.56610781381219],[139.63833184382173,35.56495597581015]],[[139.63510926904053,35.571295655607095],[139.63151373804592,35.576122405329926]],[[139.6503829914665,35.558561446584534],[139.64811028954122,35.56001038565853]],[[139.62956737280737,35.58379675455781],[139.62958485512985,35.58472005327373]]]}