{"type":"Topology","bbox":[139.44891619038683,35.567127523595374,139.53193877735816,35.62494348066558],"objects":{"town":{"type":"GeometryCollection","geometries":[{"type":"MultiPolygon","arcs":[[[93,-34,-74,94,113,114,7,8,9,4,13,10,11,43]]],"properties":{"name":"万福寺"}},{"type":"MultiPolygon","arcs":[[[34,112,-91,-25,-30,16,17,36,37]]],"properties":{"name":"向原"}},{"type":"MultiPolygon","arcs":[[[24,25,26,27,32,33,30,31,18,28,-17,29]]],"properties":{"name":"金程"}},{"type":"MultiPolygon","arcs":[[[-301,39,-303,-147,-146,-105,297,-136,-141,-140,153]]],"properties":{"name":"白山"}},{"type":"MultiPolygon","arcs":[[[-14,-5,-10,-121,-239,291,-302,-138,-316,48,49,163,229,230,-289,232,233,-82,228,161,162,44,45,46,-285,-284,-254,-11]]],"properties":{"name":"上麻生"}},{"type":"MultiPolygon","arcs":[[[185,186,-114,-95,73,-33,-28,-27,-26,90,-113,-35,-72,-71,217,-65,56,-64,-201,-226]]],"properties":{"name":"千代ケ丘"}},{"type":"MultiPolygon","arcs":[[[200,63,-57,64,-218,70,71,-38,72,194,101,102,61,62,57,-127,202]]],"properties":{"name":"細山"}},{"type":"MultiPolygon","arcs":[[[255,254,80,77,165,166]]],"properties":{"name":"虹ケ丘"}},{"type":"MultiPolygon","arcs":[[[-231,285,-320,-107,-152,-206,-235,323,85,343,87,88,81,82,287,-233,288],[89]]],"properties":{"name":"下麻生"}},{"type":"MultiPolygon","arcs":[[[143,144,189,190,-170,-148,302,-40,300,-154,139,140,135,-298,104,105,106,319,-286,-230,-164,-50,-49,315,137,301,-292,238,-120,239]]],"properties":{"name":"王禅寺西"}},{"type":"MultiPolygon","arcs":[[[-133,280,281,208,111,108,-331,-190,-145,-319,-134]]],"properties":{"name":"東百合丘"}},{"type":"MultiPolygon","arcs":[[[347,348,328,346,311,312]]],"properties":{"name":"はるひ野"}},{"type":"MultiPolygon","arcs":[[[-144,-240,119,120,-9,121,-241,-124,-220,309,317,-131,318]]],"properties":{"name":"百合丘"}},{"type":"MultiPolygon","arcs":[[[-8,-115,-187,-186,225,-203,126,-58,127,128,220,351,-281,132,133,130,-318,-310,219,123,240,-122]]],"properties":{"name":"高石"}},{"type":"Polygon","arcs":[[134]],"properties":{"name":"岡上"}},{"type":"MultiPolygon","arcs":[[[171,167,-223,207,203,235,234,205,151,-106,145,146,147,169,-191,330,-109,331,-308]]],"properties":{"name":"王禅寺東"}},{"type":"MultiPolygon","arcs":[[[-306,336,-277,-323,-247,155,156,157,158,159,-179,-182]]],"properties":{"name":"栗平"}},{"type":"Polygon","arcs":[[172,173,174,175]],"properties":{"name":"南黒川"}},{"type":"MultiPolygon","arcs":[[[292,293,180,181,178,-160,-159,270,271,294,-213,295,296]]],"properties":{"name":"白鳥"}},{"type":"MultiPolygon","arcs":[[[192,-128,-63,-62,-103,303]]],"properties":{"name":"多摩美"}},{"type":"MultiPolygon","arcs":[[[212,-295,-272,316,-252,214,215,199,196,-326,-296]]],"properties":{"name":"五力田"}},{"type":"MultiPolygon","arcs":[[[224,-166,-78,221,-208,222,-168,-172,307,308]]],"properties":{"name":"王禅寺"}},{"type":"MultiPolygon","arcs":[[[275,276,277,278,340,241,242,243,-340,-321]]],"properties":{"name":"栗木"}},{"type":"MultiPolygon","arcs":[[[-276,320,339,-244,337,-176,-175,-174,334,335,-157,-156,246,322]]],"properties":{"name":"栗木台"}},{"type":"Polygon","arcs":[[250,-215,251,252,-31,-94,-44,-12,253]],"properties":{"name":"古沢"}},{"type":"MultiPolygon","arcs":[[[-45,-163,344,267,352,-278,-337,305,-181,-294,-293,-297,325,-197,-200,-216,-251,283,284,-47,-46]]],"properties":{"name":"片平"}},{"type":"Polygon","arcs":[[-312,-347,-329,-349,349,-335,-173,-338,-243,350]],"properties":{"name":"黒川"}},{"type":"Polygon","arcs":[[-88,-344,-86,-324,-236,-204,-222,-81,-255,353]],"properties":{"name":"早野"}}]}},"arcs":[[[139.5062407168845,35.605573198018796],[139.50605804892635,35.60645787062923]],[[139.50605804892635,35.60645787062923],[139.50849915709412,35.60813470106731],[139.5115048753143,35.607174860195855]],[[139.5115048753143,35.607174860195855],[139.50903885787952,35.60548646540993]],[[139.50903885787952,35.60548646540993],[139.5062407168845,35.605573198018796]],[[139.51061644479066,35.603069516709525],[139.5090305547905,35.604561317582025]],[[139.5090305547905,35.604561317582025],[139.50903885787952,35.60548646540993]],[[139.5115048753143,35.607174860195855],[139.51330664562863,35.60807687932807]],[[139.51330664562863,35.60807687932807],[139.51333985798465,35.60795545367565]],[[139.51333985798465,35.60795545367565],[139.51248463981702,35.60424908019011]],[[139.51248463981702,35.60424908019011],[139.51061644479066,35.603069516709525]],[[139.50580895625617,35.602138586707696],[139.5026620855229,35.60391949627641]],[[139.5026620855229,35.60391949627641],[139.50272851023493,35.604087179320224]],[[139.50272851023493,35.604087179320224],[139.5062407168845,35.605573198018796]],[[139.5090305547905,35.604561317582025],[139.50580895625617,35.602138586707696]],[[139.4985520564649,35.61935211848067],[139.4995484271456,35.61754808021625]],[[139.4995484271456,35.61754808021625],[139.49791271861145,35.6155937054298]],[[139.49791271861145,35.6155937054298],[139.49681671086265,35.615136913689774],[139.49596979578402,35.61239038107568]],[[139.49596979578402,35.61239038107568],[139.4953802764646,35.61248289585847],[139.49465790772106,35.61630491282251],[139.4985520564649,35.61935211848067]],[[139.49887587693613,35.60813470106731],[139.49694125719773,35.61052852107202]],[[139.49694125719773,35.61052852107202],[139.49929933447544,35.612297866292884]],[[139.49929933447544,35.612297866292884],[139.50234656814067,35.611430540204225]],[[139.50234656814067,35.611430540204225],[139.50112601405678,35.609672759331204],[139.49887587693613,35.60813470106731]],[[139.50292778437108,35.612055014988066],[139.50234656814067,35.611430540204225]],[[139.49929933447544,35.612297866292884],[139.50035382677922,35.61450665673201]],[[139.50035382677922,35.61450665673201],[139.5024379021197,35.616420556300994]],[[139.5024379021197,35.616420556300994],[139.50411512609895,35.61502127021129]],[[139.50411512609895,35.61502127021129],[139.50376639636067,35.613315528903584]],[[139.50376639636067,35.613315528903584],[139.50292778437108,35.612055014988066]],[[139.49694125719773,35.61052852107202],[139.49596979578402,35.61239038107568]],[[139.49791271861145,35.6155937054298],[139.50035382677922,35.61450665673201]],[[139.50024588662214,35.6067585436733],[139.500046612486,35.60679323671685]],[[139.500046612486,35.60679323671685],[139.49887587693613,35.60813470106731]],[[139.50292778437108,35.612055014988066],[139.50292778437108,35.610083293679835]],[[139.50292778437108,35.610083293679835],[139.50290287510407,35.60694357323888],[139.50024588662214,35.6067585436733]],[[139.5024212959417,35.61813786195655],[139.5024379021197,35.61718958543294]],[[139.5024379021197,35.61718958543294],[139.4995484271456,35.61754808021625]],[[139.4985520564649,35.61935211848067],[139.50093504300963,35.62171702761576],[139.50216390018252,35.62189049283349]],[[139.50216390018252,35.62189049283349],[139.5024212959417,35.61813786195655]],[[139.51270882322018,35.5905106349457],[139.51036735212048,35.59231467321012]],[[139.51036735212048,35.59231467321012],[139.5120362730107,35.59352892973424],[139.5137134969899,35.59166706973058]],[[139.5137134969899,35.59166706973058],[139.51270882322018,35.5905106349457]],[[139.50174874573221,35.604960287582806],[139.50466312997335,35.60665446454266],[139.5051779214917,35.60816361193693]],[[139.5051779214917,35.60816361193693],[139.50605804892635,35.60645787062923]],[[139.50272851023493,35.604087179320224],[139.50174874573221,35.604960287582806]],[[139.4966257398155,35.590331387554045],[139.49739792709306,35.590736139728754]],[[139.49739792709306,35.590736139728754],[139.49946539625557,35.593621444517034],[139.49914987887334,35.59500338408497]],[[139.49914987887334,35.59500338408497],[139.49974770128176,35.59492821582395]],[[139.49974770128176,35.59492821582395],[139.50302742143916,35.59311261321169]],[[139.50302742143916,35.59311261321169],[139.50340106044442,35.59058002103279],[139.50230505269562,35.59050485277177],[139.50327651410933,35.58861986407242]],[[139.50327651410933,35.58861986407242],[139.5011675295018,35.586098836241376]],[[139.5011675295018,35.586098836241376],[139.49819502363763,35.58873550755091],[139.49582864327093,35.58869503233343],[139.4966257398155,35.590331387554045]],[[139.51281676337726,35.614680121949746],[139.5098442575131,35.61409612238338]],[[139.5098442575131,35.61409612238338],[139.5098276513351,35.61409612238338]],[[139.5098276513351,35.61409612238338],[139.50841612620408,35.61598111108274]],[[139.50841612620408,35.61598111108274],[139.50756090803645,35.61767528804259]],[[139.50756090803645,35.61767528804259],[139.51128899500014,35.61795283239096]],[[139.51128899500014,35.61795283239096],[139.51163772473842,35.615744041951835],[139.51281676337726,35.614680121949746]],[[139.52120288327336,35.61651307108379],[139.52051372688587,35.61694095195419]],[[139.52051372688587,35.61694095195419],[139.51943432531507,35.61752495152056]],[[139.51943432531507,35.61752495152056],[139.51733364379655,35.620329305873895]],[[139.51733364379655,35.620329305873895],[139.5189195337967,35.62039869196099]],[[139.5189195337967,35.62039869196099],[139.52133573269745,35.618860633697096]],[[139.52133573269745,35.618860633697096],[139.52120288327336,35.61651307108379]],[[139.51384634641403,35.61543180455992],[139.51281676337726,35.614680121949746]],[[139.51128899500014,35.61795283239096],[139.51130560117818,35.61795861456489]],[[139.51130560117818,35.61795861456489],[139.5114965722253,35.61861778239227]],[[139.5114965722253,35.61861778239227],[139.51443586573345,35.61801065413021],[139.51610478662366,35.61631647717036]],[[139.51610478662366,35.61631647717036],[139.51384634641403,35.61543180455992]],[[139.51106481159698,35.62372922414145],[139.5115048753143,35.62271156153076]],[[139.5115048753143,35.62271156153076],[139.5089973424345,35.62251496761733],[139.50773527290556,35.62142791891954]],[[139.50773527290556,35.62142791891954],[139.50709593505212,35.62111568152762]],[[139.50709593505212,35.62111568152762],[139.5024212959417,35.61813786195655]],[[139.50216390018252,35.62189049283349],[139.5032266955753,35.62286768022671],[139.50607465510436,35.622688432835055],[139.50719557212017,35.62358466979334],[139.51106481159698,35.62372922414145]],[[139.5044887651042,35.61030301628897],[139.50292778437108,35.610083293679835]],[[139.50376639636067,35.613315528903584],[139.50552665122996,35.61340226151245]],[[139.50552665122996,35.61340226151245],[139.50813382117786,35.61085810498571]],[[139.50813382117786,35.61085810498571],[139.5044887651042,35.61030301628897]],[[139.51907729248782,35.57802692144289],[139.52018160332563,35.58098739449219],[139.51870365348253,35.58170438405882],[139.52068809175498,35.58341012536652],[139.52273895473948,35.58227681927734]],[[139.52273895473948,35.58227681927734],[139.52258949913738,35.57895785144472]],[[139.52258949913738,35.57895785144472],[139.5216678562577,35.57810208970391]],[[139.5216678562577,35.57810208970391],[139.51907729248782,35.57802692144289]],[[139.50209747547046,35.578472148835075],[139.50384112416174,35.57752387231147],[139.50589198714624,35.57780141665984]],[[139.50589198714624,35.57780141665984],[139.5062407168845,35.57774937709452]],[[139.5062407168845,35.57774937709452],[139.5076356358375,35.577442921876525]],[[139.5076356358375,35.577442921876525],[139.51215251625678,35.576089893178214]],[[139.51215251625678,35.576089893178214],[139.51303264369142,35.57560419056856],[139.51177887725152,35.57321037056386]],[[139.51177887725152,35.57321037056386],[139.5111893579321,35.57282296491092]],[[139.5111893579321,35.57282296491092],[139.51087384054986,35.57114613447284]],[[139.51087384054986,35.57114613447284],[139.5090222517015,35.572319915779495],[139.50907207023553,35.5752572601331],[139.506971388717,35.57557527969894],[139.50536889253885,35.57451135969685],[139.5035422129575,35.576639199701034],[139.5021140816485,35.57680110057092],[139.50209747547046,35.578472148835075]],[[139.5089724331675,35.57391001360871],[139.5089724331675,35.57391001360871]],[[139.5024379021197,35.616420556300994],[139.5024379021197,35.61645524934454]],[[139.5024379021197,35.61645524934454],[139.50756090803645,35.61767528804259]],[[139.50841612620408,35.61598111108274],[139.50411512609895,35.61502127021129]],[[139.50174874573221,35.604960287582806],[139.50024588662214,35.6067585436733]],[[139.5044887651042,35.61030301628897],[139.50452197746023,35.61014111541908]],[[139.50452197746023,35.61014111541908],[139.5051779214917,35.60816361193693]],[[139.5114965722253,35.61861778239227],[139.51153808767035,35.62264795761759]],[[139.51153808767035,35.62264795761759],[139.51294961280135,35.6215377802241],[139.51580587541943,35.62204661152945]],[[139.51580587541943,35.62204661152945],[139.5146600491366,35.62115615674509],[139.5154903580372,35.619936118047036],[139.51610478662366,35.61631647717036]],[[139.51733364379655,35.620329305873895],[139.5162791514928,35.621942532398805]],[[139.5162791514928,35.621942532398805],[139.51633727311582,35.62374657066322],[139.51475968620468,35.624920351969884]],[[139.51475968620468,35.624920351969884],[139.51678563992215,35.62396629327235],[139.51707624803737,35.622624828921886],[139.52086245662412,35.62117928544079]],[[139.52086245662412,35.62117928544079],[139.5189195337967,35.62039869196099]],[[139.50327651410933,35.58861986407242],[139.505568166675,35.58914025972562]],[[139.505568166675,35.58914025972562],[139.50728690609924,35.589510318856775],[139.50614938290542,35.58719166711309],[139.5090305547905,35.586000539284655]],[[139.5090305547905,35.586000539284655],[139.50711254123013,35.58448560971646]],[[139.50711254123013,35.58448560971646],[139.50705441960707,35.58446826319469]],[[139.50705441960707,35.58446826319469],[139.50651471882168,35.58548014363146],[139.5011675295018,35.586098836241376]],[[139.5237187192422,35.593291860603344],[139.5227555609175,35.595049641476365]],[[139.5227555609175,35.595049641476365],[139.5253544277764,35.59650096713139]],[[139.5253544277764,35.59650096713139],[139.53093410358844,35.597466590176765]],[[139.53093410358844,35.597466590176765],[139.53081786034235,35.596333284087585],[139.52870057264582,35.59589962104325],[139.528966271494,35.594523463649246],[139.52762117107503,35.593025880602816],[139.52461545285485,35.59436156277936],[139.5237187192422,35.593291860603344]],[[139.5024379021197,35.61718958543294],[139.5024379021197,35.61645524934454]],[[139.50452197746023,35.61014111541908],[139.50857388489518,35.608770740199],[139.51085723437185,35.60990982846211]],[[139.51085723437185,35.60990982846211],[139.51330664562863,35.60807687932807]],[[139.4622177389745,35.61668075412759],[139.45995929876486,35.61826506978288],[139.45969359991665,35.62041025630884],[139.4609722756236,35.622081304572994]],[[139.4609722756236,35.622081304572994],[139.46576315798006,35.6175827732598]],[[139.46576315798006,35.6175827732598],[139.4622177389745,35.61668075412759]],[[139.51663618432005,35.603826981493626],[139.5164535163619,35.601444725836764]],[[139.5164535163619,35.601444725836764],[139.51421168233028,35.601994032359585]],[[139.51421168233028,35.601994032359585],[139.51248463981702,35.60424908019011]],[[139.51333985798465,35.60795545367565],[139.5148178078277,35.60841802758961]],[[139.5148178078277,35.60841802758961],[139.51505029431988,35.60620923715048],[139.51663618432005,35.603826981493626]],[[139.51938450678105,35.61036083802821],[139.5191603233779,35.61063838237658]],[[139.5191603233779,35.61063838237658],[139.517948072383,35.61092170889888],[139.51708455112637,35.61315941020762]],[[139.51708455112637,35.61315941020762],[139.51893613997473,35.61527568586396],[139.51854589479143,35.61625287325719]],[[139.51854589479143,35.61625287325719],[139.52051372688587,35.61694095195419]],[[139.52120288327336,35.61651307108379],[139.52355265746206,35.61572669543006]],[[139.52355265746206,35.61572669543006],[139.5233284740589,35.61401517194844]],[[139.5233284740589,35.61401517194844],[139.51938450678105,35.61036083802821]],[[139.52230719411116,35.599912449746796],[139.5209870029592,35.59979680626831],[139.5202646342157,35.60255490323025]],[[139.5202646342157,35.60255490323025],[139.52229889102216,35.60323141757941],[139.52402593353543,35.604879337147864],[139.52479812081296,35.603214071057636]],[[139.52479812081296,35.603214071057636],[139.52396781191237,35.60103419148813]],[[139.52396781191237,35.60103419148813],[139.52230719411116,35.599912449746796]],[[139.4751954670909,35.57094954055941],[139.473891882117,35.56953290794793],[139.4695327603888,35.569706373165666],[139.47167495735238,35.571186609690315],[139.47380054813792,35.57541916100298],[139.47340199986562,35.57645995230938],[139.47623335321668,35.58192410666795],[139.47813476059906,35.580894879709405],[139.48248557923822,35.582311512320885],[139.48544978201338,35.58475158971699],[139.48798222416022,35.58380909536731],[139.49019084583583,35.58451452058608],[139.4884970156786,35.58105678057928],[139.4885053187676,35.57874391100952],[139.48611402913386,35.578593574487485],[139.48453644222272,35.57560419056856],[139.48364801169907,35.5722736583881],[139.4751954670909,35.57094954055941]],[[139.50815873044488,35.59014057581454],[139.50577574390016,35.59119293146878]],[[139.50577574390016,35.59119293146878],[139.5067887207589,35.59393946408288]],[[139.5067887207589,35.59393946408288],[139.50911358568058,35.59536187886828]],[[139.50911358568058,35.59536187886828],[139.50962837719894,35.59475475060622]],[[139.50962837719894,35.59475475060622],[139.50774357599457,35.593690830604125],[139.5090139486125,35.5924534453843]],[[139.5090139486125,35.5924534453843],[139.50815873044488,35.59014057581454]],[[139.51913541411085,35.59648940278354],[139.51597193719957,35.597269996263336]],[[139.51597193719957,35.597269996263336],[139.51606327117864,35.59920124235409],[139.51730043144053,35.600814468879]],[[139.51730043144053,35.600814468879],[139.5205801515979,35.59968694496374],[139.52018160332563,35.59884274757078]],[[139.52018160332563,35.59884274757078],[139.51913541411085,35.59648940278354]],[[139.5090305547905,35.586000539284655],[139.51004353164925,35.587029766243205]],[[139.51004353164925,35.587029766243205],[139.51270882322018,35.58829028015872],[139.51349761667575,35.58990350668363],[139.5156149043723,35.591337485816894],[139.51446907808946,35.59236671277544]],[[139.51446907808946,35.59236671277544],[139.51475968620468,35.59277724712407]],[[139.51475968620468,35.59277724712407],[139.51585569395348,35.59155720842602],[139.51515823447696,35.58895523016003]],[[139.51515823447696,35.58895523016003],[139.51415356070723,35.58585598493655],[139.51280846028826,35.58521994580486]],[[139.51280846028826,35.58521994580486],[139.51035074594247,35.58505804493498],[139.5084659447381,35.583988342758964]],[[139.5084659447381,35.583988342758964],[139.50711254123013,35.58448560971646]],[[139.50999371311522,35.5927136432109],[139.5090139486125,35.5924534453843]],[[139.50962837719894,35.59475475060622],[139.50999371311522,35.5927136432109]],[[139.48108235719621,35.605648366279816],[139.4785831274054,35.607192206717635]],[[139.4785831274054,35.607192206717635],[139.47965422588717,35.60931426454789]],[[139.47965422588717,35.60931426454789],[139.48004447107044,35.6126563610762]],[[139.48004447107044,35.6126563610762],[139.48104914484017,35.61027410541934],[139.48319964489275,35.60868978976406]],[[139.48319964489275,35.60868978976406],[139.48378086112317,35.607862938892865]],[[139.48378086112317,35.607862938892865],[139.48108235719621,35.605648366279816]],[[139.50085201211957,35.584867233195475],[139.49684992321866,35.583595154932105],[139.4975805950512,35.58201083927681]],[[139.4975805950512,35.58201083927681],[139.49616076683117,35.58164656231958],[139.49380268955343,35.582629531886724],[139.49289765285178,35.58408663971568],[139.49403517604563,35.58687942972117],[139.49322147332302,35.58907087363852]],[[139.49322147332302,35.58907087363852],[139.4966257398155,35.590331387554045]],[[139.5011675295018,35.586098836241376],[139.50085201211957,35.584867233195475]],[[139.52463205903285,35.5789058118794],[139.52258949913738,35.57895785144472]],[[139.52273895473948,35.58227681927734],[139.52694862086554,35.58081392927446]],[[139.52694862086554,35.58081392927446],[139.52685728688647,35.57889424753156],[139.52463205903285,35.5789058118794]],[[139.52176749332577,35.58942936842183],[139.52176749332577,35.589400457552216]],[[139.52176749332577,35.589400457552216],[139.51901086777576,35.58969534842236],[139.51901917086477,35.58896679450788],[139.51515823447696,35.58895523016003]],[[139.51475968620468,35.59277724712407],[139.51835492374428,35.5951768493027]],[[139.51835492374428,35.5951768493027],[139.51921844500092,35.592944930167874],[139.52126930798542,35.59156877277387]],[[139.52126930798542,35.59156877277387],[139.52176749332577,35.58942936842183]],[[139.46970712525794,35.61214174759693],[139.46919233373956,35.61340804368638],[139.47234750756186,35.61582499238678],[139.47356806164575,35.61437366673175],[139.47287060216922,35.613315528903584]],[[139.47287060216922,35.613315528903584],[139.47277096510115,35.61320566759902]],[[139.47277096510115,35.61320566759902],[139.47143416777118,35.612361470206054]],[[139.47143416777118,35.612361470206054],[139.46970712525794,35.61214174759693]],[[139.48676997316534,35.60346848671031],[139.48607251368884,35.60295965540496]],[[139.48607251368884,35.60295965540496],[139.48263503484034,35.604960287582806]],[[139.48263503484034,35.604960287582806],[139.48108235719621,35.605648366279816]],[[139.48378086112317,35.607862938892865],[139.48392201363626,35.606515692368475],[139.48676997316534,35.60346848671031]],[[139.4842458341075,35.60050801366101],[139.4820538186099,35.602653200186964]],[[139.4820538186099,35.602653200186964],[139.48263503484034,35.604960287582806]],[[139.48607251368884,35.60295965540496],[139.4842458341075,35.60050801366101]],[[139.50813382117786,35.61085810498571],[139.50991068222515,35.61213018324908]],[[139.50991068222515,35.61213018324908],[139.5106496571467,35.61140741150853]],[[139.5106496571467,35.61140741150853],[139.5112059641101,35.61025097672365]],[[139.5112059641101,35.61025097672365],[139.51085723437185,35.60990982846211]],[[139.51475968620468,35.59277724712407],[139.51210269772275,35.59509011669383],[139.5114799660473,35.59663395713165]],[[139.5114799660473,35.59663395713165],[139.5135308290318,35.59765740191627],[139.51597193719957,35.597269996263336]],[[139.51913541411085,35.59648940278354],[139.5191852326449,35.596477838435696]],[[139.5191852326449,35.596477838435696],[139.51835492374428,35.5951768493027]],[[139.52133573269745,35.618860633697096],[139.52273895473948,35.61856574282695],[139.52393459955636,35.62149730500663]],[[139.52393459955636,35.62149730500663],[139.52600206871884,35.61796439673881],[139.52517175981825,35.616212398039714],[139.52355265746206,35.61572669543006]],[[139.51153808767035,35.62264795761759],[139.5115048753143,35.62271156153076]],[[139.51106481159698,35.62372922414145],[139.51475968620468,35.624920351969884]],[[139.5162791514928,35.621942532398805],[139.51580587541943,35.62204661152945]],[[139.49492360656927,35.59610199713061],[139.49342074745917,35.59824718365656]],[[139.49342074745917,35.59824718365656],[139.49423445018175,35.599843063659705]],[[139.49423445018175,35.599843063659705],[139.49710731897784,35.59892948017964]],[[139.49710731897784,35.59892948017964],[139.49492360656927,35.59610199713061]],[[139.51401240819413,35.61422911238364],[139.51384634641403,35.61543180455992]],[[139.51610478662366,35.61631647717036],[139.5186621380375,35.61800487195628],[139.51943432531507,35.61752495152056]],[[139.51854589479143,35.61625287325719],[139.51744988704263,35.61644946717062],[139.51401240819413,35.61422911238364]],[[139.51442756264444,35.57846636666115],[139.51432792557637,35.57848949535685]],[[139.51432792557637,35.57848949535685],[139.5095785586649,35.580160543621]],[[139.5095785586649,35.580160543621],[139.5121774255238,35.580889097535476],[139.51172905871746,35.58274517536521],[139.509686498822,35.58424854058556],[139.5084659447381,35.583988342758964]],[[139.51280846028826,35.58521994580486],[139.51280846028826,35.584664857108116],[139.51744158395363,35.58374549145414]],[[139.51744158395363,35.58374549145414],[139.51732534070754,35.58144996840615],[139.51442756264444,35.57846636666115]],[[139.5288002097139,35.598692411048745],[139.5318640495571,35.598547856700634],[139.53093410358844,35.597466590176765]],[[139.5253544277764,35.59650096713139],[139.52467357447787,35.60088963714002]],[[139.52467357447787,35.60088963714002],[139.5277374143211,35.6003865880086],[139.5288002097139,35.598692411048745]],[[139.49423445018175,35.599843063659705],[139.49019914892483,35.601259696271185]],[[139.49019914892483,35.601259696271185],[139.490439938506,35.601652884098044]],[[139.490439938506,35.601652884098044],[139.49344565672618,35.60141003279322],[139.49475754478914,35.600571617574175],[139.4966257398155,35.60184369583755]],[[139.4966257398155,35.60184369583755],[139.49983903526083,35.600976369748885]],[[139.49983903526083,35.600976369748885],[139.49710731897784,35.59892948017964]],[[139.50756090803645,35.61767528804259],[139.50709593505212,35.62111568152762]],[[139.50773527290556,35.62142791891954],[139.51130560117818,35.61795861456489]],[[139.5233533833259,35.607724166718675],[139.5205635454199,35.60655616758594],[139.5197083272523,35.60762008758804]],[[139.5197083272523,35.60762008758804],[139.51938450678105,35.61036083802821]],[[139.5233284740589,35.61401517194844],[139.52377684086522,35.61242507411922],[139.5233533833259,35.607724166718675]],[[139.51907729248782,35.57802692144289],[139.5171509758384,35.577257892310946],[139.51442756264444,35.57846636666115]],[[139.51744158395363,35.58374549145414],[139.51887801835167,35.586833172329776],[139.52214943542006,35.58685630102547],[139.5235941729071,35.587712062766286],[139.52176749332577,35.589400457552216]],[[139.52176749332577,35.58942936842183],[139.5271894104467,35.59027934798873]],[[139.5271894104467,35.59027934798873],[139.52821069039445,35.58787974581009],[139.52650025405921,35.58752125102678],[139.52655837568224,35.586000539284655],[139.52918215180816,35.582247908407716],[139.52694862086554,35.58081392927446]],[[139.5106496571467,35.61140741150853],[139.51106481159698,35.612517588902016],[139.51401240819413,35.61422911238364]],[[139.51708455112637,35.61315941020762],[139.51611308971266,35.61229208411896],[139.5112059641101,35.61025097672365]],[[139.50991068222515,35.61213018324908],[139.5098442575131,35.61409612238338]],[[139.50209747547046,35.578472148835075],[139.4975805950512,35.58201083927681]],[[139.50085201211957,35.584867233195475],[139.50200614149142,35.58272204666952]],[[139.50200614149142,35.58272204666952],[139.50253753918778,35.58033400883873],[139.50527755855978,35.58064046405673],[139.5068136300259,35.579669058837425]],[[139.5068136300259,35.579669058837425],[139.50698799489504,35.579061930575364]],[[139.50698799489504,35.579061930575364],[139.5062656261515,35.578738128835596]],[[139.5062656261515,35.578738128835596],[139.50589198714624,35.57780141665984]],[[139.51225215332485,35.57633274448304],[139.50963668028797,35.57841432709583],[139.5095785586649,35.580160543621]],[[139.51432792557637,35.57848949535685],[139.51225215332485,35.57633274448304]],[[139.5098276513351,35.61409612238338],[139.50552665122996,35.61340226151245]],[[139.5114799660473,35.59663395713165],[139.51146335986928,35.59663973930558]],[[139.51146335986928,35.59663973930558],[139.51233518421492,35.599704291485516],[139.51421168233028,35.601994032359585]],[[139.5164535163619,35.601444725836764],[139.51730043144053,35.600814468879]],[[139.5191603233779,35.61063838237658],[139.51640369782788,35.6096958880269],[139.5148178078277,35.60841802758961]],[[139.46914251520553,35.60446302062531],[139.46667649777072,35.60715173150016],[139.4666349823257,35.609215967591176]],[[139.4666349823257,35.609215967591176],[139.47111865038897,35.6106672932462]],[[139.47111865038897,35.6106672932462],[139.4721316272477,35.608770740199]],[[139.4721316272477,35.608770740199],[139.4723973260959,35.60774729541438]],[[139.4723973260959,35.60774729541438],[139.46925875845162,35.60539973280106],[139.46914251520553,35.60446302062531]],[[139.4785831274054,35.607192206717635],[139.47854161196037,35.607180642369784]],[[139.47854161196037,35.607180642369784],[139.47527019489198,35.60915236367801]],[[139.47527019489198,35.60915236367801],[139.47704705593927,35.61086966933356]],[[139.47704705593927,35.61086966933356],[139.47965422588717,35.60931426454789]],[[139.50070255651747,35.6005542710524],[139.49983903526083,35.600976369748885]],[[139.4966257398155,35.60184369583755],[139.49378608337543,35.60168179496767],[139.49108757944848,35.60533034671397]],[[139.49108757944848,35.60533034671397],[139.4961026452081,35.605706188019056],[139.4977134444753,35.60486777280002],[139.49987224761685,35.60518579236586],[139.500046612486,35.60679323671685]],[[139.5026620855229,35.60391949627641],[139.50070255651747,35.6005542710524]],[[139.5231956246348,35.57499128013258],[139.5230461690327,35.57766842665958],[139.5216678562577,35.57810208970391]],[[139.52463205903285,35.5789058118794],[139.52515515364024,35.57654090274432],[139.5231956246348,35.57499128013258]],[[139.50808400264384,35.59953660844171],[139.50580895625617,35.602138586707696]],[[139.51061644479066,35.603069516709525],[139.51049189845557,35.60141581496714],[139.50808400264384,35.59953660844171]],[[139.49109588253748,35.594720057562675],[139.49125364122858,35.59434999843151]],[[139.49125364122858,35.59434999843151],[139.4905644848411,35.59448298843177]],[[139.4905644848411,35.59448298843177],[139.48695264112348,35.597137006263075]],[[139.48695264112348,35.597137006263075],[139.48773313149005,35.59777882756869]],[[139.48773313149005,35.59777882756869],[139.4902821798149,35.59637954147898],[139.49109588253748,35.594720057562675]],[[139.49739792709306,35.590736139728754],[139.49355359688326,35.59256908886279]],[[139.49355359688326,35.59256908886279],[139.49125364122858,35.59434999843151]],[[139.49109588253748,35.594720057562675],[139.49185146363703,35.59428061234442],[139.49488209112423,35.596055739739214]],[[139.49488209112423,35.596055739739214],[139.49914987887334,35.59500338408497]],[[139.48835586316548,35.59045859538038],[139.48680318552135,35.59044703103253],[139.48677827625434,35.59177693103515],[139.484926687406,35.59286397973293]],[[139.484926687406,35.59286397973293],[139.48607251368884,35.59270786103698],[139.48927750604517,35.5946795823452],[139.4905644848411,35.59448298843177]],[[139.49355359688326,35.59256908886279],[139.49200922232814,35.59128544625157],[139.4897590852075,35.59152251538247],[139.48835586316548,35.59045859538038]],[[139.48319964489275,35.60868978976406],[139.48705227819156,35.608348641502516],[139.48887065468386,35.605902781932485]],[[139.48887065468386,35.605902781932485],[139.48843889405555,35.60338175410144]],[[139.48843889405555,35.60338175410144],[139.48676997316534,35.60346848671031]],[[139.47316951337345,35.600045439747056],[139.47328575661953,35.60265898236089],[139.4743402489233,35.60300013062243]],[[139.4743402489233,35.60300013062243],[139.4769474188712,35.6033008036665],[139.4773791794995,35.60472321845191]],[[139.4773791794995,35.60472321845191],[139.47923076834786,35.60487355497394]],[[139.47923076834786,35.60487355497394],[139.47951307337405,35.604474584973154]],[[139.47951307337405,35.604474584973154],[139.4783091254682,35.60335862540575],[139.478076638976,35.600577399748104],[139.47712178374033,35.599351578876124]],[[139.47712178374033,35.599351578876124],[139.47316951337345,35.600045439747056]],[[139.52467357447787,35.60088963714002],[139.52396781191237,35.60103419148813]],[[139.52479812081296,35.603214071057636],[139.52472339301193,35.60551537627955]],[[139.52472339301193,35.60551537627955],[139.52547897411148,35.6037749419283],[139.53056046458317,35.60245082409961],[139.53090919432142,35.60017842974732],[139.5288002097139,35.598692411048745]],[[139.49488209112423,35.596055739739214],[139.49492360656927,35.59610199713061]],[[139.50070255651747,35.6005542710524],[139.500063218664,35.596795858001535]],[[139.500063218664,35.596795858001535],[139.49974770128176,35.59492821582395]],[[139.50200614149142,35.58272204666952],[139.5049952535336,35.58306897710498],[139.50637356630858,35.58418493667239]],[[139.50637356630858,35.58418493667239],[139.50634865704157,35.58307475927891],[139.50820854897893,35.578923158401174],[139.5076356358375,35.577442921876525]],[[139.5062407168845,35.57774937709452],[139.5062656261515,35.578738128835596]],[[139.50698799489504,35.579061930575364],[139.5068136300259,35.579669058837425]],[[139.50976122662306,35.59581867060831],[139.50731181536628,35.598212490613015]],[[139.50731181536628,35.598212490613015],[139.50808400264384,35.59953660844171]],[[139.51146335986928,35.59663973930558],[139.50976122662306,35.59581867060831]],[[139.48681979169936,35.598756014961914],[139.48445341133265,35.60032876626935]],[[139.48445341133265,35.60032876626935],[139.4842458341075,35.60050801366101]],[[139.48843889405555,35.60338175410144],[139.490439938506,35.601652884098044]],[[139.49019914892483,35.601259696271185],[139.48798222416022,35.59987197452932]],[[139.48798222416022,35.59987197452932],[139.48681979169936,35.598756014961914]],[[139.505568166675,35.58914025972562],[139.50577574390016,35.59119293146878]],[[139.50815873044488,35.59014057581454],[139.5107908096598,35.58790287450579]],[[139.5107908096598,35.58790287450579],[139.51004353164925,35.587029766243205]],[[139.51036735212048,35.59231467321012],[139.50999371311522,35.5927136432109]],[[139.50911358568058,35.59536187886828],[139.50976122662306,35.59581867060831]],[[139.51446907808946,35.59236671277544],[139.5137134969899,35.59166706973058]],[[139.52086245662412,35.62117928544079],[139.52393459955636,35.62149730500663]],[[139.48378086112317,35.59966959844197],[139.48289243059952,35.60005700409491],[139.4806672027459,35.603595694536644]],[[139.4806672027459,35.603595694536644],[139.4820538186099,35.602653200186964]],[[139.48445341133265,35.60032876626935],[139.48378086112317,35.59966959844197]],[[139.52126930798542,35.59156877277387],[139.52361908217412,35.593089484515986]],[[139.52361908217412,35.593089484515986],[139.52519666908526,35.59108885233814],[139.5271894104467,35.59027934798873]],[[139.5197083272523,35.60762008758804],[139.51982457049837,35.605110624104846]],[[139.51982457049837,35.605110624104846],[139.51663618432005,35.603826981493626]],[[139.46201016174933,35.61529881455966],[139.45471174651303,35.61785453543425]],[[139.45471174651303,35.61785453543425],[139.4570200052567,35.61901097021913],[139.46088094164452,35.622162255007936]],[[139.46088094164452,35.622162255007936],[139.4609722756236,35.622081304572994]],[[139.4622177389745,35.61668075412759],[139.46201016174933,35.61529881455966]],[[139.50302742143916,35.59311261321169],[139.50440573421415,35.59285241538509],[139.5067887207589,35.59393946408288]],[[139.48887065468386,35.605902781932485],[139.48940205238026,35.60454397106025],[139.49108757944848,35.60533034671397]],[[139.51982457049837,35.605110624104846],[139.5202646342157,35.60255490323025]],[[139.52230719411116,35.599912449746796],[139.52018160332563,35.59884274757078]],[[139.50705441960707,35.58446826319469],[139.50637356630858,35.58418493667239]],[[139.4773791794995,35.60472321845191],[139.4744730983474,35.606035771932746],[139.47332727206458,35.60741192932676]],[[139.47332727206458,35.60741192932676],[139.47527019489198,35.60915236367801]],[[139.47854161196037,35.607180642369784],[139.47923076834786,35.60487355497394]],[[139.51225215332485,35.57633274448304],[139.51215251625678,35.576089893178214]],[[139.48773313149005,35.59777882756869],[139.48681979169936,35.598756014961914]],[[139.48798222416022,35.59987197452932],[139.49342074745917,35.59824718365656]],[[139.4678804456766,35.615084874124456],[139.46584618887013,35.61751916934663]],[[139.46584618887013,35.61751916934663],[139.4673158356242,35.61936368282852]],[[139.4673158356242,35.61936368282852],[139.4681378414358,35.61930007891535],[139.47041288782344,35.616293348474656],[139.46998943028413,35.6151658245594],[139.4678804456766,35.615084874124456]],[[139.500063218664,35.596795858001535],[139.5022718403396,35.5981141936563],[139.50450537128222,35.59754754061171],[139.50731181536628,35.598212490613015]],[[139.5191852326449,35.596477838435696],[139.5227555609175,35.595049641476365]],[[139.5237187192422,35.593291860603344],[139.52361908217412,35.593089484515986]],[[139.51270882322018,35.5905106349457],[139.5107908096598,35.58790287450579]],[[139.47704705593927,35.61086966933356],[139.47277096510115,35.61320566759902]],[[139.47287060216922,35.613315528903584],[139.47620844394967,35.61296859846812]],[[139.47620844394967,35.61296859846812],[139.47854161196037,35.61357572673018],[139.48004447107044,35.6126563610762]],[[139.4806672027459,35.603595694536644],[139.47951307337405,35.604474584973154]],[[139.47111865038897,35.6106672932462],[139.46970712525794,35.61214174759693]],[[139.47143416777118,35.612361470206054],[139.47527019489198,35.60915236367801]],[[139.47332727206458,35.60741192932676],[139.4721316272477,35.608770740199]],[[139.47316951337345,35.600045439747056],[139.47160853264032,35.601196092358016],[139.46914251520553,35.60446302062531]],[[139.4723973260959,35.60774729541438],[139.47141756159317,35.60613985106339],[139.4743402489233,35.60300013062243]],[[139.48695264112348,35.597137006263075],[139.48378086112317,35.59966959844197]],[[139.51177887725152,35.57321037056386],[139.5111893579321,35.57282296491092]],[[139.49322147332302,35.58907087363852],[139.49088830531232,35.58872394320306],[139.48835586316548,35.59045859538038]],[[139.46576315798006,35.6175827732598],[139.46584618887013,35.61751916934663]],[[139.4678804456766,35.615084874124456],[139.46749020049333,35.614524003253784],[139.46201016174933,35.61529881455966]],[[139.46088094164452,35.622162255007936],[139.46214301117342,35.624845183708864],[139.46584618887013,35.62339385805384]],[[139.46584618887013,35.62339385805384],[139.46502418305855,35.62021944456934],[139.4673158356242,35.61936368282852]],[[139.46584618887013,35.62339385805384],[139.46631946494347,35.621075206310145],[139.47106883185492,35.61963544500297],[139.47539474122706,35.61988986065564],[139.4762831717507,35.61861200021835],[139.47692250960418,35.614072993687685],[139.47620844394967,35.61296859846812]],[[139.4666349823257,35.609215967591176],[139.4640195092888,35.6091754923737],[139.46281556138294,35.608007493240976],[139.46075639530943,35.608678225416206],[139.4584979550998,35.60783402802324],[139.45338325227206,35.60423751584226],[139.45103347808336,35.60970167020083],[139.44891619038683,35.61193358933565],[139.45227894143426,35.61570934890829],[139.45274391441862,35.618033782825904],[139.45471174651303,35.61785453543425]],[[139.5233533833259,35.607724166718675],[139.52472339301193,35.60551537627955]],[[139.484926687406,35.59286397973293],[139.48165527033763,35.59535609669436],[139.47896506949965,35.596258115826565],[139.47712178374033,35.599351578876124]],[[139.5231956246348,35.57499128013258],[139.52450751269777,35.573609340564644],[139.52107003384927,35.570695124906734],[139.51651994107397,35.569214888382085],[139.5129745220684,35.567156434465],[139.51293300662334,35.56911659142537],[139.51087384054986,35.57114613447284]]]}