{"type":"Topology","bbox":[139.65412920125567,35.5261700556756,139.70451809272564,35.562072999777044],"objects":{"town":{"type":"GeometryCollection","geometries":[{"type":"MultiPolygon","arcs":[[[77,78,79,2,3,4,5,6,7,0,-47]]],"properties":{"name":"戸手本町"}},{"type":"Polygon","arcs":[[8,-8,9,10]],"properties":{"name":"紺屋町"}},{"type":"MultiPolygon","arcs":[[[101,102,141,-139,-138,-41,-72,13,14,-17,-6]]],"properties":{"name":"小向西町"}},{"type":"MultiPolygon","arcs":[[[162,163,160,161,-115,70,15,-10,-7,16,-15,-14,71,-40,-39,123]]],"properties":{"name":"戸手"}},{"type":"Polygon","arcs":[[18,19,20,21,22,23]],"properties":{"name":"堀川町"}},{"type":"MultiPolygon","arcs":[[[-119,192,-70,-96,-95,24,25,195,-179,-178]]],"properties":{"name":"鹿島田"}},{"type":"MultiPolygon","arcs":[[[54,55,56,185,97,98,99,100,31,87,88,89]]],"properties":{"name":"南加瀬"}},{"type":"MultiPolygon","arcs":[[[-167,33,34,35,36,156,-4,-3,-80,86,173]]],"properties":{"name":"塚越"}},{"type":"Polygon","arcs":[[38,39,40,41,42,43]],"properties":{"name":"小向町"}},{"type":"MultiPolygon","arcs":[[[181,-78,46,-1,-9,47,48,44,-135,-159]]],"properties":{"name":"神明町"}},{"type":"MultiPolygon","arcs":[[[-188,-187,-151,-145,-133,-132,-137,172,51,52,53,-154,-20]]],"properties":{"name":"中幸町"}},{"type":"MultiPolygon","arcs":[[[159,-147,62,63,59,81,82]]],"properties":{"name":"古市場"}},{"type":"MultiPolygon","arcs":[[[-166,65,66,67,68,69,-193,-118]],[[-89,-88,-32,-101,-100,169,-92,167,180,108,105,197]]],"properties":{"name":"小倉"}},{"type":"Polygon","arcs":[[-43,74,75,76]],"properties":{"name":"小向仲野町"}},{"type":"Polygon","arcs":[[90,91,92,93,-25,94,95,-69]],"properties":{"name":"新川崎"}},{"type":"MultiPolygon","arcs":[[[153,-54,-53,-175,-161,175,127,-23,-22,-21]]],"properties":{"name":"幸町"}},{"type":"Polygon","arcs":[[-48,-11,-16,-71,114,115]],"properties":{"name":"遠藤町"}},{"type":"Polygon","arcs":[[-35,116,117,118,119]],"properties":{"name":"新塚越"}},{"type":"Polygon","arcs":[[-56,120,121,122]],"properties":{"name":"矢上"}},{"type":"MultiPolygon","arcs":[[[-150,157,158,-134,130,131,132,144,145]]],"properties":{"name":"南幸町"}},{"type":"Polygon","arcs":[[133,134,-45,135,136,-131]],"properties":{"name":"都町"}},{"type":"Polygon","arcs":[[-75,-42,137,138,139,-64,140]],"properties":{"name":"小向東芝町"}},{"type":"Polygon","arcs":[[-63,146,147,148,-76,-141]],"properties":{"name":"東古市場"}},{"type":"Polygon","arcs":[[149,-146,150,151,152]],"properties":{"name":"柳町"}},{"type":"Polygon","arcs":[[164,-66,165,-117,-34,166]],"properties":{"name":"東小倉"}},{"type":"Polygon","arcs":[[174,-52,-173,-136,-49,-116,-162]],"properties":{"name":"河原町"}},{"type":"Polygon","arcs":[[176,-36,-120,177,178,179,-82,-60,-140,-142,-103]],"properties":{"name":"下平間"}},{"type":"MultiPolygon","arcs":[[[-99,-98,-186,-57,-123,-122,182,196,191,-93,-170]]],"properties":{"name":"北加瀬"}},{"type":"Polygon","arcs":[[-163,-124,-44,-77,-149,184]],"properties":{"name":"小向"}},{"type":"Polygon","arcs":[[-152,186,187,-19,188]],"properties":{"name":"大宮町"}},{"type":"Polygon","arcs":[[-181,-168,-91,-68,194,-109]],"properties":{"name":"新小倉"}},{"type":"Polygon","arcs":[[-157,-37,-177,-102,-5]],"properties":{"name":"古川町"}}]}},"arcs":[[[139.68842227120797,35.54106049563846],[139.6884172318149,35.54106049563846]],[[139.6884172318149,35.54106049563846],[139.68459737185546,35.542231048671475]],[[139.68459737185546,35.542231048671475],[139.68457217489004,35.542249001938856]],[[139.68457217489004,35.542249001938856],[139.6851013111641,35.543308244714126]],[[139.6851013111641,35.543308244714126],[139.6860235200989,35.545110752758816]],[[139.6860235200989,35.545110752758816],[139.68888085597882,35.54494199204547]],[[139.68888085597882,35.54494199204547],[139.6892588104603,35.544812728520355]],[[139.6892588104603,35.544812728520355],[139.68842227120797,35.54106049563846]],[[139.69111330711607,35.540708611597864],[139.68842227120797,35.54106049563846]],[[139.6892588104603,35.544812728520355],[139.6911435434746,35.54393301841886]],[[139.6911435434746,35.54393301841886],[139.69111330711607,35.540708611597864]],[[139.68989377398918,35.545426730264666],[139.68980306491363,35.547326185953196]],[[139.68980306491363,35.547326185953196],[139.6926402432212,35.54702098040778]],[[139.6926402432212,35.54702098040778],[139.6924235493185,35.54657214872334]],[[139.6924235493185,35.54657214872334],[139.68989377398918,35.545426730264666]],[[139.69133000101877,35.543954562339714],[139.6911435434746,35.54393301841886]],[[139.68888085597882,35.54494199204547],[139.68989377398918,35.545426730264666]],[[139.6924235493185,35.54657214872334],[139.69133000101877,35.543954562339714]],[[139.69563364271448,35.53054347160875],[139.69410670660932,35.53160630503749]],[[139.69410670660932,35.53160630503749],[139.69414702175402,35.53476248944245],[139.69482733982068,35.53477685205635]],[[139.69482733982068,35.53477685205635],[139.69658104861472,35.534478827817885]],[[139.69658104861472,35.534478827817885],[139.69921665119884,35.534378289520575],[139.69895964215144,35.535609883662666]],[[139.69895964215144,35.535609883662666],[139.69946862085317,35.537502158044255],[139.70072846912473,35.5378612233918]],[[139.70072846912473,35.5378612233918],[139.70322800809555,35.536622447942754],[139.69583017904483,35.53030289782589],[139.69563364271448,35.53054347160875]],[[139.66921714415608,35.55507122549984],[139.66729713539019,35.561354869081946]],[[139.66729713539019,35.561354869081946],[139.66965053196148,35.56097785046702],[139.6722256618286,35.557437466140186]],[[139.6722256618286,35.557437466140186],[139.66978659557483,35.5563207729093],[139.66921714415608,35.55507122549984]],[[139.6632404239557,35.53983249214985],[139.66194026053944,35.5416996319571]],[[139.66194026053944,35.5416996319571],[139.66061490015775,35.545358507848626]],[[139.66061490015775,35.545358507848626],[139.66409712078038,35.54528669477912]],[[139.66409712078038,35.54528669477912],[139.66789682316747,35.545114343412294]],[[139.66789682316747,35.545114343412294],[139.6632404239557,35.53983249214985]],[[139.67842411532476,35.54410536978568],[139.6774817488176,35.54618435814799]],[[139.6774817488176,35.54618435814799],[139.67694253375737,35.54750930928045]],[[139.67694253375737,35.54750930928045],[139.67882726677166,35.54898506785887]],[[139.67882726677166,35.54898506785887],[139.67998128778842,35.54861163989742]],[[139.67998128778842,35.54861163989742],[139.679840184782,35.5478827372419]],[[139.679840184782,35.5478827372419],[139.67842411532476,35.54410536978568]],[[139.6962938032088,35.54541595830424],[139.6943435580844,35.54657573937682]],[[139.6943435580844,35.54657573937682],[139.6927208735106,35.547204103735034]],[[139.6927208735106,35.547204103735034],[139.69338103400491,35.54873372211559]],[[139.69338103400491,35.54873372211559],[139.69383457938267,35.54977860227696]],[[139.69383457938267,35.54977860227696],[139.69604687294756,35.5488342604129],[139.69770483327295,35.54721846634893]],[[139.69770483327295,35.54721846634893],[139.6962938032088,35.54541595830424]],[[139.69167267974865,35.538144885016365],[139.69137535555654,35.538098206521184]],[[139.69137535555654,35.538098206521184],[139.69060936780744,35.539545239871806],[139.68663328666233,35.537035373092436],[139.68600336252655,35.53753447392553]],[[139.68600336252655,35.53753447392553],[139.6859479292026,35.53889892224622],[139.68800400158182,35.53883429048366],[139.6884172318149,35.54106049563846]],[[139.69111330711607,35.540708611597864],[139.69114858286767,35.540705020944394]],[[139.69114858286767,35.540705020944394],[139.69167267974865,35.538144885016365]],[[139.6950339549372,35.53518259589909],[139.69399583996142,35.535509345365355]],[[139.69399583996142,35.535509345365355],[139.6940109581407,35.53846086252221]],[[139.6940109581407,35.53846086252221],[139.69688845159297,35.53867271107726]],[[139.69688845159297,35.53867271107726],[139.6960619911268,35.53681993388391]],[[139.6960619911268,35.53681993388391],[139.6950339549372,35.53518259589909]],[[139.65428038304827,35.541760673066186],[139.656951261384,35.54856496140224],[139.65752575219585,35.55137644307355]],[[139.65752575219585,35.55137644307355],[139.65933993370692,35.5509599272704]],[[139.65933993370692,35.5509599272704],[139.65930465795532,35.55066190303193]],[[139.65930465795532,35.55066190303193],[139.6592240276659,35.54902815570058],[139.66061490015775,35.545358507848626]],[[139.66194026053944,35.5416996319571],[139.65718307346597,35.5411574432823],[139.65428038304827,35.541760673066186]],[[139.68610918978138,35.54912510334442],[139.68254633886934,35.55002276671329],[139.68118570273603,35.552353100818884]],[[139.68118570273603,35.552353100818884],[139.6814527905696,35.55214484291731]],[[139.6814527905696,35.55214484291731],[139.6830099630333,35.55143030287569],[139.68572115651372,35.552004807431764]],[[139.68572115651372,35.552004807431764],[139.68589753527175,35.55091324877522]],[[139.68589753527175,35.55091324877522],[139.68610918978138,35.54912510334442]],[[139.6730269253293,35.54913228465137],[139.67374755854067,35.54701379910083]],[[139.67374755854067,35.54701379910083],[139.67567260669964,35.54065116114226]],[[139.67567260669964,35.54065116114226],[139.67548614915543,35.53980376692204]],[[139.67548614915543,35.53980376692204],[139.67404992212585,35.54428490245946]],[[139.67404992212585,35.54428490245946],[139.67121778321132,35.54893120805674]],[[139.67121778321132,35.54893120805674],[139.6730269253293,35.54913228465137]],[[139.6926452826143,35.54349854934832],[139.69133000101877,35.543954562339714]],[[139.6926402432212,35.54702098040778],[139.6927208735106,35.547204103735034]],[[139.6943435580844,35.54657573937682],[139.693678358197,35.54478400329255]],[[139.693678358197,35.54478400329255],[139.6926452826143,35.54349854934832]],[[139.69383457938267,35.54977860227696],[139.69447962169772,35.55127590477624]],[[139.69447962169772,35.55127590477624],[139.69567899725226,35.55311791000916]],[[139.69567899725226,35.55311791000916],[139.69759396662505,35.552421323234924],[139.6989294057929,35.55026334049615],[139.69770483327295,35.54721846634893]],[[139.68600336252655,35.53753447392553],[139.684803986972,35.53755242719291]],[[139.684803986972,35.53755242719291],[139.6846931203241,35.53993662110064]],[[139.6846931203241,35.53993662110064],[139.68459737185546,35.542231048671475]],[[139.6794420727282,35.54331901667455],[139.6794420727282,35.54331901667455]],[[139.68118570273603,35.552353100818884],[139.67973939692027,35.55476601995442]],[[139.67973939692027,35.55476601995442],[139.6802080604773,35.55585757861097],[139.68516682327422,35.558453621073745],[139.68161909054146,35.55990065442437],[139.68125121484616,35.561656483973884],[139.68789313493392,35.55841771453899]],[[139.68789313493392,35.55841771453899],[139.6814527905696,35.55214484291731]],[[139.68000648475385,35.53991148652631],[139.6784039577524,35.54406228194398]],[[139.6784039577524,35.54406228194398],[139.68457217489004,35.542249001938856]],[[139.6846931203241,35.53993662110064],[139.68000648475385,35.53991148652631]],[[139.6632404239557,35.53983249214985],[139.66325554213498,35.53958473706004]],[[139.66325554213498,35.53958473706004],[139.66196545750486,35.53627056390216]],[[139.66196545750486,35.53627056390216],[139.65538401013416,35.53881633721628],[139.65428038304827,35.541760673066186]],[[139.67404992212585,35.54428490245946],[139.67173684069923,35.54368885398252]],[[139.67173684069923,35.54368885398252],[139.67060297725482,35.547225647655885]],[[139.67060297725482,35.547225647655885],[139.66924738051458,35.55248954565096]],[[139.66924738051458,35.55248954565096],[139.6675440656514,35.55891322471861],[139.66729713539019,35.561354869081946]],[[139.66921714415608,35.55507122549984],[139.67006880158766,35.55237464473974]],[[139.67006880158766,35.55237464473974],[139.67121778321132,35.54893120805674]],[[139.66409712078038,35.54528669477912],[139.6633916057483,35.550058673248046]],[[139.6633916057483,35.550058673248046],[139.66363853600953,35.5506367684576]],[[139.66363853600953,35.5506367684576],[139.66870816545435,35.54739081771576],[139.66858722002027,35.54615204226671]],[[139.66858722002027,35.54615204226671],[139.66793713831214,35.54515384060053]],[[139.66793713831214,35.54515384060053],[139.66789682316747,35.545114343412294]],[[139.6860235200989,35.545110752758816],[139.68502068087471,35.54566371339405]],[[139.68502068087471,35.54566371339405],[139.68581690498235,35.54736209248795]],[[139.68581690498235,35.54736209248795],[139.68961660736943,35.54731900464625]],[[139.68961660736943,35.54731900464625],[139.68980306491363,35.547326185953196]],[[139.67416582816682,35.537484204776874],[139.67040140153134,35.53679838996305],[139.6703157318489,35.53523645570122],[139.66813367464252,35.534622453956906]],[[139.66813367464252,35.534622453956906],[139.66793209891907,35.53837109618532],[139.66850155033782,35.539426748307115]],[[139.66850155033782,35.539426748307115],[139.67348551010016,35.539254396940294]],[[139.67348551010016,35.539254396940294],[139.67416582816682,35.537484204776874]],[[139.66793713831214,35.54515384060053],[139.66996801372593,35.54413768566696]],[[139.66996801372593,35.54413768566696],[139.6691717896183,35.543412373664914],[139.66850155033782,35.539426748307115]],[[139.66850155033782,35.539426748307115],[139.66325554213498,35.53958473706004]],[[139.69658104861472,35.534478827817885],[139.6971353818542,35.53588995463376]],[[139.6971353818542,35.53588995463376],[139.69895964215144,35.535609883662666]],[[139.6926452826143,35.54349854934832],[139.6948122216414,35.54204433469075]],[[139.6948122216414,35.54204433469075],[139.69114858286767,35.540705020944394]],[[139.67694253375737,35.54750930928045],[139.67678127317862,35.54786119332105]],[[139.67678127317862,35.54786119332105],[139.67580363091986,35.54997249756464]],[[139.67580363091986,35.54997249756464],[139.67632268840777,35.5511502319046]],[[139.67632268840777,35.5511502319046],[139.67882726677166,35.54898506785887]],[[139.65752575219585,35.55137644307355],[139.6583118975173,35.553699595872196],[139.6581607157247,35.55791502305242],[139.65907284587334,35.55692400269319]],[[139.65907284587334,35.55692400269319],[139.6597178881884,35.55309277543484]],[[139.6597178881884,35.55309277543484],[139.65933993370692,35.5509599272704]],[[139.6962938032088,35.54541595830424],[139.69627868502954,35.545207700402656]],[[139.69627868502954,35.545207700402656],[139.693678358197,35.54478400329255]],[[139.6971353818542,35.53588995463376],[139.69726136668135,35.53613770972357]],[[139.69726136668135,35.53613770972357],[139.69947366024624,35.5389599633553]],[[139.69947366024624,35.5389599633553],[139.70072846912473,35.5378612233918]],[[139.69184401911357,35.53481275859111],[139.6892588104603,35.53481993989806]],[[139.6892588104603,35.53481993989806],[139.68718258050873,35.53483430251196],[139.68773187435517,35.5360156275054]],[[139.68773187435517,35.5360156275054],[139.691869216079,35.53675889277483]],[[139.691869216079,35.53675889277483],[139.69184905850668,35.53593304247546]],[[139.69184905850668,35.53593304247546],[139.69184401911357,35.53481275859111]],[[139.68773187435517,35.5360156275054],[139.68657785333838,35.53638905546685]],[[139.68657785333838,35.53638905546685],[139.69137535555654,35.538098206521184]],[[139.69167267974865,35.538144885016365],[139.69168275853482,35.53813770370942]],[[139.69168275853482,35.53813770370942],[139.691869216079,35.53675889277483]],[[139.69338103400491,35.54873372211559],[139.6896266861556,35.54871217819474]],[[139.6896266861556,35.54871217819474],[139.68606383524357,35.54891325478937]],[[139.68606383524357,35.54891325478937],[139.68610918978138,35.54912510334442]],[[139.68589753527175,35.55091324877522],[139.6910679525783,35.55208021115475],[139.69447962169772,35.55127590477624]],[[139.68581690498235,35.54736209248795],[139.68606383524357,35.54891325478937]],[[139.6896266861556,35.54871217819474],[139.68961660736943,35.54731900464625]],[[139.68925377106723,35.53160630503749],[139.6892588104603,35.53481993989806]],[[139.69184401911357,35.53481275859111],[139.69181882214815,35.53160630503749]],[[139.69181882214815,35.53160630503749],[139.68925377106723,35.53160630503749]],[[139.68572115651372,35.552004807431764],[139.6895863710109,35.553602648228356],[139.69214134330568,35.5566439317221]],[[139.69214134330568,35.5566439317221],[139.69864719978008,35.55596170756176]],[[139.69864719978008,35.55596170756176],[139.69567899725226,35.55311791000916]],[[139.68475359304114,35.53023108475638],[139.68599328374037,35.53160989569097],[139.68925377106723,35.53160630503749]],[[139.69181882214815,35.53160630503749],[139.69185409789975,35.53160630503749]],[[139.69185409789975,35.53160630503749],[139.691869216079,35.527459100273305]],[[139.691869216079,35.527459100273305],[139.6906597617383,35.526180827636026],[139.6857261959068,35.527710446016584],[139.68673407452405,35.528740963564054],[139.68475359304114,35.53023108475638]],[[139.69482733982068,35.53477685205635],[139.6950339549372,35.53518259589909]],[[139.6960619911268,35.53681993388391],[139.69726136668135,35.53613770972357]],[[139.6784039577524,35.54406228194398],[139.67842411532476,35.54410536978568]],[[139.679840184782,35.5478827372419],[139.6817198784032,35.5453333732743],[139.6851013111641,35.543308244714126]],[[139.68475359304114,35.53023108475638],[139.68391705378883,35.53131546210598],[139.68422445676708,35.53389714195486],[139.6851416263088,35.53501024453226]],[[139.6851416263088,35.53501024453226],[139.68657785333838,35.53638905546685]],[[139.68789313493392,35.55841771453899],[139.69214134330568,35.5566439317221]],[[139.6993476754191,35.539125133415176],[139.6974327060463,35.53926157824724]],[[139.6974327060463,35.53926157824724],[139.6948122216414,35.54204433469075]],[[139.69627868502954,35.545207700402656],[139.69837507255343,35.545358507848626]],[[139.69837507255343,35.545358507848626],[139.69789633021023,35.54273374015804],[139.6993476754191,35.539125133415176]],[[139.6759800096779,35.54086660035079],[139.67567260669964,35.54065116114226]],[[139.67374755854067,35.54701379910083],[139.67632268840777,35.54662959917896],[139.67678127317862,35.54786119332105]],[[139.6774817488176,35.54618435814799],[139.6761513490428,35.54285582237621],[139.6759800096779,35.54086660035079]],[[139.67173684069923,35.54368885398252],[139.67188298309873,35.543114349426446]],[[139.67188298309873,35.543114349426446],[139.66996801372593,35.54413768566696]],[[139.66858722002027,35.54615204226671],[139.67060297725482,35.547225647655885]],[[139.69399583996142,35.535509345365355],[139.6931693794953,35.535782235029494]],[[139.6931693794953,35.535782235029494],[139.69184905850668,35.53593304247546]],[[139.69168275853482,35.53813770370942],[139.6940109581407,35.53846086252221]],[[139.68000648475385,35.53991148652631],[139.67720458219787,35.53978581365467],[139.6759800096779,35.54086660035079]],[[139.6974327060463,35.53926157824724],[139.69688845159297,35.53867271107726]],[[139.6993476754191,35.539125133415176],[139.69947366024624,35.5389599633553]],[[139.68502068087471,35.54566371339405],[139.68176523294096,35.548819897799],[139.67998128778842,35.54861163989742]],[[139.67632268840777,35.5511502319046],[139.67507795831546,35.5539329883481]],[[139.67507795831546,35.5539329883481],[139.6748007916957,35.554834242370454]],[[139.6748007916957,35.554834242370454],[139.67694757315047,35.55399043880371],[139.67973939692027,35.55476601995442]],[[139.67188298309873,35.543114349426446],[139.67348551010016,35.539254396940294]],[[139.6851416263088,35.53501024453226],[139.684803986972,35.53755242719291]],[[139.65907284587334,35.55692400269319],[139.66329585727965,35.5582704977465],[139.66382499355373,35.55568522724414]],[[139.66382499355373,35.55568522724414],[139.6597178881884,35.55309277543484]],[[139.69864719978008,35.55596170756176],[139.70400911402393,35.552514680225286],[139.70451809272564,35.55085579831961],[139.70318265355777,35.54866909035303],[139.69837507255343,35.545358507848626]],[[139.65930465795532,35.55066190303193],[139.6633916057483,35.550058673248046]],[[139.69185409789975,35.53160630503749],[139.69314418252984,35.53160271438402]],[[139.69314418252984,35.53160271438402],[139.69410670660932,35.53160630503749]],[[139.69563364271448,35.53054347160875],[139.691869216079,35.527459100273305]],[[139.6931693794953,35.535782235029494],[139.69314418252984,35.53160271438402]],[[139.66363853600953,35.5506367684576],[139.66405680563568,35.552482364344]],[[139.66405680563568,35.552482364344],[139.66924738051458,35.55248954565096]],[[139.67580363091986,35.54997249756464],[139.6730269253293,35.54913228465137]],[[139.67006880158766,35.55237464473974],[139.67201400731898,35.55196890089701],[139.67327889498364,35.554169971477485],[139.67507795831546,35.5539329883481]],[[139.67548614915543,35.53980376692204],[139.67579355213368,35.53811615978856],[139.67416582816682,35.537484204776874]],[[139.6722256618286,35.557437466140186],[139.6748007916957,35.554834242370454]],[[139.66382499355373,35.55568522724414],[139.66405680563568,35.552482364344]],[[139.66813367464252,35.534622453956906],[139.6666621718613,35.53291330290257],[139.66196545750486,35.53627056390216]]]}