{"type":"Topology","bbox":[139.51480770320617,35.59574913053043,139.60072923603772,35.642820765938716],"objects":{"town":{"type":"GeometryCollection","geometries":[{"type":"Polygon","arcs":[[0]],"properties":{"name":""}},{"type":"MultiPolygon","arcs":[[[11,12,128,129,76,77,-46,78,79,80,81,29,30,31,32,82,130,3,17,18,19,20,16,5,14,15]]],"properties":{"name":"登戸"}},{"type":"MultiPolygon","arcs":[[[120,121,122,43,44,45,46,36,49,24,25,26,27,21,41,37,38,10,6,7,73,74]]],"properties":{"name":"生田"}},{"type":"MultiPolygon","arcs":[[[118,226,56,57,58,59,52,53,-86,-94],[-1]]],"properties":{"name":"菅仙谷"}},{"type":"MultiPolygon","arcs":[[[96,97,-174,-105,-104,63,64,65,60,61,221,-59,-111,-110,261]]],"properties":{"name":"菅"}},{"type":"MultiPolygon","arcs":[[[232,268,176,177,273,-115,-182,274,272,-264,256,-237,71,72,66,67,68,-16,-15,-6,-17,179]]],"properties":{"name":"宿河原"}},{"type":"MultiPolygon","arcs":[[[-61,102,-239,-213,151,152,88,84,85,-54,-53,-60,-222,-62]]],"properties":{"name":"菅北浦"}},{"type":"MultiPolygon","arcs":[[[-121,-75,214,-210,89,90,91,92,93,-85,-89,-153,-152,212,238,-103,-66,-229,239,-192,-122]]],"properties":{"name":"菅馬場"}},{"type":"MultiPolygon","arcs":[[[227,228,-65,-64,103,104,105,131,132,133]]],"properties":{"name":"菅稲田堤"}},{"type":"Polygon","arcs":[[-58,108,109,110]],"properties":{"name":"菅城下"}},{"type":"MultiPolygon","arcs":[[[116,182,181,114,-274,-178,302]]],"properties":{"name":"堰"}},{"type":"MultiPolygon","arcs":[[[-79,-45,-44,-123,191,192,243,244,225,-224,137,-19,135,-32,-31,123,-81,-80]]],"properties":{"name":"中野島"}},{"type":"MultiPolygon","arcs":[[[-25,-50,-37,-47,-78,-77,-130,-129,-13,-172,-171,-216,199,-166,200,-157,201,202,-305,145,141,142,-27,-26]]],"properties":{"name":"枡形"}},{"type":"MultiPolygon","arcs":[[[-312,-309,-42,-22,-28,-143,-266,205,206,155,156,157,158,159,160,161,162]]],"properties":{"name":"三田"}},{"type":"MultiPolygon","arcs":[[[-68,216,218,219,168,165,-200,215,170,171,-12,-69]]],"properties":{"name":"東生田"}},{"type":"Polygon","arcs":[[-98,172,-132,-106,173]],"properties":{"name":"菅野戸呂"}},{"type":"MultiPolygon","arcs":[[[-290,-276,184,196,197,-160,-159,198,315,187,312]]],"properties":{"name":"長沢"}},{"type":"MultiPolygon","arcs":[[[-197,-185,275,289,290,301,299,294,-254,295,-282,-281,-287,-286,306,190,-162,-161,-198]]],"properties":{"name":"南生田"}},{"type":"MultiPolygon","arcs":[[[-7,208,-90,209,-215,-74,-8]]],"properties":{"name":"寺尾台"}},{"type":"Polygon","arcs":[[-33,-136,-18,-4,-131,-83]],"properties":{"name":"登戸新町"}},{"type":"Polygon","arcs":[[222,-20,-138,223]],"properties":{"name":"和泉"}},{"type":"MultiPolygon","arcs":[[[-73,-72,236,-257,263,-273,303,240,258,267,-219,-217,-67]]],"properties":{"name":"長尾"}},{"type":"MultiPolygon","arcs":[[[265,-142,-146,304,-203,-202,-156,-207,-206]]],"properties":{"name":"東三田"}},{"type":"MultiPolygon","arcs":[[[316,313,292,-92,-91,-209,-11,-39,-308,251,252,253,-295,-300]]],"properties":{"name":"西生田"}},{"type":"Polygon","arcs":[[-240,-228,-134,257,-244,-193]],"properties":{"name":"布田"}},{"type":"MultiPolygon","arcs":[[[-252,307,-38,308,311,-163,-191,-307,285,286,280,281,-296,-253]]],"properties":{"name":"栗谷"}}]}},"arcs":[[[139.51754028120803,35.62958760590944],[139.51754028120803,35.62958760590944]],[[139.5716247024143,35.62000757010028],[139.5695280073437,35.62116094050482]],[[139.5695280073437,35.62116094050482],[139.56944207721787,35.621189186310644]],[[139.56944207721787,35.621189186310644],[139.57012951822463,35.62216837424593]],[[139.57012951822463,35.62216837424593],[139.5711434937096,35.62360891034304]],[[139.5711434937096,35.62360891034304],[139.5721918412449,35.620596024388306],[139.5716247024143,35.62000757010028]],[[139.53342876147659,35.61634032297726],[139.5352504801445,35.61673105662451],[139.5360840023652,35.618317529385045]],[[139.5360840023652,35.618317529385045],[139.5378885350079,35.61988987924267]],[[139.5378885350079,35.61988987924267],[139.53885095241736,35.61752664682193],[139.5415921234318,35.617964456812224]],[[139.5415921234318,35.617964456812224],[139.5396501025877,35.61588368244975]],[[139.5396501025877,35.61588368244975],[139.53476067842718,35.615554148048446],[139.53342876147659,35.61634032297726]],[[139.56879760127404,35.61347337368596],[139.56228409773504,35.61620380158244]],[[139.56228409773504,35.61620380158244],[139.56221535363437,35.616269708462696]],[[139.56221535363437,35.616269708462696],[139.56779221880166,35.618910691307384],[139.5695280073437,35.62116094050482]],[[139.5716247024143,35.62000757010028],[139.5740565249757,35.61768670638828]],[[139.5740565249757,35.61768670638828],[139.57269882898737,35.61628853899991],[139.5690382056264,35.615459995362365],[139.56879760127404,35.61347337368596]],[[139.57101459852083,35.62397610581877],[139.5711434937096,35.62360891034304]],[[139.57012951822463,35.62216837424593],[139.566503266914,35.62483760289645],[139.5655150704668,35.62643349092559],[139.56332385225778,35.62737031015214]],[[139.56332385225778,35.62737031015214],[139.56334963129552,35.62737501778644]],[[139.56334963129552,35.62737501778644],[139.56541195431578,35.62766689111331]],[[139.56541195431578,35.62766689111331],[139.56840232269516,35.6263346306052],[139.57101459852083,35.62397610581877]],[[139.54519259570466,35.61525285945297],[139.5447887241132,35.61522461364715]],[[139.5447887241132,35.61522461364715],[139.5441184691316,35.618599987443304]],[[139.5441184691316,35.618599987443304],[139.54745255801436,35.61835048282518]],[[139.54745255801436,35.61835048282518],[139.5494203578962,35.61820454616174]],[[139.5494203578962,35.61820454616174],[139.5514654948913,35.61845875841418],[139.55064915869576,35.61545528772806]],[[139.55064915869576,35.61545528772806],[139.54998749672677,35.61544116482514]],[[139.54998749672677,35.61544116482514],[139.54519259570466,35.61525285945297]],[[139.56355586359754,35.622446124669885],[139.55968041492198,35.62565202363108]],[[139.55968041492198,35.62565202363108],[139.5608748436712,35.62742680176379]],[[139.5608748436712,35.62742680176379],[139.56102092488516,35.62751624681557]],[[139.56102092488516,35.62751624681557],[139.56246455099932,35.627403263592264]],[[139.56246455099932,35.627403263592264],[139.5625848531755,35.62441862344337],[139.56355586359754,35.622446124669885]],[[139.5475900462157,35.620789037394786],[139.5440239459932,35.62219662005176]],[[139.5440239459932,35.62219662005176],[139.54541601403184,35.62383016915533]],[[139.54541601403184,35.62383016915533],[139.5514569018787,35.62128333899673]],[[139.5514569018787,35.62128333899673],[139.5475900462157,35.620789037394786]],[[139.539933672003,35.61416539592869],[139.53997663706593,35.61473972731381]],[[139.53997663706593,35.61473972731381],[139.5396501025877,35.61588368244975]],[[139.5415921234318,35.617964456812224],[139.54162649548212,35.618020948423876]],[[139.54162649548212,35.618020948423876],[139.5423569015518,35.61733834144976],[139.5441184691316,35.618599987443304]],[[139.5447887241132,35.61522461364715],[139.539933672003,35.61416539592869]],[[139.54541601403184,35.62383016915533],[139.54679089604537,35.625331904498395]],[[139.54679089604537,35.625331904498395],[139.5468166750831,35.62532248922979]],[[139.5468166750831,35.62532248922979],[139.549961717689,35.624154995922325]],[[139.549961717689,35.624154995922325],[139.553270027534,35.62182942457603]],[[139.553270027534,35.62182942457603],[139.5514569018787,35.62128333899673]],[[139.54162649548212,35.618020948423876],[139.5427951451936,35.622257819297715]],[[139.5427951451936,35.622257819297715],[139.5440239459932,35.62219662005176]],[[139.5475900462157,35.620789037394786],[139.54745255801436,35.61835048282518]],[[139.52750817580593,35.62729028036897],[139.5252052484333,35.62798230261169],[139.5247068537034,35.62680539403563]],[[139.5247068537034,35.62680539403563],[139.52346945989126,35.6286507866829],[139.52529117855914,35.63023725944343],[139.5287541626307,35.63073156104538]],[[139.5287541626307,35.63073156104538],[139.53007748656867,35.629874771602005]],[[139.53007748656867,35.629874771602005],[139.52750817580593,35.62729028036897]],[[139.5247068537034,35.62680539403563],[139.5226617167083,35.62612278706151]],[[139.5226617167083,35.62612278706151],[139.5204619054867,35.62761510713596],[139.52137276482065,35.63007249224278],[139.52033301029795,35.63091045114894]],[[139.52033301029795,35.63091045114894],[139.52329759963956,35.63218622004539],[139.52363272713038,35.63306654766029]],[[139.52363272713038,35.63306654766029],[139.5267090256356,35.63138592221367],[139.52865104647967,35.63138592221367]],[[139.52865104647967,35.63138592221367],[139.52865963949225,35.631357676407845]],[[139.52865963949225,35.631357676407845],[139.5287541626307,35.63073156104538]],[[139.54090468242504,35.631334138236326],[139.53922904497108,35.63110817178972],[139.53426228369727,35.63214385133666]],[[139.53426228369727,35.63214385133666],[139.53423650465953,35.63213443606805]],[[139.53423650465953,35.63213443606805],[139.5349669107292,35.633593802702364]],[[139.5349669107292,35.633593802702364],[139.53798305814632,35.632906488093944]],[[139.53798305814632,35.632906488093944],[139.54227097142595,35.63198379177031]],[[139.54227097142595,35.63198379177031],[139.54090468242504,35.631334138236326]],[[139.57015529726237,35.6122964651099],[139.56787814892752,35.60963194409369]],[[139.56787814892752,35.60963194409369],[139.5676633236129,35.61054051751441]],[[139.5676633236129,35.61054051751441],[139.56879760127404,35.61347337368596]],[[139.5740565249757,35.61768670638828],[139.5775281020598,35.616184971045215]],[[139.5775281020598,35.616184971045215],[139.57630789427282,35.61213169790925]],[[139.57630789427282,35.61213169790925],[139.57622196414698,35.61213640554355]],[[139.57622196414698,35.61213640554355],[139.57015529726237,35.6122964651099]],[[139.5378885350079,35.61988987924267],[139.5388337663922,35.622902765197395]],[[139.5388337663922,35.622902765197395],[139.53945246329826,35.62432447075728]],[[139.53945246329826,35.62432447075728],[139.5427951451936,35.622257819297715]],[[139.55831412592107,35.6178232277831],[139.55775558010308,35.618967182919036],[139.55462772352234,35.62103383437861]],[[139.55462772352234,35.62103383437861],[139.553270027534,35.62182942457603]],[[139.549961717689,35.624154995922325],[139.55280600485446,35.62546842589322]],[[139.55280600485446,35.62546842589322],[139.55606275662393,35.62751624681557],[139.55827116085814,35.62729498800327]],[[139.55827116085814,35.62729498800327],[139.55947418261997,35.625896820614905]],[[139.55947418261997,35.625896820614905],[139.55968041492198,35.62565202363108]],[[139.56355586359754,35.622446124669885],[139.56450968799442,35.62210246736567]],[[139.56450968799442,35.62210246736567],[139.55831412592107,35.6178232277831]],[[139.53049854418532,35.62378780044659],[139.52750817580593,35.624103211944984]],[[139.52750817580593,35.624103211944984],[139.52750817580593,35.62729028036897]],[[139.53007748656867,35.629874771602005],[139.53233744887837,35.629187456993584]],[[139.53233744887837,35.629187456993584],[139.53103131096555,35.626339338239504],[139.53201950741274,35.62513889149192]],[[139.53201950741274,35.62513889149192],[139.53049854418532,35.62378780044659]],[[139.53345454051436,35.620247659449795],[139.5309883459026,35.61711708263746]],[[139.5309883459026,35.61711708263746],[139.53088522975162,35.61709825210024]],[[139.53088522975162,35.61709825210024],[139.52838466308955,35.6169334848996],[139.52599580559107,35.61795974917792]],[[139.52599580559107,35.61795974917792],[139.52534273663466,35.61901425926208]],[[139.52534273663466,35.61901425926208],[139.52721601337808,35.62226723456632],[139.52750817580593,35.624103211944984]],[[139.53049854418532,35.62378780044659],[139.53168437992196,35.622563815527485],[139.53170156594712,35.62053482514235],[139.53345454051436,35.620247659449795]],[[139.5258239453394,35.6365031207024],[139.52328900662698,35.638555649259054]],[[139.52328900662698,35.638555649259054],[139.52440609826297,35.64149321306491]],[[139.52440609826297,35.64149321306491],[139.52799797752326,35.639920863207294]],[[139.52799797752326,35.639920863207294],[139.52657153743422,35.63806605529141]],[[139.52657153743422,35.63806605529141],[139.5258239453394,35.6365031207024]],[[139.53826662756163,35.62933810129132],[139.53427946972246,35.632129728433746]],[[139.53427946972246,35.632129728433746],[139.53426228369727,35.63214385133666]],[[139.54090468242504,35.631334138236326],[139.54105935665154,35.630562086210425],[139.53826662756163,35.62933810129132]],[[139.5349669107292,35.633593802702364],[139.53274132046985,35.63452591429461]],[[139.53274132046985,35.63452591429461],[139.53460600420067,35.63767532164416]],[[139.53460600420067,35.63767532164416],[139.53539656135843,35.63752467734643]],[[139.53539656135843,35.63752467734643],[139.5362386765917,35.63727046509399],[139.53867909216567,35.6335231881878]],[[139.53867909216567,35.6335231881878],[139.53798305814632,35.632906488093944]],[[139.52363272713038,35.63306654766029],[139.52219769402876,35.634389392899784],[139.52106341636764,35.63761883003251],[139.5223953333182,35.637468185734775]],[[139.5223953333182,35.637468185734775],[139.52296247214878,35.63758587659238],[139.52690666492504,35.63348552711337]],[[139.52690666492504,35.63348552711337],[139.52865104647967,35.63138592221367]],[[139.53057588129857,35.63369737065706],[139.5258239453394,35.6365031207024]],[[139.52657153743422,35.63806605529141],[139.53274132046985,35.63452591429461]],[[139.53274132046985,35.63452591429461],[139.53057588129857,35.63369737065706]],[[139.58987626114362,35.61197634597721],[139.59076134143982,35.613529865297615]],[[139.59076134143982,35.613529865297615],[139.59310723387534,35.614259548614775],[139.59736936811723,35.61336509809696],[139.59968948151501,35.61399592109374]],[[139.59968948151501,35.61399592109374],[139.60012772515682,35.61200929941734]],[[139.60012772515682,35.61200929941734],[139.59471412722863,35.612936703375276],[139.58987626114362,35.61197634597721]],[[139.52534273663466,35.61901425926208],[139.52426001704902,35.62113269469899]],[[139.52426001704902,35.62113269469899],[139.5226617167083,35.62612278706151]],[[139.53945246329826,35.62432447075728],[139.53989929995265,35.62605217254694],[139.5419616229729,35.626894839087406]],[[139.5419616229729,35.626894839087406],[139.54326776088575,35.62804820949195],[139.54501214244038,35.62793993390295]],[[139.54501214244038,35.62793993390295],[139.54679089604537,35.625331904498395]],[[139.5608748436712,35.62742680176379],[139.55947418261997,35.625896820614905]],[[139.55827116085814,35.62729498800327],[139.55560732695696,35.62903210506154],[139.5538801314275,35.62939930053727]],[[139.5538801314275,35.62939930053727],[139.5546449095475,35.630995188566416]],[[139.5546449095475,35.630995188566416],[139.56066861136918,35.6306515312622],[139.56176851697998,35.62858487980264]],[[139.56176851697998,35.62858487980264],[139.56102092488516,35.62751624681557]],[[139.56221535363437,35.616269708462696],[139.5583399049588,35.617776151440054]],[[139.5583399049588,35.617776151440054],[139.55831412592107,35.6178232277831]],[[139.56450968799442,35.62210246736567],[139.56944207721787,35.621189186310644]],[[139.53539656135843,35.63752467734643],[139.53420213260918,35.63899816688366],[139.53467474830134,35.640146829653894]],[[139.53467474830134,35.640146829653894],[139.53582621198765,35.63946893031408],[139.5405867409594,35.63863097140793],[139.54534726993117,35.63735049487717]],[[139.54534726993117,35.63735049487717],[139.5443418874588,35.63527442814899]],[[139.5443418874588,35.63527442814899],[139.5419616229729,35.636037064906276],[139.53867909216567,35.6335231881878]],[[139.56332385225778,35.62737031015214],[139.56246455099932,35.627403263592264]],[[139.56176851697998,35.62858487980264],[139.56340118937104,35.62950286849197]],[[139.56340118937104,35.62950286849197],[139.56334963129552,35.62737501778644]],[[139.55280600485446,35.62546842589322],[139.5485954286881,35.62842011260199]],[[139.5485954286881,35.62842011260199],[139.54993593865126,35.63025608998065]],[[139.54993593865126,35.63025608998065],[139.5538801314275,35.62939930053727]],[[139.5514483088661,35.611627981038694],[139.54994453166384,35.61534701213906]],[[139.54994453166384,35.61534701213906],[139.54998749672677,35.61544116482514]],[[139.55064915869576,35.61545528772806],[139.55639788411474,35.61554944041414]],[[139.55639788411474,35.61554944041414],[139.5552636064536,35.61423601044326],[139.55528938549133,35.61239061779599]],[[139.55528938549133,35.61239061779599],[139.5514483088661,35.611627981038694]],[[139.5494203578962,35.61820454616174],[139.55017654300363,35.619221395171465],[139.55290912100546,35.61840697443683]],[[139.55290912100546,35.61840697443683],[139.55702517403338,35.61689111619086]],[[139.55702517403338,35.61689111619086],[139.55639788411474,35.61554944041414]],[[139.53233744887837,35.629187456993584],[139.53236322791614,35.629225118068014]],[[139.53236322791614,35.629225118068014],[139.53626445562946,35.627271449831746]],[[139.53626445562946,35.627271449831746],[139.53429665574762,35.62544018008739]],[[139.53429665574762,35.62544018008739],[139.53201950741274,35.62513889149192]],[[139.54178976272124,35.60539036558555],[139.54475435206285,35.607880704132505]],[[139.54475435206285,35.607880704132505],[139.5494203578962,35.61022039838172]],[[139.5494203578962,35.61022039838172],[139.54835482433572,35.606506074915664],[139.55091554208587,35.60642133749818]],[[139.55091554208587,35.60642133749818],[139.5511131813753,35.6044488387247]],[[139.5511131813753,35.6044488387247],[139.54917975354383,35.604321732598486]],[[139.54917975354383,35.604321732598486],[139.5444020385469,35.604265240986834],[139.54178976272124,35.60539036558555]],[[139.54178976272124,35.60539036558555],[139.54084453133694,35.60521618311629]],[[139.54084453133694,35.60521618311629],[139.5404320667329,35.60561162439785]],[[139.5404320667329,35.60561162439785],[139.54113669376483,35.61010270752411],[139.54029457853153,35.611901023828345]],[[139.54029457853153,35.611901023828345],[139.54033754359446,35.61190573146265]],[[139.54033754359446,35.61190573146265],[139.5420303670736,35.61081356030406],[139.54407550406867,35.61099245040762]],[[139.54407550406867,35.61099245040762],[139.54475435206285,35.607880704132505]],[[139.5622067606218,35.60451945323926],[139.56218957459663,35.60656727416162],[139.5639683282016,35.60738640253056]],[[139.5639683282016,35.60738640253056],[139.5640714443526,35.60737698726195]],[[139.5640714443526,35.60737698726195],[139.56609080230996,35.60508436935577],[139.56779221880166,35.60420874937518]],[[139.56779221880166,35.60420874937518],[139.5668298013922,35.6023445261907],[139.56444094389374,35.60474541968587],[139.56294575970406,35.603403743909155],[139.56188881915617,35.60414284249492],[139.563650386736,35.6054421495629],[139.5624129929238,35.60604943438815],[139.5622067606218,35.60451945323926]],[[139.5676633236129,35.61054051751441],[139.56505104778725,35.61302614842706]],[[139.56505104778725,35.61302614842706],[139.5612615292375,35.6158318984724]],[[139.5612615292375,35.6158318984724],[139.56228409773504,35.61620380158244]],[[139.52440609826297,35.64149321306491],[139.5253255506095,35.642820765938716],[139.53103131096555,35.64189806961508],[139.53467474830134,35.640146829653894]],[[139.53460600420067,35.63767532164416],[139.53248353009232,35.636964468864214],[139.52799797752326,35.639920863207294]],[[139.59057229516296,35.613732293572696],[139.58748740364513,35.61408536614552]],[[139.58748740364513,35.61408536614552],[139.58637031200917,35.61521990601285],[139.58694604385232,35.62004993880901]],[[139.58694604385232,35.62004993880901],[139.5903316908106,35.618359898093786]],[[139.5903316908106,35.618359898093786],[139.59057229516296,35.613732293572696]],[[139.57753669507238,35.61618026341091],[139.5775281020598,35.616184971045215]],[[139.57101459852083,35.62397610581877],[139.5763766383735,35.62173527188994],[139.58002866872187,35.62188591618767]],[[139.58002866872187,35.62188591618767],[139.57753669507238,35.61618026341091]],[[139.5916979798115,35.61093595879597],[139.58987626114362,35.61197634597721]],[[139.60012772515682,35.61200929941734],[139.59828882046375,35.610766483961015],[139.5954359402857,35.61169388791895],[139.5916979798115,35.61093595879597]],[[139.53929778907175,35.59949640743662],[139.53921185894592,35.600842790847636]],[[139.53921185894592,35.600842790847636],[139.5416436815073,35.6016807497538]],[[139.5416436815073,35.6016807497538],[139.54493480532713,35.60209031393826]],[[139.54493480532713,35.60209031393826],[139.5425717268664,35.60094165116803],[139.54420439925744,35.598818508096805]],[[139.54420439925744,35.598818508096805],[139.54210770418686,35.597599230812],[139.53940090522278,35.598630202724635],[139.53929778907175,35.59949640743662]],[[139.5404320667329,35.60561162439785],[139.53882517337962,35.605870544284585]],[[139.53882517337962,35.605870544284585],[139.54028598551895,35.610700577080756]],[[139.54028598551895,35.610700577080756],[139.54029457853153,35.611901023828345]],[[139.54501214244038,35.62793993390295],[139.54498636340264,35.631357676407845]],[[139.54498636340264,35.631357676407845],[139.5482001501092,35.6306468236279]],[[139.5482001501092,35.6306468236279],[139.54993593865126,35.63025608998065]],[[139.5485954286881,35.62842011260199],[139.5468166750831,35.62532248922979]],[[139.54699712834739,35.60303184079912],[139.54493480532713,35.60209031393826]],[[139.5416436815073,35.6016807497538],[139.54106794966415,35.603337837028896]],[[139.54106794966415,35.603337837028896],[139.54084453133694,35.60521618311629]],[[139.54917975354383,35.604321732598486],[139.54699712834739,35.60303184079912]],[[139.56278249246495,35.61016861440437],[139.5639683282016,35.60738640253056]],[[139.5622067606218,35.60451945323926],[139.56064283233144,35.60524442892212],[139.55927654333053,35.603107162947985],[139.55589948938484,35.60435468603861],[139.55601979156103,35.605385657951246],[139.5537598292513,35.60509378462438],[139.55268570267827,35.603657956161584],[139.5511131813753,35.6044488387247]],[[139.55091554208587,35.60642133749818],[139.55165454116815,35.607179266621166]],[[139.55165454116815,35.607179266621166],[139.55401761962887,35.608511527129274],[139.55516908331515,35.60764061478299],[139.5561400937372,35.60895404475387]],[[139.5561400937372,35.60895404475387],[139.56007569350086,35.61015449150146],[139.56278249246495,35.61016861440437]],[[139.54407550406867,35.61099245040762],[139.5467135589321,35.61127490846587]],[[139.5467135589321,35.61127490846587],[139.5470486864229,35.610145076232854],[139.5495234740472,35.61026276709046]],[[139.5495234740472,35.61026276709046],[139.5494203578962,35.61022039838172]],[[139.55462772352234,35.62103383437861],[139.55290912100546,35.61840697443683]],[[139.53342876147659,35.61634032297726],[139.5309883459026,35.61711708263746]],[[139.53345454051436,35.620247659449795],[139.53626445562946,35.62303928659222]],[[139.53626445562946,35.62303928659222],[139.53514736399347,35.620407719016136],[139.53659958312025,35.61947089978959],[139.5360840023652,35.618317529385045]],[[139.53626445562946,35.62303928659222],[139.53649646696923,35.62440920817476],[139.53429665574762,35.62544018008739]],[[139.53626445562946,35.627271449831746],[139.53829240659937,35.629323978388406]],[[139.53829240659937,35.629323978388406],[139.5419616229729,35.626894839087406]],[[139.5388337663922,35.622902765197395],[139.53868768517825,35.62375013937216],[139.53626445562946,35.62303928659222]],[[139.56278249246495,35.61016861440437],[139.56505104778725,35.61302614842706]],[[139.56787814892752,35.60963194409369],[139.56728523105917,35.60826202251115]],[[139.56728523105917,35.60826202251115],[139.5640714443526,35.60737698726195]],[[139.56728523105917,35.60826202251115],[139.56796407905335,35.606623765773264]],[[139.56796407905335,35.606623765773264],[139.56779221880166,35.60420874937518]],[[139.52690666492504,35.63348552711337],[139.53057588129857,35.63369737065706]],[[139.53423650465953,35.63213443606805],[139.52865963949225,35.631357676407845]],[[139.56254188811258,35.63148949016836],[139.56630562762456,35.62961114408096],[139.56541195431578,35.62766689111331]],[[139.56340118937104,35.62950286849197],[139.56254188811258,35.63148949016836]],[[139.5546449095475,35.630995188566416],[139.55606275662393,35.634041027961274]],[[139.55606275662393,35.634041027961274],[139.55749778972555,35.63413047301305],[139.5625504811252,35.63231332617161],[139.56254188811258,35.63148949016836]],[[139.52426001704902,35.62113269469899],[139.51966275531638,35.621311584802555],[139.51707625852845,35.62262501477344],[139.51679268911317,35.623966690550155],[139.51480770320617,35.62497412429127],[139.51669816597473,35.626974868870576],[139.51696454936487,35.62974766547579],[139.52033301029795,35.63091045114894]],[[139.5443418874588,35.63527442814899],[139.54393801586733,35.6330759629289]],[[139.54393801586733,35.6330759629289],[139.54227097142595,35.63198379177031]],[[139.57593839473168,35.610079169352595],[139.57337767698152,35.61025805945616],[139.57015529726237,35.6122964651099]],[[139.57622196414698,35.61213640554355],[139.57593839473168,35.610079169352595]],[[139.58237456115742,35.61433016312934],[139.57753669507238,35.61618026341091]],[[139.58002866872187,35.62188591618767],[139.58296747902574,35.62142927566016]],[[139.58296747902574,35.62142927566016],[139.58197068956594,35.61684403984781],[139.58307918818934,35.61514458386397],[139.58237456115742,35.61433016312934]],[[139.58186757341494,35.609528376139],[139.58186757341494,35.60952366850469]],[[139.58186757341494,35.60952366850469],[139.57593839473168,35.610079169352595]],[[139.57630789427282,35.61213169790925],[139.58002007570929,35.61194810017138]],[[139.58002007570929,35.61194810017138],[139.58186757341494,35.609528376139]],[[139.53829240659937,35.629323978388406],[139.53826662756163,35.62933810129132]],[[139.54393801586733,35.6330759629289],[139.54498636340264,35.631357676407845]],[[139.57997711064635,35.605493933540245],[139.5774249859088,35.605724607621156],[139.57722734661934,35.606543735990094]],[[139.57722734661934,35.606543735990094],[139.5779749387142,35.60805017896746],[139.57993414558345,35.609283579155175],[139.58222847994347,35.60914235012605]],[[139.58222847994347,35.60914235012605],[139.58405019861138,35.608718663038665],[139.57997711064635,35.605493933540245]],[[139.5482001501092,35.6306468236279],[139.54856964965035,35.632746428527604],[139.550520263507,35.632073236822094],[139.55082101894746,35.63400336688684]],[[139.55082101894746,35.63400336688684],[139.55606275662393,35.634041027961274]],[[139.5495234740472,35.61026276709046],[139.55133659970252,35.61075706869241]],[[139.55133659970252,35.61075706869241],[139.55165454116815,35.607179266621166]],[[139.5270785251767,35.609067027977176],[139.5259270614904,35.61004621591246]],[[139.5259270614904,35.61004621591246],[139.52761988496954,35.6145090532329],[139.52684651383694,35.614946863223196]],[[139.52684651383694,35.614946863223196],[139.52920959229766,35.61470677387368]],[[139.52920959229766,35.61470677387368],[139.5327069484195,35.61446197688986]],[[139.5327069484195,35.61446197688986],[139.53271554143208,35.61434899366655]],[[139.53271554143208,35.61434899366655],[139.5317617170352,35.611764502433516]],[[139.5317617170352,35.611764502433516],[139.5270785251767,35.609067027977176]],[[139.58237456115742,35.61433016312934],[139.5827096886482,35.61418422646591]],[[139.5827096886482,35.61418422646591],[139.58314793229002,35.61182099404517]],[[139.58314793229002,35.61182099404517],[139.5804583193511,35.61272956746589],[139.58002007570929,35.61194810017138]],[[139.54534726993117,35.63735049487717],[139.54744396500178,35.63685148564092],[139.5491281954683,35.63436114709396],[139.55082101894746,35.63400336688684]],[[139.57722734661934,35.606543735990094],[139.5754829650647,35.60736757199334]],[[139.5754829650647,35.60736757199334],[139.57593839473168,35.610079169352595]],[[139.58186757341494,35.60952366850469],[139.58222847994347,35.60914235012605]],[[139.5223953333182,35.637468185734775],[139.52328900662698,35.638555649259054]],[[139.58693745083974,35.609740219682685],[139.58186757341494,35.609528376139]],[[139.58314793229002,35.61182099404517],[139.58693745083974,35.609740219682685]],[[139.53236322791614,35.629225118068014],[139.53427946972246,35.632129728433746]],[[139.5467135589321,35.61127490846587],[139.54829467324763,35.61525285945297],[139.54994453166384,35.61534701213906]],[[139.5514483088661,35.611627981038694],[139.55133659970252,35.61075706869241]],[[139.5754829650647,35.60736757199334],[139.5732917468557,35.607249881135736],[139.57181374869117,35.60496197086386],[139.56796407905335,35.606623765773264]],[[139.58296747902574,35.62142927566016],[139.58694604385232,35.62004993880901]],[[139.58748740364513,35.61408536614552],[139.5827096886482,35.61418422646591]],[[139.55702517403338,35.61689111619086],[139.5583399049588,35.617776151440054]],[[139.5612615292375,35.6158318984724],[139.55639788411474,35.61554944041414]],[[139.5877451940227,35.60815845455645],[139.58693745083974,35.609740219682685]],[[139.59057229516296,35.613732293572696],[139.59076134143982,35.613529865297615]],[[139.5916979798115,35.61093595879597],[139.591646421736,35.60830909885419],[139.5877451940227,35.60815845455645]],[[139.53921185894592,35.600842790847636],[139.53921185894592,35.60097931224246]],[[139.53921185894592,35.60097931224246],[139.53642772286855,35.60276350564377]],[[139.53642772286855,35.60276350564377],[139.53549108449687,35.60458065248522]],[[139.53549108449687,35.60458065248522],[139.53581761897507,35.604952555595254]],[[139.53581761897507,35.604952555595254],[139.53707219881238,35.60361558745284],[139.54106794966415,35.603337837028896]],[[139.53217418163928,35.60696742307748],[139.5321484026015,35.606962715443174]],[[139.5321484026015,35.606962715443174],[139.53181327511072,35.6084267897118],[139.53277569252018,35.611034819116355]],[[139.53277569252018,35.611034819116355],[139.5352934452074,35.61066291600632]],[[139.5352934452074,35.61066291600632],[139.53664254818318,35.610050923546765]],[[139.53664254818318,35.610050923546765],[139.53675425734676,35.60885518443349]],[[139.53675425734676,35.60885518443349],[139.53515595700605,35.607706521663246]],[[139.53515595700605,35.607706521663246],[139.53217418163928,35.60696742307748]],[[139.53101412494038,35.6015724741648],[139.53310222699838,35.60281999725542]],[[139.53310222699838,35.60281999725542],[139.53642772286855,35.60276350564377]],[[139.53921185894592,35.60097931224246],[139.53814632538544,35.60089928245929],[139.5319421702995,35.59852663476994]],[[139.5319421702995,35.59852663476994],[139.5303352769462,35.599129211960886],[139.53101412494038,35.6015724741648]],[[139.52684651383694,35.614946863223196],[139.52343508784094,35.61434899366655]],[[139.52343508784094,35.61434899366655],[139.52599580559107,35.61795974917792]],[[139.53088522975162,35.61709825210024],[139.5310656830159,35.61586014427822],[139.52920959229766,35.61470677387368]],[[139.5274738037556,35.60609180309689],[139.5270785251767,35.609067027977176]],[[139.5317617170352,35.611764502433516],[139.53277569252018,35.611034819116355]],[[139.5321484026015,35.606962715443174],[139.5274738037556,35.60609180309689]],[[139.53271554143208,35.61434899366655],[139.53504424784248,35.61264953768272],[139.5352934452074,35.61066291600632]],[[139.53581761897507,35.604952555595254],[139.53882517337962,35.605870544284585]],[[139.52574660822614,35.604806618931825],[139.52806672162393,35.604914894520824],[139.5274738037556,35.60609180309689]],[[139.53217418163928,35.60696742307748],[139.53310222699838,35.60281999725542]],[[139.53101412494038,35.6015724741648],[139.5305586952734,35.60244809414539],[139.525480224836,35.60377564701919],[139.52574660822614,35.604806618931825]],[[139.5903316908106,35.618359898093786],[139.5928580365104,35.6174889857475],[139.59714594979002,35.61847758895139],[139.59968948151501,35.61399592109374]],[[139.5877451940227,35.60815845455645],[139.58450562827835,35.60618595578297],[139.5850899531341,35.604575944850914],[139.58273546768595,35.605413903757075],[139.57997711064635,35.605493933540245]],[[139.55528938549133,35.61239061779599],[139.5561400937372,35.60895404475387]],[[139.53549108449687,35.60458065248522],[139.53427087670988,35.60589408245611],[139.53515595700605,35.607706521663246]],[[139.53675425734676,35.60885518443349],[139.54028598551895,35.610700577080756]],[[139.5327069484195,35.61446197688986],[139.53997663706593,35.61473972731381]],[[139.539933672003,35.61416539592869],[139.53951261438635,35.613487496588874]],[[139.53951261438635,35.613487496588874],[139.53812913936028,35.61326623777658],[139.5377338607814,35.61088417481862],[139.53664254818318,35.610050923546765]],[[139.54407550406867,35.61099245040762],[139.54519259570466,35.61525285945297]],[[139.53951261438635,35.613487496588874],[139.54033754359446,35.61190573146265]],[[139.53929778907175,35.59949640743662],[139.53840411576297,35.5970437299641],[139.5371151638753,35.59574913053043],[139.53641912985597,35.59663887341394],[139.53070477648734,35.59728852694792],[139.5319421702995,35.59852663476994]],[[139.52358116905486,35.609391854744175],[139.52343508784094,35.61434899366655]],[[139.5259270614904,35.61004621591246],[139.52533414362208,35.60856331110662],[139.52358116905486,35.609391854744175]],[[139.54699712834739,35.60303184079912],[139.54704009341032,35.60217034372144],[139.54970392731147,35.60230686511626],[139.54741818596403,35.600075446456046],[139.54420439925744,35.598818508096805]],[[139.52574660822614,35.604806618931825],[139.52407956378477,35.60586112901598],[139.52358116905486,35.609391854744175]]]}