{"type":"Topology","bbox":[139.58636966726718,35.560294556120766,139.64320108287166,35.6185713653634],"objects":{"town":{"type":"GeometryCollection","geometries":[{"type":"MultiPolygon","arcs":[[[182,142,23,24,25,143,162,-134,-153,-152,-69,3,4,5,0,6,7,8,9,10]]],"properties":{"name":"溝口"}},{"type":"MultiPolygon","arcs":[[[-191,-188,13,153,18,19,20,21,16,148,-48,149,150,-25,-24,-143,-183,-11]]],"properties":{"name":"久地"}},{"type":"MultiPolygon","arcs":[[[-213,204,-5,-68,-33,-50,29,30,31,213,-185]]],"properties":{"name":"坂戸"}},{"type":"MultiPolygon","arcs":[[[151,152,133,-163,-144,-26,-151,172,173,135,136,65,66,62,36,37,32,67,-4,68]]],"properties":{"name":"二子"}},{"type":"MultiPolygon","arcs":[[[-100,116,42,38,39,103,104,-101]]],"properties":{"name":"久末"}},{"type":"MultiPolygon","arcs":[[[214,-203,43,44,216]]],"properties":{"name":"下野毛"}},{"type":"Polygon","arcs":[[47,48]],"properties":{"name":"宇奈根"}},{"type":"MultiPolygon","arcs":[[[-169,201,-44,202,203,-31,-30,49,-38,-37,-63,-211,-170]]],"properties":{"name":"北見方"}},{"type":"MultiPolygon","arcs":[[[106,-180,194,-78,195,171,-73,-72,-71,114,115,55,56,57,58,59,52,129,-89,-88,-159,109,110]]],"properties":{"name":"新作"}},{"type":"Polygon","arcs":[[60,61]],"properties":{"name":"明津"}},{"type":"MultiPolygon","arcs":[[[207,74,75,183,184,185,-115,70,71,72,-172,-196,77,78,79,80,81,82,83,84]]],"properties":{"name":"末長"}},{"type":"MultiPolygon","arcs":[[[-104,-40,154,155,156,157,-110,158,87,88,89,-60,90,-58,91,92,93,94,159,-139,160]]],"properties":{"name":"千年"}},{"type":"MultiPolygon","arcs":[[[190,-10,-9,-8,127,-83,-82,-123,206,-178,-198,193,97,111,112,-21,-20,-19,-154,-14,187]]],"properties":{"name":"下作延"}},{"type":"Polygon","arcs":[[99,100,101,-62,102]],"properties":{"name":"蟹ケ谷"}},{"type":"MultiPolygon","arcs":[[[118,198,121,122,-81,-80,-79,-195,179,-107,180,130]]],"properties":{"name":"梶ケ谷"}},{"type":"MultiPolygon","arcs":[[[138,139]],[[-94,164]]],"properties":{"name":"子母口"}},{"type":"MultiPolygon","arcs":[[[210,-67,-66,-137,144,166,167,168,169]]],"properties":{"name":"諏訪"}},{"type":"MultiPolygon","arcs":[[[163,-157]],[[174,-155,-39]]],"properties":{"name":"野川"}},{"type":"Polygon","arcs":[[175,176,177]],"properties":{"name":"向ケ丘"}},{"type":"Polygon","arcs":[[-136,-174,181,-167,-145]],"properties":{"name":"瀬田"}},{"type":"Polygon","arcs":[[-92,-57,186]],"properties":{"name":"千年新町"}},{"type":"Polygon","arcs":[[-177,196,-112,-98,-194,197]],"properties":{"name":"上作延"}},{"type":"MultiPolygon","arcs":[[[-6,-205,212,-184,-76,-75,-208,-85,-84,-128,-7,-1]]],"properties":{"name":"久本"}}]}},"arcs":[[[139.61236127278366,35.59839974452244],[139.60987180783368,35.59930312540379]],[[139.60987180783368,35.59930312540379],[139.61362305638843,35.60151203736528]],[[139.61362305638843,35.60151203736528],[139.6153850064672,35.60112737195774]],[[139.6153850064672,35.60112737195774],[139.61720947735517,35.600358041142655]],[[139.61720947735517,35.600358041142655],[139.61720947735517,35.59920987318378]],[[139.61720947735517,35.59920987318378],[139.614737063535,35.59953042769006],[139.61477684950452,35.5984521988962],[139.61236127278366,35.59839974452244]],[[139.60987180783368,35.59930312540379],[139.60923523232137,35.59948962984381]],[[139.60923523232137,35.59948962984381],[139.60917839522205,35.600340556351405]],[[139.60917839522205,35.600340556351405],[139.60834857357207,35.60328965780923],[139.60710384109709,35.603505303568]],[[139.60710384109709,35.603505303568],[139.6075073845022,35.60387248418429]],[[139.6075073845022,35.60387248418429],[139.60881463778645,35.60516635873693]],[[139.60881463778645,35.60516635873693],[139.61362305638843,35.60151203736528]],[[139.60643316332516,35.60851761039355],[139.6045063856584,35.60789981443598],[139.60113594566906,35.60905381065861]],[[139.60113594566906,35.60905381065861],[139.6007778719434,35.60917037593362]],[[139.6007778719434,35.60917037593362],[139.60016971498072,35.609601667451166]],[[139.60016971498072,35.609601667451166],[139.60118709905845,35.6116998424014]],[[139.60118709905845,35.6116998424014],[139.60630812170666,35.61105873338883],[139.60862139164877,35.61181640767641]],[[139.60862139164877,35.61181640767641],[139.60643316332516,35.60851761039355]],[[139.59916938203278,35.60920534551612],[139.5967310704722,35.609764858836186],[139.5945996792479,35.60928694120864]],[[139.5945996792479,35.60928694120864],[139.5931332820856,35.608371903799785]],[[139.5931332820856,35.608371903799785],[139.5906779193952,35.608121288458506]],[[139.5906779193952,35.608121288458506],[139.5916498337935,35.60830779289853],[139.59135428087706,35.610551674442526],[139.59543518460782,35.61169401413765],[139.59828840699342,35.6107673202013],[139.60118709905845,35.6116998424014]],[[139.60016971498072,35.609601667451166],[139.59916938203278,35.60920534551612]],[[139.6105424856056,35.60614550704704],[139.61087214078162,35.607958097073485],[139.60999116574226,35.609386021692394]],[[139.60999116574226,35.609386021692394],[139.61427668303054,35.61055750270627],[139.61780058318806,35.60950841523116]],[[139.61780058318806,35.60950841523116],[139.61689687330895,35.60918203246112]],[[139.61689687330895,35.60918203246112],[139.6105424856056,35.60614550704704]],[[139.62691157020814,35.59380124442319],[139.62620679017664,35.59476873620579],[139.6232342098825,35.59554972354838]],[[139.6232342098825,35.59554972354838],[139.62377984603592,35.59862121854496]],[[139.62377984603592,35.59862121854496],[139.62940671886804,35.596126721659694]],[[139.62940671886804,35.596126721659694],[139.6293612491886,35.59608592381344]],[[139.6293612491886,35.59608592381344],[139.62886108271462,35.594646342667026],[139.62691157020814,35.59380124442319]],[[139.623774162326,35.598627046808716],[139.62047761056576,35.59894177305125],[139.61988650473288,35.600177364966385]],[[139.61988650473288,35.600177364966385],[139.62022752732878,35.601500380837784]],[[139.62022752732878,35.601500380837784],[139.62082431687156,35.60127307855151]],[[139.62082431687156,35.60127307855151],[139.6242970636397,35.60020650628514]],[[139.6242970636397,35.60020650628514],[139.6243368496092,35.600194849757635]],[[139.6243368496092,35.600194849757635],[139.623774162326,35.598627046808716]],[[139.61148598145422,35.56447342122998],[139.61465749159595,35.56567404356261],[139.61577718245246,35.56857069064667],[139.62104029784896,35.57227163812833]],[[139.62104029784896,35.57227163812833],[139.6210800838185,35.572230840282074]],[[139.6210800838185,35.572230840282074],[139.62240438823252,35.56935167798926],[139.62468923962496,35.567859642469095]],[[139.62468923962496,35.567859642469095],[139.62072769380273,35.56287064869855],[139.62092093994042,35.56219457010347]],[[139.62092093994042,35.56219457010347],[139.61760165334044,35.560306212648264],[139.61361168896858,35.5610580586721],[139.61148598145422,35.56447342122998]],[[139.63350467372862,35.59689022421102],[139.6327942099872,35.597787776828625],[139.63486876411216,35.59809667480741],[139.63626127304536,35.59979852782259],[139.63545986994504,35.600375525933906],[139.6365227237022,35.60328965780923]],[[139.6365227237022,35.60328965780923],[139.63976243836314,35.60024730413139],[139.64167784861002,35.59909913617252]],[[139.64167784861002,35.59909913617252],[139.64077982244086,35.596820285046014],[139.63862569637683,35.596429791374725]],[[139.63862569637683,35.596429791374725],[139.6357781577012,35.59753133322359],[139.63350467372862,35.59689022421102]],[[139.60886579117582,35.616432392566914],[139.60811554146488,35.61248082974399]],[[139.60811554146488,35.61248082974399],[139.60624560089744,35.61118695519134],[139.60381297304676,35.61190965989642],[139.60242046411358,35.61330261493283],[139.60053915612627,35.61266150592025],[139.5971459812972,35.61847811314339],[139.59902160557456,35.618542224044646],[139.6056431276447,35.615598950850575],[139.60886579117582,35.616432392566914]],[[139.62377984603592,35.59862121854496],[139.623774162326,35.598627046808716]],[[139.6243368496092,35.600194849757635],[139.62943513741772,35.599460488525054],[139.6314585381533,35.59789851383989]],[[139.6314585381533,35.59789851383989],[139.62940671886804,35.596126721659694]],[[139.62187011949896,35.58460424422468],[139.62186443578904,35.58460424422468]],[[139.62186443578904,35.58460424422468],[139.62183033352943,35.58656836910865]],[[139.62183033352943,35.58656836910865],[139.62829839543141,35.58673156049366]],[[139.62829839543141,35.58673156049366],[139.62833249769102,35.58471498123594]],[[139.62833249769102,35.58471498123594],[139.62711618376568,35.58468001165344]],[[139.62711618376568,35.58468001165344],[139.62619542275678,35.584668355125935]],[[139.62619542275678,35.584668355125935],[139.6251496201294,35.58465669859844]],[[139.6251496201294,35.58465669859844],[139.62187011949896,35.58460424422468]],[[139.63355014340806,35.56799952079911],[139.63580657625084,35.56943910194552],[139.6358520459303,35.57104770274069],[139.63983064288232,35.568337560096644],[139.63964308045456,35.56552250870509],[139.63833014346042,35.56495716712128],[139.63693763452721,35.566111163343905]],[[139.63693763452721,35.566111163343905],[139.63355014340806,35.56799952079911]],[[139.6243197984794,35.60027644545015],[139.6242970636397,35.60020650628514]],[[139.62082431687156,35.60127307855151],[139.620790214612,35.60522464137444]],[[139.620790214612,35.60522464137444],[139.62238165339278,35.606938150917124]],[[139.62238165339278,35.606938150917124],[139.62293297325613,35.60383168633803]],[[139.62293297325613,35.60383168633803],[139.6243197984794,35.60027644545015]],[[139.61988650473288,35.600177364966385],[139.61720947735517,35.600358041142655]],[[139.6153850064672,35.60112737195774],[139.61643080909457,35.60295161851169]],[[139.61643080909457,35.60295161851169],[139.62022752732878,35.601500380837784]],[[139.62646255712357,35.58871317016888],[139.62246122533182,35.588579120102615]],[[139.62246122533182,35.588579120102615],[139.6178290017377,35.58816531337632]],[[139.6178290017377,35.58816531337632],[139.61754481624112,35.58856746357512]],[[139.61754481624112,35.58856746357512],[139.61512355581033,35.59244325896929]],[[139.61512355581033,35.59244325896929],[139.61868724193735,35.59321258978437]],[[139.61868724193735,35.59321258978437],[139.61951137987742,35.592577309035555]],[[139.61951137987742,35.592577309035555],[139.62324557730236,35.59000121645777],[139.62646255712357,35.58871317016888]],[[139.6077972537087,35.58855580704761],[139.60755285418165,35.58876562454264]],[[139.60755285418165,35.58876562454264],[139.60459164130737,35.590916253866624]],[[139.60459164130737,35.590916253866624],[139.60133487551667,35.59194785655048]],[[139.60133487551667,35.59194785655048],[139.59916369832285,35.591592332461694]],[[139.59916369832285,35.591592332461694],[139.6017043166622,35.592757985211826]],[[139.6017043166622,35.592757985211826],[139.6042733535512,35.59489112974455],[139.6049212964834,35.596732861089755],[139.60943416216895,35.59566046055964]],[[139.60943416216895,35.59566046055964],[139.61125294934703,35.59485616016205]],[[139.61125294934703,35.59485616016205],[139.61167354388195,35.59426750552324]],[[139.61167354388195,35.59426750552324],[139.60930912055048,35.59295614617935],[139.61054816931554,35.59181380648422],[139.609763817345,35.58917943126893],[139.6077972537087,35.58855580704761]],[[139.62776412669785,35.57576276811496],[139.62618405533692,35.578263093263985],[139.6237400600664,35.57972015920164],[139.6219894774075,35.58171925366811],[139.6183348519216,35.583724176398334]],[[139.6183348519216,35.583724176398334],[139.61979556537398,35.584580931169675]],[[139.61979556537398,35.584580931169675],[139.6210289304291,35.58459258769718]],[[139.6210289304291,35.58459258769718],[139.62187011949896,35.58460424422468]],[[139.6251496201294,35.58465669859844],[139.62619542275678,35.584668355125935]],[[139.62711618376568,35.58468001165344],[139.6270650303763,35.58016893551044],[139.62948060709715,35.579516169970375]],[[139.62948060709715,35.579516169970375],[139.63016265228893,35.5774821059214]],[[139.63016265228893,35.5774821059214],[139.630156968579,35.5765379271938]],[[139.630156968579,35.5765379271938],[139.62776412669785,35.57576276811496]],[[139.5945996792479,35.60928694120864],[139.5981235794054,35.60527709574819],[139.60250571976255,35.602712659697914]],[[139.60250571976255,35.602712659697914],[139.6016872655324,35.59958288206382],[139.60022655208004,35.59909330790877]],[[139.60022655208004,35.59909330790877],[139.59851575539068,35.600002517053866]],[[139.59851575539068,35.600002517053866],[139.59993668287353,35.602001611520336],[139.59867489926876,35.60274180101667],[139.597077776778,35.601611117849046],[139.59611154608967,35.602427074774134],[139.59688453064035,35.603924938558045],[139.5950827945921,35.60700226181839],[139.59287751513867,35.60650103113583],[139.5931332820856,35.608371903799785]],[[139.6263602503448,35.562631689884775],[139.62768455475882,35.56344181854611],[139.62965680210505,35.56799952079911]],[[139.62965680210505,35.56799952079911],[139.6296340672653,35.568465781899164]],[[139.6296340672653,35.568465781899164],[139.63355014340806,35.56799952079911]],[[139.63693763452721,35.566111163343905],[139.63411851440122,35.56367494909614],[139.6334648877591,35.561489350189646],[139.63092995312968,35.56165254157467],[139.6288553990047,35.56274242689604],[139.6263602503448,35.562631689884775]],[[139.6210800838185,35.572230840282074],[139.62417202202118,35.57138574203823]],[[139.62417202202118,35.57138574203823],[139.6273037461934,35.56906026480173],[139.6296340672653,35.568465781899164]],[[139.62965680210505,35.56799952079911],[139.62468923962496,35.567859642469095]],[[139.61278186731857,35.58159686012935],[139.61129841902647,35.58368337855208]],[[139.61129841902647,35.58368337855208],[139.6142084785114,35.58500639442347]],[[139.6142084785114,35.58500639442347],[139.61754481624112,35.58400393305836]],[[139.61754481624112,35.58400393305836],[139.6154588946963,35.581690112349364]],[[139.6154588946963,35.581690112349364],[139.61278186731857,35.58159686012935]],[[139.59851575539068,35.600002517053866],[139.59649235465508,35.60098749362773],[139.5932071703147,35.60366849495302],[139.5928093106195,35.60497402603316],[139.5892456244925,35.605714215529495],[139.58920583852296,35.608045521029744]],[[139.58920583852296,35.608045521029744],[139.5906779193952,35.608121288458506]],[[139.62183033352943,35.58656836910865],[139.62246122533182,35.588579120102615]],[[139.62646255712357,35.58871317016888],[139.62734921587287,35.58846838309135]],[[139.62734921587287,35.58846838309135],[139.62829839543141,35.58673156049366]],[[139.6263602503448,35.562631689884775],[139.62456419800645,35.5615184915084],[139.62092093994042,35.56219457010347]],[[139.6055010348964,35.58611959279985],[139.60197713473892,35.585099646643485]],[[139.60197713473892,35.585099646643485],[139.6000958267516,35.586813156186174]],[[139.6000958267516,35.586813156186174],[139.6045973250173,35.58855580704761]],[[139.6045973250173,35.58855580704761],[139.6055010348964,35.58611959279985]],[[139.59969228334649,35.587559173946254],[139.59794170068758,35.590758890745356],[139.59859532732972,35.591399999757925]],[[139.59859532732972,35.591399999757925],[139.59916369832285,35.591592332461694]],[[139.60133487551667,35.59194785655048],[139.59969228334649,35.587559173946254]],[[139.6017043166622,35.592757985211826],[139.6027899052591,35.595234997305845]],[[139.6027899052591,35.595234997305845],[139.6057340670036,35.60110988716649]],[[139.6057340670036,35.60110988716649],[139.60917839522205,35.600340556351405]],[[139.60923523232137,35.59948962984381],[139.60943416216895,35.59566046055964]],[[139.61979556537398,35.584580931169675],[139.6178290017377,35.58816531337632]],[[139.62186443578904,35.58460424422468],[139.6210289304291,35.58459258769718]],[[139.60852476857994,35.58153857749184],[139.60439271145978,35.582919876000744],[139.60197713473892,35.585099646643485]],[[139.6055010348964,35.58611959279985],[139.60646726558474,35.58465669859844]],[[139.60646726558474,35.58465669859844],[139.60811554146488,35.583992276530864],[139.60852476857994,35.58153857749184]],[[139.6179938293257,35.60384334286554],[139.6175732347908,35.60542863060571]],[[139.6175732347908,35.60542863060571],[139.62189285433868,35.60791729922723],[139.6233251492414,35.60798723839224]],[[139.6233251492414,35.60798723839224],[139.62290455470648,35.60748600770969]],[[139.62290455470648,35.60748600770969],[139.62238165339278,35.606938150917124]],[[139.620790214612,35.60522464137444],[139.6179938293257,35.60384334286554]],[[139.62474607672428,35.57393269329726],[139.6257293585424,35.575261537432404]],[[139.6257293585424,35.575261537432404],[139.6264170874441,35.57403177378102],[139.62474607672428,35.57393269329726]],[[139.61711853799628,35.60568507421074],[139.6146120219165,35.60633201148706],[139.6128387044179,35.60464764326313]],[[139.6128387044179,35.60464764326313],[139.61038334172753,35.60605225482703]],[[139.61038334172753,35.60605225482703],[139.6105424856056,35.60614550704704]],[[139.61689687330895,35.60918203246112],[139.6179540433562,35.60614550704704],[139.61711853799628,35.60568507421074]],[[139.62290455470648,35.60748600770969],[139.62435958444894,35.60598814392577],[139.62702524440678,35.605819124277005]],[[139.62702524440678,35.605819124277005],[139.6258544001609,35.60405898862431]],[[139.6258544001609,35.60405898862431],[139.62293297325613,35.60383168633803]],[[139.60999116574226,35.609386021692394],[139.60643316332516,35.60851761039355]],[[139.60862139164877,35.61181640767641],[139.60811554146488,35.61248082974399]],[[139.60886579117582,35.616432392566914],[139.61217371035593,35.61586122271935],[139.61560098744457,35.61328513014157],[139.61831211708187,35.61369310860412],[139.62057991734451,35.61249831453524]],[[139.62057991734451,35.61249831453524],[139.6186076699983,35.61199125558893],[139.6191646735716,35.60978817189119],[139.61780058318806,35.60950841523116]],[[139.61643080909457,35.60295161851169],[139.61640239054492,35.602963275039194]],[[139.61640239054492,35.602963275039194],[139.6179938293257,35.60384334286554]],[[139.6007778719434,35.60917037593362],[139.59916938203278,35.60920534551612]],[[139.62104029784896,35.57227163812833],[139.62066517299348,35.574871043761114]],[[139.62066517299348,35.574871043761114],[139.61923287809077,35.5774704493939]],[[139.61923287809077,35.5774704493939],[139.62018205764932,35.577173207942614],[139.6205571825048,35.58032629863171],[139.61803929900518,35.58012230940044]],[[139.61803929900518,35.58012230940044],[139.6154588946963,35.581690112349364]],[[139.61754481624112,35.58400393305836],[139.6183348519216,35.583724176398334]],[[139.62776412669785,35.57576276811496],[139.6257293585424,35.575261537432404]],[[139.62474607672428,35.57393269329726],[139.62417202202118,35.57138574203823]],[[139.61640239054492,35.602963275039194],[139.6128387044179,35.60464764326313]],[[139.61711853799628,35.60568507421074],[139.6175732347908,35.60542863060571]],[[139.61923287809077,35.5774704493939],[139.61978988166405,35.57946371559662],[139.61803929900518,35.58012230940044]],[[139.63016265228893,35.5774821059214],[139.630156968579,35.5765379271938]],[[139.6286394180273,35.60284088150043],[139.6258544001609,35.60405898862431]],[[139.62702524440678,35.605819124277005],[139.62841206963006,35.60795226880974]],[[139.62841206963006,35.60795226880974],[139.6310265761985,35.607351957643424],[139.6327203217581,35.604979854296914]],[[139.6327203217581,35.604979854296914],[139.6312198223362,35.603120638160455]],[[139.6312198223362,35.603120638160455],[139.62930441208928,35.60193750061908],[139.6286394180273,35.60284088150043]],[[139.6142084785114,35.58500639442347],[139.6129807971662,35.586830640977425]],[[139.6129807971662,35.586830640977425],[139.61499283048192,35.58841010045385],[139.61754481624112,35.58856746357512]],[[139.62057991734451,35.61249831453524],[139.62273972711847,35.61142591400512]],[[139.62273972711847,35.61142591400512],[139.6233251492414,35.60798723839224]],[[139.61148598145422,35.56447342122998],[139.61013325849052,35.56461329955999],[139.61154281855352,35.567288472621534],[139.61553846663534,35.57275538401963],[139.61661268781236,35.57270292964588],[139.62066517299348,35.574871043761114]],[[139.59362776484963,35.591697241209204],[139.59274110610033,35.59364388130192],[139.58802362685722,35.59616751950595]],[[139.58802362685722,35.59616751950595],[139.59088821666268,35.59601015638468],[139.59284909658902,35.59438407079825],[139.59452579101878,35.59502517981082],[139.59845891829136,35.593399094224395]],[[139.59845891829136,35.593399094224395],[139.59889656395606,35.59290952006934],[139.59362776484963,35.591697241209204]],[[139.60646726558474,35.58465669859844],[139.6078711419378,35.58610793627234]],[[139.6078711419378,35.58610793627234],[139.61129841902647,35.58368337855208]],[[139.61278186731857,35.58159686012935],[139.61011620736073,35.58053611612674],[139.60852476857994,35.58153857749184]],[[139.62273972711847,35.61142591400512],[139.6257123074126,35.60919951725237],[139.62841206963006,35.60795226880974]],[[139.60881463778645,35.60516635873693],[139.61038334172753,35.60605225482703]],[[139.61951137987742,35.592577309035555],[139.61973872827465,35.59256565250805]],[[139.61973872827465,35.59256565250805],[139.62758224798006,35.59267056125557]],[[139.62758224798006,35.59267056125557],[139.6282756605917,35.58807788942006],[139.62734921587287,35.58846838309135]],[[139.62833249769102,35.58471498123594],[139.62958859758587,35.58472080949969],[139.62948060709715,35.579516169970375]],[[139.60113594566906,35.60905381065861],[139.60142581487557,35.60705471619214]],[[139.60142581487557,35.60705471619214],[139.60250571976255,35.602712659697914]],[[139.6057340670036,35.60110988716649],[139.60250571976255,35.602712659697914]],[[139.60142581487557,35.60705471619214],[139.6075073845022,35.60387248418429]],[[139.60710384109709,35.603505303568],[139.6057340670036,35.60110988716649]],[[139.6027899052591,35.595234997305845],[139.60055620725606,35.596896052474776]],[[139.60055620725606,35.596896052474776],[139.5991011775136,35.59881355124874],[139.60022655208004,35.59909330790877]],[[139.6078711419378,35.58610793627234],[139.60755285418165,35.58876562454264]],[[139.6077972537087,35.58855580704761],[139.61111654030867,35.58798463720005],[139.6129807971662,35.586830640977425]],[[139.58802362685722,35.59616751950595],[139.58636966726718,35.59765955502611],[139.58855789559078,35.60050374773642],[139.58775649249046,35.60408230167931],[139.58847832365174,35.60654182898208],[139.58755756264284,35.608086318876005],[139.58920583852296,35.608045521029744]],[[139.60055620725606,35.596896052474776],[139.60007877562182,35.59383038574194],[139.59845891829136,35.593399094224395]],[[139.6000958267516,35.586813156186174],[139.59969228334649,35.587559173946254]],[[139.60459164130737,35.590916253866624],[139.6045973250173,35.58855580704761]],[[139.6314585381533,35.59789851383989],[139.63470962023408,35.60090589793521],[139.6312198223362,35.603120638160455]],[[139.6327203217581,35.604979854296914],[139.6365227237022,35.60328965780923]],[[139.63350467372862,35.59689022421102],[139.63381159406492,35.595357390844605]],[[139.63381159406492,35.595357390844605],[139.63181092816905,35.59503100807457],[139.6293612491886,35.59608592381344]],[[139.6195284310072,35.59577702583466],[139.61965347262569,35.59833563362118],[139.61720947735517,35.59920987318378]],[[139.6232342098825,35.59554972354838],[139.6195284310072,35.59577702583466]],[[139.59859532732972,35.591399999757925],[139.59628774109754,35.59085797122911],[139.59362776484963,35.591697241209204]],[[139.61167354388195,35.59426750552324],[139.6118099529203,35.593253387630625],[139.61512355581033,35.59244325896929]],[[139.61125294934703,35.59485616016205],[139.61324224782302,35.59600432812093],[139.6135434844494,35.59718746566231]],[[139.6135434844494,35.59718746566231],[139.61868724193735,35.59321258978437]],[[139.6286394180273,35.60284088150043],[139.62746289007148,35.601197311122746],[139.6243197984794,35.60027644545015]],[[139.6135434844494,35.59718746566231],[139.61236127278366,35.59839974452244]],[[139.6195284310072,35.59577702583466],[139.61973872827465,35.59256565250805]],[[139.62691157020814,35.59380124442319],[139.62758224798006,35.59267056125557]],[[139.63683532774843,35.59295614617935],[139.63381159406492,35.595357390844605]],[[139.63862569637683,35.596429791374725],[139.63683532774843,35.59295614617935]],[[139.64167784861002,35.59909913617252],[139.64320108287166,35.59818409876367],[139.6416153278008,35.595328249525856],[139.63785271182616,35.59248405681554],[139.63683532774843,35.59295614617935]]]}