{"type":"Topology","bbox":[139.35520339616687,35.49028646317533,139.4585290562317,35.56192950555748],"objects":{"town":{"type":"GeometryCollection","geometries":[{"type":"Polygon","arcs":[[0,1,2,3,4,5,6]],"properties":{"name":"旭町"}},{"type":"MultiPolygon","arcs":[[[48,49,53,50,51,52,15,16,17,76,-36,-27,9,-26,-43]]],"properties":{"name":"上鶴間（１）"}},{"type":"MultiPolygon","arcs":[[[-84,314,315,-153,316,-156,70,71,72,12,23,301,346,-75,-45,-44,-32,-31,77,365,-85]]],"properties":{"name":"上鶴間本町"}},{"type":"MultiPolygon","arcs":[[[33,34,28,29,30,31,43,44,74,75,-49,42,25,-10,26,35]]],"properties":{"name":"上鶴間（２）"}},{"type":"MultiPolygon","arcs":[[[37,38,39,40,-154,-316,-315,83,84,-366,-78,-30,-29,-35,-305,-227,80,-226,-5,-4,-111,-324,-397,66,67]]],"properties":{"name":"相模大野"}},{"type":"Polygon","arcs":[[54,55,56,57,58,59,60,61,62,63]],"properties":{"name":"上鶴間（番２）"}},{"type":"MultiPolygon","arcs":[[[-339,386,355,90,134,135,136,104,105,106,107,379,-140,-377,-344,380,-214,-340]]],"properties":{"name":"大野台（１）"}},{"type":"MultiPolygon","arcs":[[[-396,-322,-63,-386,100,96,97,-368,-162]]],"properties":{"name":"御園（１）"}},{"type":"Polygon","arcs":[[108,-55,109,110,-3]],"properties":{"name":"豊町"}},{"type":"MultiPolygon","arcs":[[[-98,366,-361,166,167,114,115,116,-146,377,-369,-374,378,118,111,112,168,-122,-164,-163,367]]],"properties":{"name":"東大沼"}},{"type":"MultiPolygon","arcs":[[[161,162,163,121,-169,-113,-112,-119,-379,-373,398,208,-39,205,206,-193,160,156,124,125,119,164]]],"properties":{"name":"若松（１）"}},{"type":"MultiPolygon","arcs":[[[127,128,370,368,-378,-145,-144,-136,172,389,400]]],"properties":{"name":"古淵"}},{"type":"MultiPolygon","arcs":[[[358,-247,-142,-141,-380,-108,-107,-106,-105,-137,143,144,145,-117,-116,-115,-168,-167,360]]],"properties":{"name":"西大沼"}},{"type":"MultiPolygon","arcs":[[[138,139,140,141,246,247,256,257,260,261,-151,-215,-218,272,-279,342,343,344]],[[350,-277]]],"properties":{"name":"麻溝台（１）"}},{"type":"Polygon","arcs":[[146,147,148,149,150]],"properties":{"name":"麻溝台（番２）"}},{"type":"MultiPolygon","arcs":[[[401,-72,-71,155,151,152,153,-41,-40,-209,-399,372,373,-371,-129,374]]],"properties":{"name":"鵜野森（１）"}},{"type":"MultiPolygon","arcs":[[[305,324,325,326,-7,-6,225,-81,226,304,-34,-77,-18,-17,-16,-53,-52,-51,197,196,169,187,188,-253,-252]]],"properties":{"name":"東林間"}},{"type":"MultiPolygon","arcs":[[[-310,336,-333,337,338,339,-213,340]]],"properties":{"name":"下溝"}},{"type":"MultiPolygon","arcs":[[[349,181,177,178,229,230,231,232,233,234]]],"properties":{"name":"相武台"}},{"type":"MultiPolygon","arcs":[[[236,237,333,-265,-222,-59,-58,-57,-56,-109,-2,-1,-327,-326,356,357]]],"properties":{"name":"南台"}},{"type":"MultiPolygon","arcs":[[[-125,-157,-161,192,-207,-392,194,195]]],"properties":{"name":"若松（２）"}},{"type":"MultiPolygon","arcs":[[[-219,271,201,263,-223,264,-334,-238,363,288,-234,286,283,204,198,199,269,334,-147,-262,335,-220]]],"properties":{"name":"相模台"}},{"type":"Polygon","arcs":[[209,210,211,212,213]],"properties":{"name":"北里（１）"}},{"type":"MultiPolygon","arcs":[[[217,214,215,274,-211,275,276,277,278,-273]]],"properties":{"name":"麻溝台（２）"}},{"type":"Polygon","arcs":[[218,219,220,-60,221,222,223]],"properties":{"name":"桜台"}},{"type":"MultiPolygon","arcs":[[[-348,289,290,-313,-298,-297,-389,-283,-267,243,-231,-230,-179]]],"properties":{"name":"新磯野（１）"}},{"type":"MultiPolygon","arcs":[[[250,251,252,-189,-188,-170,-197,318,327,328]]],"properties":{"name":"相南"}},{"type":"MultiPolygon","arcs":[[[-233,-232,-244,266,267,-199,-205,-284,-287]]],"properties":{"name":"相武台団地"}},{"type":"Polygon","arcs":[[279,280,281,-200,-268,282]],"properties":{"name":"新磯野（２）"}},{"type":"MultiPolygon","arcs":[[[388,296,297,293,294,-362,-280]]],"properties":{"name":"新磯野（３）"}},{"type":"Polygon","arcs":[[-272,-224,-264,-202]],"properties":{"name":"相模台団地"}},{"type":"Polygon","arcs":[[308,309,310,311,-294,312,-291,313]],"properties":{"name":"磯部"}},{"type":"Polygon","arcs":[[-64,321,322,323,-110]],"properties":{"name":"栄町"}},{"type":"Polygon","arcs":[[331,332]],"properties":{"name":"当麻"}},{"type":"Polygon","arcs":[[341,-311,-341,-212,-275,-216,-150]],"properties":{"name":"麻溝台（番１）"}},{"type":"Polygon","arcs":[[-314,-290,347,-178,348]],"properties":{"name":"新戸"}},{"type":"MultiPolygon","arcs":[[[352,353,-61,-221,-336,-261,-258,-257,-248,-359,371]]],"properties":{"name":"双葉"}},{"type":"Polygon","arcs":[[-281,361,-295,-312,-342,-149,362]],"properties":{"name":"新磯野（番２）"}},{"type":"Polygon","arcs":[[-282,-363,-148,-335,-270]],"properties":{"name":"新磯野（番１）"}},{"type":"Polygon","arcs":[[-345,376,-139]],"properties":{"name":"北里（２）"}},{"type":"MultiPolygon","arcs":[[[-101,385,-62,-354,-353,-372,-367,-97]]],"properties":{"name":"御園（２）"}},{"type":"MultiPolygon","arcs":[[[-323,395,-165,-120,-126,-196,-195,391,-206,-38,-68,-67,396]]],"properties":{"name":"文京"}},{"type":"Polygon","arcs":[[-317,-152]],"properties":{"name":"鵜野森（２）"}},{"type":"Polygon","arcs":[[402,-357,-325,-306,-251,-329]],"properties":{"name":"松が枝町"}}]}},"arcs":[[[139.42908863163677,35.5224000861333],[139.42616422301606,35.52502964874499]],[[139.42616422301606,35.52502964874499],[139.4263088934072,35.5252804244709]],[[139.4263088934072,35.5252804244709],[139.42838594687984,35.52801029737295]],[[139.42838594687984,35.52801029737295],[139.42867528766212,35.528354218368484]],[[139.42867528766212,35.528354218368484],[139.43217837784732,35.52598976152419]],[[139.43217837784732,35.52598976152419],[139.43030799636202,35.52376144007396]],[[139.43030799636202,35.52376144007396],[139.42908863163677,35.5224000861333]],[[139.4437003411409,35.52379010015692],[139.44333866516305,35.523567984513974]],[[139.44333866516305,35.523567984513974],[139.44290465398967,35.524112526090235]],[[139.44290465398967,35.524112526090235],[139.4437003411409,35.52379010015692]],[[139.44487837146866,35.53805565645084],[139.44178862525808,35.536737292634626]],[[139.44178862525808,35.536737292634626],[139.44365900674342,35.54193909769207]],[[139.44365900674342,35.54193909769207],[139.44671775215588,35.53917339968632]],[[139.44671775215588,35.53917339968632],[139.44487837146866,35.53805565645084]],[[139.44500237466104,35.51697616543291],[139.44017658375694,35.51810823870987]],[[139.44017658375694,35.51810823870987],[139.44008358136264,35.51812973377209]],[[139.44008358136264,35.51812973377209],[139.43863687745133,35.52080228650822]],[[139.43863687745133,35.52080228650822],[139.43862654385197,35.52082378157044]],[[139.43862654385197,35.52082378157044],[139.4410549397031,35.522235290656276]],[[139.4410549397031,35.522235290656276],[139.44280131799601,35.5202649099527]],[[139.44280131799601,35.5202649099527],[139.44500237466104,35.51697616543291]],[[139.45021050874172,35.530303104009846],[139.4465937489635,35.53521830823768]],[[139.4465937489635,35.53521830823768],[139.44487837146866,35.53805565645084]],[[139.44671775215588,35.53917339968632],[139.44820579046464,35.537468124750134],[139.44859846724057,35.53515382305102],[139.45228756221437,35.532373795003785]],[[139.45228756221437,35.532373795003785],[139.45021050874172,35.530303104009846]],[[139.4439070131282,35.52389041044729],[139.4437003411409,35.52379010015692]],[[139.44290465398967,35.524112526090235],[139.44029025334996,35.52522310430498]],[[139.44029025334996,35.52522310430498],[139.44041425654237,35.52631935247825]],[[139.44041425654237,35.52631935247825],[139.44069326372525,35.52649131297601]],[[139.44069326372525,35.52649131297601],[139.44405168351935,35.52965108712248]],[[139.44405168351935,35.52965108712248],[139.4448060362731,35.52895608011067]],[[139.4448060362731,35.52895608011067],[139.44809212087162,35.525695995673836]],[[139.44809212087162,35.525695995673836],[139.44568439221925,35.524083866007274],[139.4439070131282,35.52389041044729]],[[139.43700416875146,35.52378293513618],[139.43679749676411,35.524148351193936]],[[139.43679749676411,35.524148351193936],[139.44041425654237,35.52631935247825]],[[139.44029025334996,35.52522310430498],[139.43700416875146,35.52378293513618]],[[139.4300703235766,35.53659399221982],[139.43005998997722,35.53659399221982]],[[139.43005998997722,35.53659399221982],[139.4292333020279,35.53982541657369]],[[139.4292333020279,35.53982541657369],[139.43152736108723,35.54115094541064]],[[139.43152736108723,35.54115094541064],[139.4315376946866,35.54113661536916]],[[139.4315376946866,35.54113661536916],[139.43376975214974,35.5387434984419]],[[139.43376975214974,35.5387434984419],[139.4300703235766,35.53659399221982]],[[139.44663508336095,35.52148296347855],[139.4439070131282,35.52389041044729]],[[139.44809212087162,35.525695995673836],[139.44814378886844,35.525645840528654]],[[139.44814378886844,35.525645840528654],[139.45042751432842,35.522779832232544]],[[139.45042751432842,35.522779832232544],[139.45010717274806,35.521963019868146],[139.44663508336095,35.52148296347855]],[[139.44700709293815,35.51651043908479],[139.44500237466104,35.51697616543291]],[[139.44280131799601,35.5202649099527],[139.44663508336095,35.52148296347855]],[[139.44663508336095,35.52148296347855],[139.4476064417014,35.51999980418531],[139.45020017514236,35.51911134161351],[139.45083052470372,35.51800076339877]],[[139.45083052470372,35.51800076339877],[139.44700709293815,35.51651043908479]],[[139.44322499557003,35.51258400771911],[139.44199529724543,35.514769339044896]],[[139.44199529724543,35.514769339044896],[139.44094127011005,35.51671822468626]],[[139.44094127011005,35.51671822468626],[139.44017658375694,35.51810823870987]],[[139.44700709293815,35.51651043908479],[139.44322499557003,35.51258400771911]],[[139.4234774871808,35.527573231107795],[139.42601955262495,35.52523026932572]],[[139.42601955262495,35.52523026932572],[139.42305380960678,35.5242486614843],[139.42019140258228,35.52259354169329],[139.42125576331702,35.52230694086368]],[[139.42125576331702,35.52230694086368],[139.4204600761658,35.52022191982826]],[[139.4204600761658,35.52022191982826],[139.4199123953994,35.51910417659277],[139.41714299076918,35.51906835148907]],[[139.41714299076918,35.51906835148907],[139.41454925732822,35.51903969140611],[139.4144665885333,35.52298761783401],[139.41189352229105,35.52350349932731]],[[139.41189352229105,35.52350349932731],[139.41182118709548,35.523840255302105]],[[139.41182118709548,35.523840255302105],[139.41214152867585,35.52403371086209]],[[139.41214152867585,35.52403371086209],[139.41432191814215,35.523610974638416],[139.41807301471218,35.52617605206344],[139.41973672421017,35.52796014222777]],[[139.41973672421017,35.52796014222777],[139.42094575533602,35.529135205629174]],[[139.42094575533602,35.529135205629174],[139.4234774871808,35.527573231107795]],[[139.4410549397031,35.522235290656276],[139.44333866516305,35.523567984513974]],[[139.43425543131997,35.53231647483786],[139.43062833794235,35.53202987400825]],[[139.43062833794235,35.53202987400825],[139.4301839931696,35.535555064212474]],[[139.4301839931696,35.535555064212474],[139.43005998997722,35.53659399221982]],[[139.4300703235766,35.53659399221982],[139.4328293946074,35.53681610786277],[139.43627048319644,35.533985924670354]],[[139.43627048319644,35.533985924670354],[139.43425543131997,35.53231647483786]],[[139.43692149995653,35.540706714124745],[139.44010424856137,35.54271291993202],[139.43890555103488,35.5441315940386]],[[139.43890555103488,35.5441315940386],[139.43894688543233,35.54423906934971]],[[139.43894688543233,35.54423906934971],[139.44077593252018,35.54288488042979],[139.44365900674342,35.54193909769207]],[[139.44178862525808,35.536737292634626],[139.43875054704438,35.54025531781811],[139.43692149995653,35.540706714124745]],[[139.45042751432842,35.522779832232544],[139.4537032653276,35.51877458563872]],[[139.4537032653276,35.51877458563872],[139.45250456780107,35.51750637696769],[139.45083052470372,35.51800076339877]],[[139.43862654385197,35.52082378157044],[139.43700416875146,35.52378293513618]],[[139.44405168351935,35.52965108712248],[139.44404134991998,35.52966541716396]],[[139.44404134991998,35.52966541716396],[139.4465937489635,35.53521830823768]],[[139.45021050874172,35.530303104009846],[139.4448060362731,35.52895608011067]],[[139.43591914081796,35.525710325715316],[139.4344931041054,35.52857633401143]],[[139.4344931041054,35.52857633401143],[139.43485478008324,35.529443301521006]],[[139.43485478008324,35.529443301521006],[139.43912255662156,35.53384262425555]],[[139.43912255662156,35.53384262425555],[139.4392258926152,35.533749478985925]],[[139.4392258926152,35.533749478985925],[139.43940156380447,35.53360617857112]],[[139.43940156380447,35.53360617857112],[139.4380581958868,35.531865078531226],[139.43872987984562,35.52899907023511]],[[139.43872987984562,35.52899907023511],[139.4356608008338,35.52775952164704],[139.43591914081796,35.525710325715316]],[[139.40423632516053,35.55069475303671],[139.40288262364353,35.55227822262031]],[[139.40288262364353,35.55227822262031],[139.40120858054618,35.554040817722424]],[[139.40120858054618,35.554040817722424],[139.40592070185727,35.55694981614298],[139.40650971702115,35.55777379352811]],[[139.40650971702115,35.55777379352811],[139.40902078166718,35.55661306016818]],[[139.40902078166718,35.55661306016818],[139.4100954760013,35.55451370909128]],[[139.4100954760013,35.55451370909128],[139.40423632516053,35.55069475303671]],[[139.406251377037,35.547907559968735],[139.40423632516053,35.55069475303671]],[[139.4100954760013,35.55451370909128],[139.41263754144543,35.5520632719981]],[[139.41263754144543,35.5520632719981],[139.406251377037,35.547907559968735]],[[139.41542761327437,35.52648414795527],[139.41377423737575,35.53139218716237]],[[139.41377423737575,35.53139218716237],[139.4164299724129,35.532373795003785]],[[139.4164299724129,35.532373795003785],[139.41737032995525,35.52960809699804],[139.41851735948492,35.528870099861784]],[[139.41851735948492,35.528870099861784],[139.41755633474384,35.52792431712407]],[[139.41755633474384,35.52792431712407],[139.41542761327437,35.52648414795527]],[[139.4080597569261,35.53927370997668],[139.40596203625472,35.542268688646125],[139.40807009052548,35.54535681258519]],[[139.40807009052548,35.54535681258519],[139.4082457617147,35.54515619200446],[139.41514860609146,35.54961999992566]],[[139.41514860609146,35.54961999992566],[139.41541727967498,35.54936205917901]],[[139.41541727967498,35.54936205917901],[139.41543794687374,35.54934772913753]],[[139.41543794687374,35.54934772913753],[139.41301988462197,35.54578671382961]],[[139.41301988462197,35.54578671382961],[139.41128383992842,35.542548124454996]],[[139.41128383992842,35.542548124454996],[139.40828709611216,35.54039145321217],[139.4080597569261,35.53927370997668]],[[139.4263088934072,35.5252804244709],[139.42601955262495,35.52523026932572]],[[139.4234774871808,35.527573231107795],[139.42595755102874,35.52955077683212]],[[139.42595755102874,35.52955077683212],[139.42838594687984,35.52801029737295]],[[139.42334315038903,35.54133007092915],[139.42177244328533,35.54024815279737]],[[139.42177244328533,35.54024815279737],[139.42174144248725,35.54026248283885]],[[139.42174144248725,35.54026248283885],[139.42035674017214,35.54115094541064],[139.41688465078502,35.54189610756763]],[[139.41688465078502,35.54189610756763],[139.41698798677868,35.54216837835576]],[[139.41698798677868,35.54216837835576],[139.41871369787287,35.546051819597]],[[139.41871369787287,35.546051819597],[139.41872403147224,35.54607331465922]],[[139.41872403147224,35.54607331465922],[139.4208940873392,35.54403128374824]],[[139.4208940873392,35.54403128374824],[139.42334315038903,35.54133007092915]],[[139.4223717920486,35.53488871728363],[139.4220927848657,35.53462361151624]],[[139.4220927848657,35.53462361151624],[139.41833135469633,35.5376042601442]],[[139.41833135469633,35.5376042601442],[139.41978839220698,35.53764725026864]],[[139.41978839220698,35.53764725026864],[139.4240355015466,35.537718900476044]],[[139.4240355015466,35.537718900476044],[139.42553387345473,35.537747560559005]],[[139.42553387345473,35.537747560559005],[139.42298147441122,35.53545475392211]],[[139.42298147441122,35.53545475392211],[139.4223717920486,35.53488871728363]],[[139.42272313442706,35.554305923489814],[139.4276315941261,35.551662030836646]],[[139.4276315941261,35.551662030836646],[139.42819994209125,35.55078073328559]],[[139.42819994209125,35.55078073328559],[139.42650523179518,35.547914724989475]],[[139.42650523179518,35.547914724989475],[139.42444884552125,35.55038665714488]],[[139.42444884552125,35.55038665714488],[139.42197911527268,35.55310220000544],[139.42272313442706,35.554305923489814]],[[139.41698798677868,35.54216837835576],[139.41301988462197,35.54578671382961]],[[139.41543794687374,35.54934772913753],[139.41871369787287,35.546051819597]],[[139.41514860609146,35.54961999992566],[139.41263754144543,35.5520632719981]],[[139.40902078166718,35.55661306016818],[139.41332989260297,35.554592524319425]],[[139.41332989260297,35.554592524319425],[139.41679164839073,35.552708123864726]],[[139.41679164839073,35.552708123864726],[139.41541727967498,35.54936205917901]],[[139.40545568988577,35.53385695429703],[139.40483567392377,35.53784070582863]],[[139.40483567392377,35.53784070582863],[139.40622037623888,35.537976841222694]],[[139.40622037623888,35.537976841222694],[139.40882444327923,35.53822045192786]],[[139.40882444327923,35.53822045192786],[139.4088347768786,35.53821328690712]],[[139.4088347768786,35.53821328690712],[139.41097383194744,35.53546908396359]],[[139.41097383194744,35.53546908396359],[139.40903111526654,35.53422953537552],[139.40545568988577,35.53385695429703]],[[139.41679164839073,35.552708123864726],[139.4172669939616,35.552443018097335]],[[139.4172669939616,35.552443018097335],[139.42066674815314,35.55026485179229]],[[139.42066674815314,35.55026485179229],[139.41872403147224,35.54607331465922]],[[139.400950240562,35.522486066382186],[139.40093990696263,35.522478901361445]],[[139.40093990696263,35.522478901361445],[139.39902819107985,35.52155461368595]],[[139.39902819107985,35.52155461368595],[139.39881118549317,35.521447138374846]],[[139.39881118549317,35.521447138374846],[139.3963931232414,35.52742276567225],[139.39752981917172,35.5271648249256]],[[139.39752981917172,35.5271648249256],[139.400950240562,35.522486066382186]],[[139.4354541288465,35.53980392151147],[139.4352577904585,35.53967495113814]],[[139.4352577904585,35.53967495113814],[139.43378008574913,35.53873633342116]],[[139.43378008574913,35.53873633342116],[139.43376975214974,35.5387434984419]],[[139.4315376946866,35.54113661536916],[139.43406942653138,35.54293503557497],[139.43686983195968,35.54406710885194],[139.43890555103488,35.5441315940386]],[[139.43692149995653,35.540706714124745],[139.4354541288465,35.53980392151147]],[[139.42553387345473,35.537754725579745],[139.42553387345473,35.537747560559005]],[[139.4240355015466,35.537718900476044],[139.42177244328533,35.54024815279737]],[[139.42334315038903,35.54133007092915],[139.42450051351807,35.54218987341798]],[[139.42450051351807,35.54218987341798],[139.42598855182683,35.53999737707146],[139.42757992612928,35.53920205976928]],[[139.42757992612928,35.53920205976928],[139.42553387345473,35.537754725579745]],[[139.421142093724,35.53305447197412],[139.41937504823233,35.532968491725235]],[[139.41937504823233,35.532968491725235],[139.41798001231786,35.53578434487616],[139.41820735150392,35.53759709512346]],[[139.41820735150392,35.53759709512346],[139.41833135469633,35.5376042601442]],[[139.4220927848657,35.53462361151624],[139.421142093724,35.53305447197412]],[[139.41820735150392,35.53759709512346],[139.41602696203762,35.537783385662706]],[[139.41602696203762,35.537783385662706],[139.4162129668262,35.53952448570259]],[[139.4162129668262,35.53952448570259],[139.41688465078502,35.54189610756763]],[[139.42174144248725,35.54026248283885],[139.41978839220698,35.53764725026864]],[[139.4381511982811,35.513135714316114],[139.43722117433813,35.5128132883828],[139.4361258128053,35.51512759008191]],[[139.4361258128053,35.51512759008191],[139.44094127011005,35.51671822468626]],[[139.44199529724543,35.514769339044896],[139.4381511982811,35.513135714316114]],[[139.41332989260297,35.554592524319425],[139.41665731159895,35.55735822232518]],[[139.41665731159895,35.55735822232518],[139.42029473857593,35.555624287306024]],[[139.42029473857593,35.555624287306024],[139.42025340417848,35.55558129718158]],[[139.42025340417848,35.55558129718158],[139.4172669939616,35.552443018097335]],[[139.37732763241038,35.53683043790425],[139.37788564677615,35.535297123465824],[139.37650094446107,35.534774076951784],[139.374919903758,35.53594914035319],[139.37732763241038,35.53683043790425]],[[139.40318229802514,35.49828979134223],[139.40291362444162,35.50332680092266]],[[139.40291362444162,35.50332680092266],[139.40665438741226,35.50515388121143]],[[139.40665438741226,35.50515388121143],[139.4075740777559,35.50394299270632]],[[139.4075740777559,35.50394299270632],[139.40591036825788,35.50293988980268],[139.40581736586358,35.499027788478486]],[[139.40581736586358,35.499027788478486],[139.40318229802514,35.49828979134223]],[[139.42456251511427,35.521712244142236],[139.4245521815149,35.521662088997054]],[[139.4245521815149,35.521662088997054],[139.42125576331702,35.52230694086368]],[[139.42616422301606,35.52502964874499],[139.42456251511427,35.521712244142236]],[[139.42258879763529,35.51749921194695],[139.4204600761658,35.52022191982826]],[[139.4245521815149,35.521662088997054],[139.42258879763529,35.51749921194695]],[[139.4361258128053,35.51512759008191],[139.43533012565408,35.517155290951415]],[[139.43533012565408,35.517155290951415],[139.43426576491933,35.51915433173795]],[[139.43426576491933,35.51915433173795],[139.43478244488767,35.51936928236017]],[[139.43478244488767,35.51936928236017],[139.44008358136264,35.51812973377209]],[[139.42574054544204,35.537776220641966],[139.42553387345473,35.537754725579745]],[[139.42757992612928,35.53920205976928],[139.42884062525198,35.53975376636629]],[[139.42884062525198,35.53975376636629],[139.42893362764627,35.53967495113814]],[[139.42893362764627,35.53967495113814],[139.42574054544204,35.537776220641966]],[[139.42574054544204,35.537776220641966],[139.42298147441122,35.53545475392211]],[[139.439473899,35.51095038299032],[139.4381511982811,35.513135714316114]],[[139.44322499557003,35.51258400771911],[139.439473899,35.51095038299032]],[[139.40727440337426,35.51390953655606],[139.4072640697749,35.51390953655606]],[[139.4072640697749,35.51390953655606],[139.40593103545663,35.515750946886314]],[[139.40593103545663,35.515750946886314],[139.40820442731723,35.51644595389813]],[[139.40820442731723,35.51644595389813],[139.41191418948978,35.517678337465455]],[[139.41191418948978,35.517678337465455],[139.4128958814296,35.51669672962404]],[[139.4128958814296,35.51669672962404],[139.40995080561015,35.515249395434495]],[[139.40995080561015,35.515249395434495],[139.40727440337426,35.51390953655606]],[[139.4292333020279,35.53982541657369],[139.42922296842852,35.53983974661517]],[[139.42922296842852,35.53983974661517],[139.42884062525198,35.53975376636629]],[[139.42450051351807,35.54218987341798],[139.43008065717595,35.542540959434255]],[[139.43008065717595,35.542540959434255],[139.43152736108723,35.54115094541064]],[[139.39599011286612,35.54013351246552],[139.39644479123825,35.53707404860942]],[[139.39644479123825,35.53707404860942],[139.3917533371259,35.53663698234426]],[[139.3917533371259,35.53663698234426],[139.39109198676644,35.54087867462251]],[[139.39109198676644,35.54087867462251],[139.3905546395994,35.54321447138385]],[[139.3905546395994,35.54321447138385],[139.3943987385637,35.54220420345946],[139.39599011286612,35.54013351246552]],[[139.39800516474259,35.527057349614495],[139.39752981917172,35.5271648249256]],[[139.39752981917172,35.5271648249256],[139.39564910408703,35.529715572309144]],[[139.39564910408703,35.529715572309144],[139.39754015277109,35.52992335791061]],[[139.39754015277109,35.52992335791061],[139.39800516474259,35.527057349614495]],[[139.4070780649863,35.51877458563872],[139.4072640697749,35.52133966306374]],[[139.4072640697749,35.52133966306374],[139.40800808892928,35.524134021152456]],[[139.40800808892928,35.524134021152456],[139.41182118709548,35.523840255302105]],[[139.41189352229105,35.52350349932731],[139.4126788758429,35.51994248401939]],[[139.4126788758429,35.51994248401939],[139.41140784312083,35.51943376754683]],[[139.41140784312083,35.51943376754683],[139.4070780649863,35.51877458563872]],[[139.43168236507773,35.52108888733783],[139.43030799636202,35.52376144007396]],[[139.43217837784732,35.52598976152419],[139.4344931041054,35.52857633401143]],[[139.43591914081796,35.525710325715316],[139.43675616236666,35.52422000140134]],[[139.43675616236666,35.52422000140134],[139.43168236507773,35.52108888733783]],[[139.40982680241777,35.502158902541986],[139.4075740777559,35.50394299270632]],[[139.40665438741226,35.50515388121143],[139.4081837601185,35.5059133734099]],[[139.4081837601185,35.5059133734099],[139.40983713601713,35.506723020753554],[139.40896911367034,35.507525503076465]],[[139.40896911367034,35.507525503076465],[139.41268920944225,35.5093812434482]],[[139.41268920944225,35.5093812434482],[139.41319555581123,35.50903732245266]],[[139.41319555581123,35.50903732245266],[139.41339189419918,35.50889402203786]],[[139.41339189419918,35.50889402203786],[139.4101574775975,35.50601368370027],[139.41102549994426,35.50520403635661],[139.40982680241777,35.502158902541986]],[[139.4162129668262,35.53952448570259],[139.4140325773599,35.54028397790107],[139.41128383992842,35.542548124454996]],[[139.4214417681056,35.51506310489525],[139.4204600761658,35.51560048145077]],[[139.4204600761658,35.51560048145077],[139.41714299076918,35.51746338684325]],[[139.41714299076918,35.51746338684325],[139.41714299076918,35.51906835148907]],[[139.42258879763529,35.51749921194695],[139.4214417681056,35.51506310489525]],[[139.4081837601185,35.5059133734099],[139.40752240975905,35.50680900100244]],[[139.40752240975905,35.50680900100244],[139.40426732595864,35.511222653778454]],[[139.40426732595864,35.511222653778454],[139.40641671462686,35.51225441676505]],[[139.40641671462686,35.51225441676505],[139.4086797728881,35.509194952908956],[139.40896911367034,35.507525503076465]],[[139.405941369056,35.530768830357964],[139.40593103545663,35.530775995378704]],[[139.40593103545663,35.530775995378704],[139.40545568988577,35.53385695429703]],[[139.41097383194744,35.53546908396359],[139.41304055182073,35.53244544521119]],[[139.41304055182073,35.53244544521119],[139.41066382396644,35.531284711851264]],[[139.41066382396644,35.531284711851264],[139.405941369056,35.530768830357964]],[[139.42795193570646,35.513708915975336],[139.4260298862243,35.51567213165817]],[[139.4260298862243,35.51567213165817],[139.42927463642536,35.51709797078549]],[[139.42927463642536,35.51709797078549],[139.4331084017903,35.518695770410574]],[[139.4331084017903,35.518695770410574],[139.43426576491933,35.51915433173795]],[[139.43533012565408,35.517155290951415],[139.42939863961777,35.51486964933526],[139.42795193570646,35.513708915975336]],[[139.40740874016603,35.52510846397313],[139.40684039220088,35.52523026932572]],[[139.40684039220088,35.52523026932572],[139.405941369056,35.530768830357964]],[[139.41066382396644,35.531284711851264],[139.40851443529823,35.530288773968365],[139.41030214798863,35.526290692395285]],[[139.41030214798863,35.526290692395285],[139.40740874016603,35.52510846397313]],[[139.39800516474259,35.527057349614495],[139.40361630919855,35.52588228621308]],[[139.40361630919855,35.52588228621308],[139.40684039220088,35.52523026932572]],[[139.40740874016603,35.52510846397313],[139.4070470641882,35.52498665862055]],[[139.4070470641882,35.52498665862055],[139.400950240562,35.522486066382186]],[[139.41386723977004,35.51584409215594],[139.4128958814296,35.51669672962404]],[[139.41191418948978,35.517678337465455],[139.41140784312083,35.51943376754683]],[[139.4126788758429,35.51994248401939],[139.41635763721735,35.51787895804618]],[[139.41635763721735,35.51787895804618],[139.41386723977004,35.51584409215594]],[[139.40641671462686,35.51225441676505],[139.4070470641882,35.5138092262657]],[[139.4070470641882,35.5138092262657],[139.4072640697749,35.51390953655606]],[[139.40727440337426,35.51390953655606],[139.41268920944225,35.5093812434482]],[[139.40593103545663,35.515750946886314],[139.4032546332207,35.519362117339426]],[[139.4032546332207,35.519362117339426],[139.4072640697749,35.52133966306374]],[[139.4070780649863,35.51877458563872],[139.40820442731723,35.51644595389813]],[[139.39754015277109,35.52992335791061],[139.402923958041,35.53046789948687]],[[139.402923958041,35.53046789948687],[139.40361630919855,35.52588228621308]],[[139.39564910408703,35.529715572309144],[139.390430636407,35.536450691805015],[139.3917533371259,35.53663698234426]],[[139.39644479123825,35.53707404860942],[139.39644479123825,35.53706688358868]],[[139.39644479123825,35.53706688358868],[139.3996378734425,35.53734631939755]],[[139.3996378734425,35.53734631939755],[139.4009192397639,35.537468124750134],[139.40167359251765,35.532402455086746],[139.40260361646062,35.53251709541859]],[[139.40260361646062,35.53251709541859],[139.402923958041,35.53046789948687]],[[139.40539368828956,35.51299957892205],[139.40408132117003,35.51481949419008]],[[139.40408132117003,35.51481949419008],[139.40405032037194,35.51484815427304]],[[139.40405032037194,35.51484815427304],[139.40593103545663,35.515750946886314]],[[139.4070470641882,35.5138092262657],[139.40539368828956,35.51299957892205]],[[139.41152151271385,35.512318901951716],[139.40995080561015,35.515249395434495]],[[139.41386723977004,35.51584409215594],[139.4150762708959,35.51408866207457]],[[139.4150762708959,35.51408866207457],[139.41152151271385,35.512318901951716]],[[139.41319555581123,35.50903732245266],[139.41369156858082,35.50956753398745],[139.41152151271385,35.512318901951716]],[[139.4150762708959,35.51408866207457],[139.41684331638757,35.51218993157839]],[[139.41684331638757,35.51218993157839],[139.41339189419918,35.50889402203786]],[[139.40179759571006,35.508800876768234],[139.40143591973222,35.50923077801266]],[[139.40143591973222,35.50923077801266],[139.40109491095313,35.50961768913263]],[[139.40109491095313,35.50961768913263],[139.40426732595864,35.511222653778454]],[[139.40752240975905,35.50680900100244],[139.4059930370528,35.50606383884545],[139.4051766827029,35.50717441706019],[139.40378164678842,35.506479410048385],[139.40179759571006,35.508800876768234]],[[139.4002475558051,35.51042017145554],[139.39853217831026,35.512075291246546]],[[139.39853217831026,35.512075291246546],[139.40230394207902,35.513931031618284]],[[139.40230394207902,35.513931031618284],[139.40364730999664,35.51214694145395]],[[139.40364730999664,35.51214694145395],[139.4035956419998,35.51212544639173]],[[139.4035956419998,35.51212544639173],[139.4002475558051,35.51042017145554]],[[139.43478244488767,35.51936928236017],[139.43863687745133,35.52080228650822]],[[139.45759903228873,35.527064514635235],[139.45499496524837,35.5272006500293],[139.45285591017952,35.526247702270844]],[[139.45285591017952,35.526247702270844],[139.45278357498395,35.5277523566263],[139.45021050874172,35.530303104009846]],[[139.45228756221437,35.532373795003785],[139.45393060451363,35.5316644579505],[139.45547031081924,35.52959376695656],[139.45782637147477,35.52795297720703],[139.45759903228873,35.527064514635235]],[[139.45285591017952,35.526247702270844],[139.44814378886844,35.525645840528654]],[[139.4331084017903,35.518695770410574],[139.43168236507773,35.52108888733783]],[[139.43675616236666,35.52422000140134],[139.43679749676411,35.524148351193936]],[[139.42927463642536,35.51709797078549],[139.4281586076938,35.51809390866839]],[[139.4281586076938,35.51809390866839],[139.43168236507773,35.52108888733783]],[[139.402923958041,35.53046789948687],[139.40593103545663,35.530775995378704]],[[139.3748889029599,35.49947918478512],[139.37679028524332,35.50782643394756],[139.3770382916281,35.51284194846576],[139.37640794206678,35.51504877485377]],[[139.37640794206678,35.51504877485377],[139.38905626769127,35.51860979016169]],[[139.38905626769127,35.51860979016169],[139.3913193259525,35.51918299182091],[139.39468807934597,35.51881757576316]],[[139.39468807934597,35.51881757576316],[139.39322070823593,35.51678270987292],[139.39521509291365,35.51643878887739],[139.39853217831026,35.512075291246546]],[[139.4002475558051,35.51042017145554],[139.40109491095313,35.50961768913263]],[[139.40143591973222,35.50923077801266],[139.39994788142346,35.50839247058604],[139.39797416394447,35.50475980507071],[139.39558710249085,35.503771032208554],[139.39137099394935,35.50316200544563],[139.3894799452653,35.50391433262336],[139.3881159101489,35.50118445972131],[139.38583218468895,35.502703444118254],[139.3856875142978,35.500539607854684],[139.38275277207774,35.49967980536585],[139.3818744161316,35.50118445972131],[139.37980769625833,35.49947918478512],[139.3748889029599,35.49947918478512]],[[139.43912255662156,35.53384262425555],[139.43759318391534,35.53488155226289]],[[139.43759318391534,35.53488155226289],[139.43378008574913,35.53873633342116]],[[139.4352577904585,35.53967495113814],[139.4354541288465,35.53980392151147]],[[139.44178862525808,35.536737292634626],[139.4392258926152,35.533749478985925]],[[139.439473899,35.51095038299032],[139.4355161304427,35.50936691340672],[139.4292953036241,35.50763297838757],[139.42779693171596,35.51146626448362]],[[139.42779693171596,35.51146626448362],[139.42965697960193,35.51211828137099]],[[139.42965697960193,35.51211828137099],[139.4361258128053,35.51512759008191]],[[139.42094575533602,35.529135205629174],[139.4230744768055,35.53143517728681]],[[139.4230744768055,35.53143517728681],[139.423115811203,35.53139935218311]],[[139.423115811203,35.53139935218311],[139.42595755102874,35.52955077683212]],[[139.4281586076938,35.51809390866839],[139.42616422301606,35.51915433173795]],[[139.42616422301606,35.51915433173795],[139.4278796005109,35.52104589721339]],[[139.4278796005109,35.52104589721339],[139.42908863163677,35.5224000861333]],[[139.42779693171596,35.51146626448362],[139.42290913921565,35.51426062257234]],[[139.42290913921565,35.51426062257234],[139.4260298862243,35.51567213165817]],[[139.42795193570646,35.513708915975336],[139.42965697960193,35.51211828137099]],[[139.4278796005109,35.52104589721339],[139.42456251511427,35.521712244142236]],[[139.37530224693455,35.51618084813074],[139.36946376329254,35.51938361240165],[139.3649479803694,35.52041537538825],[139.35913016392612,35.523618139659156],[139.35520339616687,35.52673492368118],[139.36105221340827,35.533498703260015],[139.36313960048028,35.532968491725235],[139.36575400112,35.53409339998146],[139.36710770263699,35.533219267451145],[139.37250184150625,35.53680894284203]],[[139.37250184150625,35.53680894284203],[139.37273951429168,35.53606378068503],[139.37577759250541,35.53499619259473],[139.37693495563445,35.533520198322236],[139.3738452094239,35.53170744807494],[139.37608760048641,35.529722737329884],[139.37507490774848,35.526792243847105],[139.37761697319263,35.52216364044887],[139.37797864917047,35.520379550284545],[139.37530224693455,35.51618084813074]],[[139.41714299076918,35.51746338684325],[139.41635763721735,35.51787895804618]],[[139.4032546332207,35.519362117339426],[139.40093990696263,35.522478901361445]],[[139.4070470641882,35.52498665862055],[139.40800808892928,35.524134021152456]],[[139.37640794206678,35.51504877485377],[139.37530224693455,35.51618084813074]],[[139.37250184150625,35.53680894284203],[139.3744342245878,35.53938835030853],[139.3746408965751,35.54086434458103],[139.3788570051166,35.543056840927555],[139.3812957345671,35.541781467235786],[139.38195708492654,35.54403128374824],[139.38665887263826,35.54780724967837]],[[139.38665887263826,35.54780724967837],[139.38659687104206,35.54580104387109],[139.39048230440383,35.54319297632163]],[[139.39048230440383,35.54319297632163],[139.3905546395994,35.54321447138385]],[[139.39109198676644,35.54087867462251],[139.38711355101037,35.53757560006124],[139.3880539085527,35.537203018982744],[139.3888599293033,35.53466660164068],[139.3911953227601,35.530260113885404],[139.39051330520192,35.52996634803505],[139.38859125571977,35.53272488102006],[139.38706188301353,35.53266756085414],[139.38890126370077,35.523324373808805],[139.38905626769127,35.51860979016169]],[[139.39881118549317,35.521447138374846],[139.39468807934597,35.51881757576316]],[[139.40260361646062,35.53251709541859],[139.40182859650815,35.53754693997828]],[[139.40182859650815,35.53754693997828],[139.40416398996496,35.537776220641966]],[[139.40416398996496,35.537776220641966],[139.40483567392377,35.53784070582863]],[[139.43759318391534,35.53488155226289],[139.43627048319644,35.533985924670354]],[[139.45759903228873,35.527064514635235],[139.45690668113116,35.525187279201276],[139.4550156324471,35.523030607958454],[139.45595598998946,35.52044403547121],[139.4537032653276,35.51877458563872]],[[139.40179759571006,35.508800876768234],[139.40277928764988,35.50607100386619],[139.40291362444162,35.50332680092266]],[[139.40318229802514,35.49828979134223],[139.40246927966888,35.49723653329341],[139.40026822300382,35.49766643453783],[139.39982387823108,35.49676364192455],[139.39777782555652,35.4974658139571],[139.39400606178776,35.497365503666735],[139.39245602188282,35.496591681426786],[139.39109198676644,35.49401943898102],[139.38788857096284,35.492808550475914],[139.38787823736348,35.491174925747124],[139.3835691264277,35.490694869357526],[139.38240142969929,35.49133972122415],[139.37352486784354,35.491719467323385],[139.37405188141122,35.497379833708216],[139.3748889029599,35.49947918478512]],[[139.40982680241777,35.502158902541986],[139.4089277792729,35.501965446982],[139.40642704822622,35.49876268271109],[139.40581736586358,35.499027788478486]],[[139.39644479123825,35.53706688358868],[139.3996378734425,35.53734631939755]],[[139.41030214798863,35.526290692395285],[139.41200719188407,35.52696420434487]],[[139.41200719188407,35.52696420434487],[139.41245153665685,35.525180114180536]],[[139.41245153665685,35.525180114180536],[139.41214152867585,35.52403371086209]],[[139.40120858054618,35.554040817722424],[139.39902819107985,35.556412439587454]],[[139.39902819107985,35.556412439587454],[139.40305829483276,35.559364428132454],[139.40650971702115,35.55777379352811]],[[139.42616422301606,35.51915433173795],[139.42232012405177,35.51459737854713]],[[139.42232012405177,35.51459737854713],[139.4214417681056,35.51506310489525]],[[139.4135985661865,35.5316644579505],[139.41304055182073,35.53244544521119]],[[139.4088347768786,35.53821328690712],[139.41287521423087,35.538564372923396],[139.41602696203762,35.537783385662706]],[[139.41602696203762,35.537783385662706],[139.41582029005028,35.535583724295435],[139.4135985661865,35.5316644579505]],[[139.40408132117003,35.51481949419008],[139.40230394207902,35.513931031618284]],[[139.39902819107985,35.52155461368595],[139.40405032037194,35.51484815427304]],[[139.4204600761658,35.51560048145077],[139.41684331638757,35.51218993157839]],[[139.40807009052548,35.54535681258519],[139.406251377037,35.547907559968735]],[[139.44404134991998,35.52966541716396],[139.43940156380447,35.53360617857112]],[[139.41377423737575,35.53139218716237],[139.4135985661865,35.5316644579505]],[[139.41937504823233,35.532968491725235],[139.4164299724129,35.532373795003785]],[[139.42644323019897,35.545707898601464],[139.4226197984334,35.54880318756127]],[[139.4226197984334,35.54880318756127],[139.42444884552125,35.55038665714488]],[[139.42650523179518,35.547914724989475],[139.42644323019897,35.545707898601464]],[[139.4135985661865,35.5316644579505],[139.41200719188407,35.52696420434487]],[[139.43004965637783,35.54256961951722],[139.42657756699072,35.54559325826962]],[[139.42657756699072,35.54559325826962],[139.42644323019897,35.545707898601464]],[[139.42819994209125,35.55078073328559],[139.43199237305873,35.54876736245757],[139.43349074496686,35.546259605198465],[139.43527845765726,35.546560536069556]],[[139.43527845765726,35.546560536069556],[139.43274672581248,35.545192017108164],[139.43004965637783,35.54256961951722]],[[139.40416398996496,35.537776220641966],[139.4038436483846,35.54143038121951],[139.40622037623888,35.537976841222694]],[[139.42066674815314,35.55026485179229],[139.4226197984334,35.54880318756127]],[[139.42657756699072,35.54559325826962],[139.42211345206442,35.54529949241927],[139.4208940873392,35.54403128374824]],[[139.4080597569261,35.53927370997668],[139.40882444327923,35.53822045192786]],[[139.40182859650815,35.53754693997828],[139.40149792132843,35.53966062109666],[139.39955520464756,35.54049892852328],[139.39599011286612,35.54013351246552]],[[139.39048230440383,35.54319297632163],[139.3898726220412,35.54582253893331],[139.39592811126994,35.546531875986595],[139.40142558613286,35.54873870237461],[139.40079523657153,35.549491029552335],[139.40288262364353,35.55227822262031]],[[139.4035956419998,35.51212544639173],[139.40426732595864,35.511222653778454]],[[139.44069326372525,35.52649131297601],[139.43872987984562,35.52899907023511]],[[139.41245153665685,35.525180114180536],[139.41542761327437,35.52648414795527]],[[139.41755633474384,35.52792431712407],[139.41973672421017,35.52796014222777]],[[139.38665887263826,35.54780724967837],[139.38807457575146,35.54891782789311],[139.38985195484247,35.54699043731398],[139.39356171701502,35.54888200278941],[139.3923320186904,35.55017887154341],[139.3974471503768,35.55312369506766],[139.39621745205218,35.55438473871796],[139.39902819107985,35.556412439587454]],[[139.42025340417848,35.55558129718158],[139.42272313442706,35.554305923489814]],[[139.40539368828956,35.51299957892205],[139.40364730999664,35.51214694145395]],[[139.41665731159895,35.55735822232518],[139.41774233953245,35.558354160208076],[139.41842435709063,35.56192950555748],[139.42189644647775,35.56005227012352],[139.42348782078017,35.55790276390144]],[[139.42348782078017,35.55790276390144],[139.42029473857593,35.555624287306024]],[[139.42893362764627,35.53967495113814],[139.42922296842852,35.53983974661517]],[[139.4301839931696,35.535555064212474],[139.4223717920486,35.53488871728363]],[[139.42867528766212,35.528354218368484],[139.43345974416877,35.53167878799198]],[[139.43345974416877,35.53167878799198],[139.43485478008324,35.529443301521006]],[[139.4230744768055,35.53143517728681],[139.421142093724,35.53305447197412]],[[139.43062833794235,35.53202987400825],[139.423115811203,35.53139935218311]],[[139.41851735948492,35.528870099861784],[139.421142093724,35.53305447197412]],[[139.43004965637783,35.54256961951722],[139.43008065717595,35.542540959434255]],[[139.43425543131997,35.53231647483786],[139.43345974416877,35.53167878799198]],[[139.42348782078017,35.55790276390144],[139.4238804975561,35.55634078938005],[139.42685657417363,35.553818702079475],[139.4276315941261,35.551662030836646]],[[139.43527845765726,35.546560536069556],[139.43810986388365,35.545736558684425],[139.43894688543233,35.54423906934971]],[[139.42290913921565,35.51426062257234],[139.42232012405177,35.51459737854713]]]}