{"type":"Topology","bbox":[139.3228050238679,35.52673215818864,139.4182126200256,35.599258842279205],"objects":{"town":{"type":"GeometryCollection","geometries":[{"type":"MultiPolygon","arcs":[[[1,2,3,37,38,39,9,10,5,6,30,31]]],"properties":{"name":"相生"}},{"type":"MultiPolygon","arcs":[[[25,26,27,28,18,19,20,14,15,11,316,-47]]],"properties":{"name":"小山"}},{"type":"MultiPolygon","arcs":[[[-76,-59,-312,23,24,21,-149,32,33,34,35]]],"properties":{"name":"青葉"}},{"type":"MultiPolygon","arcs":[[[333,328,324,366,-52,-64,-202,-157,-161,45,46,-317,-12,-16,319,41,42,43,-118,-117,-322]]],"properties":{"name":"清新"}},{"type":"MultiPolygon","arcs":[[[62,63,51,52,53,49,64]]],"properties":{"name":"小町通"}},{"type":"MultiPolygon","arcs":[[[65,66,67,54,55,56,68,415,-369,-390]]],"properties":{"name":"宮下本町"}},{"type":"MultiPolygon","arcs":[[[-24,311,58,59,60,-197,312]]],"properties":{"name":"松が丘"}},{"type":"MultiPolygon","arcs":[[[433,-56,-55,-68,72,421,-398,-19,-29,422]]],"properties":{"name":"宮下"}},{"type":"MultiPolygon","arcs":[[[-10,83,73,74,-60,75,-36,76,84,85,86,-11]]],"properties":{"name":"弥栄"}},{"type":"MultiPolygon","arcs":[[[-44,-43,343,344,341,-145,-130,-129,-128,330,-323,115,116,117]]],"properties":{"name":"相模原"}},{"type":"Polygon","arcs":[[87,88,89,-39,90,91]],"properties":{"name":"高根（２）"}},{"type":"MultiPolygon","arcs":[[[93,94,121,176,349,-181,-151,350,351,265,266,267]]],"properties":{"name":"東淵野辺"}},{"type":"MultiPolygon","arcs":[[[100,96,97,98,-137,147,-33,148,-22,149]]],"properties":{"name":"緑が丘"}},{"type":"MultiPolygon","arcs":[[[-213,-362,102,103,172,173,-240,425,-257,-373]]],"properties":{"name":"星が丘"}},{"type":"MultiPolygon","arcs":[[[-86,-85,-77,-35,-34,-148,-136,284,105,106,428,-140,-6,-87]]],"properties":{"name":"並木"}},{"type":"MultiPolygon","arcs":[[[416,-292,-291,392,420,-226,287,-127,187,112,113,-3,-2,-32]]],"properties":{"name":"富士見"}},{"type":"MultiPolygon","arcs":[[[-114,-113,-188,126,127,128,129,130,-144,-143,227,228,383,-163,384,-306]]],"properties":{"name":"矢部"}},{"type":"MultiPolygon","arcs":[[[-106,-285,135,136,-99,132,133,417,-391,-259,-258,-426,-242,-429,-107]]],"properties":{"name":"光が丘"}},{"type":"MultiPolygon","arcs":[[[239,-174,-173,-104,-276,-275,-206,-223,-421,-393,290,291,-417,-31,-7,139,241]]],"properties":{"name":"千代田"}},{"type":"Polygon","arcs":[[140,141,142,143,-131,144,145,146]],"properties":{"name":"矢部新田"}},{"type":"MultiPolygon","arcs":[[[377,-354,-353,-351,150,151,152,207,-91,208]]],"properties":{"name":"共和"}},{"type":"MultiPolygon","arcs":[[[199,200,189,190,402,-27,-26,-46,160,156,201,-63,202]]],"properties":{"name":"南橋本"}},{"type":"MultiPolygon","arcs":[[[235,236,347,-243,355,-336,-266,-352,352,353,354,346,161,162,-384,-229,-239,-141,-253,-379]]],"properties":{"name":"淵野辺"}},{"type":"MultiPolygon","arcs":[[[169,170,171,166,167,210,-203,-65,-50,211]]],"properties":{"name":"横山台"}},{"type":"MultiPolygon","arcs":[[[-152,180,181,177,178,345,-92,-208,-153]]],"properties":{"name":"由野台（１）"}},{"type":"MultiPolygon","arcs":[[[440,358,359,380,-236,378,184,-252,-255,367,368,369]]],"properties":{"name":"上矢部"}},{"type":"MultiPolygon","arcs":[[[230,432,193,194,195,301,233]]],"properties":{"name":"田名塩田"}},{"type":"Polygon","arcs":[[196,-61,197,-178,198]],"properties":{"name":"大野台（２）"}},{"type":"MultiPolygon","arcs":[[[-329,-334,321,-116,322,-331,-288,225,222,205,206,-274,-401,-53,-367,-325]]],"properties":{"name":"中央"}},{"type":"Polygon","arcs":[[212,213,214,215,-172,216,217,218]],"properties":{"name":"横山（２）"}},{"type":"MultiPolygon","arcs":[[[256,257,258,390,-418,-134,-133,-98,-97,283,281,385,219,-414,-365,-364,-214,372]]],"properties":{"name":"陽光台"}},{"type":"Polygon","arcs":[[-228,-142,238]],"properties":{"name":"矢部新町"}},{"type":"MultiPolygon","arcs":[[[244,399,376,-94,-268,-267,335,-356,242,-348,-237,-381,-360,395]]],"properties":{"name":"淵野辺本町"}},{"type":"MultiPolygon","arcs":[[[-412,268,269,434,-168,-167,-216,-363,279,276,-413]]],"properties":{"name":"上溝"}},{"type":"Polygon","arcs":[[251,-185,252,-147,253,254]],"properties":{"name":"上矢部（番）"}},{"type":"MultiPolygon","arcs":[[[-219,-218,-217,-171,-170,-212,-54,400,273,-207,274,275,-103,361]]],"properties":{"name":"横山（１）"}},{"type":"MultiPolygon","arcs":[[[403,404,-195,405,-311,406,-309,407,408,409,410,-269,411,412,-277,-280,362,-215,363,364,413,-220,-386,-282,414]]],"properties":{"name":"上溝（番１）"}},{"type":"MultiPolygon","arcs":[[[438,-436,294,295,296,297,439,-410,-431,-408,-308,-406,-194,-433,-231],[299]],[[437,-404]]],"properties":{"name":"田名（番１）"}},{"type":"MultiPolygon","arcs":[[[303,-297,-296,-295,435,436,314]]],"properties":{"name":"水郷田名"}},{"type":"MultiPolygon","arcs":[[[-209,-38,-4,305,-385,-162,-347,-355,-378]]],"properties":{"name":"鹿沼台"}},{"type":"Polygon","arcs":[[307,308,309,310]],"properties":{"name":"上溝（番２）"}},{"type":"MultiPolygon","arcs":[[[-84,-40,-90,-89,338,-74]]],"properties":{"name":"高根（１）"}},{"type":"Polygon","arcs":[[-346,-179,-198,-75,-339,-88]],"properties":{"name":"由野台（２）"}},{"type":"Polygon","arcs":[[-190,-201,374]],"properties":{"name":"下九沢（番２）"}},{"type":"Polygon","arcs":[[-345,386,387,388,-66,389,-368,-254,-146,-342]],"properties":{"name":"小山（番）"}},{"type":"Polygon","arcs":[[396,-20,397,398,-388]],"properties":{"name":"向陽町"}},{"type":"Polygon","arcs":[[430,-409]],"properties":{"name":"田名（番３）"}},{"type":"Polygon","arcs":[[-42,-320,-15,-21,-397,-387,-344]],"properties":{"name":"氷川町"}},{"type":"Polygon","arcs":[[-399,-422,-73,-67,-389]],"properties":{"name":"すすきの町"}}]}},"arcs":[[[139.38604750284912,35.56377524006188],[139.38418686866063,35.565661122436474]],[[139.38418686866063,35.565661122436474],[139.38419641037441,35.56566837583022]],[[139.38419641037441,35.56566837583022],[139.38683946509346,35.56694497312994]],[[139.38683946509346,35.56694497312994],[139.38965427066066,35.565639362255226]],[[139.38965427066066,35.565639362255226],[139.38604750284912,35.56377524006188]],[[139.3830895715751,35.56060550699382],[139.38306094643374,35.560627267175065]],[[139.38306094643374,35.560627267175065],[139.38194456592063,35.56265096403087]],[[139.38194456592063,35.56265096403087],[139.38604750284912,35.56377524006188]],[[139.38604750284912,35.56377524006188],[139.3879176787514,35.56207794592475]],[[139.3879176787514,35.56207794592475],[139.38608566970427,35.56143964727489]],[[139.38608566970427,35.56143964727489],[139.3830895715751,35.56060550699382]],[[139.36175429954704,35.58196675158295],[139.3574032780601,35.58269209095779]],[[139.3574032780601,35.58269209095779],[139.35853874200077,35.58599238511332]],[[139.35853874200077,35.58599238511332],[139.36188788354005,35.58250350272033]],[[139.36188788354005,35.58250350272033],[139.3618497166849,35.58238019502661]],[[139.3618497166849,35.58238019502661],[139.36175429954704,35.58196675158295]],[[139.35853874200077,35.58599238511332],[139.35544722673373,35.58722546205056]],[[139.35544722673373,35.58722546205056],[139.3561342301264,35.58915486478764]],[[139.3561342301264,35.58915486478764],[139.36372943430098,35.585201765194746]],[[139.36372943430098,35.585201765194746],[139.36373897601476,35.58518725840725]],[[139.36373897601476,35.58518725840725],[139.36188788354005,35.58250350272033]],[[139.38807988788577,35.548913036271344],[139.38818484673743,35.54899282360258]],[[139.38818484673743,35.54899282360258],[139.39151490484915,35.55102377385214]],[[139.39151490484915,35.55102377385214],[139.39233549223485,35.55018238017732]],[[139.39233549223485,35.55018238017732],[139.3935663733134,35.54888402269635],[139.3898451049364,35.546990886928015],[139.38807988788577,35.548913036271344]],[[139.35514189189254,35.58274286471403],[139.35268012973546,35.58362052535759]],[[139.35268012973546,35.58362052535759],[139.35268012973546,35.58363503214508]],[[139.35268012973546,35.58363503214508],[139.35296638114906,35.58848755256278],[139.35252746231487,35.59102624037474],[139.35611514669884,35.58916937157514]],[[139.35611514669884,35.58916937157514],[139.3561342301264,35.58915486478764]],[[139.35544722673373,35.58722546205056],[139.35514189189254,35.58274286471403]],[[139.38194456592063,35.56265096403087],[139.3799694311667,35.564500579436725]],[[139.3799694311667,35.564500579436725],[139.38418686866063,35.565661122436474]],[[139.38693488223132,35.55057406343974],[139.38511241489797,35.55267754762678]],[[139.38511241489797,35.55267754762678],[139.3847307463465,35.553141764826684]],[[139.3847307463465,35.553141764826684],[139.38738334277932,35.554599696970115]],[[139.38738334277932,35.554599696970115],[139.38949206152628,35.551966715039434]],[[139.38949206152628,35.551966715039434],[139.38693488223132,35.55057406343974]],[[139.38965427066066,35.565639362255226],[139.3923545756624,35.564362764955504]],[[139.3923545756624,35.564362764955504],[139.39152444656295,35.56389129436185]],[[139.39152444656295,35.56389129436185],[139.3879176787514,35.56207794592475]],[[139.36502710737602,35.57970369273343],[139.36262259550168,35.58222062036414]],[[139.36262259550168,35.58222062036414],[139.36596219532717,35.58153880135179]],[[139.36596219532717,35.58153880135179],[139.36717399297814,35.58129943935809]],[[139.36717399297814,35.58129943935809],[139.36502710737602,35.57970369273343]],[[139.36068562760286,35.576961909896525],[139.3571074849327,35.578775258333636],[139.35485564047892,35.57910891444607]],[[139.35485564047892,35.57910891444607],[139.35514189189254,35.58274286471403]],[[139.35514189189254,35.58274286471403],[139.35676398323636,35.58174189637674]],[[139.35676398323636,35.58174189637674],[139.36133446414038,35.57910891444607]],[[139.36133446414038,35.57910891444607],[139.36068562760286,35.576961909896525]],[[139.3617065909781,35.56894690980451],[139.35876774313166,35.570412095341695]],[[139.35876774313166,35.570412095341695],[139.3593402459589,35.572667900797455]],[[139.3593402459589,35.572667900797455],[139.36316647318753,35.57082553878536]],[[139.36316647318753,35.57082553878536],[139.3631950983289,35.570811031997856]],[[139.3631950983289,35.570811031997856],[139.3617065909781,35.56894690980451]],[[139.36538969249995,35.5928033218431],[139.3640061440008,35.59320225849927]],[[139.3640061440008,35.59320225849927],[139.3593974962416,35.594544136342726]],[[139.3593974962416,35.594544136342726],[139.36055204360986,35.59592228115493],[139.3615539235575,35.59922982870421],[139.36620073817184,35.59775738977328],[139.36775603751914,35.59622692369236]],[[139.36775603751914,35.59622692369236],[139.36538969249995,35.5928033218431]],[[139.3918488648317,35.551263135845836],[139.39078019288755,35.55267754762678]],[[139.39078019288755,35.55267754762678],[139.39509304751934,35.55533228973871]],[[139.39509304751934,35.55533228973871],[139.39621896974623,35.55438934855141]],[[139.39621896974623,35.55438934855141],[139.3918488648317,35.551263135845836]],[[139.35447397192743,35.57099236684157],[139.35451213878258,35.57256635328498]],[[139.35451213878258,35.57256635328498],[139.3593402459589,35.572667900797455]],[[139.35876774313166,35.570412095341695],[139.35447397192743,35.57099236684157]],[[139.37225972642668,35.59032266118114],[139.3717253904546,35.590533009599845]],[[139.3717253904546,35.590533009599845],[139.3684621243394,35.591896647624544]],[[139.3684621243394,35.591896647624544],[139.36538969249995,35.5928033218431]],[[139.36775603751914,35.59622692369236],[139.37116242934115,35.594268507380285],[139.37296581324694,35.59503736711762],[139.37445432059772,35.594449842223995]],[[139.37445432059772,35.594449842223995],[139.37225972642668,35.59032266118114]],[[139.36626753016836,35.588813955281466],[139.3625939703603,35.58988745755623]],[[139.3625939703603,35.58988745755623],[139.3640061440008,35.59320225849927]],[[139.3684621243394,35.591896647624544],[139.36626753016836,35.588813955281466]],[[139.3901408980638,35.56008326264393],[139.39209694939018,35.55808132596936]],[[139.39209694939018,35.55808132596936],[139.39509304751934,35.55533228973871]],[[139.39078019288755,35.55267754762678],[139.38949206152628,35.551966715039434]],[[139.38738334277932,35.554599696970115],[139.385245998891,35.557196411932054]],[[139.385245998891,35.557196411932054],[139.38809897131335,35.558850185706696]],[[139.38809897131335,35.558850185706696],[139.3901408980638,35.56008326264393]],[[139.3685384580497,35.577440633883924],[139.36502710737602,35.57970369273343]],[[139.36717399297814,35.58129943935809],[139.37107655391708,35.58038551174579]],[[139.37107655391708,35.58038551174579],[139.3685384580497,35.577440633883924]],[[139.38809897131335,35.558850185706696],[139.38608566970427,35.56143964727489]],[[139.3879176787514,35.56207794592475],[139.3901408980638,35.56008326264393]],[[139.385245998891,35.557196411932054],[139.38467349606375,35.557972525063136]],[[139.38467349606375,35.557972525063136],[139.38379565839534,35.559452217387815]],[[139.38379565839534,35.559452217387815],[139.3830895715751,35.56060550699382]],[[139.3954079240743,35.55994544816271],[139.3953506737916,35.55999622191895]],[[139.3953506737916,35.55999622191895],[139.3930415790551,35.56225928076846]],[[139.3930415790551,35.56225928076846],[139.39152444656295,35.56389129436185]],[[139.3923545756624,35.564362764955504],[139.3978792279452,35.56178781017481]],[[139.3978792279452,35.56178781017481],[139.3954079240743,35.55994544816271]],[[139.41334634599414,35.561164018312446],[139.41052199871316,35.56521866541782]],[[139.41052199871316,35.56521866541782],[139.41252575860847,35.56660406362377]],[[139.41252575860847,35.56660406362377],[139.41639969440604,35.563702706124396],[139.41586535843396,35.5625204029434]],[[139.41586535843396,35.5625204029434],[139.41334634599414,35.561164018312446]],[[139.38196364934822,35.54403150227865],[139.38017934887003,35.547193981952965]],[[139.38017934887003,35.547193981952965],[139.37897709293284,35.54931197292751]],[[139.37897709293284,35.54931197292751],[139.38205906648608,35.550849692402174]],[[139.38205906648608,35.550849692402174],[139.38529370745994,35.54671525796557]],[[139.38529370745994,35.54671525796557],[139.38196364934822,35.54403150227865]],[[139.37010329911078,35.560888389350005],[139.36737436896766,35.56195463823102]],[[139.36737436896766,35.56195463823102],[139.36963575513522,35.56503733057411]],[[139.36963575513522,35.56503733057411],[139.37160134817537,35.564079882599316]],[[139.37160134817537,35.564079882599316],[139.37010329911078,35.560888389350005]],[[139.3810190196833,35.555397570282445],[139.3796831797531,35.55785647076316]],[[139.3796831797531,35.55785647076316],[139.3796640963255,35.557892737731905]],[[139.3796640963255,35.557892737731905],[139.38379565839534,35.559452217387815]],[[139.38467349606375,35.557972525063136],[139.3830800298613,35.55706585084458]],[[139.3830800298613,35.55706585084458],[139.3810190196833,35.555397570282445]],[[139.38419641037441,35.56566837583022],[139.38075185169726,35.567039267248674]],[[139.38075185169726,35.567039267248674],[139.3821926504791,35.56912099125447]],[[139.3821926504791,35.56912099125447],[139.384797538343,35.56790242110474]],[[139.384797538343,35.56790242110474],[139.38683946509346,35.56694497312994]],[[139.3685384580497,35.577440633883924],[139.36738391068144,35.576062489071724]],[[139.36738391068144,35.576062489071724],[139.36725032668843,35.57607699585922]],[[139.36725032668843,35.57607699585922],[139.3633477657495,35.57798463841506]],[[139.3633477657495,35.57798463841506],[139.36502710737602,35.57970369273343]],[[139.4155409401652,35.55800879203188],[139.4110754181128,35.560308117850134]],[[139.4110754181128,35.560308117850134],[139.41102770954387,35.560329878031375]],[[139.41102770954387,35.560329878031375],[139.41334634599414,35.561164018312446]],[[139.41586535843396,35.5625204029434],[139.41771645090867,35.56097543007499],[139.41774507605004,35.5583569549318],[139.4155409401652,35.55800879203188]],[[139.37249826927138,35.57673705469033],[139.3685384580497,35.577440633883924]],[[139.37107655391708,35.58038551174579],[139.3715822647478,35.580117136177094]],[[139.3715822647478,35.580117136177094],[139.37241239384727,35.579195955171045]],[[139.37241239384727,35.579195955171045],[139.37249826927138,35.57673705469033]],[[139.37857634095377,35.57082553878536],[139.37529399141098,35.57235600486627]],[[139.37529399141098,35.57235600486627],[139.37778437870944,35.57599720852799]],[[139.37778437870944,35.57599720852799],[139.37797521298518,35.576280090884175]],[[139.37797521298518,35.576280090884175],[139.37871946666058,35.5773028194027]],[[139.37871946666058,35.5773028194027],[139.38185869049656,35.575627285446814]],[[139.38185869049656,35.575627285446814],[139.37857634095377,35.57082553878536]],[[139.37897709293284,35.54931197292751],[139.37780346213702,35.55135742996457]],[[139.37780346213702,35.55135742996457],[139.37651533077576,35.55368576935781]],[[139.37651533077576,35.55368576935781],[139.38061826770422,35.55512194132]],[[139.38061826770422,35.55512194132],[139.38280332016149,35.55124137566459]],[[139.38280332016149,35.55124137566459],[139.38205906648608,35.550849692402174]],[[139.379015259788,35.55947397756906],[139.37806108840928,35.56173703641857]],[[139.37806108840928,35.56173703641857],[139.38194456592063,35.56265096403087]],[[139.38306094643374,35.560627267175065],[139.379015259788,35.55947397756906]],[[139.38953022838143,35.57804266556504],[139.38849972329243,35.576780575052815]],[[139.38849972329243,35.576780575052815],[139.38692534051754,35.57761471533389],[139.3847116629189,35.574822158740744],[139.38587575200094,35.57353105465352]],[[139.38587575200094,35.57353105465352],[139.38416778523305,35.574423222084576]],[[139.38416778523305,35.574423222084576],[139.38185869049656,35.575627285446814]],[[139.37871946666058,35.5773028194027],[139.37856679924,35.577382606733934]],[[139.37856679924,35.577382606733934],[139.38028430772167,35.58014614975209]],[[139.38028430772167,35.58014614975209],[139.38166785622082,35.57897835335859],[139.38492158062223,35.578797018514884],[139.38542729145294,35.57997932169587],[139.38953022838143,35.57804266556504]],[[139.38280332016149,35.55124137566459],[139.38511241489797,35.55267754762678]],[[139.38693488223132,35.55057406343974],[139.38818484673743,35.54899282360258]],[[139.38807988788577,35.548913036271344],[139.38529370745994,35.54671525796557]],[[139.40397638305518,35.560250090700144],[139.4030603785316,35.559372430056584]],[[139.4030603785316,35.559372430056584],[139.4005986163745,35.560511212875085]],[[139.4005986163745,35.560511212875085],[139.3978792279452,35.56179506356856]],[[139.3978792279452,35.56179506356856],[139.39856623133787,35.5627742717246]],[[139.39856623133787,35.5627742717246],[139.40030282324713,35.5637172129119]],[[139.40030282324713,35.5637172129119],[139.40397638305518,35.560250090700144]],[[139.3546552644894,35.5761930501592],[139.35460755592047,35.5761930501592]],[[139.35460755592047,35.5761930501592],[139.35221258575987,35.57623657052169]],[[139.35221258575987,35.57623657052169],[139.3525560874562,35.57881152530238]],[[139.3525560874562,35.57881152530238],[139.35268012973546,35.58362052535759]],[[139.35485564047892,35.57910891444607],[139.3546552644894,35.5761930501592]],[[139.39494038009875,35.56844642563587],[139.39073248431862,35.570927086297836]],[[139.39073248431862,35.570927086297836],[139.39070385917725,35.57094159308533]],[[139.39070385917725,35.57094159308533],[139.39265036878982,35.572805715278676]],[[139.39265036878982,35.572805715278676],[139.39603767718427,35.57311035781611]],[[139.39603767718427,35.57311035781611],[139.39590409319123,35.57001315868553],[139.39494038009875,35.56844642563587]],[[139.35928299567615,35.56163548890609],[139.35543768501995,35.563840520605616]],[[139.35543768501995,35.563840520605616],[139.35387284395884,35.56602379212389]],[[139.35387284395884,35.56602379212389],[139.3581379900217,35.5676122853548],[139.3608764618786,35.56794594146723]],[[139.3608764618786,35.56794594146723],[139.36085737845104,35.56437001834925]],[[139.36085737845104,35.56437001834925],[139.36080966988212,35.563441583949455]],[[139.36080966988212,35.563441583949455],[139.35928299567615,35.56163548890609]],[[139.37160134817537,35.564079882599316],[139.3736719000672,35.56339081019321]],[[139.3736719000672,35.56339081019321],[139.37426348632198,35.56082310880627]],[[139.37426348632198,35.56082310880627],[139.37010329911078,35.560888389350005]],[[139.40747819201505,35.55732697301953],[139.4110754181128,35.560308117850134]],[[139.4155409401652,35.55800879203188],[139.4166573206783,35.55736323998827],[139.41336542942173,35.55459244357637],[139.40747819201505,35.55732697301953]],[[139.39900515017206,35.556398538619725],[139.39814639593124,35.55730521283828]],[[139.39814639593124,35.55730521283828],[139.39739260054205,35.55800879203188]],[[139.39739260054205,35.55800879203188],[139.4005986163745,35.560511212875085]],[[139.4030603785316,35.559372430056584],[139.4030508368178,35.55936517666284]],[[139.4030508368178,35.55936517666284],[139.39900515017206,35.556398538619725]],[[139.3895588535228,35.58416452988872],[139.39315607962055,35.58309102761395]],[[139.39315607962055,35.58309102761395],[139.39149582142159,35.58040727192704]],[[139.39149582142159,35.58040727192704],[139.39086606831162,35.58190872443296],[139.38885276670254,35.58322158870143],[139.3895588535228,35.58416452988872]],[[139.38075185169726,35.567039267248674],[139.37719279245465,35.5687800817483]],[[139.37719279245465,35.5687800817483],[139.37857634095377,35.57082553878536]],[[139.37857634095377,35.57082553878536],[139.3821926504791,35.56912099125447]],[[139.35221258575987,35.57623657052169],[139.34838635853123,35.57636713160916]],[[139.34838635853123,35.57636713160916],[139.3468406008977,35.580392765139536]],[[139.3468406008977,35.580392765139536],[139.34472234043696,35.586086679232054],[139.34820506596927,35.58499867016979]],[[139.34820506596927,35.58499867016979],[139.347680271711,35.58446191903241],[139.3525560874562,35.57881152530238]],[[139.35982687336204,35.53414512659954],[139.3559911044196,35.53699571034267]],[[139.3559911044196,35.53699571034267],[139.35970283108279,35.540027628929515],[139.35814753173548,35.54218914026655],[139.3605234184685,35.54169590949166]],[[139.3605234184685,35.54169590949166],[139.36160163212645,35.53815625334242]],[[139.36160163212645,35.53815625334242],[139.36231726066046,35.53308613111227],[139.35982687336204,35.53414512659954]],[[139.39621896974623,35.55438209515766],[139.39621896974623,35.55438934855141]],[[139.39509304751934,35.55533228973871],[139.39814639593124,35.55730521283828]],[[139.39900515017206,35.556398538619725],[139.39621896974623,35.55438209515766]],[[139.3519740429152,35.57106490077906],[139.35033286814382,35.571166448291535]],[[139.35033286814382,35.571166448291535],[139.34838635853123,35.57636713160916]],[[139.35460755592047,35.5761930501592],[139.35451213878258,35.57256635328498]],[[139.35447397192743,35.57099236684157],[139.3519740429152,35.57106490077906]],[[139.36702132555754,35.56877282835455],[139.3684430409118,35.57060068357915]],[[139.3684430409118,35.57060068357915],[139.37223110128534,35.568555226542095]],[[139.37223110128534,35.568555226542095],[139.37094296992404,35.566814412042476]],[[139.37094296992404,35.566814412042476],[139.36702132555754,35.56877282835455]],[[139.3978792279452,35.56179506356856],[139.3978792279452,35.56178781017481]],[[139.3923545756624,35.564362764955504],[139.39577050919823,35.56627040751134]],[[139.39577050919823,35.56627040751134],[139.39856623133787,35.5627742717246]],[[139.35387284395884,35.56602379212389],[139.3520694600531,35.56908472428573],[139.3519740429152,35.57106490077906]],[[139.3617065909781,35.56894690980451],[139.3608764618786,35.56794594146723]],[[139.3639298102905,35.55832794135681],[139.36380576801128,35.55821914045058]],[[139.36380576801128,35.55821914045058],[139.3636244754493,35.558153859906845]],[[139.3636244754493,35.558153859906845],[139.36300426405316,35.55800153863813]],[[139.36300426405316,35.55800153863813],[139.35928299567615,35.56163548890609]],[[139.36080966988212,35.563441583949455],[139.36306151433587,35.56425396404928]],[[139.36306151433587,35.56425396404928],[139.36401568571458,35.563608412005664]],[[139.36401568571458,35.563608412005664],[139.36477902281757,35.56212146628724],[139.36470268910728,35.55938693684408],[139.3639298102905,35.55832794135681]],[[139.37488369771816,35.54814417653401],[139.37259368640923,35.550443502352266]],[[139.37259368640923,35.550443502352266],[139.37780346213702,35.55135742996457]],[[139.37897709293284,35.54931197292751],[139.37488369771816,35.54814417653401]],[[139.37234560185078,35.56849719939211],[139.37223110128534,35.568555226542095]],[[139.3684430409118,35.57060068357915],[139.3697979642696,35.57238501844127]],[[139.3697979642696,35.57238501844127],[139.37385319262913,35.57044836231044]],[[139.37385319262913,35.57044836231044],[139.37234560185078,35.56849719939211]],[[139.3821926504791,35.56912099125447],[139.3846544126362,35.57279846188493],[139.38416778523305,35.574423222084576]],[[139.38587575200094,35.57353105465352],[139.38757417705506,35.57263163382871]],[[139.38757417705506,35.57263163382871],[139.38860468214406,35.57208037590384]],[[139.38860468214406,35.57208037590384],[139.384797538343,35.56790242110474]],[[139.35646819010896,35.52800150209462],[139.3542735959379,35.528806628800695],[139.34877756879652,35.53562481892422]],[[139.34877756879652,35.53562481892422],[139.35114391381572,35.533992805330826],[139.35258471259758,35.53486321258063]],[[139.35258471259758,35.53486321258063],[139.35824294887337,35.530286321125374]],[[139.35824294887337,35.530286321125374],[139.35646819010896,35.52800150209462]],[[139.39265036878982,35.572805715278676],[139.39150536313537,35.580334737989546]],[[139.39150536313537,35.580334737989546],[139.39832768849317,35.58090050270193]],[[139.39832768849317,35.58090050270193],[139.39932002672705,35.57392999130968]],[[139.39932002672705,35.57392999130968],[139.39603767718427,35.57311035781611]],[[139.38849972329243,35.576780575052815],[139.38757417705506,35.57561277865932],[139.38757417705506,35.57263163382871]],[[139.3748550725768,35.558313434569314],[139.37426348632198,35.56082310880627]],[[139.37426348632198,35.56082310880627],[139.37806108840928,35.56173703641857]],[[139.379015259788,35.55947397756906],[139.3748550725768,35.558313434569314]],[[139.40201079001503,35.57040484194795],[139.3989860667445,35.57303057048488],[139.39938681872354,35.57335697320356]],[[139.39938681872354,35.57335697320356],[139.40261191798362,35.57617128997795]],[[139.40261191798362,35.57617128997795],[139.40411950876197,35.5754894709656],[139.40813657026638,35.57575784653429]],[[139.40813657026638,35.57575784653429],[139.40201079001503,35.57040484194795]],[[139.3565063569641,35.55789999112565],[139.35647773182274,35.557878230944404]],[[139.35647773182274,35.557878230944404],[139.35298546457665,35.56087388256251]],[[139.35298546457665,35.56087388256251],[139.35223166918746,35.5618168237498]],[[139.35223166918746,35.5618168237498],[139.35401596966565,35.56212146628724],[139.35543768501995,35.563840520605616]],[[139.35928299567615,35.56163548890609],[139.3565063569641,35.55789999112565]],[[139.38846155643728,35.58478106835734],[139.3895588535228,35.58416452988872]],[[139.39149582142159,35.58040727192704],[139.38953022838143,35.57804266556504]],[[139.38028430772167,35.58014614975209],[139.38211631676882,35.58245998235784],[139.3837002412575,35.58794354803165]],[[139.3837002412575,35.58794354803165],[139.38846155643728,35.58478106835734]],[[139.36923500315615,35.55512919471375],[139.3688247094633,35.557696896100694]],[[139.3688247094633,35.557696896100694],[139.3748359891492,35.558313434569314]],[[139.3748359891492,35.558313434569314],[139.3752271994145,35.55666691418842]],[[139.3752271994145,35.55666691418842],[139.37547528397295,35.55574573318237]],[[139.37547528397295,35.55574573318237],[139.36923500315615,35.55512919471375]],[[139.36737436896766,35.56195463823102],[139.36401568571458,35.563608412005664]],[[139.36306151433587,35.56425396404928],[139.36253672007757,35.564500579436725]],[[139.36253672007757,35.564500579436725],[139.3657045690549,35.56700300027993]],[[139.3657045690549,35.56700300027993],[139.36963575513522,35.56503733057411]],[[139.41102770954387,35.560329878031375],[139.4067053131983,35.562585683487136]],[[139.4067053131983,35.562585683487136],[139.4088426570866,35.56405812241807]],[[139.4088426570866,35.56405812241807],[139.41051245699936,35.56521141202407]],[[139.41051245699936,35.56521141202407],[139.41052199871316,35.56521866541782]],[[139.3501992841508,35.55958277847529],[139.3501134087267,35.561708022843575]],[[139.3501134087267,35.561708022843575],[139.34990349102338,35.563427077161954],[139.34813827397278,35.564602126949204],[139.34934052990994,35.565798936917695]],[[139.34934052990994,35.565798936917695],[139.35223166918746,35.5618168237498]],[[139.35298546457665,35.56087388256251],[139.3501992841508,35.55958277847529]],[[139.3657045690549,35.56700300027993],[139.36702132555754,35.5687800817483]],[[139.36702132555754,35.5687800817483],[139.36702132555754,35.56877282835455]],[[139.37094296992404,35.566814412042476],[139.37095251163785,35.56680715864872]],[[139.37095251163785,35.56680715864872],[139.36963575513522,35.56503733057411]],[[139.3612485887163,35.55014611320858],[139.35968374765523,35.55161129874576]],[[139.35968374765523,35.55161129874576],[139.35788036374944,35.55662339382593]],[[139.35788036374944,35.55662339382593],[139.362966097198,35.55800153863813]],[[139.362966097198,35.55800153863813],[139.36353860002524,35.55478828520757],[139.3612485887163,35.55014611320858]],[[139.36687819985073,35.55457068339512],[139.36687819985073,35.55457068339512]],[[139.3788625923674,35.543059547516364],[139.37581878566928,35.54579407695952]],[[139.37581878566928,35.54579407695952],[139.38017934887003,35.547193981952965]],[[139.38196364934822,35.54403150227865],[139.3812957293831,35.541782950216636],[139.3788625923674,35.543059547516364]],[[139.38061826770422,35.55512194132],[139.3810190196833,35.555397570282445]],[[139.3830800298613,35.55706585084458],[139.382870112158,35.55547010421993],[139.3847307463465,35.553141764826684]],[[139.37719279245465,35.5687800817483],[139.37385319262913,35.57044836231044]],[[139.37385319262913,35.57044836231044],[139.37529399141098,35.57235600486627]],[[139.3736719000672,35.56339081019321],[139.37469286344242,35.564943036455375]],[[139.37469286344242,35.564943036455375],[139.37581878566928,35.566683850955]],[[139.37581878566928,35.566683850955],[139.3792251774913,35.56487050251789]],[[139.3792251774913,35.56487050251789],[139.37993126431155,35.56449332604298]],[[139.37993126431155,35.56449332604298],[139.3772309593098,35.56373171969939]],[[139.3772309593098,35.56373171969939],[139.3736719000672,35.56339081019321]],[[139.33617296488367,35.54190625791036],[139.3345222483985,35.54476409504724]],[[139.3345222483985,35.54476409504724],[139.33258528049973,35.54696187335302]],[[139.33258528049973,35.54696187335302],[139.32980864178765,35.54841980549645],[139.32937926466724,35.54947880098372],[139.32585837227978,35.55076990507094],[139.32492328432863,35.54810065617152],[139.32293860786092,35.54815868332151]],[[139.32293860786092,35.54815868332151],[139.32412178037052,35.551263135845836],[139.324054988374,35.556159176626025],[139.3277667150372,35.556616140432176],[139.33146889998662,35.55945947078156],[139.33466537410533,35.560271850881385],[139.33649738315245,35.56238984185593]],[[139.33649738315245,35.56238984185593],[139.3395125647092,35.56132359297491],[139.33894960359575,35.558110339544356],[139.33685996827637,35.55527426258872],[139.33925493843694,35.55239466527059],[139.33826260020308,35.55161855213951],[139.34033315209487,35.55060307701473],[139.3410678640565,35.55123412227084],[139.34398762847536,35.549007330390076],[139.34137319889768,35.54746235752166],[139.3437300022031,35.54436515839108],[139.34234645370398,35.543182855210084],[139.34213653600065,35.540644167398135],[139.33819580820656,35.542203647054045],[139.33617296488367,35.54190625791036]],[[139.33246123822047,35.55345366075786],[139.33418828841596,35.55367126257032],[139.33685042656256,35.555259755801224],[139.33740384596223,35.55874138480047],[139.33657371686274,35.55917658842537],[139.3325184885032,35.554657724120105],[139.33246123822047,35.55345366075786]],[[139.35258471259758,35.53486321258063],[139.3559911044196,35.53699571034267]],[[139.35982687336204,35.53414512659954],[139.35760365404963,35.53304261074978],[139.3556285192957,35.53401456551207],[139.35684031694666,35.532121429743725],[139.3590921614004,35.53095363335023],[139.35824294887337,35.530286321125374]],[[139.3300758097737,35.54643962900313],[139.3272419207789,35.54612773307195],[139.3247229083391,35.54423459730361]],[[139.3247229083391,35.54423459730361],[139.32281456558167,35.547114194621734],[139.32293860786092,35.54815868332151]],[[139.33258528049973,35.54696187335302],[139.3298658920704,35.54791932132781],[139.3300758097737,35.54643962900313]],[[139.38683946509346,35.56694497312994],[139.38906268440584,35.56898317677325]],[[139.38906268440584,35.56898317677325],[139.39390987500974,35.568098262735944],[139.39577050919823,35.56627040751134]],[[139.3588154517006,35.54434339820983],[139.35707885979133,35.545953651621986],[139.3543499296482,35.55013885981483]],[[139.3543499296482,35.55013885981483],[139.35482701533755,35.549747176552415]],[[139.35482701533755,35.549747176552415],[139.35565714443703,35.5488912760901]],[[139.35565714443703,35.5488912760901],[139.3588154517006,35.54434339820983]],[[139.39151490484915,35.55102377385214],[139.3918488648317,35.551263135845836]],[[139.39621896974623,35.55438209515766],[139.39744985082476,35.553120004645436],[139.39233549223485,35.55018238017732]],[[139.3339306621437,35.543654325803736],[139.33107768972135,35.542638850678955],[139.33018076862535,35.54136950677298]],[[139.33018076862535,35.54136950677298],[139.3247229083391,35.54423459730361]],[[139.3300758097737,35.54643962900313],[139.33206048624143,35.543719606347466],[139.3339306621437,35.543654325803736]],[[139.3574032780601,35.58269209095779],[139.35676398323636,35.58174189637674]],[[139.3633477657495,35.57798463841506],[139.36133446414038,35.57910891444607]],[[139.36133446414038,35.57910891444607],[139.36175429954704,35.58196675158295]],[[139.3618497166849,35.58238019502661],[139.36262259550168,35.58222062036414]],[[139.3697979642696,35.57238501844127],[139.3658667781893,35.574299914390856]],[[139.3658667781893,35.574299914390856],[139.36725032668843,35.57607699585922]],[[139.36738391068144,35.576062489071724],[139.37124830476526,35.574285407603355]],[[139.37124830476526,35.574285407603355],[139.3697979642696,35.57238501844127]],[[139.36455002168665,35.57261712704122],[139.3645213965453,35.57257360667873]],[[139.3645213965453,35.57257360667873],[139.36004633277912,35.574945466434464]],[[139.36004633277912,35.574945466434464],[139.36068562760286,35.57695465650278]],[[139.36068562760286,35.57695465650278],[139.3658572364755,35.574299914390856]],[[139.3658572364755,35.574299914390856],[139.36455002168665,35.57261712704122]],[[139.3930415790551,35.56225928076846],[139.3901408980638,35.56008326264393]],[[139.37529399141098,35.57235600486627],[139.37124830476526,35.574285407603355]],[[139.37124830476526,35.574285407603355],[139.37249826927138,35.57673705469033]],[[139.37249826927138,35.57673705469033],[139.37778437870944,35.57599720852799]],[[139.3658667781893,35.574299914390856],[139.3658572364755,35.574299914390856]],[[139.36068562760286,35.57695465650278],[139.36068562760286,35.576961909896525]],[[139.4088426570866,35.56405812241807],[139.40410996704819,35.56825783739841]],[[139.40410996704819,35.56825783739841],[139.40677210519482,35.57006393244177],[139.4085659473868,35.56979555687308]],[[139.4085659473868,35.56979555687308],[139.41051245699936,35.56521141202407]],[[139.3953506737916,35.55999622191895],[139.39209694939018,35.55808132596936]],[[139.36004633277912,35.574945466434464],[139.3546552644894,35.5761930501592]],[[139.3715822647478,35.580117136177094],[139.37210705900608,35.58074818143321]],[[139.37210705900608,35.58074818143321],[139.37856679924,35.577382606733934]],[[139.37797521298518,35.576280090884175],[139.37241239384727,35.579195955171045]],[[139.36596219532717,35.58153880135179],[139.36700224212996,35.58345369730137]],[[139.36700224212996,35.58345369730137],[139.37210705900608,35.58074818143321]],[[139.39739260054205,35.55800879203188],[139.3954079240743,35.55994544816271]],[[139.39747847596612,35.56739468354235],[139.39494038009875,35.56844642563587]],[[139.39932002672705,35.57392999130968],[139.39938681872354,35.57335697320356]],[[139.40201079001503,35.57040484194795],[139.39747847596612,35.56739468354235]],[[139.40747819201505,35.55732697301953],[139.4030508368178,35.55936517666284]],[[139.40397638305518,35.560250090700144],[139.4066862297707,35.562585683487136]],[[139.4066862297707,35.562585683487136],[139.4067053131983,35.562585683487136]],[[139.4066862297707,35.562585683487136],[139.40204895687017,35.56499381021162]],[[139.40204895687017,35.56499381021162],[139.3975071011075,35.567372923361106]],[[139.3975071011075,35.567372923361106],[139.39747847596612,35.56739468354235]],[[139.40201079001503,35.57040484194795],[139.40410996704819,35.56825783739841]],[[139.39828952163802,35.58116162487687],[139.39316562133433,35.5831127877952]],[[139.39316562133433,35.5831127877952],[139.39484496296086,35.584367624913675]],[[139.39484496296086,35.584367624913675],[139.39997840497836,35.58438938509492],[139.39974940384747,35.58256152987032]],[[139.39974940384747,35.58256152987032],[139.39828952163802,35.58116162487687]],[[139.40030282324713,35.5637172129119],[139.40204895687017,35.56499381021162]],[[139.36737436896766,35.56195463823102],[139.36552327649295,35.55941595041907],[139.3639298102905,35.55832794135681]],[[139.362966097198,35.55800153863813],[139.36300426405316,35.55800153863813]],[[139.3636244754493,35.558153859906845],[139.36703086727132,35.55615192323228],[139.36765107866748,35.55462145715136],[139.37043725909334,35.55254698653931]],[[139.37043725909334,35.55254698653931],[139.37163951503052,35.55051603628975]],[[139.37163951503052,35.55051603628975],[139.37066626022423,35.54944978740873],[139.36901554373907,35.54473508147225],[139.36780374608807,35.546134986465695],[139.36737436896766,35.54453923984104],[139.36530381707584,35.54299426697263],[139.36185925839868,35.54674427154057],[139.3612485887163,35.55014611320858]],[[139.3645213965453,35.57257360667873],[139.36316647318753,35.57082553878536]],[[139.3837002412575,35.58794354803165],[139.38369069954368,35.5879508014254]],[[139.38369069954368,35.5879508014254],[139.38426320237093,35.58856733989402]],[[139.38426320237093,35.58856733989402],[139.38842338958213,35.58856008650027],[139.3896924375158,35.58684828557564]],[[139.3896924375158,35.58684828557564],[139.38846155643728,35.58478106835734]],[[139.37110517905845,35.55275008156426],[139.37043725909334,35.55254698653931]],[[139.36380576801128,35.55821914045058],[139.3688247094633,35.557696896100694]],[[139.36923500315615,35.55512919471375],[139.37110517905845,35.55275008156426]],[[139.35033286814382,35.571166448291535],[139.34785202255915,35.57055716321666],[139.34517080098496,35.57337147999105],[139.3411251143392,35.57652670627162],[139.34272812225547,35.582010271945435],[139.34584826266385,35.58013889635834],[139.3468406008977,35.580392765139536]],[[139.4085659473868,35.56979555687308],[139.4087663233763,35.573327959628564],[139.40985407874805,35.573364226597306]],[[139.40985407874805,35.573364226597306],[139.41282155173585,35.566981240098684],[139.41252575860847,35.56660406362377]],[[139.39577050919823,35.56627040751134],[139.3975071011075,35.567372923361106]],[[139.39150536313537,35.580334737989546],[139.39149582142159,35.58040727192704]],[[139.39315607962055,35.58309102761395],[139.39316562133433,35.5831127877952]],[[139.39828952163802,35.58116162487687],[139.39832768849317,35.58090050270193]],[[139.36253672007757,35.564500579436725],[139.36085737845104,35.56437001834925]],[[139.3617065909781,35.56894690980451],[139.3657045690549,35.56700300027993]],[[139.38860468214406,35.57208037590384],[139.39070385917725,35.57094159308533]],[[139.39073248431862,35.570927086297836],[139.38906268440584,35.56898317677325]],[[139.37581878566928,35.54579407695952],[139.37488369771816,35.54814417653401]],[[139.36700224212996,35.58345369730137],[139.36680186614043,35.5835624982076]],[[139.36680186614043,35.5835624982076],[139.3683857906291,35.586122946200796]],[[139.3683857906291,35.586122946200796],[139.3717253904546,35.590533009599845]],[[139.37225972642668,35.59032266118114],[139.3775840027199,35.588037842150385],[139.3790915934983,35.58912585121265],[139.38369069954368,35.5879508014254]],[[139.37547528397295,35.55574573318237],[139.37649624734817,35.55371478293281]],[[139.37649624734817,35.55371478293281],[139.37110517905845,35.55275008156426]],[[139.37581878566928,35.566683850955],[139.37579970224172,35.56669110434875]],[[139.37579970224172,35.56669110434875],[139.37719279245465,35.5687800817483]],[[139.38075185169726,35.567039267248674],[139.3792251774913,35.56487050251789]],[[139.39974940384747,35.58256152987032],[139.40110432720525,35.580030095452116],[139.40133332833614,35.577339086371445],[139.40261191798362,35.57617128997795]],[[139.36680186614043,35.5835624982076],[139.36373897601476,35.58518725840725]],[[139.36372943430098,35.585201765194746],[139.36543740106887,35.58763890549422]],[[139.36543740106887,35.58763890549422],[139.3683857906291,35.586122946200796]],[[139.40813657026638,35.57575784653429],[139.40985407874805,35.573364226597306]],[[139.3631950983289,35.570811031997856],[139.36702132555754,35.5687800817483]],[[139.3684430409118,35.57060068357915],[139.36455002168665,35.57261712704122]],[[139.34820506596927,35.58499867016979],[139.35268012973546,35.58363503214508]],[[139.36494123195195,35.534413502168235],[139.3634050160322,35.53727859269886],[139.3617161326919,35.53773555650501]],[[139.3617161326919,35.53773555650501],[139.36160163212645,35.53815625334242]],[[139.3605234184685,35.54169590949166],[139.3588154517006,35.54434339820983]],[[139.35565714443703,35.5488912760901],[139.35696435922588,35.549471547589974],[139.35519914217525,35.55083518561468],[139.35482701533755,35.549747176552415]],[[139.3543499296482,35.55013885981483],[139.35408276166217,35.55037096841478]],[[139.35408276166217,35.55037096841478],[139.3538251353899,35.55166932589575],[139.35074316183668,35.55406294583273],[139.34755622943175,35.557609855375716]],[[139.34755622943175,35.557609855375716],[139.34669747519092,35.56063452056881]],[[139.34669747519092,35.56063452056881],[139.3501134087267,35.561708022843575]],[[139.3501992841508,35.55958277847529],[139.35267058802165,35.55642029880097]],[[139.35267058802165,35.55642029880097],[139.3571647352154,35.55304747070795],[139.35968374765523,35.55161129874576]],[[139.37163951503052,35.55051603628975],[139.37259368640923,35.550443502352266]],[[139.3788625923674,35.543059547516364],[139.37377685891883,35.541188171929264],[139.3727749789712,35.5401146696545],[139.37278452068497,35.53705373749266],[139.36710720098162,35.53322394559349],[139.36494123195195,35.534413502168235]],[[139.37445432059772,35.594449842223995],[139.37622907936213,35.592455158943174],[139.37928242777403,35.59016308651867],[139.38082818540755,35.590518502812344],[139.38426320237093,35.58856733989402]],[[139.3799694311667,35.564500579436725],[139.37993126431155,35.56449332604298]],[[139.37651533077576,35.55368576935781],[139.37649624734817,35.55371478293281]],[[139.3752271994145,35.55666691418842],[139.3796831797531,35.55785647076316]],[[139.37010329911078,35.560888389350005],[139.3688247094633,35.557696896100694]],[[139.37579970224172,35.56669110434875],[139.37234560185078,35.56849719939211]],[[139.36626753016836,35.588813955281466],[139.36543740106887,35.58763890549422]],[[139.35611514669884,35.58916937157514],[139.35698344265344,35.591512217755884]],[[139.35698344265344,35.591512217755884],[139.3625939703603,35.58988745755623]],[[139.37469286344242,35.564943036455375],[139.37095251163785,35.56680715864872]],[[139.3748550725768,35.558313434569314],[139.3748359891492,35.558313434569314]],[[139.35788036374944,35.55662339382593],[139.3565063569641,35.55789999112565]],[[139.35267058802165,35.55642029880097],[139.35647773182274,35.557878230944404]],[[139.3796640963255,35.557892737731905],[139.379015259788,35.55947397756906]],[[139.3772309593098,35.56373171969939],[139.37806108840928,35.56173703641857]],[[139.35408276166217,35.55037096841478],[139.34997982473368,35.552902402832984],[139.34836727510367,35.555114687926256],[139.34755622943175,35.557609855375716]],[[139.3345222483985,35.54476409504724],[139.3339306621437,35.543654325803736]],[[139.34877756879652,35.53562481892422],[139.3547220564859,35.54007114929201],[139.3559911044196,35.53699571034267]],[[139.35698344265344,35.591512217755884],[139.35819524030444,35.59487779245515],[139.3593974962416,35.594544136342726]],[[139.34934052990994,35.565798936917695],[139.35186908406354,35.56528394596155],[139.35387284395884,35.56602379212389]],[[139.33617296488367,35.54190625791036],[139.33367303587144,35.539483624398386]],[[139.33367303587144,35.539483624398386],[139.33018076862535,35.54136950677298]],[[139.36494123195195,35.534413502168235],[139.36253672007757,35.535777140192934],[139.3617161326919,35.53773555650501]],[[139.35646819010896,35.52800150209462],[139.35519914217525,35.52673215818864],[139.3515446657948,35.52939415369432],[139.34346283421706,35.53298458359979],[139.33367303587144,35.539483624398386]],[[139.33649738315245,35.56238984185593],[139.32870180298835,35.564362764955504],[139.33068647945606,35.568613253692085],[139.3312685239971,35.56844642563587],[139.33551458663237,35.571166448291535],[139.3370412608383,35.57329169265982],[139.33836755905472,35.57292176957865],[139.3394934812816,35.57099236684157],[139.34092473834968,35.57068047091039],[139.34669747519092,35.56063452056881]],[[139.3896924375158,35.58684828557564],[139.39144811285266,35.58490437605106],[139.39406254243033,35.58592710456959],[139.39484496296086,35.584367624913675]]]}