{"type":"Topology","bbox":[139.0660082683635,35.474602940534666,139.36141666116924,35.67303496244972],"objects":{"town":{"type":"GeometryCollection","geometries":[{"type":"Polygon","arcs":[[0,1,2]],"properties":{"name":"相原（番）"}},{"type":"MultiPolygon","arcs":[[[27,-90,298,31,32,33,18,20,21,22,6,7,8,30]]],"properties":{"name":"相原"}},{"type":"MultiPolygon","arcs":[[[-31,-9,64,24,25,26,15,9,10,-3,11,12,86,87,88,89,-28]]],"properties":{"name":"二本松"}},{"type":"MultiPolygon","arcs":[[[150,151,35,36,-118,-63,-150,-114,152,153,154,155,156,157]]],"properties":{"name":"大島"}},{"type":"MultiPolygon","arcs":[[[158,55,56,57,58,42,43,38,39,307,-270]]],"properties":{"name":"城山"}},{"type":"MultiPolygon","arcs":[[[45,46,99,100,97,-129,-212,-51,-50,-184,-79,109,67,-7,-23,175]]],"properties":{"name":"橋本"}},{"type":"Polygon","arcs":[[48,49,50,51,52]],"properties":{"name":"大山町"}},{"type":"MultiPolygon","arcs":[[[61,62,59,-117,-195,69,70,71,72,73,74,75]]],"properties":{"name":"向原"}},{"type":"MultiPolygon","arcs":[[[101,-25,-65,-8,-68,-110,78,183,-49,184,-141,-168]]],"properties":{"name":"西橋本"}},{"type":"Polygon","arcs":[[80,81,82,83,84,85]],"properties":{"name":"川尻本沢、宝沢、雨降、滝尻、"}},{"type":"MultiPolygon","arcs":[[[194,-121,-182,-216,-125,291,-268,91,92,93,-72,-71,-70]]],"properties":{"name":"久保沢"}},{"type":"MultiPolygon","arcs":[[[146,-133,-137,-299,-89,-88,204,-143,108,104,-73,-94,-93,310]]],"properties":{"name":"原宿"}},{"type":"Polygon","arcs":[[112,113,114,-75,115]],"properties":{"name":"川尻山野"}},{"type":"Polygon","arcs":[[116,-60,117,-37,118,119,120]],"properties":{"name":"川尻向原"}},{"type":"MultiPolygon","arcs":[[[-214,-58,-57,217,218,-246,-269,-292,124,125,-215]]],"properties":{"name":"若葉台"}},{"type":"MultiPolygon","arcs":[[[126]],[[186,187,188,-155,189,-153,-113,-162,-1,-11,190,191,-172,-169,-139,192,193]]],"properties":{"name":"下九沢（番１）"}},{"type":"MultiPolygon","arcs":[[[-52,211,128,-98,-101,172,174,131,212]]],"properties":{"name":"東橋本"}},{"type":"MultiPolygon","arcs":[[[-227,252,300,-33,-32,136,132,-147,-311,-92,-267,-222,-228],[314]]],"properties":{"name":"町屋"}},{"type":"MultiPolygon","arcs":[[[169,170,-16,-27,-26,-102,167,140,-185,250,-193,138,168,171]]],"properties":{"name":"橋本台"}},{"type":"MultiPolygon","arcs":[[[-13,-161,-163,-105,-109,142,-205,-87]]],"properties":{"name":"原宿南"}},{"type":"Polygon","arcs":[[-115,149,-62,-76]],"properties":{"name":"川尻大島界"}},{"type":"Polygon","arcs":[[160,-12,-2,161,-116,-74,162]],"properties":{"name":"川尻横山"}},{"type":"Polygon","arcs":[[163,164,165]],"properties":{"name":"又野"}},{"type":"Polygon","arcs":[[176,177,178,-81]],"properties":{"name":"川尻滝尻、風間、穴川"}},{"type":"MultiPolygon","arcs":[[[181,-120,179,-44,-43,-59,213,214,-126,215]]],"properties":{"name":"谷ヶ原"}},{"type":"Polygon","arcs":[[196,197,-165,198,199,200,201,-85,202]],"properties":{"name":"三井"}},{"type":"Polygon","arcs":[[205,-151,206]],"properties":{"name":"葉山島"}},{"type":"Polygon","arcs":[[207,208,209,210]],"properties":{"name":"青根"}},{"type":"Polygon","arcs":[[221,222,223,224,-178,225,226,227]],"properties":{"name":"広田"}},{"type":"Polygon","arcs":[[228,229,230,231],[232]],"properties":{"name":"与瀬"}},{"type":"Polygon","arcs":[[233,234,235,236,-230,237]],"properties":{"name":"吉野"}},{"type":"Polygon","arcs":[[-224,244,245,-219,246,247,248,-83,249]],"properties":{"name":"川尻小野、松風、篭籠"}},{"type":"Polygon","arcs":[[254,255,-201,256,257]],"properties":{"name":"千木良"}},{"type":"Polygon","arcs":[[-248,258]],"properties":{"name":"川尻"}},{"type":"Polygon","arcs":[[259,260,261,262,263,264,265]],"properties":{"name":"青山"}},{"type":"Polygon","arcs":[[266,267,268,-245,-223]],"properties":{"name":"川尻小松"}},{"type":"Polygon","arcs":[[269,270,-203,-84,-249,-259,-247,-218,-56,-159]],"properties":{"name":"中沢"}},{"type":"Polygon","arcs":[[271,272,273,-234,274,275]],"properties":{"name":"小渕"}},{"type":"Polygon","arcs":[[-22,276,-46,-176]],"properties":{"name":"元橋本町"}},{"type":"Polygon","arcs":[[277,-276,278,279]],"properties":{"name":"名倉"}},{"type":"Polygon","arcs":[[-263,281,282,283,284,-257,-200,285],[286]],"properties":{"name":"寸沢嵐"}},{"type":"Polygon","arcs":[[-179,-225,-250,-82]],"properties":{"name":"川尻穴川"}},{"type":"Polygon","arcs":[[-157,287,288,-187,289]],"properties":{"name":"田名（番２）"}},{"type":"Polygon","arcs":[[-264,-286,-199,-164,290]],"properties":{"name":"三ケ木"}},{"type":"Polygon","arcs":[[292,293,294,-39,-180,-119,-36,-152,-206]],"properties":{"name":"小倉"}},{"type":"Polygon","arcs":[[295,-266,296,297]],"properties":{"name":"長竹"}},{"type":"Polygon","arcs":[[-189,299,-288,-156]],"properties":{"name":"上九沢"}},{"type":"Polygon","arcs":[[-171,301,-191,-10]],"properties":{"name":"下九沢（番３）"}},{"type":"Polygon","arcs":[[302,303,-297,-265,-291,-166,-198]],"properties":{"name":"中野"}},{"type":"Polygon","arcs":[[-210,304,-282,-262,305]],"properties":{"name":"青野原"}},{"type":"Polygon","arcs":[[-211,-306,-261,306]],"properties":{"name":"鳥屋"}},{"type":"Polygon","arcs":[[-287]],"properties":{"name":"若柳"}},{"type":"Polygon","arcs":[[-274,308,309,-235]],"properties":{"name":"澤井"}},{"type":"Polygon","arcs":[[-303,-197,-271,-308,-40,-295,311]],"properties":{"name":"太井"}},{"type":"Polygon","arcs":[[312,-280,313,-283,-305,-209]],"properties":{"name":"牧野"}},{"type":"Polygon","arcs":[[-304,-312,-294,315,-298]],"properties":{"name":"根小屋"}},{"type":"Polygon","arcs":[[-231,-237,316,-255,317]],"properties":{"name":"小原"}},{"type":"Polygon","arcs":[[-279,-275,-238,-229,318,-284,-314]],"properties":{"name":"日連"}},{"type":"Polygon","arcs":[[319,-309,-273]],"properties":{"name":"佐野川"}},{"type":"Polygon","arcs":[[-233]],"properties":{"name":"与瀬本町"}}]}},"arcs":[[[139.31509199271045,35.590419450175254],[139.31473746718655,35.5903202242417]],[[139.31473746718655,35.5903202242417],[139.31473746718655,35.590459140548674]],[[139.31473746718655,35.590459140548674],[139.31509199271045,35.590419450175254]],[[139.32433920012602,35.59859566709985],[139.32333471114157,35.60276315630899]],[[139.32333471114157,35.60276315630899],[139.32490053220556,35.60248532369504]],[[139.32490053220556,35.60248532369504],[139.32924346987357,35.60188996809374]],[[139.32924346987357,35.60188996809374],[139.33116381646147,35.59998483016956],[139.32850487503208,35.59845675079288]],[[139.32850487503208,35.59845675079288],[139.32528460152315,35.59857582191314]],[[139.32528460152315,35.59857582191314],[139.32433920012602,35.59859566709985]],[[139.3219166090459,35.588176944077006],[139.31778047793352,35.58930811971948]],[[139.31778047793352,35.58930811971948],[139.31509199271045,35.590419450175254]],[[139.31473746718655,35.590459140548674],[139.31488518615484,35.59190783917852]],[[139.31488518615484,35.59190783917852],[139.31485564236118,35.59335653780836]],[[139.31485564236118,35.59335653780836],[139.3211780142044,35.594150345276766]],[[139.3211780142044,35.594150345276766],[139.32129618937904,35.58974471382711]],[[139.32129618937904,35.58974471382711],[139.3219166090459,35.588176944077006]],[[139.32333471114157,35.60276315630899],[139.31922812382285,35.60443015199264]],[[139.31922812382285,35.60443015199264],[139.3187554231243,35.606097147676294]],[[139.3187554231243,35.606097147676294],[139.32061668212486,35.60655358697063],[139.32410284977675,35.604906436473684],[139.32519597014215,35.60498581722052]],[[139.32519597014215,35.60498581722052],[139.32490053220556,35.60248532369504]],[[139.32519597014215,35.60498581722052],[139.32844578744476,35.60349742821726],[139.33042522161998,35.60333866672358],[139.3318728675093,35.60427139049896]],[[139.3318728675093,35.60427139049896],[139.33272963752543,35.60192965846716]],[[139.33272963752543,35.60192965846716],[139.32924346987357,35.60188996809374]],[[139.3211780142044,35.594150345276766],[139.32572775842803,35.59470601050465]],[[139.32572775842803,35.59470601050465],[139.32617091533294,35.59190783917852]],[[139.32617091533294,35.59190783917852],[139.3251664263485,35.59000270125434]],[[139.3251664263485,35.59000270125434],[139.32129618937904,35.58974471382711]],[[139.32035078798194,35.59851628635301],[139.32035078798194,35.5984964411663]],[[139.32035078798194,35.5984964411663],[139.31961219314042,35.601969348840576]],[[139.31961219314042,35.601969348840576],[139.31922812382285,35.60443015199264]],[[139.32433920012602,35.59859566709985],[139.32035078798194,35.59851628635301]],[[139.3140284161387,35.601354148052565],[139.31361480302746,35.6016121354798]],[[139.31361480302746,35.6016121354798],[139.3135852592338,35.60468813941987]],[[139.3135852592338,35.60468813941987],[139.31473746718655,35.60554148244841],[139.3187554231243,35.606097147676294]],[[139.31961219314042,35.601969348840576],[139.3140284161387,35.601354148052565]],[[139.31444202924993,35.57025674047772],[139.31334890888454,35.57144745168033],[139.30847418293064,35.57416624225962],[139.30359945697674,35.575614940889466],[139.3015018476269,35.57730178175983],[139.3001723769122,35.57966335897834],[139.2999360265629,35.58345378963998],[139.3006746214044,35.58412852598813]],[[139.3006746214044,35.58412852598813],[139.3022995300557,35.58529939200403]],[[139.3022995300557,35.58529939200403],[139.30359945697674,35.58325533777288],[139.3079128508511,35.58033809532649],[139.31009909158192,35.580477011633455],[139.31237396369374,35.57817496997507],[139.31204898196347,35.575972154250245],[139.31494427374216,35.57404717113936],[139.31686462033005,35.571110083506255],[139.31444202924993,35.57025674047772]],[[139.29125015122688,35.587641124035834],[139.28646405665398,35.584068990428],[139.28557774284417,35.583870538560895]],[[139.28557774284417,35.583870538560895],[139.28345058970066,35.58589474760534]],[[139.28345058970066,35.58589474760534],[139.28862075359115,35.59063774722907],[139.2903638374171,35.59093542502972]],[[139.2903638374171,35.59093542502972],[139.29178193951276,35.590915579843006]],[[139.29178193951276,35.590915579843006],[139.29201828986206,35.59093542502972]],[[139.29201828986206,35.59093542502972],[139.29125015122688,35.587641124035834]],[[139.34664476433926,35.59770263369789],[139.3403519362897,35.60093739913165]],[[139.3403519362897,35.60093739913165],[139.3418291259727,35.60456906829961]],[[139.3418291259727,35.60456906829961],[139.34407445429085,35.60252501406846],[139.34844693575252,35.60188996809374]],[[139.34844693575252,35.60188996809374],[139.34664476433926,35.59770263369789]],[[139.34472441775137,35.58609319947244],[139.34472441775137,35.58613288984586]],[[139.34472441775137,35.58613288984586],[139.34800377884764,35.59256273033996]],[[139.34800377884764,35.59256273033996],[139.3483878481652,35.59315808594126]],[[139.3483878481652,35.59315808594126],[139.35249443548395,35.59101480577656]],[[139.35249443548395,35.59101480577656],[139.3529671361825,35.5883555507574],[139.3526716982459,35.583632396320375],[139.34472441775137,35.58609319947244]],[[139.2903638374171,35.59093542502972],[139.28912299808337,35.59127279320379]],[[139.28912299808337,35.59127279320379],[139.28761626460673,35.591451399884185],[139.28291880141478,35.59367406079573]],[[139.28291880141478,35.59367406079573],[139.28247564450987,35.59536090166609],[139.286375425273,35.595876876520556],[139.28619816251103,35.59756371739092]],[[139.28619816251103,35.59756371739092],[139.28634588147935,35.5973255751504]],[[139.28634588147935,35.5973255751504],[139.28646405665398,35.595797495773716],[139.29033429362343,35.59278102739377]],[[139.29033429362343,35.59278102739377],[139.29178193951276,35.590915579843006]],[[139.30232907384936,35.58533908237745],[139.30173819797616,35.5866091743269]],[[139.30173819797616,35.5866091743269],[139.3017086541825,35.588057872956746],[139.30354036938942,35.58980424938724]],[[139.30354036938942,35.58980424938724],[139.30649474875543,35.58649010320664]],[[139.30649474875543,35.58649010320664],[139.30232907384936,35.58533908237745]],[[139.3211780142044,35.594150345276766],[139.32035078798194,35.59851628635301]],[[139.32528460152315,35.59857582191314],[139.32572775842803,35.59470601050465]],[[139.33272963752543,35.60192965846716],[139.33426591479576,35.60060003095757],[139.3386679400511,35.598278144112484]],[[139.3386679400511,35.598278144112484],[139.33860885246378,35.59784155000486]],[[139.33860885246378,35.59784155000486],[139.32850487503208,35.59845675079288]],[[139.30354036938942,35.58980424938724],[139.30309721248452,35.59081635390946]],[[139.30309721248452,35.59081635390946],[139.30297903730988,35.594269416397026]],[[139.30297903730988,35.594269416397026],[139.30297903730988,35.59434879714387]],[[139.30297903730988,35.59434879714387],[139.30309721248452,35.59432895195716]],[[139.30309721248452,35.59432895195716],[139.30782421947012,35.5932374666881]],[[139.30782421947012,35.5932374666881],[139.30755832532716,35.592999324447575]],[[139.30755832532716,35.592999324447575],[139.30448577078653,35.59073697316262]],[[139.30448577078653,35.59073697316262],[139.30354036938942,35.58980424938724]],[[139.33580219206607,35.59159031619116],[139.33583173585973,35.59347560892862],[139.33397047685915,35.595162449798984]],[[139.33397047685915,35.595162449798984],[139.33922927213064,35.59528152091925]],[[139.33922927213064,35.59528152091925],[139.3409428121629,35.59188799399181]],[[139.3409428121629,35.59188799399181],[139.33580219206607,35.59159031619116]],[[139.2899797680995,35.61250714298368],[139.29145695778251,35.610760766553184],[139.29408635541824,35.6100066494582],[139.29783841721306,35.60687110995799]],[[139.29783841721306,35.60687110995799],[139.293672742307,35.60611699286301],[139.2897729615439,35.60671234846431],[139.2885025784165,35.60782367892008],[139.28348013349432,35.607208478132065],[139.28330287073237,35.606017766929455],[139.27937354617558,35.60530334020789]],[[139.27937354617558,35.60530334020789],[139.2747942581583,35.605204114274336],[139.2715444408557,35.60355696377739]],[[139.2715444408557,35.60355696377739],[139.270214970141,35.60361649933752],[139.26622655799693,35.60071910207784]],[[139.26622655799693,35.60071910207784],[139.26486754348855,35.6024059429482]],[[139.26486754348855,35.6024059429482],[139.26616747040958,35.60526364983447],[139.26622655799693,35.60812135672073],[139.26847188631507,35.6092326871765],[139.2742624698724,35.61111797991397],[139.27955080893756,35.61143550290133],[139.2827710824465,35.61320172451854],[139.2897729615439,35.6121499296229],[139.2899797680995,35.61250714298368]],[[139.31485564236118,35.59335653780836],[139.31515108029777,35.59661114842883]],[[139.31515108029777,35.59661114842883],[139.31541697444072,35.598079692245385]],[[139.31541697444072,35.598079692245385],[139.31541697444072,35.59809953743209]],[[139.31541697444072,35.59809953743209],[139.32035078798194,35.5984964411663]],[[139.30297903730988,35.59434879714387],[139.302447249024,35.59555935353319],[139.3030381248972,35.599230713074576],[139.30262451178595,35.60034204353035]],[[139.30262451178595,35.60034204353035],[139.30395398250067,35.60010390128982]],[[139.30395398250067,35.60010390128982],[139.30507664665973,35.59613486394779]],[[139.30507664665973,35.59613486394779],[139.30309721248452,35.59432895195716]],[[139.3451380308626,35.59486477199833],[139.3386679400511,35.598278144112484]],[[139.3386679400511,35.598278144112484],[139.33896337798768,35.600203127223374],[139.3403519362897,35.60093739913165]],[[139.34664476433926,35.59770263369789],[139.3451380308626,35.59486477199833]],[[139.35104678959462,35.59645238693515],[139.35104678959462,35.59641269656173]],[[139.35104678959462,35.59641269656173],[139.34664476433926,35.59770263369789]],[[139.34844693575252,35.60188996809374],[139.3522876289283,35.600858018384805]],[[139.3522876289283,35.600858018384805],[139.35104678959462,35.59645238693515]],[[139.33027750265165,35.590459140548674],[139.32617091533294,35.59190783917852]],[[139.32572775842803,35.59470601050465],[139.33075020335022,35.59526167573254]],[[139.33075020335022,35.59526167573254],[139.33027750265165,35.590459140548674]],[[139.308356007756,35.59393204822295],[139.30782421947012,35.5932374666881]],[[139.30507664665973,35.59613486394779],[139.30817874499402,35.596849290669354]],[[139.30817874499402,35.596849290669354],[139.308356007756,35.59686913585606]],[[139.308356007756,35.59686913585606],[139.30862190189893,35.59609517357437]],[[139.30862190189893,35.59609517357437],[139.308356007756,35.59393204822295]],[[139.33922927213064,35.59528152091925],[139.33860885246378,35.59784155000486]],[[139.3451380308626,35.59486477199833],[139.3483878481652,35.59315808594126]],[[139.34800377884764,35.59256273033996],[139.3409428121629,35.59188799399181]],[[139.3147079233929,35.58986378494737],[139.3145306606309,35.58774034996938]],[[139.3145306606309,35.58774034996938],[139.31308301474158,35.588018182583326]],[[139.31308301474158,35.588018182583326],[139.30888779604186,35.58978440420053],[139.30448577078653,35.59073697316262]],[[139.30755832532716,35.592999324447575],[139.3102763543439,35.59147124507089],[139.3147079233929,35.58986378494737]],[[139.30040872726147,35.58766096922254],[139.30173819797616,35.5866091743269]],[[139.30232907384936,35.58533908237745],[139.3022995300557,35.58529939200403]],[[139.3006746214044,35.58412852598813],[139.29869518722919,35.58724422030163]],[[139.29869518722919,35.58724422030163],[139.2991974317214,35.58724422030163]],[[139.2991974317214,35.58724422030163],[139.30040872726147,35.58766096922254]],[[139.29715890995888,35.595083069052144],[139.29609533338711,35.595162449798984]],[[139.29609533338711,35.595162449798984],[139.2952976509583,35.59704774253645]],[[139.2952976509583,35.59704774253645],[139.29621350856175,35.59728588477697]],[[139.29621350856175,35.59728588477697],[139.2992860631024,35.5959761024541]],[[139.2992860631024,35.5959761024541],[139.29715890995888,35.595083069052144]],[[139.3517853844361,35.565255753426754],[139.34821058540325,35.56642661944265],[139.3486241985145,35.567954698819335],[139.35019001957846,35.56620832238884],[139.35299667997617,35.56741887877816],[139.35388299378596,35.566029715708446],[139.3517853844361,35.565255753426754]],[[139.35674874177099,35.59087588946959],[139.3497764064672,35.59430910677045]],[[139.3497764064672,35.59430910677045],[139.35104678959462,35.59641269656173]],[[139.35104678959462,35.59645238693515],[139.35595105934215,35.59540059203951]],[[139.35595105934215,35.59540059203951],[139.3581963876603,35.594884617185045]],[[139.3581963876603,35.594884617185045],[139.35674874177099,35.59087588946959]],[[139.31326027750353,35.598159072992225],[139.30800148223207,35.59925055826128]],[[139.30800148223207,35.59925055826128],[139.30788330705744,35.602465478508336]],[[139.30788330705744,35.602465478508336],[139.30903551501018,35.60268377556214]],[[139.30903551501018,35.60268377556214],[139.31361480302746,35.6016121354798]],[[139.3140284161387,35.601354148052565],[139.31326027750353,35.598159072992225]],[[139.33397047685915,35.595162449798984],[139.33075020335022,35.59526167573254]],[[139.33937699109893,35.58381100300077],[139.3334977761606,35.58488264308312],[139.33264100614446,35.585755831298364]],[[139.33264100614446,35.585755831298364],[139.33467952790699,35.58893106117199]],[[139.33467952790699,35.58893106117199],[139.34088372457558,35.586748090633876]],[[139.34088372457558,35.586748090633876],[139.33937699109893,35.58381100300077]],[[139.30862190189893,35.59609517357437],[139.3135852592338,35.59657145805541]],[[139.3135852592338,35.59657145805541],[139.3132898212972,35.59333669262165]],[[139.3132898212972,35.59333669262165],[139.308356007756,35.59393204822295]],[[139.30817874499402,35.596849290669354],[139.3079719384384,35.59925055826128]],[[139.3079719384384,35.59925055826128],[139.30800148223207,35.59925055826128]],[[139.31326027750353,35.598159072992225],[139.31323073370987,35.59762325295105]],[[139.31323073370987,35.59762325295105],[139.308356007756,35.59686913585606]],[[139.31308301474158,35.588018182583326],[139.30649474875543,35.58649010320664]],[[139.3217098024903,35.5604730634296],[139.31973036831508,35.56283464064811],[139.3147670109802,35.56985983674351]],[[139.3147670109802,35.56985983674351],[139.31444202924993,35.57025674047772]],[[139.3145306606309,35.58774034996938],[139.31458974821822,35.587264065488334]],[[139.31458974821822,35.587264065488334],[139.3137329782021,35.58470403640273],[139.31568286858365,35.58545815349771],[139.318607704156,35.584485739348914],[139.31946447417212,35.5852398564439]],[[139.31946447417212,35.5852398564439],[139.3221529593952,35.58454527490904]],[[139.3221529593952,35.58454527490904],[139.3209712076488,35.58164787764936],[139.3263481780949,35.57930614561756],[139.32495961979288,35.5774406980668],[139.32806171812717,35.57674611653194],[139.327382210873,35.57583323794328],[139.32953890781016,35.57517834678184],[139.3299525209214,35.57386856445897],[139.33296598787473,35.57539664383565],[139.3342363710021,35.57517834678184]],[[139.3342363710021,35.57517834678184],[139.32906620711162,35.57063379902521],[139.325816389809,35.56597018014832],[139.327382210873,35.56523590824004],[139.32608228395196,35.56289417620824]],[[139.32608228395196,35.56289417620824],[139.3217098024903,35.5604730634296]],[[139.282032487605,35.58998285606763],[139.28161887449374,35.59184830361839],[139.28235746933524,35.59448771345084],[139.28291880141478,35.59367406079573]],[[139.28912299808337,35.59127279320379],[139.282032487605,35.58998285606763]],[[139.31302392715426,35.59214598141904],[139.31488518615484,35.59190783917852]],[[139.31473746718655,35.5903202242417],[139.3147079233929,35.58986378494737]],[[139.30782421947012,35.5932374666881],[139.31302392715426,35.59214598141904]],[[139.23795314746437,35.589605797520136],[139.23612143225745,35.59127279320379],[139.23573736293986,35.593376382995075],[139.238071322639,35.59490446237176],[139.23931216197272,35.594269416397026],[139.24111433338598,35.595777650587]],[[139.24111433338598,35.595777650587],[139.24318239894217,35.59561888909332],[139.24229608513235,35.59905210639418],[139.24312331135485,35.599667307182195],[139.24770259937213,35.59911164195431],[139.25322728878655,35.59540059203951]],[[139.25322728878655,35.59540059203951],[139.25322728878655,35.59387251266283],[139.25169101151621,35.59347560892862],[139.2503024532142,35.591729232498125],[139.24749579281652,35.59107434133669],[139.24533909587933,35.58982409457395],[139.2443346068949,35.590459140548674],[139.24067117648107,35.58950657158659],[139.23795314746437,35.589605797520136]],[[139.32823898088913,35.58545815349771],[139.33001160850873,35.588375395944105],[139.3251664263485,35.59000270125434]],[[139.33027750265165,35.590459140548674],[139.33467952790699,35.58893106117199]],[[139.33264100614446,35.585755831298364],[139.330336590239,35.585061249763505],[139.32823898088913,35.58545815349771]],[[139.32303927320498,35.586807626194],[139.32227113456983,35.58712514918137]],[[139.32227113456983,35.58712514918137],[139.3219166090459,35.588176944077006]],[[139.32823898088913,35.58545815349771],[139.32637772188855,35.58512078532364],[139.32303927320498,35.586807626194]],[[139.3522876289283,35.600858018384805],[139.3547397638021,35.60056034058415],[139.35660102280266,35.59873458340682]],[[139.35660102280266,35.59873458340682],[139.35595105934215,35.59540059203951]],[[139.35660102280266,35.59873458340682],[139.36135757358193,35.59887349971379],[139.36055989115312,35.595916566893976],[139.35940768320037,35.59454724901097],[139.3581963876603,35.594884617185045]],[[139.33272963752543,35.60192965846716],[139.33775208244762,35.602088419960836],[139.3403519362897,35.60093739913165]],[[139.2899797680995,35.61250714298368],[139.29665666546666,35.609986804271486],[139.29718845375254,35.60804197597389],[139.2987542748165,35.60774429817324],[139.2991974317214,35.60627575435669]],[[139.2991974317214,35.60627575435669],[139.29872473102284,35.60522395946105]],[[139.29872473102284,35.60522395946105],[139.29783841721306,35.60687110995799]],[[139.29869518722919,35.58724422030163],[139.2970702785779,35.588216634450426],[139.29125015122688,35.587641124035834]],[[139.29201828986206,35.59093542502972],[139.2939681802436,35.59159031619116],[139.29851792446723,35.59188799399181],[139.30014283311854,35.592602420713376]],[[139.30014283311854,35.592602420713376],[139.29896108137214,35.5899233205075],[139.2991974317214,35.58724422030163]],[[139.33467952790699,35.58893106117199],[139.33580219206607,35.59159031619116]],[[139.3409428121629,35.59188799399181],[139.34472441775137,35.58613288984586]],[[139.34472441775137,35.58609319947244],[139.34088372457558,35.586748090633876]],[[139.3132898212972,35.59333669262165],[139.31302392715426,35.59214598141904]],[[139.3370430313998,35.57329305404437],[139.33524085998653,35.574622681553954]],[[139.33524085998653,35.574622681553954],[139.337545275892,35.575853083129985],[139.33255237476348,35.58000072715241],[139.3298934333341,35.5788100159498]],[[139.3298934333341,35.5788100159498],[139.32652544085684,35.58277905329184],[139.32386649942745,35.58311642146591],[139.3221529593952,35.58454527490904]],[[139.31946447417212,35.5852398564439],[139.3168941641237,35.586867161754135],[139.31458974821822,35.587264065488334]],[[139.31778047793352,35.58930811971948],[139.31745549620325,35.58873260930489],[139.32194615283956,35.58656948395348]],[[139.32194615283956,35.58656948395348],[139.32303927320498,35.586807626194]],[[139.33937699109893,35.58381100300077],[139.3427154397825,35.58200509101014]],[[139.3427154397825,35.58200509101014],[139.34008604214677,35.573888409645676],[139.33846113349546,35.57283661475004],[139.3370430313998,35.57329305404437]],[[139.30309721248452,35.59081635390946],[139.30141321624592,35.59121325764366],[139.29967013241998,35.58976455901382],[139.30040872726147,35.58766096922254]],[[139.30014283311854,35.592602420713376],[139.30085188416638,35.594229726023606],[139.30297903730988,35.594269416397026]],[[139.27048086428394,35.594805236438205],[139.26968318185513,35.59379313191599],[139.27039223290296,35.59159031619116],[139.26879686804534,35.58920889378594],[139.265872032473,35.588137253703586],[139.26471982452026,35.58539861793758],[139.26229723344014,35.58537877275087]],[[139.26229723344014,35.58537877275087],[139.26164726997962,35.58537877275087],[139.26141091963035,35.58930811971948],[139.25898832855023,35.58980424938724],[139.25712706954965,35.592304742912724],[139.25322728878655,35.59540059203951]],[[139.24111433338598,35.595777650587],[139.23951896852833,35.59978637830246],[139.23943033714735,35.60188996809374],[139.23505785568568,35.601671671039924],[139.23458515498712,35.60036188871705],[139.23050811146206,35.60075879245126]],[[139.23050811146206,35.60075879245126],[139.22976951662056,35.603854641578046]],[[139.22976951662056,35.603854641578046],[139.23287161495483,35.60770460779982],[139.2364464139877,35.609907423524646]],[[139.2364464139877,35.609907423524646],[139.2377758847024,35.60966928128413],[139.23869174230586,35.60681157439786],[139.24262106686263,35.606136838049714],[139.24847073800728,35.60443015199264],[139.25237051877042,35.60153275473295],[139.25777703301017,35.6041523193787],[139.26339035380556,35.60228687182794],[139.26486754348855,35.6024059429482]],[[139.26622655799693,35.60071910207784],[139.26640382075888,35.599389474568255],[139.27077630222055,35.5959761024541],[139.27048086428394,35.594805236438205]],[[139.31323073370987,35.59762325295105],[139.31541697444072,35.598079692245385]],[[139.31515108029777,35.59661114842883],[139.3135852592338,35.59657145805541]],[[139.32490053220556,35.544140474767126],[139.3205871383312,35.54259255020373],[139.31695325171103,35.544140474767126],[139.31730777723496,35.54489459186211],[139.3149147299485,35.54709740758694],[139.31364434682112,35.54943913961874],[139.3140284161387,35.551542729410016],[139.30998091640728,35.55279297617276],[139.308356007756,35.555630837872314],[139.30605159185052,35.55533316007166],[139.3063470297871,35.55896482923963],[139.3034221942148,35.56043337305618],[139.3037767197387,35.56249727247404],[139.3026835993733,35.56287433102153],[139.3073219749779,35.56481915931913],[139.31045361710585,35.56462070745203],[139.3090946025975,35.5663273935091],[139.31057179228048,35.567954698819335],[139.30897642742286,35.56833175736683],[139.31001046020094,35.56966138487641],[139.3147670109802,35.56985983674351]],[[139.3217098024903,35.5604730634296],[139.32371878045916,35.55741690467623],[139.32430965633236,35.55455919778996],[139.3241323935704,35.55126489679608],[139.32280292285571,35.54711725277365],[139.32490053220556,35.544140474767126]],[[139.1374156176396,35.48619252957341],[139.1298819502563,35.4848033665037],[139.12911381162112,35.48170751737691],[139.12642532639808,35.47829414526276],[139.12438680463555,35.478691048996964],[139.12025067352315,35.47752018298106],[139.116616786903,35.478115538582365],[139.11321925063208,35.4774011118608],[139.10855133123383,35.47904826235774],[139.1012540141998,35.47968330833247],[139.09903822967533,35.48404924940871],[139.09561114961076,35.4871450985355],[139.0936612592292,35.48684742073485],[139.09177045643497,35.487899215630485],[139.08999782881537,35.49095537438385],[139.08742751876696,35.49274144118777],[139.082907318337,35.49365431977643],[139.08092788416178,35.494527507991684],[139.07614178958886,35.49504348284615],[139.07380782988972,35.497305834131105],[139.0732464978102,35.5000246247104],[139.071089800873,35.50208852412826],[139.06843085944362,35.50325939014416],[139.0660082683635,35.509272481717346],[139.06958306739637,35.51161421374915],[139.07487140646148,35.51058226404022],[139.0790075375739,35.51201111748335],[139.08069153381248,35.51326136424609],[139.0864525735762,35.512864460511885],[139.0876047815289,35.51512681179685],[139.09132729953006,35.518679100217966],[139.09106140538714,35.51959197880664],[139.09534525546783,35.5224496856929],[139.10459246288337,35.52717284012992],[139.10683779120154,35.530625902617494],[139.1073104919001,35.53290809908916],[139.11044213402806,35.532550885728384],[139.11047167782172,35.53479339182663],[139.11251019958425,35.53526967630768],[139.11259883096523,35.53715496904514],[139.11378058271163,35.53931809439655],[139.11242156820327,35.54080648339981]],[[139.11242156820327,35.54080648339981],[139.1143123709975,35.542255182029656],[139.11502142204534,35.54427939107409],[139.1171781189825,35.54271162132399],[139.11827123934793,35.544338926634225],[139.12060519904708,35.54289022800438],[139.12104835595198,35.54471598518172],[139.12347094703208,35.54451753331462],[139.12485950533411,35.54846672546994],[139.1273707277952,35.54803013136232],[139.1272230088269,35.549458984805455],[139.1321568223681,35.54939944924532],[139.13398853757502,35.55057031526122],[139.13573162140096,35.54991542409979],[139.13753379281422,35.54775229874838],[139.13853828179865,35.54787136986864],[139.13883371973526,35.55049093451438],[139.14066543494218,35.55205870426448],[139.14234943118078,35.55055047007451],[139.14497882881653,35.55376539032156],[139.14630829953123,35.551959478330936],[139.14781503300787,35.55299142803986],[139.14976492338943,35.55257467911895],[139.1524534086125,35.554737804470356],[139.15475782451796,35.554162294055764],[139.1568849776615,35.556424645340726],[139.15839171113814,35.55569037343245],[139.16013479496408,35.55652387127427]],[[139.16013479496408,35.55652387127427],[139.16045977669432,35.55309065397341],[139.16359141882228,35.548923164764275],[139.1639459443462,35.53917917808958]],[[139.1639459443462,35.53917917808958],[139.16359141882228,35.537710634273026],[139.16081430221826,35.53588487709569],[139.1598098132338,35.53421788141203],[139.15596912005802,35.53114187747196],[139.1526602151681,35.5294550366016],[139.1508875875485,35.52756974386413],[139.1506807809929,35.525843212620345],[139.1489081533733,35.52360070652209],[139.14379707707013,35.518540183911],[139.1407836101168,35.51469021768922],[139.13818375627474,35.51234848565742],[139.13499302655947,35.51165390412257],[139.1320091033998,35.50792300902105],[139.132688610654,35.50268387972957],[139.1307682640661,35.500302457324345],[139.13070917647877,35.49851639052043],[139.1319500158125,35.49811948678622],[139.1328954172096,35.495718219194295],[139.13469758862286,35.495103018406276],[139.13593842795657,35.49216593077317],[139.1351112017341,35.4906576965832],[139.13818375627474,35.48835565492482],[139.1374156176396,35.48619252957341]],[[139.3483878481652,35.59315808594126],[139.3497764064672,35.59430910677045]],[[139.35674874177099,35.59087588946959],[139.35612832210413,35.58916920341252],[139.35249443548395,35.59101480577656]],[[139.29033429362343,35.59278102739377],[139.2919592022747,35.59301916963429]],[[139.2919592022747,35.59301916963429],[139.29630213994272,35.593773286729274],[139.29715890995888,35.595083069052144]],[[139.2992860631024,35.5959761024541],[139.30040872726147,35.59456709419768],[139.30014283311854,35.592602420713376]],[[139.29030474982977,35.596769909922514],[139.28634588147935,35.5973255751504]],[[139.28619816251103,35.59756371739092],[139.28675949459057,35.59833767967262]],[[139.28675949459057,35.59833767967262],[139.28856166600383,35.59756371739092],[139.29257962194157,35.59821860855236]],[[139.29257962194157,35.59821860855236],[139.29257962194157,35.59667068398896]],[[139.29257962194157,35.59667068398896],[139.29030474982977,35.596769909922514]],[[139.3027426869606,35.60206857477413],[139.30247679281766,35.600738947264546]],[[139.30247679281766,35.600738947264546],[139.29999511415022,35.60333866672358]],[[139.29999511415022,35.60333866672358],[139.29890199378482,35.604707984606584]],[[139.29890199378482,35.604707984606584],[139.29872473102284,35.60522395946105]],[[139.2991974317214,35.60627575435669],[139.30094051554735,35.60665281290418],[139.30398352629433,35.604668294233164]],[[139.30398352629433,35.604668294233164],[139.30300858110354,35.60363634452423]],[[139.30300858110354,35.60363634452423],[139.3027426869606,35.60206857477413]],[[139.18790596100442,35.60780383373337],[139.18876273102055,35.610443243565825],[139.18663557787704,35.61236822667671],[139.18424253059058,35.61236822667671],[139.1826176219393,35.61397568680024],[139.18007685568452,35.61812333082266],[139.17792015874736,35.618540079743575]],[[139.17792015874736,35.618540079743575],[139.17824514047763,35.619532339079086],[139.17496577938135,35.621080263642476],[139.17357722107934,35.620465062854464],[139.1709478234436,35.62147716737668],[139.17071147309434,35.62383874459519],[139.16929337099864,35.62395781571546],[139.17097736723727,35.62850236347208],[139.1728090824442,35.62792685305749],[139.17357722107934,35.629514467994305],[139.17650205665169,35.63175697409255],[139.17939734843034,35.63503142989973],[139.1798700491289,35.63790898197271],[139.1820267460661,35.640846069605814],[139.18515838819405,35.64265198159644]],[[139.18515838819405,35.64265198159644],[139.1952328218321,35.62544620471871],[139.1953805408004,35.62026661098736],[139.19363745697444,35.61885760273094],[139.19668046772142,35.6176073559682]],[[139.19668046772142,35.6176073559682],[139.1954396283877,35.61548392099021],[139.1958827852926,35.61224915555645],[139.19508510286377,35.61111797991397],[139.19171711038655,35.609450984230314],[139.19230798625975,35.60750615593272],[139.18790596100442,35.60780383373337]],[[139.1881423113537,35.61463057796167],[139.1902103769099,35.616654787006105],[139.18870364343323,35.61687308405992],[139.1881423113537,35.61463057796167]],[[139.1638868567589,35.61153472883488],[139.16323689329838,35.61363831862616],[139.16486180194966,35.61568237285731],[139.163355068473,35.61599989584467],[139.16220286052027,35.613300950452086],[139.1596030066782,35.61413444829392],[139.16045977669432,35.61558314692376],[139.15836216734448,35.617031845553605]],[[139.15836216734448,35.617031845553605],[139.16300054294908,35.617845498208716],[139.1601938825514,35.61919497090501],[139.15942574391624,35.627053664842244],[139.1569440652488,35.627629175256835],[139.15369424794622,35.629752610234824],[139.15508280624823,35.6308837858773],[139.15322154724765,35.633642266830016],[139.15623501420097,35.63407886093764],[139.15942574391624,35.63530926251367],[139.15957346288454,35.63775022047903],[139.16167107223438,35.63796851753284],[139.16288236777444,35.63677780633023],[139.16539359023554,35.637452542678375],[139.16592537852142,35.638762325001245],[139.17006150963383,35.64054839180516],[139.17041603515773,35.643306872757876],[139.1718341372534,35.64529139142889],[139.17053421033236,35.64741482640688],[139.1698547030782,35.65164185117615]],[[139.1698547030782,35.65164185117615],[139.1709478234436,35.65070912740077],[139.1734590459047,35.65078850814761],[139.1758225493975,35.649736713251976],[139.17594072457214,35.64834755018226],[139.17901327911278,35.64572798553652],[139.18184948330412,35.64578752109665],[139.18421298679692,35.64505324918837]],[[139.18421298679692,35.64505324918837],[139.18515838819405,35.64265198159644]],[[139.17792015874736,35.618540079743575],[139.1757634618102,35.61855992493029],[139.17425672833352,35.614531352028116],[139.1716864182851,35.612606368917234],[139.16568902817215,35.61228884592987],[139.1638868567589,35.61153472883488]],[[139.2933773043704,35.59524183054583],[139.29420453059288,35.59601579282752]],[[139.29420453059288,35.59601579282752],[139.2952976509583,35.59704774253645]],[[139.29609533338711,35.595162449798984],[139.2933773043704,35.59524183054583]],[[139.29257962194157,35.59667068398896],[139.29420453059288,35.59601579282752]],[[139.2933773043704,35.59524183054583],[139.292195552624,35.595162449798984]],[[139.292195552624,35.595162449798984],[139.29060018776636,35.5951822949857],[139.29030474982977,35.596769909922514]],[[139.29999511415022,35.60333866672358],[139.29473631887876,35.60210826514755],[139.29408635541824,35.59988560423601]],[[139.29408635541824,35.59988560423601],[139.2939090926563,35.598238453739064],[139.29257962194157,35.59821860855236]],[[139.28675949459057,35.59833767967262],[139.28309606417673,35.59978637830246]],[[139.28309606417673,35.59978637830246],[139.27887130168338,35.60091755394494]],[[139.27887130168338,35.60091755394494],[139.2767146047462,35.60351727340397],[139.2750306085076,35.603973712698306],[139.2715444408557,35.60355696377739]],[[139.27937354617558,35.60530334020789],[139.28117571758884,35.60335851191029],[139.28498686697097,35.60371572527107],[139.29039338121075,35.60248532369504],[139.2935250233387,35.60383479639133],[139.29890199378482,35.604707984606584]],[[139.34472441775137,35.58609319947244],[139.3468515708949,35.580397630886615],[139.34584708191045,35.58013964345938],[139.3427154397825,35.58200509101014]],[[139.30788330705744,35.602465478508336],[139.30300858110354,35.60363634452423]],[[139.30398352629433,35.604668294233164],[139.30782421947012,35.605283495021176],[139.30912414639116,35.6041523193787]],[[139.30912414639116,35.6041523193787],[139.30903551501018,35.60268377556214]],[[139.2030323833583,35.619730790946186],[139.20300283956465,35.62518821729149],[139.20483455477157,35.6273711878296],[139.20486409856522,35.63026858508929],[139.2039186971681,35.63251109118754],[139.20335736508858,35.638722634627825],[139.20521862408913,35.64255275566289],[139.2042141351047,35.64572798553652],[139.2080548282805,35.64965733250513]],[[139.2080548282805,35.64965733250513],[139.21124555799577,35.649359654704476],[139.21467263806034,35.64713699379294],[139.21588393360037,35.645430307735865],[139.2148499008223,35.64370377649208],[139.21570667083841,35.63705563894417],[139.21688842258482,35.634535300231974],[139.2188974005537,35.63368195720344],[139.21886785676003,35.63231263932044],[139.22179269233237,35.62921679019365],[139.21945873263323,35.62604156032002],[139.22625380517502,35.62344184086099],[139.22625380517502,35.62217174891154],[139.2285582210805,35.620345991734204],[139.2306262866367,35.61691277443334],[139.23018312973178,35.61461073277496],[139.2322216514943,35.612765130410914],[139.23485104913007,35.61169349032856],[139.2364464139877,35.609907423524646]],[[139.22976951662056,35.603854641578046],[139.2259879110321,35.60579946987564]],[[139.2259879110321,35.60579946987564],[139.223476688571,35.607287858878905],[139.221910867507,35.60962959091071],[139.21812926191853,35.60915330642966],[139.21428856874275,35.611256896220944],[139.2096797369318,35.61437259053444],[139.20388915337443,35.61709138111373],[139.2030323833583,35.619730790946186]],[[139.28309606417673,35.59978637830246],[139.2808507358586,35.596888981042774],[139.27955080893756,35.59706758772317],[139.28034849136637,35.59917117751444],[139.27887130168338,35.60091755394494]],[[139.2481753000707,35.54281084725754],[139.24519137691104,35.54199719460242],[139.24049391371912,35.538405215807884],[139.24031665095714,35.536321471203316],[139.23833721678193,35.53580549634885],[139.23818949781364,35.53425757178545],[139.23523511844763,35.53411865547849],[139.23322614047876,35.53231274348786],[139.23059674284303,35.533086705769556],[139.2298876917952,35.53626193564318]],[[139.2298876917952,35.53626193564318],[139.23337385944706,35.53838537062117],[139.23316705289145,35.539675307757335],[139.23588508190815,35.545450257089996],[139.23426017325687,35.54775229874838],[139.23337385944706,35.54759353725469],[139.23331477185974,35.54993526928649],[139.23479196154275,35.555551457125475],[139.23296024633584,35.55868699662568],[139.23027176111276,35.55936173297383],[139.2253084037779,35.5616439294455]],[[139.2253084037779,35.5616439294455],[139.22137907922112,35.56466039782545],[139.21916329469664,35.56714104616422],[139.2172134043151,35.56835160255354],[139.21809971812488,35.56956215894286]],[[139.21809971812488,35.56956215894286],[139.2172724919024,35.57079256051889],[139.2186019626171,35.571308535373355],[139.21863150641076,35.57402732595265],[139.22025641506204,35.57630952242432],[139.2225017433802,35.57630952242432],[139.2230335316661,35.577817756614294],[139.2212609040465,35.582481375491184],[139.22448117755542,35.58353317038682],[139.22507205342862,35.585716140924944]],[[139.22507205342862,35.585716140924944],[139.22660833069895,35.58607335428572],[139.22820369555657,35.585061249763505],[139.22743555692142,35.58414837117484],[139.22941499109663,35.582441685117765],[139.2333443156534,35.58184632951646],[139.2358555381145,35.57988165603215]],[[139.2358555381145,35.57988165603215],[139.2382190416073,35.577083484706016],[139.2376281657341,35.57541648902236],[139.23943033714735,35.5735311962849],[139.2435073806724,35.57400748076594],[139.24465958862515,35.574781443047634],[139.2472003548799,35.574741752674214]],[[139.2472003548799,35.574741752674214],[139.24855936938826,35.569998753050484],[139.25021382183323,35.567915008445915],[139.25071606632545,35.565791573467926],[139.25414314639,35.56489854006597],[139.25237051877042,35.561207335337876],[139.25169101151621,35.55745659504965],[139.2536999894851,35.55592851567297],[139.25278413188164,35.55418213924247],[139.25390679604072,35.552356382065135],[139.25248869394505,35.551086290115684],[139.25118876702402,35.547851524681924],[139.24909115767414,35.54697833646668],[139.24808666868972,35.5452518052229],[139.2481753000707,35.54281084725754]],[[139.30247679281766,35.600738947264546],[139.30262451178595,35.60034204353035]],[[139.30262451178595,35.60034204353035],[139.2993451506897,35.599310093821416],[139.2986065558482,35.60034204353035],[139.2964203151174,35.59857582191314]],[[139.2964203151174,35.59857582191314],[139.29408635541824,35.59988560423601]],[[139.282032487605,35.58998285606763],[139.28188476863667,35.58966533308027]],[[139.28188476863667,35.58966533308027],[139.27955080893756,35.58962564270685],[139.27550330920613,35.588494467064365],[139.27414429469778,35.58754189810228],[139.27234212328452,35.58958595233343],[139.27396703193583,35.59107434133669],[139.27458745160268,35.59297947926087],[139.27281482398308,35.59430910677045],[139.27048086428394,35.594805236438205]],[[139.13443169447993,35.61659525144598],[139.1327476982413,35.61818286638279],[139.13056145751048,35.617726427088456],[139.13059100130414,35.619115590158174],[139.1288479174782,35.61967125538605],[139.1267207643347,35.62183438073746],[139.12547992500097,35.624116577209136],[139.12347094703208,35.6240371964623],[139.12314596530183,35.62622016700041],[139.12391410393698,35.6275696396967],[139.12417999807994,35.631181463677954],[139.1236186660004,35.63175697409255]],[[139.1236186660004,35.63175697409255],[139.128257041605,35.63334458902936],[139.13094552682804,35.63509096545986],[139.13197955960615,35.63415824168448],[139.13375218722575,35.63522988176683]],[[139.13375218722575,35.63522988176683],[139.13454986965456,35.63499173952631],[139.13576116519462,35.63016935915574],[139.13898143870355,35.63038765620955],[139.14113813564074,35.62854205384551],[139.14229034359346,35.628859576832866],[139.14240851876812,35.62675598704159],[139.1461901243566,35.62540651434529],[139.14689917540443,35.624275338702816],[139.15003081753238,35.623283079367305],[139.14604240538827,35.62240989115206],[139.1469878067854,35.61903620941133],[139.1499421861514,35.61786534339543],[139.1524534086125,35.61810348563595],[139.15836216734448,35.617031845553605]],[[139.1638868567589,35.61153472883488],[139.15983935702747,35.61189194219567],[139.15806672940786,35.61286435634447],[139.1555259631531,35.61294373709131]],[[139.1555259631531,35.61294373709131],[139.147283244722,35.61443212609457],[139.14503791640385,35.6158609795377],[139.13785877454447,35.61619834771177],[139.13732698625859,35.61778596264859],[139.13443169447993,35.61659525144598]],[[139.3318728675093,35.60427139049896],[139.3379293452096,35.60439046161922],[139.3392588159243,35.60554148244841],[139.3418291259727,35.60456906829961]],[[139.1289070050655,35.59389235784953],[139.12952742473237,35.59639285137502],[139.13177275305054,35.60218764589439],[139.1318022968442,35.605362875768016],[139.13109324579636,35.60607730248958],[139.13307267997158,35.60742677518588],[139.1301773881929,35.61101875398042],[139.1278138847001,35.61304296302485],[139.13283632962228,35.61524577874969],[139.13443169447993,35.61659525144598]],[[139.1555259631531,35.61294373709131],[139.15410786105744,35.60968912647083],[139.15434421140674,35.6082602730277],[139.15218751446955,35.60665281290418],[139.14979446718309,35.60264408518872],[139.15026716788165,35.600044365729694],[139.15133074445342,35.59863535747327]],[[139.15133074445342,35.59863535747327],[139.15050351823092,35.59569826984016],[139.1481695585318,35.59555935353319],[139.14695826299175,35.59448771345084],[139.14421069018135,35.59432895195716],[139.14438795294333,35.592840562953896],[139.14084269770413,35.59389235784953],[139.13655884762343,35.59430910677045],[139.13307267997158,35.59391220303625],[139.12973423128798,35.592919943700736],[139.1289070050655,35.59389235784953]],[[139.2919592022747,35.59301916963429],[139.292195552624,35.595162449798984]],[[139.21809971812488,35.56956215894286],[139.2166225284419,35.568530209233934],[139.2132840797583,35.56851036404722],[139.211747802488,35.569145410021946],[139.20950247416982,35.566922749110404],[139.20545497443842,35.56874850628774],[139.20524816788281,35.56624801276226],[139.20291420818367,35.56608925126858],[139.20069842365916,35.569879681930225]],[[139.20069842365916,35.569879681930225],[139.2005211608972,35.57097116719928],[139.2024415074851,35.57662704541168],[139.20022572296062,35.577778066240874],[139.20037344192892,35.580437321260035],[139.1952919094194,35.582163852503825],[139.19207163591048,35.583949919307734],[139.19038763967185,35.585517689057845],[139.18834911790933,35.58611304465915],[139.18557200130527,35.59097511540314],[139.1823221840027,35.5926619562735],[139.18128815122458,35.59547997278635]],[[139.18128815122458,35.59547997278635],[139.1811995198436,35.597464491457366],[139.1823221840027,35.60177089697348],[139.18542428233698,35.60244563332162],[139.1880536799727,35.60522395946105]],[[139.1880536799727,35.60522395946105],[139.18893999378253,35.60333866672358],[139.18699010340094,35.6018105873469],[139.186812840639,35.60042142427719],[139.19023992070356,35.59936962938154],[139.19156939141826,35.59956808124865],[139.19428742043496,35.60198919402729],[139.1947010335462,35.60367603489765],[139.19789176326148,35.60522395946105],[139.19925077776983,35.60423170012554],[139.19978256605572,35.601314457679145],[139.20276648921538,35.60169151622664],[139.20383006578712,35.59972684274233],[139.20846844139174,35.60030235315692],[139.2106251383289,35.59708743290987],[139.21225004698022,35.59857582191314],[139.21396358701247,35.598436905606164],[139.2143181125364,35.594110654903346],[139.216090740156,35.59663099361554],[139.21597256498137,35.59805984705867],[139.21824743709317,35.59913148714102],[139.2172134043151,35.60014359166324],[139.21768610501363,35.60169151622664],[139.22043367782402,35.602743311122275],[139.22055185299865,35.603894331951466],[139.2230335316661,35.60331882153687],[139.2228858126978,35.60530334020789],[139.22448117755542,35.60480721054013],[139.2259879110321,35.60579946987564]],[[139.23050811146206,35.60075879245126],[139.23080354939864,35.59768278851118],[139.23012404214447,35.595956257267396],[139.22492433446033,35.59327715706152],[139.2242152834125,35.59506322386544],[139.22078820334792,35.594765546064785],[139.2205813967923,35.59339622818178],[139.22297444407877,35.59135217395063],[139.2238312140949,35.58658932914019],[139.22507205342862,35.585716140924944]],[[139.19792130705514,35.60117554137217],[139.19792130705514,35.60117554137217]],[[139.3342363710021,35.57517834678184],[139.33494542204994,35.576011844623665]],[[139.33494542204994,35.576011844623665],[139.33524085998653,35.574622681553954]],[[139.3370430313998,35.57329305404437],[139.3357135606851,35.57128869018665],[139.3312819916361,35.56845082848709],[139.3306911157629,35.568609589980774],[139.3287116815877,35.5643825652115],[139.328770769175,35.562140059113254],[139.3262595467139,35.560711205670124],[139.32608228395196,35.56289417620824]],[[139.23795314746437,35.589605797520136],[139.2371850088292,35.58920889378594],[139.23683048330528,35.585021559390086],[139.2358555381145,35.57988165603215]],[[139.29621350856175,35.59728588477697],[139.2964203151174,35.59857582191314]],[[139.32490053220556,35.544140474767126],[139.3264072656822,35.54247347908347],[139.3245755504753,35.540905709333366],[139.3217098024903,35.54126292269415],[139.31789865310816,35.53816707356736],[139.31600785031392,35.53876242916866],[139.3129943833606,35.5419376590423],[139.3108672302171,35.5435054287924],[139.30764695670814,35.5444778429412],[139.30566752253293,35.547891215055344],[139.30330401904016,35.54803013136232],[139.3032449314528,35.55148319384989],[139.29990648276925,35.55336848658735],[139.29807476756233,35.553547093267746],[139.29704073478425,35.55507517264443],[139.29532719475196,35.55513470820456],[139.29473631887876,35.55672232314138]],[[139.29473631887876,35.55672232314138],[139.29600670200614,35.55791303434398],[139.2941158992119,35.560790586416964],[139.29479540646608,35.56196145243286],[139.29275688470355,35.5643825652115],[139.29252053435425,35.567002129857244],[139.28956615498828,35.5682722218067],[139.28755717701938,35.57087194126573],[139.28625725009834,35.57148714205375],[139.28655268803496,35.57817496997507],[139.28522321732027,35.57879017076309],[139.28442553489145,35.58190586507659]],[[139.28442553489145,35.58190586507659],[139.28557774284417,35.583870538560895]],[[139.28058484171564,35.55118551604924],[139.28117571758884,35.550153566340306],[139.27946217755658,35.54574793489065],[139.27771909373064,35.54501366298237],[139.2739079443485,35.54743477576101],[139.2701558825537,35.54828811878955],[139.26820599217214,35.54975666260611],[139.26427666761535,35.54928037812506],[139.26211997067819,35.55017341152702],[139.25349318292947,35.5485857965902],[139.24988884010298,35.54656158754577],[139.2493570518171,35.54376341621963],[139.2481753000707,35.54281084725754]],[[139.2472003548799,35.574741752674214],[139.24888435111853,35.575158501595126]],[[139.24888435111853,35.575158501595126],[139.24985929630932,35.57343197035134],[139.25172055530987,35.57309460217727],[139.25609303677155,35.569998753050484],[139.25857471543898,35.571189464253095],[139.2613813758367,35.570613953838496],[139.26575385729836,35.57228094952215],[139.26737876594964,35.57236033026899],[139.26743785353696,35.569998753050484],[139.2705990394586,35.56989952711693],[139.2713967218874,35.56839129292696],[139.27402611952314,35.56874850628774],[139.27748274338134,35.565414514920434],[139.27674414853985,35.561524858325235],[139.2749419771266,35.56011585006882],[139.2740556633168,35.556742168328086],[139.27739411200037,35.553388331774066],[139.2784872323658,35.55138396791634],[139.28058484171564,35.55118551604924]],[[139.31541697444072,35.59809953743209],[139.31559423720267,35.59996498498285],[139.3140284161387,35.601354148052565]],[[139.3298934333341,35.5788100159498],[139.3314297106044,35.578432957402306],[139.33494542204994,35.576011844623665]],[[139.30912414639116,35.6041523193787],[139.3135852592338,35.60468813941987]],[[139.32227113456983,35.58712514918137],[139.32194615283956,35.58656948395348]],[[139.26229723344014,35.58537877275087],[139.26226768964648,35.58369193188051],[139.26362670415483,35.58198524582343],[139.26551750694907,35.583017195532356],[139.26510389383785,35.580357940513196]],[[139.26510389383785,35.580357940513196],[139.2617359013606,35.58077468943411],[139.25978601097904,35.57988165603215],[139.25582714262862,35.580080107899256],[139.25213416842112,35.581211283541734],[139.25077515391277,35.58073499906069],[139.25059789115082,35.577936827734554],[139.24888435111853,35.575158501595126]],[[139.16013479496408,35.55652387127427],[139.1640345757272,35.55700015575532],[139.16923428341133,35.55916328110673],[139.16997287825282,35.56057228936315],[139.16876158271276,35.56174315537905],[139.17100691103093,35.562219439860094],[139.17195231242806,35.56065167010999],[139.17508395455602,35.56227897542023],[139.1756748304292,35.56342999624942],[139.1775065456361,35.56245758210061],[139.1792791732557,35.56382689998362],[139.1827653409076,35.56382689998362],[139.18379937368567,35.565414514920434],[139.18542428233698,35.56539466973372],[139.18554245751162,35.56662507130975],[139.1876105230678,35.56565265716095],[139.18896953757618,35.5667044520566],[139.19180574176752,35.566446464629365],[139.19865990189663,35.567498259525],[139.19857127051566,35.56936370707576],[139.20069842365916,35.569879681930225]],[[139.2253084037779,35.5616439294455],[139.21951782022055,35.556742168328086],[139.2159430211877,35.55628572903375],[139.21343179872662,35.558746532185815],[139.20976836831278,35.55729783355597],[139.20740486481998,35.55573006380587],[139.2047459233906,35.55295173766644],[139.20595721893065,35.549458984805455],[139.18908771275082,35.54707756240023],[139.18648785890875,35.546184528998275],[139.18294260366955,35.54392217771331],[139.18116997604994,35.541024780453625],[139.17854057841421,35.53913948771616],[139.17644296906437,35.53919902327629],[139.1741976407462,35.537909086140125],[139.17112508620556,35.53874258398196],[139.1639459443462,35.53917917808958]],[[139.2298876917952,35.53626193564318],[139.22533794757155,35.536123019336216],[139.22084729093524,35.535210140747544],[139.21768610501363,35.53268980203535],[139.22134953542746,35.5310228063517],[139.22300398787243,35.52814525427872],[139.22040413403036,35.52729191125018],[139.22040413403036,35.52643856822165],[139.21733157948972,35.525029559965226],[139.21443628771104,35.525188321458906],[139.21538168910817,35.521338355237134],[139.2106251383289,35.520881915942795],[139.20976836831278,35.517369317895096],[139.20855707277272,35.51558325109118],[139.20696170791507,35.515404644410786],[139.20273694542172,35.51312244793912],[139.202973295771,35.51072118034719],[139.2018506316119,35.51014566993259],[139.19998937261133,35.50740703416659],[139.1966213801341,35.50661322669818],[139.19198300452948,35.50633539408424],[139.19145121624362,35.50486685026768],[139.1881423113537,35.50316016421061],[139.1869605596073,35.501731310767475],[139.18140632639924,35.49794088010584],[139.18096316949433,35.494408436871424],[139.17777243977906,35.493753545709986],[139.17540893628626,35.48992342467492],[139.17097736723727,35.487045872601946],[139.17020922860212,35.48514073467777],[139.16636853542633,35.48260055077887],[139.16539359023554,35.47863151343683],[139.16294145536176,35.474602940534666],[139.15726904697905,35.478691048996964],[139.15032625546897,35.47726219555383],[139.14849454026205,35.4779766222754],[139.14648556229318,35.48033819949391],[139.1463378433249,35.48361265530109],[139.14125631081538,35.48633144588038],[139.1374156176396,35.48619252957341]],[[139.28345058970066,35.58589474760534],[139.28188476863667,35.58966533308027]],[[139.13375218722575,35.63522988176683],[139.13886326352892,35.63546802400735],[139.14202444945053,35.636380902596024],[139.14489019743556,35.63939737097597],[139.14539244192775,35.64233445860908],[139.14769685783324,35.64352516981169],[139.14861271543668,35.64594628259033],[139.1502967116753,35.64691869673913],[139.15608729523265,35.64630349595111],[139.1588644118367,35.6484269309291],[139.16223240431393,35.649399345077896],[139.16382776917158,35.65182045785654],[139.16639807922,35.65227689715088]],[[139.16639807922,35.65227689715088],[139.1671957616488,35.651046495574846],[139.1698547030782,35.65164185117615]],[[139.30395398250067,35.60010390128982],[139.3079719384384,35.59925055826128]],[[139.28442553489145,35.58190586507659],[139.28132343655716,35.581548651715806],[139.2787826703024,35.58319580221275],[139.27491243333293,35.5817272583962],[139.2736125064119,35.58188601988988],[139.27006725117272,35.58061592794043],[139.2674969411243,35.580556392380295],[139.26569476971105,35.57950459748466],[139.26510389383785,35.580357940513196]],[[139.11242156820327,35.54080648339981],[139.11177160474276,35.54420001032725],[139.1134260571877,35.54725616908062],[139.11221476164766,35.54963759148584],[139.1154941227439,35.553547093267746],[139.11759173209376,35.55493625633746],[139.1214619690632,35.55586898011284],[139.12332322806378,35.55745659504965],[139.12462315498482,35.55991739820171],[139.12793205987475,35.56243773691391],[139.12970468749432,35.56575188309451],[139.12849339195427,35.56829206699341],[139.12887746127186,35.570117824170744],[139.12716392123957,35.57132838056007],[139.12802069125573,35.575734012009725],[139.1269275708903,35.57775822105416],[139.12769570952545,35.57875048038967],[139.12680939571567,35.58142958059555],[139.12406182290528,35.58208447175698],[139.12598216949317,35.58281874366526],[139.12379592876235,35.58418806154826],[139.1219937573491,35.58418806154826],[139.12143242526955,35.586807626194],[139.12196421355543,35.588831835238445],[139.12545038120732,35.592880253327316],[139.1289070050655,35.59389235784953]],[[139.15133074445342,35.59863535747327],[139.15407831726378,35.598040001871965],[139.15685543386783,35.60137399323927],[139.16205514155197,35.6031799052299],[139.16530495885456,35.6000642109164],[139.16471408298136,35.59851628635301],[139.16746165579173,35.5967500647358],[139.16964789652258,35.59980622348917],[139.1714796117295,35.60002452054298],[139.1752316735243,35.59885365452708],[139.18128815122458,35.59547997278635]],[[139.3027426869606,35.60206857477413],[139.3027426869606,35.60206857477413]],[[139.29473631887876,35.55672232314138],[139.2911615198459,35.55576975417929],[139.2885025784165,35.556861239448345],[139.28634588147935,35.556464335714146],[139.28271199485917,35.55249529837211],[139.28058484171564,35.55118551604924]],[[139.18421298679692,35.64505324918837],[139.1864583151151,35.64636303151124],[139.18988539517963,35.64640272188466],[139.19204209211682,35.64759343308727],[139.19239661764072,35.649974855492495],[139.19416924526033,35.65176092229641],[139.19606004805456,35.651403708935625],[139.1977440442932,35.65301116905915],[139.20010754778596,35.65253488457811],[139.2022347009295,35.653050859432575],[139.20557314961306,35.65176092229641],[139.2080548282805,35.64965733250513]],[[139.2030323833583,35.619730790946186],[139.201407474707,35.61955218426579],[139.19668046772142,35.6176073559682]],[[139.18790596100442,35.60780383373337],[139.18896953757618,35.60611699286301],[139.1880536799727,35.60522395946105]],[[139.1236186660004,35.63175697409255],[139.12391410393698,35.63465437135224],[139.125302662239,35.635448178820646],[139.12577536293756,35.639040157615185],[139.1277252533191,35.641004831099494],[139.12568673155658,35.64279089790341],[139.1255981001756,35.644735726201006],[139.12149151285686,35.647970491634766],[139.12181649458714,35.648665073169624],[139.11924618453872,35.651205257068526],[139.1191280093641,35.652395968271136],[139.11705994380787,35.654638474369385],[139.1196302538563,35.65688098046763],[139.1196893414436,35.66043326888876],[139.12429817325457,35.663529118015546],[139.12482996154046,35.66513657813907],[139.12695711468396,35.667121096810085],[139.13000012543094,35.66809351095888],[139.1302364757802,35.67103059859199],[139.13357492446377,35.67303496244972],[139.13652930382978,35.672399916474994],[139.13898143870355,35.67069323041792],[139.14217216841882,35.670157410376746],[139.1463378433249,35.666882954569566],[139.14979446718309,35.666882954569566],[139.15336926621595,35.66606930191445],[139.16069612704362,35.66803397539876],[139.16515723988627,35.665652552993535],[139.1650686085053,35.66354896320225],[139.16728439302977,35.6620804193857],[139.16710713026782,35.659758532540614],[139.16828888201422,35.659024260632336],[139.16831842580788,35.657138967894866],[139.16639807922,35.65227689715088]]]}