{"type":"Topology","bbox":[135.76472665939303,34.96997394724699,135.79145123903066,35.01086758963053],"objects":{"town":{"type":"GeometryCollection","geometries":[{"type":"Polygon","arcs":[[0,1,2,3]],"properties":{"name":"修道石垣町西側"}},{"type":"MultiPolygon","arcs":[[[4,5,6,-4,7,8,9,10]],[[-88,-119,-120,149]]],"properties":{"name":"修道五条橋東"}},{"type":"Polygon","arcs":[[11,12,13,14,15]],"properties":{"name":"修道南梅屋町"}},{"type":"Polygon","arcs":[[16,17,18,19,-12,20,21]],"properties":{"name":"修道上梅屋町"}},{"type":"Polygon","arcs":[[22,23,24,25,26,27,28]],"properties":{"name":"修道清閑寺山ノ内町"}},{"type":"Polygon","arcs":[[29,30,31,32,33,34]],"properties":{"name":"修道今熊野阿弥陀ケ峯町"}},{"type":"Polygon","arcs":[[35,36,37,38,39,40]],"properties":{"name":"六原大黒町"}},{"type":"Polygon","arcs":[[41,42,43,44,45]],"properties":{"name":"六原薬師町"}},{"type":"Polygon","arcs":[[46,-6,47,-36,48,49,-43,50]],"properties":{"name":"六原山崎町"}},{"type":"Polygon","arcs":[[-50,51,52,53,-44]],"properties":{"name":"六原北御門町"}},{"type":"Polygon","arcs":[[54,-15,55,56,57,58,59,60]],"properties":{"name":"修道上棟梁町"}},{"type":"Polygon","arcs":[[-2,61,-59,62,63,64,65]],"properties":{"name":"修道北棟梁町"}},{"type":"Polygon","arcs":[[-18,66,67,68,69,70,71]],"properties":{"name":"修道鐘鋳町"}},{"type":"Polygon","arcs":[[-16,-55,72,-21]],"properties":{"name":"修道下梅屋町"}},{"type":"Polygon","arcs":[[-30,73,74,75,76,77]],"properties":{"name":"修道今熊野北日吉町"}},{"type":"Polygon","arcs":[[-58,78,79,80,81,82,-63]],"properties":{"name":"修道蛭子町北組"}},{"type":"Polygon","arcs":[[83,-26]],"properties":{"name":"修道今熊野東山町"}},{"type":"Polygon","arcs":[[84,-33,85,-31,-78,86,87,88,89,90]],"properties":{"name":"修道上馬町"}},{"type":"Polygon","arcs":[[91,-90,92]],"properties":{"name":"修道瓦役町"}},{"type":"Polygon","arcs":[[93,94,-46,95,96,97,98,99,100]],"properties":{"name":"六原轆轤町"}},{"type":"Polygon","arcs":[[101,102,103,104]],"properties":{"name":"六原白糸町"}},{"type":"Polygon","arcs":[[105,106,107,-99,108]],"properties":{"name":"六原興善町"}},{"type":"Polygon","arcs":[[-49,-41,109,110,111,-52]],"properties":{"name":"六原山城町"}},{"type":"Polygon","arcs":[[112,113,-109,-98,114]],"properties":{"name":"六原新シ町"}},{"type":"Polygon","arcs":[[-77,115,116,117,118,-87]],"properties":{"name":"修道下馬町"}},{"type":"Polygon","arcs":[[119,-118,120,121,122]],"properties":{"name":"修道東音羽町"}},{"type":"Polygon","arcs":[[123,124,-68,125,126,127,128]],"properties":{"name":"修道芳野町"}},{"type":"Polygon","arcs":[[129,-60,-62,-1,130,-128]],"properties":{"name":"修道石垣町東側"}},{"type":"Polygon","arcs":[[-14,131,132,133,-56]],"properties":{"name":"修道下棟梁町"}},{"type":"Polygon","arcs":[[134,-70,135,136,-122]],"properties":{"name":"修道慈法院庵町"}},{"type":"Polygon","arcs":[[137,-133,138,139,-80]],"properties":{"name":"修道蛭子町南組"}},{"type":"Polygon","arcs":[[140,-34,-85,141,-28]],"properties":{"name":"修道清閑寺池田町"}},{"type":"Polygon","arcs":[[-117,142,-71,-135,-121]],"properties":{"name":"修道常盤町"}},{"type":"Polygon","arcs":[[143,144,145,146,-19,-72,-143,-116,-76]],"properties":{"name":"修道妙法院前側町"}},{"type":"Polygon","arcs":[[-127,147,-22,-73,-61,-130]],"properties":{"name":"修道下新シ町"}},{"type":"Polygon","arcs":[[-17,-148,-126,-67]],"properties":{"name":"修道上新シ町"}},{"type":"Polygon","arcs":[[-138,-79,-57,-134]],"properties":{"name":"修道西棟梁町"}},{"type":"Polygon","arcs":[[-3,-66,148,-8]],"properties":{"name":"修道袋町"}},{"type":"MultiPolygon","arcs":[[[787,350,351,-734,765,151,152,-349,-348,-347,225,226,386,387,388,389,390,391,-307,392,393,766,353,788,746]]],"properties":{"name":"月輪本町"}},{"type":"Polygon","arcs":[[155,156,157]],"properties":{"name":"清水鷲尾町"}},{"type":"Polygon","arcs":[[158,159,160,161]],"properties":{"name":"清水上弁天町"}},{"type":"Polygon","arcs":[[162,163,164,165,166,167]],"properties":{"name":"一橋一橋宮ノ内町"}},{"type":"Polygon","arcs":[[168,169,170,171]],"properties":{"name":"清水桝屋町"}},{"type":"Polygon","arcs":[[172,173,174,175,176,177,178,179,180,181,182,183,184]],"properties":{"name":"一橋今熊野池田町"}},{"type":"Polygon","arcs":[[185,-179,186,187,188,189,190]],"properties":{"name":"一橋上池田町"}},{"type":"Polygon","arcs":[[191,192,193,194,195]],"properties":{"name":"貞教東橘町"}},{"type":"Polygon","arcs":[[196,197,198,199,200,201,202]],"properties":{"name":"清水清閑寺清水上山町"}},{"type":"Polygon","arcs":[[203,204,205,206,207]],"properties":{"name":"月輪福稲高原町"}},{"type":"MultiPolygon","arcs":[[[329,330,209,776,777,778,779,-9,-149,-65,-64,-83,-82,-81,-140,-447,-369,763,764]],[[-773,-367,-360,808,-472]]],"properties":{"name":"貞教本町"}},{"type":"Polygon","arcs":[[211,212,213,214]],"properties":{"name":"六原清水"}},{"type":"Polygon","arcs":[[215,216,217,218,219,220,221,222,223,224]],"properties":{"name":"今熊野今熊野剣宮町"}},{"type":"Polygon","arcs":[[228,229,230,231]],"properties":{"name":"一橋南棟梁町"}},{"type":"Polygon","arcs":[[232,-203,233,234,235]],"properties":{"name":"清水粟田口高台寺山町"}},{"type":"MultiPolygon","arcs":[[[237,238,239,-231,-230,431,-297,-189,-188,760,-794,-177,-295,-175,-174,-775,758,748,749,-387,-227,260,261,756,-276,-275,-281,-280,-279,-168,-167,-166,-450,750,-358,751]]],"properties":{"name":"一橋本町"}},{"type":"Polygon","arcs":[[241,242,243,244]],"properties":{"name":"粟田西小物座町"}},{"type":"MultiPolygon","arcs":[[[-446,245,246,247,248,-371]]],"properties":{"name":"貞教大和大路"}},{"type":"Polygon","arcs":[[250,251,252,253,254,255,256,257,258]],"properties":{"name":"今熊野今熊野総山町"}},{"type":"MultiPolygon","arcs":[[[-320,-415,264,265,643,-302,-301,452,453,-105,454,455,456,-333,450,-93,-89,-150,-123,-137,-136,-69,-125,-124,-129,-131,-7,-47]]],"properties":{"name":"六原五条橋東"}},{"type":"Polygon","arcs":[[267,-184,268,269]],"properties":{"name":"一橋今熊野椥ノ森町"}},{"type":"Polygon","arcs":[[270,271,272,273]],"properties":{"name":"粟田南木之元町"}},{"type":"Polygon","arcs":[[274,275,276,277,-163,278,279,280]],"properties":{"name":"一橋一橋野本町"}},{"type":"MultiPolygon","arcs":[[[331,332,-457,-456,806,-103,-643,-215,-625,-624,-106,-114,-429,-428,-736,-382,-666,608,284,-169,281,334,-200]]],"properties":{"name":"清水清水"}},{"type":"Polygon","arcs":[[285,286,-259]],"properties":{"name":"今熊野今熊野梅ケ谷町"}},{"type":"Polygon","arcs":[[287,288,289,290,291]],"properties":{"name":"清水南町"}},{"type":"Polygon","arcs":[[292,293]],"properties":{"name":"月輪今熊野本多山町"}},{"type":"Polygon","arcs":[[-176,294]],"properties":{"name":"一橋下池田町"}},{"type":"Polygon","arcs":[[295,-190,296,297,298]],"properties":{"name":"一橋蒔田町"}},{"type":"Polygon","arcs":[[299,300,301,302,-100,-108,303]],"properties":{"name":"六原竹村町"}},{"type":"Polygon","arcs":[[304,305,306,307]],"properties":{"name":"一橋今熊野悲田院山町"}},{"type":"Polygon","arcs":[[308,309,310,-305,311,312,313,-221]],"properties":{"name":"一橋泉涌寺山内町"}},{"type":"Polygon","arcs":[[314,315,316,-94]],"properties":{"name":"六原三盛町"}},{"type":"Polygon","arcs":[[317,-23,318,-198]],"properties":{"name":"清水清閑寺歌ノ中山町"}},{"type":"Polygon","arcs":[[319,-51,-42,-95,-317,320]],"properties":{"name":"六原池殿町"}},{"type":"Polygon","arcs":[[321,-243,322,323,324,325,326,327]],"properties":{"name":"粟田粟田口華頂町"}},{"type":"Polygon","arcs":[[335,336,337]],"properties":{"name":"新道井手町"}},{"type":"Polygon","arcs":[[338,339,340,341,342,343]],"properties":{"name":"粟田大井手町"}},{"type":"Polygon","arcs":[[344,345,-261,-226,346,347,348,-153,349]],"properties":{"name":"月輪福稲御所ノ内町"}},{"type":"MultiPolygon","arcs":[[[355,356,357,358,359]],[[-471,771,-764,-368,772]]],"properties":{"name":"貞教本町新"}},{"type":"Polygon","arcs":[[360,361,362,-339,363,364]],"properties":{"name":"粟田土居之内町"}},{"type":"Polygon","arcs":[[365,-356,366,367,368,369,370,-249]],"properties":{"name":"貞教塗師屋町"}},{"type":"Polygon","arcs":[[371,372,373,-194,374]],"properties":{"name":"貞教鍵屋町"}},{"type":"Polygon","arcs":[[375,376,-239,377]],"properties":{"name":"一橋北斗町"}},{"type":"Polygon","arcs":[[378,379,380,381,382]],"properties":{"name":"清水星野町"}},{"type":"Polygon","arcs":[[394,395,396,397,398,399,400]],"properties":{"name":"粟田長光町"}},{"type":"Polygon","arcs":[[-340,-363,401,402]],"properties":{"name":"粟田今小路町"}},{"type":"Polygon","arcs":[[403,-207,404,405,-345]],"properties":{"name":"月輪福稲柿本町"}},{"type":"Polygon","arcs":[[406,407,408,409,-401]],"properties":{"name":"粟田教業町"}},{"type":"Polygon","arcs":[[410,411,412,413]],"properties":{"name":"粟田七軒町"}},{"type":"Polygon","arcs":[[-265,414,-321,-316,415]],"properties":{"name":"六原門脇町"}},{"type":"Polygon","arcs":[[416,-309,-220]],"properties":{"name":"今熊野泉涌寺山内町"}},{"type":"Polygon","arcs":[[-414,417,418,419]],"properties":{"name":"粟田西海子町"}},{"type":"Polygon","arcs":[[-327,420,421,422,423]],"properties":{"name":"粟田東町"}},{"type":"Polygon","arcs":[[-195,-374,424,425]],"properties":{"name":"貞教西橘町"}},{"type":"Polygon","arcs":[[426,427,428,-113,429,430]],"properties":{"name":"清水辰巳町"}},{"type":"Polygon","arcs":[[433,434,435,436,437,-399,438]],"properties":{"name":"粟田高畑町"}},{"type":"Polygon","arcs":[[439,-328,-424,440]],"properties":{"name":"粟田今道町"}},{"type":"Polygon","arcs":[[-342,441,442,443]],"properties":{"name":"粟田東姉小路町"}},{"type":"Polygon","arcs":[[-132,-13,-20,-147,444,-246,445,-370,446,-139]],"properties":{"name":"貞教茶屋町"}},{"type":"Polygon","arcs":[[-165,447,448,449]],"properties":{"name":"貞教日吉町"}},{"type":"Polygon","arcs":[[457,458,-273,459,460,461]],"properties":{"name":"粟田唐戸鼻町"}},{"type":"Polygon","arcs":[[462,463,464,465,466]],"properties":{"name":"有済松原町"}},{"type":"Polygon","arcs":[[-313,467,-391,468,469]],"properties":{"name":"一橋泉涌寺東林町"}},{"type":"Polygon","arcs":[[470,471,472,473,-372,474]],"properties":{"name":"貞教上堀詰町"}},{"type":"Polygon","arcs":[[475,-269,-183,476,477]],"properties":{"name":"今熊野今熊野池田町"}},{"type":"Polygon","arcs":[[478,479,480,481]],"properties":{"name":"有済五軒町"}},{"type":"Polygon","arcs":[[-396,-411,-420,482,483,484,485]],"properties":{"name":"粟田南西海子町"}},{"type":"Polygon","arcs":[[486,487,-482,488,489]],"properties":{"name":"有済大黒町"}},{"type":"Polygon","arcs":[[490,491,-490,492,493,494]],"properties":{"name":"有済若松町"}},{"type":"Polygon","arcs":[[-330,495,-193,496]],"properties":{"name":"貞教豊浦町"}},{"type":"Polygon","arcs":[[-470,497,498,-185,-268,499,-222,-314]],"properties":{"name":"一橋泉涌寺門前町"}},{"type":"Polygon","arcs":[[-298,-432,-229,500,501]],"properties":{"name":"一橋七軒町"}},{"type":"Polygon","arcs":[[502,503,504,505,506]],"properties":{"name":"有済中之町"}},{"type":"Polygon","arcs":[[507,508,509,510,511,-422]],"properties":{"name":"粟田中之町"}},{"type":"Polygon","arcs":[[512,513,514,515,516]],"properties":{"name":"新道山田町"}},{"type":"Polygon","arcs":[[-111,517,518,-517,519,520,521]],"properties":{"name":"新道西川原町"}},{"type":"Polygon","arcs":[[-325,522,523,524,525,526]],"properties":{"name":"粟田粟田口粟田山北町"}},{"type":"MultiPolygon","arcs":[[[592,593,567,790,658,529,653,590,632,-570,628,629,630,-338,631,587,588,651,652,527,659,654,655,656,789,-521,-520,-516,-515,594,595]]],"properties":{"name":"新道宮川筋"}},{"type":"Polygon","arcs":[[-110,-40,531,-518]],"properties":{"name":"新道東川原町"}},{"type":"Polygon","arcs":[[-489,-481,532,533,-493]],"properties":{"name":"有済大橋町"}},{"type":"Polygon","arcs":[[534,535,536,537]],"properties":{"name":"弥栄末吉町"}},{"type":"Polygon","arcs":[[538,539,-464,540]],"properties":{"name":"弥栄林下町"}},{"type":"Polygon","arcs":[[541,-536,542,543,-504,544]],"properties":{"name":"弥栄元吉町"}},{"type":"Polygon","arcs":[[-540,545,-507,546,547,-465]],"properties":{"name":"有済梅本町"}},{"type":"Polygon","arcs":[[548,549,550,551,552,553]],"properties":{"name":"粟田堀池町"}},{"type":"Polygon","arcs":[[-494,-534,554,555,-409,556]],"properties":{"name":"有済二町目"}},{"type":"Polygon","arcs":[[-253,557,-251,-287,558,559,-293,560,-310,-417,-219,561,-217,562,563,564,565]],"properties":{"name":"一橋今熊野泉山町"}},{"type":"Polygon","arcs":[[569,570,571,572]],"properties":{"name":"弥栄川端町"}},{"type":"Polygon","arcs":[[573,574,575,-572,576,577,-535]],"properties":{"name":"弥栄常盤町"}},{"type":"Polygon","arcs":[[578,-495,-557,-408]],"properties":{"name":"有済若竹町"}},{"type":"Polygon","arcs":[[579,580,581,582,583,-541,-463,584,585,586]],"properties":{"name":"弥栄祇園町北側"}},{"type":"Polygon","arcs":[[596,-526,597,598,599,600,601,-509]],"properties":{"name":"粟田粟田口三条坊町"}},{"type":"Polygon","arcs":[[-500,-270,-476,602,-223]],"properties":{"name":"今熊野今熊野椥ノ森町"}},{"type":"Polygon","arcs":[[603,604,605,-145,606]],"properties":{"name":"今熊野東瓦町"}},{"type":"Polygon","arcs":[[609,610,611,-434,612,-458]],"properties":{"name":"粟田稲荷町北組"}},{"type":"Polygon","arcs":[[-548,613,-436,614,-611,615,616,-466]],"properties":{"name":"有済石橋町"}},{"type":"Polygon","arcs":[[-459,-613,-439,-398,617,-274]],"properties":{"name":"粟田進之町"}},{"type":"Polygon","arcs":[[-460,-272,618,-485,619,620]],"properties":{"name":"粟田古川町"}},{"type":"Polygon","arcs":[[-601,621,-550,622]],"properties":{"name":"粟田西町"}},{"type":"Polygon","arcs":[[-304,-107,623,624,-214,625]],"properties":{"name":"六原小島町"}},{"type":"Polygon","arcs":[[-623,-549,626,627,-510,-602]],"properties":{"name":"粟田夷町"}},{"type":"Polygon","arcs":[[-235,633,634,635]],"properties":{"name":"清水粟田口長楽寺山町"}},{"type":"Polygon","arcs":[[636,637,638,639,-524]],"properties":{"name":"粟田粟田口花頂山町"}},{"type":"Polygon","arcs":[[640,-563,-216]],"properties":{"name":"今熊野今熊野泉山町"}},{"type":"Polygon","arcs":[[641,-212,642,-102,-454]],"properties":{"name":"六原遊行前町"}},{"type":"Polygon","arcs":[[-379,644,645,646]],"properties":{"name":"清水上田町"}},{"type":"Polygon","arcs":[[-74,-35,-141,-27,-84,-25,647,-257,648,-255,649,650]],"properties":{"name":"今熊野今熊野阿弥陀ケ峯町"}},{"type":"Polygon","arcs":[[-646,-431,660,661]],"properties":{"name":"清水玉水町"}},{"type":"Polygon","arcs":[[662,663,664,-479,-488]],"properties":{"name":"有済新五軒町"}},{"type":"Polygon","arcs":[[-285,-609,665,666,-289,-170]],"properties":{"name":"清水八坂上町"}},{"type":"Polygon","arcs":[[-600,667,-364,-344,-551,-622]],"properties":{"name":"粟田五軒町"}},{"type":"Polygon","arcs":[[-628,668,669,-511]],"properties":{"name":"粟田柚之木町"}},{"type":"Polygon","arcs":[[670,-380,-647,-662,671,672,673,-291]],"properties":{"name":"清水下弁天町"}},{"type":"Polygon","arcs":[[-288,675,676,-159,677,678,-157,679,680,681,-171]],"properties":{"name":"清水下河原町"}},{"type":"Polygon","arcs":[[682,-564,-641,-225,683,684,-650,-254,-566]],"properties":{"name":"今熊野今熊野南日吉町"}},{"type":"Polygon","arcs":[[685,686,687,688,689,-673]],"properties":{"name":"清水毘沙門町"}},{"type":"Polygon","arcs":[[-236,-636,690,-638,691]],"properties":{"name":"清水粟田口粟田山南町"}},{"type":"Polygon","arcs":[[-453,-300,-626,-213,-642]],"properties":{"name":"六原梅林町"}},{"type":"Polygon","arcs":[[692,-158,-679,693,694,-687,695,696,697,-587]],"properties":{"name":"弥栄祇園町南側"}},{"type":"Polygon","arcs":[[-667,-381,-671,-290]],"properties":{"name":"清水金園町"}},{"type":"Polygon","arcs":[[-303,-644,-266,-416,-315,-101]],"properties":{"name":"六原多門町"}},{"type":"Polygon","arcs":[[-547,698,699,-437,-614]],"properties":{"name":"有済古西町"}},{"type":"Polygon","arcs":[[-669,-627,-554,700]],"properties":{"name":"粟田定法寺町"}},{"type":"Polygon","arcs":[[-45,-54,701,-656,702,-96]],"properties":{"name":"六原弓矢町"}},{"type":"Polygon","arcs":[[-402,-362,703,-620,-484,704]],"properties":{"name":"粟田八軒町"}},{"type":"Polygon","arcs":[[-677,705,-689,-160]],"properties":{"name":"清水月見町"}},{"type":"Polygon","arcs":[[706,-581,707,-575]],"properties":{"name":"弥栄廿一軒町"}},{"type":"Polygon","arcs":[[-201,-335,-282,-172,-682,708]],"properties":{"name":"清水清閑寺霊山町"}},{"type":"Polygon","arcs":[[-244,-322,-440,709]],"properties":{"name":"粟田東分木町"}},{"type":"Polygon","arcs":[[-461,-621,-704,-361,710]],"properties":{"name":"粟田堤町"}},{"type":"Polygon","arcs":[[711,-652,-589,712]],"properties":{"name":"新道上柳町"}},{"type":"Polygon","arcs":[[-48,-5,713,-37]],"properties":{"name":"六原音羽町"}},{"type":"Polygon","arcs":[[714,715,-663,-487,-492,716]],"properties":{"name":"有済元町"}},{"type":"Polygon","arcs":[[-612,-615,-435]],"properties":{"name":"粟田稲荷町南組"}},{"type":"Polygon","arcs":[[-326,-527,-597,-508,-421]],"properties":{"name":"粟田粟田口鍛冶町"}},{"type":"Polygon","arcs":[[717,-660,-528,-653,-712]],"properties":{"name":"新道下柳町"}},{"type":"Polygon","arcs":[[718,719]],"properties":{"name":"粟田東小物座町附属"}},{"type":"Polygon","arcs":[[720,-582,-707,-574,-538]],"properties":{"name":"弥栄富永町"}},{"type":"Polygon","arcs":[[-556,721,-412,-395,-410]],"properties":{"name":"有済三町目"}},{"type":"Polygon","arcs":[[-477,-182,722,723]],"properties":{"name":"一橋南瓦町"}},{"type":"Polygon","arcs":[[-234,-202,-709,-681,724,-634]],"properties":{"name":"清水粟田口東大谷山町"}},{"type":"Polygon","arcs":[[-705,-483,-419,725,-442,-341,-403]],"properties":{"name":"粟田分木町"}},{"type":"Polygon","arcs":[[-343,-444,726,-552]],"properties":{"name":"粟田石泉院町"}},{"type":"Polygon","arcs":[[-719,727,-323,-242,728]],"properties":{"name":"粟田東小物座町"}},{"type":"Polygon","arcs":[[729,730,-632,-337]],"properties":{"name":"新道六軒町"}},{"type":"Polygon","arcs":[[731,-204,732,733,-352,734]],"properties":{"name":"月輪福稲下高松町"}},{"type":"Polygon","arcs":[[-383,735,-427,-645]],"properties":{"name":"清水月輪町"}},{"type":"Polygon","arcs":[[-584,736,-545,-503,-546,-539]],"properties":{"name":"弥栄橋本町"}},{"type":"Polygon","arcs":[[-678,-162,737,-694]],"properties":{"name":"弥栄清井町"}},{"type":"Polygon","arcs":[[-716,738,-543,-578,739,-664]],"properties":{"name":"弥栄弁財天町"}},{"type":"Polygon","arcs":[[-713,-588,-731,740,741]],"properties":{"name":"新道博多町"}},{"type":"Polygon","arcs":[[-655,-718,-742,742,743,-696,-686,-672,-661,-430,-115,-97,-703]],"properties":{"name":"新道小松町"}},{"type":"Polygon","arcs":[[-743,-741,-730,-336,-631,744]],"properties":{"name":"新道亀井町"}},{"type":"Polygon","arcs":[[-721,-537,-542,-737,-583]],"properties":{"name":"弥栄清本町"}},{"type":"Polygon","arcs":[[-697,-744,-745,-630,752]],"properties":{"name":"新道大和町"}},{"type":"Polygon","arcs":[[-11,753,754,755,-38,-714]],"properties":{"name":"新道金屋町"}},{"type":"Polygon","arcs":[[-491,-579,-407,-400,-438,-700,761]],"properties":{"name":"有済巽町"}},{"type":"Polygon","arcs":[[-388,-750,762]],"properties":{"name":"一橋泉涌寺雀ケ森町"}},{"type":"Polygon","arcs":[[-238,-752,-357,-366,-248,767,-378]],"properties":{"name":"貞教西之門町"}},{"type":"Polygon","arcs":[[-639,-691,-635,-725,-680,-156,-693,-586,768]],"properties":{"name":"弥栄円山町"}},{"type":"Polygon","arcs":[[-478,-724,769,-604,770,-684,-224,-603]],"properties":{"name":"今熊野今熊野宝蔵町"}},{"type":"Polygon","arcs":[[-389,-763,-749,-759,774,-173,-499,775]],"properties":{"name":"一橋泉涌寺五葉ノ辻町"}},{"type":"Polygon","arcs":[[-778,780,781,782]],"properties":{"name":"貞教鞘町"}},{"type":"Polygon","arcs":[[783,-755,784,-595,-514]],"properties":{"name":"新道田中町"}},{"type":"Polygon","arcs":[[-618,-397,-486,-619,-271]],"properties":{"name":"粟田北木之元町"}},{"type":"Polygon","arcs":[[-785,-754,-10,-780,785,786,-596]],"properties":{"name":"貞教東橋詰町"}},{"type":"Polygon","arcs":[[-256,-649]],"properties":{"name":"今熊野今熊野小松山町"}},{"type":"Polygon","arcs":[[-560,791,-393,-306,-311,-561,-294]],"properties":{"name":"月輪今熊野南谷町"}},{"type":"Polygon","arcs":[[-91,-92,-451,-332,-199,-319,-29,-142]],"properties":{"name":"清水清閑寺下山町"}},{"type":"Polygon","arcs":[[-732,792,-205]],"properties":{"name":"月輪福稲川原町"}},{"type":"Polygon","arcs":[[793,-761,-187,-178]],"properties":{"name":"一橋本池田町"}},{"type":"Polygon","arcs":[[-146,-606,794,795,796,-299,-502,797,-376,-768,-247,-445]],"properties":{"name":"一橋三十三間堂廻リ"}},{"type":"Polygon","arcs":[[-506,798,-717,-762,-699]],"properties":{"name":"有済三吉町"}},{"type":"Polygon","arcs":[[-501,-232,-240,-377,-798]],"properties":{"name":"一橋辰巳町"}},{"type":"Polygon","arcs":[[-779,-783,799,-786]],"properties":{"name":"貞教朱雀町"}},{"type":"Polygon","arcs":[[-777,-210,-331,-497,-192,800,-781]],"properties":{"name":"貞教大阪町"}},{"type":"Polygon","arcs":[[-782,-801,-196,-426,801,-593,-787,-800]],"properties":{"name":"貞教上人町"}},{"type":"Polygon","arcs":[[-180,-186,803,-796,804]],"properties":{"name":"一橋新瓦町東組"}},{"type":"Polygon","arcs":[[-181,-805,-795,-605,-770,-723]],"properties":{"name":"一橋本瓦町"}},{"type":"Polygon","arcs":[[-112,-522,-790,-657,-702,-53]],"properties":{"name":"新道西御門町"}},{"type":"Polygon","arcs":[[-753,-629,-573,-576,-708,-580,-698]],"properties":{"name":"弥栄中之町"}},{"type":"Polygon","arcs":[[-277,-757,-262,-346,-406,805]],"properties":{"name":"月輪福稲岸ノ上町"}},{"type":"Polygon","arcs":[[-191,-296,-797,-804]],"properties":{"name":"一橋新瓦町西組"}},{"type":"Polygon","arcs":[[-544,-739,-715,-799,-505]],"properties":{"name":"有済西之町"}},{"type":"Polygon","arcs":[[-766,-733,-208,-404,-350,-152]],"properties":{"name":"月輪福稲上高松町"}},{"type":"Polygon","arcs":[[-771,-607,-144,-75,-651,-685]],"properties":{"name":"今熊野今熊野日吉町"}},{"type":"Polygon","arcs":[[-616,-610,-462,-711,-365,-668,-599,807]],"properties":{"name":"粟田梅宮町"}},{"type":"Polygon","arcs":[[-39,-756,-784,-513,-519,-532]],"properties":{"name":"新道森下町"}},{"type":"Polygon","arcs":[[-772,-475,-375,-496,-765]],"properties":{"name":"貞教正面町"}},{"type":"Polygon","arcs":[[-392,-468,-312,-308]],"properties":{"name":"月輪泉涌寺東林町"}},{"type":"Polygon","arcs":[[-751,-449,809,-473,-809,-359]],"properties":{"name":"貞教下堀詰町"}}]}},"arcs":[[[135.77175592676446,34.99496246159477],[135.77138441795663,34.99432854674634]],[[135.77138441795663,34.99432854674634],[135.77129621802382,34.994389893344575]],[[135.77129621802382,34.994389893344575],[135.77106636365352,34.99503198773943]],[[135.77106636365352,34.99503198773943],[135.77175592676446,34.99496246159477]],[[135.77079107295418,34.995870391248644],[135.77145123608753,34.99571906963967]],[[135.77145123608753,34.99571906963967],[135.7718093812692,34.995596376443196]],[[135.7718093812692,34.995596376443196],[135.77175592676446,34.99496246159477]],[[135.77106636365352,34.99503198773943],[135.77071089119707,34.99508106501802]],[[135.77071089119707,34.99508106501802],[135.77022178247884,34.9953632593699]],[[135.77022178247884,34.9953632593699],[135.7702485097312,34.99588266056829]],[[135.7702485097312,34.99588266056829],[135.77079107295418,34.995870391248644]],[[135.77275552600284,34.992966652265515],[135.77316979841447,34.9925699442636]],[[135.77316979841447,34.9925699442636],[135.77146727243894,34.99269263746007]],[[135.77146727243894,34.99269263746007],[135.77149132696607,34.992884856801204]],[[135.77149132696607,34.992884856801204],[135.7719055993777,34.993179320472734]],[[135.7719055993777,34.993179320472734],[135.77275552600284,34.992966652265515]],[[135.7730762530312,34.993522861422846],[135.77385668880018,34.992966652265515]],[[135.77385668880018,34.992966652265515],[135.77369097983555,34.99252904653144]],[[135.77369097983555,34.99252904653144],[135.77339163460908,34.99255358517073]],[[135.77339163460908,34.99255358517073],[135.77316979841447,34.9925699442636]],[[135.77275552600284,34.992966652265515],[135.77291321679178,34.993539220515714]],[[135.77291321679178,34.993539220515714],[135.7730762530312,34.993522861422846]],[[135.78588662508872,34.99125712706137],[135.78921149528264,34.98983797575553],[135.78903509541706,34.98916725294816]],[[135.78903509541706,34.98916725294816],[135.78903242269183,34.989036380205256]],[[135.78903242269183,34.989036380205256],[135.78793125989446,34.988476081274705]],[[135.78793125989446,34.988476081274705],[135.78700916968796,34.98834929830502]],[[135.78700916968796,34.98834929830502],[135.78495384398124,34.98960894845545]],[[135.78495384398124,34.98960894845545],[135.7830722454149,34.991580219145405]],[[135.7830722454149,34.991580219145405],[135.78588662508872,34.99125712706137]],[[135.78055186551708,34.98976844961086],[135.78059730184611,34.99003428486988]],[[135.78059730184611,34.99003428486988],[135.78134299218704,34.99064775085223]],[[135.78134299218704,34.99064775085223],[135.78109977419052,34.990991291802345]],[[135.78109977419052,34.990991291802345],[135.78117728322238,34.99109762590595]],[[135.78117728322238,34.99109762590595],[135.7830936272168,34.99009972124133]],[[135.7830936272168,34.99009972124133],[135.78055186551708,34.98976844961086]],[[135.77159289052506,34.99689283455257],[135.77150736331748,34.9961975731059]],[[135.77150736331748,34.9961975731059],[135.77083650928319,34.996230291291624]],[[135.77083650928319,34.996230291291624],[135.7707563275261,34.99624256061127]],[[135.7707563275261,34.99624256061127],[135.7709113455898,34.99711777207943]],[[135.7709113455898,34.99711777207943],[135.770924709216,34.99714231071872]],[[135.770924709216,34.99714231071872],[135.77159289052506,34.99689283455257]],[[135.77266999879527,34.99728954255448],[135.77244014442496,34.99733453005986]],[[135.77244014442496,34.99733453005986],[135.77200449021143,34.997588095999234]],[[135.77200449021143,34.997588095999234],[135.77204725381523,34.9981279460637]],[[135.77204725381523,34.9981279460637],[135.77298003492268,34.99766580169033]],[[135.77298003492268,34.99766580169033],[135.77266999879527,34.99728954255448]],[[135.77222632640604,34.99561273553606],[135.7718093812692,34.995596376443196]],[[135.77145123608753,34.99571906963967],[135.77150736331748,34.9961975731059]],[[135.77159289052506,34.99689283455257],[135.771796017643,34.997510390308136]],[[135.771796017643,34.997510390308136],[135.77200449021143,34.997588095999234]],[[135.77244014442496,34.99733453005986],[135.77222632640604,34.99561273553606]],[[135.771796017643,34.997510390308136],[135.77090065468886,34.99780485397966]],[[135.77090065468886,34.99780485397966],[135.77096747281976,34.998406050642366]],[[135.77096747281976,34.998406050642366],[135.77204725381523,34.9981279460637]],[[135.77191896300388,34.993588297794304],[135.7719055993777,34.993179320472734]],[[135.77149132696607,34.992884856801204],[135.77128285439764,34.99291348521371]],[[135.77128285439764,34.99291348521371],[135.77093540011694,34.99295847271909]],[[135.77093540011694,34.99295847271909],[135.77123741806864,34.99372735008363]],[[135.77123741806864,34.99372735008363],[135.77136303615472,34.994046352394456]],[[135.77136303615472,34.994046352394456],[135.77165169048024,34.99400136488909]],[[135.77165169048024,34.99400136488909],[135.77191896300388,34.993588297794304]],[[135.77138441795663,34.99432854674634],[135.77136303615472,34.994046352394456]],[[135.77123741806864,34.99372735008363],[135.77026454608261,34.993833684187244]],[[135.77026454608261,34.993833684187244],[135.7703447278397,34.99441034221065]],[[135.7703447278397,34.99441034221065],[135.77061200036334,34.99447986835532]],[[135.77061200036334,34.99447986835532],[135.77129621802382,34.994389893344575]],[[135.77385668880018,34.992966652265515],[135.77398497961153,34.993621015980025]],[[135.77398497961153,34.993621015980025],[135.77398497961153,34.99416495581771]],[[135.77398497961153,34.99416495581771],[135.77476006993007,34.99405044216767]],[[135.77476006993007,34.99405044216767],[135.7751155423865,34.99316296137987]],[[135.7751155423865,34.99316296137987],[135.77481886988525,34.99242271242783]],[[135.77481886988525,34.99242271242783],[135.77369097983555,34.99252904653144]],[[135.77191896300388,34.993588297794304],[135.77291321679178,34.993539220515714]],[[135.78055186551708,34.98976844961086],[135.78225973694308,34.98899139269988],[135.7815327556788,34.98806710395314]],[[135.7815327556788,34.98806710395314],[135.77889477587058,34.98894231542129]],[[135.77889477587058,34.98894231542129],[135.77620066883242,34.98951079389827],[135.77653475948694,34.99159248846505]],[[135.77653475948694,34.99159248846505],[135.77747021331965,34.99149433390787]],[[135.77747021331965,34.99149433390787],[135.78059730184611,34.99003428486988]],[[135.77093540011694,34.99295847271909],[135.7708445274589,34.99258221358325]],[[135.7708445274589,34.99258221358325],[135.77011754619463,34.9927008170065]],[[135.77011754619463,34.9927008170065],[135.77013358254604,34.9928316897494]],[[135.77013358254604,34.9928316897494],[135.77023514610502,34.99360874666038]],[[135.77023514610502,34.99360874666038],[135.77026454608261,34.993833684187244]],[[135.78793125989446,34.988476081274705],[135.78700916968796,34.98834929830502]],[[135.78103295605962,34.99149024413466],[135.78117728322238,34.99109762590595]],[[135.78109977419052,34.990991291802345],[135.78134299218704,34.99064775085223]],[[135.77747021331965,34.99149433390787],[135.7778203403256,34.992394084015324]],[[135.7778203403256,34.992394084015324],[135.77825866726434,34.99270899655293]],[[135.77825866726434,34.99270899655293],[135.77850723071134,34.992659919274345]],[[135.77850723071134,34.992659919274345],[135.7794400118188,34.991936029415164]],[[135.7794400118188,34.991936029415164],[135.78103295605962,34.99149024413466]],[[135.7790497939343,34.99261902154218],[135.7794400118188,34.991936029415164]],[[135.77850723071134,34.992659919274345],[135.7790497939343,34.99261902154218]],[[135.773843325174,34.9967987697686],[135.77287579863847,34.99670879475786]],[[135.77287579863847,34.99670879475786],[135.77266999879527,34.99728954255448]],[[135.77298003492268,34.99766580169033],[135.77361079807844,34.99823428016731]],[[135.77361079807844,34.99823428016731],[135.77549774209527,34.9976330835046]],[[135.77549774209527,34.9976330835046],[135.7754843784691,34.997395876658096]],[[135.7754843784691,34.997395876658096],[135.77528392407638,34.99670061521143]],[[135.77528392407638,34.99670061521143],[135.77496854249847,34.99669652543821]],[[135.77496854249847,34.99669652543821],[135.773843325174,34.9967987697686]],[[135.77705326818278,34.99467617746967],[135.77753970417578,34.99486839681081]],[[135.77753970417578,34.99486839681081],[135.77808761284922,34.99522420708057]],[[135.77808761284922,34.99522420708057],[135.7781063219259,34.995232386627]],[[135.7781063219259,34.995232386627],[135.77705326818278,34.99467617746967]],[[135.77599754171445,34.99738360733845],[135.77599754171445,34.996524754963154]],[[135.77599754171445,34.996524754963154],[135.77542825123913,34.996496126550646]],[[135.77542825123913,34.996496126550646],[135.77528392407638,34.99670061521143]],[[135.7754843784691,34.997395876658096],[135.77599754171445,34.99738360733845]],[[135.770924709216,34.99714231071872],[135.77058527311098,34.99740405620452]],[[135.77058527311098,34.99740405620452],[135.77063605489047,34.99756355735994]],[[135.77063605489047,34.99756355735994],[135.77090065468886,34.99780485397966]],[[135.77663899577115,34.99794799604221],[135.7765828685412,34.997653532370684]],[[135.7765828685412,34.997653532370684],[135.77599754171445,34.99738360733845]],[[135.77549774209527,34.9976330835046],[135.77663899577115,34.99794799604221]],[[135.77653475948694,34.99159248846505],[135.7765320867617,34.99197692714733]],[[135.7765320867617,34.99197692714733],[135.77660157761787,34.99246361015999]],[[135.77660157761787,34.99246361015999],[135.7774140860897,34.992410443108184]],[[135.7774140860897,34.992410443108184],[135.7778203403256,34.992394084015324]],[[135.77764394046,34.99271717609936],[135.7774140860897,34.992410443108184]],[[135.77660157761787,34.99246361015999],[135.77639577777467,34.9932488466174]],[[135.77639577777467,34.9932488466174],[135.7762354142605,34.993637375072886]],[[135.7762354142605,34.993637375072886],[135.77764394046,34.99271717609936]],[[135.77260050793913,34.994811139985785],[135.77383797972354,34.99439398311779]],[[135.77383797972354,34.99439398311779],[135.77398497961153,34.99416495581771]],[[135.77398497961153,34.993621015980025],[135.7731216893602,34.99409951944626]],[[135.7731216893602,34.99409951944626],[135.77227176273507,34.99421812286951]],[[135.77227176273507,34.99421812286951],[135.7723759990193,34.99485203771795]],[[135.7723759990193,34.99485203771795],[135.77260050793913,34.994811139985785]],[[135.77227176273507,34.99421812286951],[135.77165169048024,34.99400136488909]],[[135.77175592676446,34.99496246159477],[135.7723759990193,34.99485203771795]],[[135.77146727243894,34.99269263746007],[135.77095410919358,34.992165056715244]],[[135.77095410919358,34.992165056715244],[135.7709915273469,34.992279570365284]],[[135.7709915273469,34.992279570365284],[135.77128285439764,34.99291348521371]],[[135.77639577777467,34.9932488466174],[135.7751155423865,34.99316296137987]],[[135.77476006993007,34.99405044216767],[135.77528125135112,34.994177225137356]],[[135.77528125135112,34.994177225137356],[135.7762354142605,34.993637375072886]],[[135.7708445274589,34.99258221358325],[135.7709915273469,34.992279570365284]],[[135.77095410919358,34.992165056715244],[135.77031265513688,34.99204236351878]],[[135.77031265513688,34.99204236351878],[135.77011754619463,34.9927008170065]],[[135.78495384398124,34.98960894845545],[135.7830936272168,34.99009972124133]],[[135.78103295605962,34.99149024413466],[135.7830722454149,34.991580219145405]],[[135.7765320867617,34.99197692714733],[135.77481886988525,34.99242271242783]],[[135.77889477587058,34.98894231542129],[135.77707197725945,34.9886314926569]],[[135.77707197725945,34.9886314926569],[135.77445805197834,34.989032290432036]],[[135.77445805197834,34.989032290432036],[135.77393954328252,34.98906091884455]],[[135.77393954328252,34.98906091884455],[135.77339163460908,34.99255358517073]],[[135.7731216893602,34.99409951944626],[135.7730762530312,34.993522861422846]],[[135.77061200036334,34.99447986835532],[135.77071089119707,34.99508106501802]],[[135.77764394046,34.99271717609936],[135.77825866726434,34.99270899655293]],[[135.77103161822544,34.975433794489916],[135.7700934916675,34.975266113788074]],[[135.7700934916675,34.975266113788074],[135.77012823709558,34.97666072645462]],[[135.77012823709558,34.97666072645462],[135.77017367342458,34.9766811753207]],[[135.77017367342458,34.9766811753207],[135.77079107295418,34.97666481622784]],[[135.77079107295418,34.97666481622784],[135.77103161822544,34.975433794489916]],[[135.7806855017789,35.00262260682773],[135.7822330096907,35.001624702163106]],[[135.7822330096907,35.001624702163106],[135.77910057571378,35.00131387939871],[135.7788439940911,35.00195597379357]],[[135.7788439940911,35.00195597379357],[135.7806855017789,35.00262260682773]],[[135.77858741246843,35.00162879193632],[135.77860344881984,35.00123617370761]],[[135.77860344881984,35.00123617370761],[135.7779887220155,35.001293430532634]],[[135.7779887220155,35.001293430532634],[135.77777223127134,35.00192734538106]],[[135.77777223127134,35.00192734538106],[135.77858741246843,35.00162879193632]],[[135.76940660128176,34.986766556070556],[135.7676933844053,34.98639438670793]],[[135.7676933844053,34.98639438670793],[135.76724703929085,34.98840655513004]],[[135.76724703929085,34.98840655513004],[135.7691954559881,34.98893004610164]],[[135.7691954559881,34.98893004610164],[135.76919812871333,34.98871328812122]],[[135.76919812871333,34.98871328812122],[135.76931840134898,34.98750680502259]],[[135.76931840134898,34.98750680502259],[135.76940660128176,34.986766556070556]],[[135.7823131914478,34.997444953936686],[135.78017501125876,34.998111586970836]],[[135.78017501125876,34.998111586970836],[135.77978212064903,34.9992240052855]],[[135.77978212064903,34.9992240052855],[135.7825564094443,34.99939577576056]],[[135.7825564094443,34.99939577576056],[135.7823131914478,34.997444953936686]],[[135.7720739810676,34.98288945106209],[135.7709193637655,34.98277493741205]],[[135.7709193637655,34.98277493741205],[135.7706841639447,34.98279129650492]],[[135.7706841639447,34.98279129650492],[135.77069218212043,34.98298351584605]],[[135.77069218212043,34.98298351584605],[135.77105567275257,34.98322890223899]],[[135.77105567275257,34.98322890223899],[135.7710877454554,34.98414092166609]],[[135.7710877454554,34.98414092166609],[135.77107705455444,34.9857604718595]],[[135.77107705455444,34.9857604718595],[135.77177463584113,34.98631668101683]],[[135.77177463584113,34.98631668101683],[135.77258981703818,34.98626760373824]],[[135.77258981703818,34.98626760373824],[135.77257110796154,34.986091743489965]],[[135.77257110796154,34.986091743489965],[135.7736295071551,34.98549872637369]],[[135.7736295071551,34.98549872637369],[135.77357337992515,34.98489343993778]],[[135.77357337992515,34.98489343993778],[135.7729372713189,34.98364196933378]],[[135.7729372713189,34.98364196933378],[135.7720739810676,34.98288945106209]],[[135.77171316316068,34.9863616685222],[135.77177463584113,34.98631668101683]],[[135.77107705455444,34.9857604718595],[135.77057458221003,34.98604266621138]],[[135.77057458221003,34.98604266621138],[135.77058527311098,34.98613264122213]],[[135.77058527311098,34.98613264122213],[135.77060398218762,34.9864925412651]],[[135.77060398218762,34.9864925412651],[135.77113852723488,34.98659887536871]],[[135.77113852723488,34.98659887536871],[135.77171316316068,34.9863616685222]],[[135.76887205623453,34.994500317221394],[135.76877851085123,34.993637375072886]],[[135.76877851085123,34.993637375072886],[135.7686929836437,34.992819420429754]],[[135.7686929836437,34.992819420429754],[135.76846045654813,34.99281124088332]],[[135.76846045654813,34.99281124088332],[135.7686635836661,34.99451667631426]],[[135.7686635836661,34.99451667631426],[135.76887205623453,34.994500317221394]],[[135.78983691298794,34.995596376443196],[135.79072960321687,34.99226321127242]],[[135.79072960321687,34.99226321127242],[135.7883241505042,34.9931179738745],[135.7859454250439,34.991907401002656]],[[135.7859454250439,34.991907401002656],[135.78533604369005,34.99332246253528]],[[135.78533604369005,34.99332246253528],[135.7857904069802,34.99561682530928],[135.78369231766973,34.996230291291624]],[[135.78369231766973,34.996230291291624],[135.78501798938692,34.99903178594437]],[[135.78501798938692,34.99903178594437],[135.78592404324203,34.99927717233731]],[[135.78592404324203,34.99927717233731],[135.7871962604545,34.997555377813505],[135.78983691298794,34.995596376443196]],[[135.76820387492543,34.9740719000091],[135.76652540347706,34.974227311391296]],[[135.76652540347706,34.974227311391296],[135.7656888404781,34.97424367048416]],[[135.7656888404781,34.97424367048416],[135.76677396692403,34.97553603882031]],[[135.76677396692403,34.97553603882031],[135.7682065476507,34.97593274682223]],[[135.7682065476507,34.97593274682223],[135.76820387492543,34.9740719000091]],[[135.77023514610502,34.99360874666038],[135.76941461945748,34.99369463189791]],[[135.76941461945748,34.99369463189791],[135.76952152846692,34.99467208769646]],[[135.76952152846692,34.99467208769646],[135.7703447278397,34.99441034221065]],[[135.77744615879251,34.99531418209131],[135.77712275903892,34.99533872073061]],[[135.77712275903892,34.99533872073061],[135.7765989048926,34.99591537875402]],[[135.7765989048926,34.99591537875402],[135.7767084866273,34.996381612900606]],[[135.7767084866273,34.996381612900606],[135.77744615879251,34.99531418209131]],[[135.77764126773477,34.983171645413975],[135.77853930341416,34.98264406466915]],[[135.77853930341416,34.98264406466915],[135.77909790298855,34.982026508913584]],[[135.77909790298855,34.982026508913584],[135.77889210314535,34.981965162315355]],[[135.77889210314535,34.981965162315355],[135.77860344881984,34.981703416829546]],[[135.77860344881984,34.981703416829546],[135.77752366782437,34.98198561118143]],[[135.77752366782437,34.98198561118143],[135.77655079583838,34.98241912714229]],[[135.77655079583838,34.98241912714229],[135.77578906914601,34.98257453852449]],[[135.77578906914601,34.98257453852449],[135.77578105097032,34.98388735572672]],[[135.77578105097032,34.98388735572672],[135.77647328680652,34.98391598413923]],[[135.77647328680652,34.98391598413923],[135.77764126773477,34.983171645413975]],[[135.77001865536087,34.98009613595579],[135.76998925538328,34.98064416556669]],[[135.76998925538328,34.98064416556669],[135.77074563662515,34.98070960193814]],[[135.77074563662515,34.98070960193814],[135.77001865536087,34.98009613595579]],[[135.77059329128667,34.987547702754746],[135.7702191097536,34.9870651095153]],[[135.7702191097536,34.9870651095153],[135.77001865536087,34.98746999706365]],[[135.77001865536087,34.98746999706365],[135.7701656552489,34.987666306178]],[[135.7701656552489,34.987666306178],[135.77059329128667,34.987547702754746]],[[135.7877708963803,35.001178916882594],[135.79075900319447,34.998013432413664],[135.78983691298794,34.995596376443196]],[[135.78592404324203,34.99927717233731],[135.7864078065098,35.00113392937722]],[[135.7864078065098,35.00113392937722],[135.78667240630818,35.0012075452951]],[[135.78667240630818,35.0012075452951],[135.7877708963803,35.001178916882594]],[[135.76919812871333,34.98871328812122],[135.77012556437035,34.988770544946235]],[[135.77012556437035,34.988770544946235],[135.77019238250125,34.9887623653998]],[[135.77019238250125,34.9887623653998],[135.77032067331257,34.98825523352106]],[[135.77032067331257,34.98825523352106],[135.7701656552489,34.987666306178]],[[135.77001865536087,34.98746999706365],[135.76931840134898,34.98750680502259]],[[135.78997856742546,35.00876135642446],[135.7899358038217,35.008524149577944]],[[135.7899358038217,35.008524149577944],[135.78848184129316,35.009215321251396]],[[135.78848184129316,35.009215321251396],[135.78839096863513,35.00961202925332]],[[135.78839096863513,35.00961202925332],[135.78997856742546,35.00876135642446]],[[135.7711759453882,34.990206055344935],[135.77124009079387,34.98919179158745]],[[135.77124009079387,34.98919179158745],[135.77124009079387,34.989179522267804]],[[135.77124009079387,34.989179522267804],[135.7707643457018,34.98950261435184]],[[135.7707643457018,34.98950261435184],[135.77081512748128,34.99021423489137]],[[135.77081512748128,34.99021423489137],[135.7711759453882,34.990206055344935]],[[135.7865040246183,34.980787307629235],[135.78557926168654,34.98102042470253]],[[135.78557926168654,34.98102042470253],[135.7847293350614,34.98118401563116]],[[135.7847293350614,34.98118401563116],[135.7845074988668,34.98144576111696]],[[135.7845074988668,34.98144576111696],[135.7819390099147,34.98478301606095]],[[135.7819390099147,34.98478301606095],[135.78511153477018,34.98454989898766]],[[135.78511153477018,34.98454989898766],[135.78680336984476,34.985147005877145]],[[135.78680336984476,34.985147005877145],[135.78698778788606,34.985245160434324]],[[135.78698778788606,34.985245160434324],[135.78948144053152,34.98244366578159],[135.7882787141752,34.981977431634995]],[[135.7882787141752,34.981977431634995],[135.7865040246183,34.980787307629235]],[[135.77065743669235,34.98115129744543],[135.77074563662515,34.98070960193814]],[[135.76998925538328,34.98064416556669],[135.76998658265805,34.98064416556669]],[[135.76998658265805,34.98064416556669],[135.76987700092334,34.98110630994006]],[[135.76987700092334,34.98110630994006],[135.77065743669235,34.98115129744543]],[[135.77260050793913,34.994811139985785],[135.7730334894274,34.995449144607434]],[[135.7730334894274,34.995449144607434],[135.77357605265038,34.995890840114726]],[[135.77357605265038,34.995890840114726],[135.7740197250396,34.99569862077359]],[[135.7740197250396,34.99569862077359],[135.77383797972354,34.99439398311779]],[[135.7739101433049,34.98329842838366],[135.7729372713189,34.98364196933378]],[[135.77357337992515,34.98489343993778],[135.77406248864338,34.98482800356632]],[[135.77406248864338,34.98482800356632],[135.7739101433049,34.98329842838366]],[[135.7772670862017,35.0083033018243],[135.7786515578741,35.008528239351165]],[[135.7786515578741,35.008528239351165],[135.77860612154507,35.008217416586774]],[[135.77860612154507,35.008217416586774],[135.77838963080094,35.00822968590642]],[[135.77838963080094,35.00822968590642],[135.7772670862017,35.0083033018243]],[[135.76970060105776,34.9828649124228],[135.7698369100448,34.982026508913584]],[[135.7698369100448,34.982026508913584],[135.76946272851174,34.982026508913584]],[[135.76946272851174,34.982026508913584],[135.76885067443263,34.98271768058704]],[[135.76885067443263,34.98271768058704],[135.7676933844053,34.98639438670793]],[[135.76940660128176,34.986766556070556],[135.76951618301646,34.98588316505597]],[[135.76951618301646,34.98588316505597],[135.76984492822052,34.98495887630923]],[[135.76984492822052,34.98495887630923],[135.76970060105776,34.9828649124228]],[[135.7823131914478,34.997444953936686],[135.78288515464837,34.99641842085955]],[[135.78288515464837,34.99641842085955],[135.78238802775442,34.996344804941664]],[[135.78238802775442,34.996344804941664],[135.78012422947927,34.99769443010284]],[[135.78012422947927,34.99769443010284],[135.78017501125876,34.998111586970836]],[[135.7882787141752,34.981977431634995],[135.7878377145112,34.980100225729004]],[[135.7878377145112,34.980100225729004],[135.7865040246183,34.980787307629235]],[[135.77879588503686,34.99976794512319],[135.77978212064903,34.9992240052855]],[[135.77978212064903,34.9992240052855],[135.77907919391188,34.999039965490795]],[[135.77907919391188,34.999039965490795],[135.7781063219259,34.999060414356876]],[[135.7781063219259,34.999060414356876],[135.77832281267,34.999988792876835]],[[135.77832281267,34.999988792876835],[135.77879588503686,34.99976794512319]],[[135.78265530027804,34.9756382831507],[135.78097682882967,34.97444406937173]],[[135.78097682882967,34.97444406937173],[135.77854732158988,34.97617404344196],[135.78265530027804,34.9756382831507]],[[135.77069218212043,34.98298351584605],[135.77105567275257,34.98322890223899]],[[135.7711465454106,34.98688515949381],[135.77113852723488,34.98659887536871]],[[135.77060398218762,34.9864925412651],[135.77043025504727,34.98651299013118]],[[135.77043025504727,34.98651299013118],[135.77110110908157,34.98689742881346]],[[135.77110110908157,34.98689742881346],[135.7711465454106,34.98688515949381]],[[135.77593606903403,34.995776326464686],[135.77554852387476,34.99519557866806]],[[135.77554852387476,34.99519557866806],[135.7751823605174,34.99503198773943]],[[135.7751823605174,34.99503198773943],[135.7752491786483,34.99572315941288]],[[135.7752491786483,34.99572315941288],[135.77496854249847,34.99669652543821]],[[135.77542825123913,34.996496126550646],[135.77593606903403,34.995776326464686]],[[135.77635034144564,34.97993254502716],[135.77795130386218,34.97810032662654],[135.78052513826472,34.976493045752775]],[[135.78052513826472,34.976493045752775],[135.7764492322794,34.977605464067445]],[[135.7764492322794,34.977605464067445],[135.776184632481,34.977981723203285]],[[135.776184632481,34.977981723203285],[135.7750513969808,34.978681074423164],[135.77635034144564,34.97993254502716]],[[135.77752366782437,34.98198561118143],[135.77916472111946,34.9810899508472]],[[135.77916472111946,34.9810899508472],[135.78273013658466,34.97994890412002],[135.78137239216463,34.979302719951946],[135.78156750110688,34.97598182410082]],[[135.78156750110688,34.97598182410082],[135.78052513826472,34.976493045752775]],[[135.77635034144564,34.97993254502716],[135.77706395908373,34.981196284950805]],[[135.77706395908373,34.981196284950805],[135.7765534685636,34.98177703274743]],[[135.7765534685636,34.98177703274743],[135.77655079583838,34.98241912714229]],[[135.773843325174,34.9967987697686],[135.77353863449707,34.99630799698272]],[[135.77353863449707,34.99630799698272],[135.7728544168366,34.99634071516845]],[[135.7728544168366,34.99634071516845],[135.77287579863847,34.99670879475786]],[[135.79072960321687,34.99226321127242],[135.7903928398371,34.98961712800188],[135.78903509541706,34.98916725294816]],[[135.78588662508872,34.99125712706137],[135.7859454250439,34.991907401002656]],[[135.77299339854886,34.99546141392708],[135.77222632640604,34.99561273553606]],[[135.7728544168366,34.99634071516845],[135.77299339854886,34.99546141392708]],[[135.78768002372226,35.00936664286038],[135.78848184129316,35.009215321251396]],[[135.7899358038217,35.008524149577944],[135.7901576400163,35.00755896309905]],[[135.7901576400163,35.00755896309905],[135.78699313333655,35.00663058457909]],[[135.78699313333655,35.00663058457909],[135.78734326034248,35.00784524722415]],[[135.78734326034248,35.00784524722415],[135.78672318808768,35.00907626896206]],[[135.78672318808768,35.00907626896206],[135.78690493340375,35.00943616900504]],[[135.78690493340375,35.00943616900504],[135.78768002372226,35.00936664286038]],[[135.77013358254604,34.9928316897494],[135.76933176497516,34.99292575453336]],[[135.76933176497516,34.99292575453336],[135.76940660128176,34.99359238756752]],[[135.76940660128176,34.99359238756752],[135.76941461945748,34.99369463189791]],[[135.78533604369005,34.99332246253528],[135.78419746273937,34.9940054546623],[135.78172786462105,34.99351468187642]],[[135.78172786462105,34.99351468187642],[135.78099821063154,34.99519557866806]],[[135.78099821063154,34.99519557866806],[135.78238802775442,34.996344804941664]],[[135.78288515464837,34.99641842085955],[135.78369231766973,34.996230291291624]],[[135.77235194449216,35.00253263181698],[135.7722958172622,35.0020663976704]],[[135.7722958172622,35.0020663976704],[135.7718387812468,35.00209911585612]],[[135.7718387812468,35.00209911585612],[135.77235194449216,35.00253263181698]],[[135.78071757448174,35.00903946100312],[135.7805224655395,35.00907217918885]],[[135.7805224655395,35.00907217918885],[135.77964313893676,35.00944843832469]],[[135.77964313893676,35.00944843832469],[135.77970461161718,35.00979197927481]],[[135.77970461161718,35.00979197927481],[135.77999861139318,35.00976335086229]],[[135.77999861139318,35.00976335086229],[135.7809073379735,35.00971018381049]],[[135.7809073379735,35.00971018381049],[135.78071757448174,35.00903946100312]],[[135.76854865648093,34.97652985371172],[135.76906449245152,34.98046830531842]],[[135.76906449245152,34.98046830531842],[135.76998658265805,34.98064416556669]],[[135.77001865536087,34.98009613595579],[135.77005072806372,34.97927409153944]],[[135.77005072806372,34.97927409153944],[135.77013358254604,34.9783252641534]],[[135.77013358254604,34.9783252641534],[135.77017367342458,34.9766811753207]],[[135.77012823709558,34.97666072645462],[135.76854865648093,34.97652985371172]],[[135.7702110915779,34.97217424523703],[135.770189709776,34.97307399534447]],[[135.770189709776,34.97307399534447],[135.7701816916003,34.9736547431411]],[[135.7701816916003,34.9736547431411],[135.7711091272573,34.97356476813035]],[[135.7711091272573,34.97356476813035],[135.77120267264056,34.9724564395889]],[[135.77120267264056,34.9724564395889],[135.7702110915779,34.97217424523703]],[[135.76994381905428,34.98991159167341],[135.77001063718518,34.989543512084]],[[135.77001063718518,34.989543512084],[135.77001598263564,34.989277676824976]],[[135.77001598263564,34.989277676824976],[135.76919278326287,34.98929812569106]],[[135.76919278326287,34.98929812569106],[135.7691954559881,34.989915681446625]],[[135.7691954559881,34.989915681446625],[135.76994381905428,34.98991159167341]],[[135.78034873839914,35.008589585949395],[135.77950415722447,35.008769535970885]],[[135.77950415722447,35.008769535970885],[135.77965382983768,35.00914579510673]],[[135.77965382983768,35.00914579510673],[135.7805224655395,35.00907217918885]],[[135.78071757448174,35.00903946100312],[135.78057859276944,35.0087981643834]],[[135.78057859276944,35.0087981643834],[135.78034873839914,35.008589585949395]],[[135.7707643457018,34.98950261435184],[135.77001063718518,34.989543512084]],[[135.76994381905428,34.98991159167341],[135.76981552824293,34.99088495769874]],[[135.76981552824293,34.99088495769874],[135.77001598263564,34.99172336120795]],[[135.77001598263564,34.99172336120795],[135.77020307340217,34.991711091888305]],[[135.77020307340217,34.991711091888305],[135.7705879458362,34.990995381575566]],[[135.7705879458362,34.990995381575566],[135.77081512748128,34.99021423489137]],[[135.76865022003992,34.99183787485799],[135.76720962113754,34.9917356305276]],[[135.76720962113754,34.9917356305276],[135.76735662102553,34.99279897156367]],[[135.76735662102553,34.99279897156367],[135.76846045654813,34.99281124088332]],[[135.7686929836437,34.992819420429754],[135.76865022003992,34.99183787485799]],[[135.7711973271901,34.9883697471711],[135.77117327266296,34.988083463046]],[[135.77117327266296,34.988083463046],[135.77032067331257,34.98825523352106]],[[135.77019238250125,34.9887623653998],[135.7711973271901,34.9883697471711]],[[135.77791388570887,34.998369242683424],[135.7778871584565,34.998974529119344]],[[135.7778871584565,34.998974529119344],[135.7780715764978,34.998945900706836]],[[135.7780715764978,34.998945900706836],[135.77894021219961,34.99806659946547]],[[135.77894021219961,34.99806659946547],[135.77778559489752,34.997784405113585]],[[135.77778559489752,34.997784405113585],[135.77791388570887,34.998369242683424]],[[135.77129889074905,34.97389194998761],[135.77103161822544,34.975433794489916]],[[135.77079107295418,34.97666481622784],[135.7714485633623,34.978648356237436]],[[135.7714485633623,34.978648356237436],[135.77005072806372,34.97927409153944]],[[135.77074563662515,34.98070960193814],[135.77247221712778,34.98144576111696]],[[135.77247221712778,34.98144576111696],[135.7726192170158,34.981556184993785]],[[135.7726192170158,34.981556184993785],[135.77299072582363,34.98183428957245]],[[135.77299072582363,34.98183428957245],[135.77391816148062,34.98137214519908]],[[135.77391816148062,34.98137214519908],[135.7739154887554,34.98133124746692]],[[135.7739154887554,34.98133124746692],[135.77393954328252,34.97897962786791],[135.776184632481,34.977981723203285]],[[135.7764492322794,34.977605464067445],[135.77699981367806,34.976296736638425]],[[135.77699981367806,34.976296736638425],[135.77494448797137,34.97568327065608],[135.77680737746104,34.97382242384294],[135.77129889074905,34.97389194998761]],[[135.77605634166966,35.00915397465316],[135.77707999543514,35.00918669283889]],[[135.77707999543514,35.00918669283889],[135.77706395908373,35.00878589506375]],[[135.77706395908373,35.00878589506375],[135.7770452500071,35.00831148137073]],[[135.7770452500071,35.00831148137073],[135.7770318863809,35.008021107472416]],[[135.7770318863809,35.008021107472416],[135.7770318863809,35.00800065860634]],[[135.7770318863809,35.00800065860634],[135.77620601428288,35.00799247905991]],[[135.77620601428288,35.00799247905991],[135.77605634166966,35.00915397465316]],[[135.77965382983768,35.00914579510673],[135.77938388458884,35.00912125646744]],[[135.77938388458884,35.00912125646744],[135.77964313893676,35.00944843832469]],[[135.76854865648093,34.97652985371172],[135.7682065476507,34.97593274682223]],[[135.76677396692403,34.97553603882031],[135.76775752981098,34.97792855615148],[135.76751698453972,34.98071778148457],[135.76857271100806,34.98273812945311]],[[135.76857271100806,34.98273812945311],[135.76906449245152,34.98046830531842]],[[135.77620601428288,35.00799247905991],[135.77546566939245,35.008021107472416]],[[135.77546566939245,35.008021107472416],[135.7754549784915,35.008638663227984]],[[135.7754549784915,35.008638663227984],[135.77543894214008,35.009133525787085]],[[135.77543894214008,35.009133525787085],[135.77605634166966,35.00915397465316]],[[135.7776653222619,35.00918669283889],[135.77707999543514,35.00918669283889]],[[135.77707999543514,35.00918669283889],[135.77617661430529,35.00977970995516]],[[135.77617661430529,35.00977970995516],[135.77764928591048,35.009849236099825]],[[135.77764928591048,35.009849236099825],[135.7776653222619,35.00918669283889]],[[135.7730334894274,34.995449144607434],[135.77299339854886,34.99546141392708]],[[135.77353863449707,34.99630799698272],[135.77357605265038,34.995890840114726]],[[135.77860344881984,34.981703416829546],[135.77916472111946,34.9810899508472]],[[135.77764928591048,35.009849236099825],[135.7786675942255,35.00983696678018]],[[135.7786675942255,35.00983696678018],[135.77863552152266,35.00918669283889]],[[135.77863552152266,35.00918669283889],[135.7776653222619,35.00918669283889]],[[135.78672318808768,35.00907626896206],[135.7849725530579,35.00887995984771]],[[135.7849725530579,35.00887995984771],[135.78524249830676,35.0098942236052]],[[135.78524249830676,35.0098942236052],[135.78673387898863,35.00956295197473]],[[135.78673387898863,35.00956295197473],[135.78690493340375,35.00943616900504]],[[135.76735662102553,34.99279897156367],[135.7676265662744,34.99466799792324]],[[135.7676265662744,34.99466799792324],[135.7686635836661,34.99451667631426]],[[135.77736597703543,34.998369242683424],[135.77720561352126,34.997604455092095]],[[135.77720561352126,34.997604455092095],[135.77699714095283,34.99762490395817]],[[135.77699714095283,34.99762490395817],[135.7765828685412,34.997653532370684]],[[135.77663899577115,34.99794799604221],[135.77671917752826,34.99849602565311]],[[135.77671917752826,34.99849602565311],[135.77736597703543,34.998369242683424]],[[135.7702191097536,34.9870651095153],[135.77043025504727,34.98651299013118]],[[135.77058527311098,34.98613264122213],[135.76951618301646,34.98588316505597]],[[135.7779085402584,35.007743002893754],[135.77788448573128,35.007497616500814]],[[135.77788448573128,35.007497616500814],[135.77778826762275,35.007235871015006]],[[135.77778826762275,35.007235871015006],[135.7771949226203,35.00729721761324]],[[135.7771949226203,35.00729721761324],[135.77705326818278,35.007485347181166]],[[135.77705326818278,35.007485347181166],[135.7770318863809,35.00800065860634]],[[135.7770318863809,35.008021107472416],[135.7779085402584,35.007743002893754]],[[135.78773347822698,35.00972245313014],[135.78768002372226,35.00936664286038]],[[135.78673387898863,35.00956295197473],[135.78773347822698,35.00972245313014]],[[135.77970461161718,35.00979197927481],[135.7789321940239,35.00984105655339]],[[135.7789321940239,35.00984105655339],[135.78003870227172,35.01033591911249]],[[135.78003870227172,35.01033591911249],[135.77999861139318,35.00976335086229]],[[135.77393954328252,34.98906091884455],[135.77124009079387,34.98919179158745]],[[135.7711759453882,34.990206055344935],[135.7705879458362,34.990995381575566]],[[135.77020307340217,34.991711091888305],[135.77031265513688,34.99204236351878]],[[135.76724703929085,34.98840655513004],[135.76721763931326,34.9892817665982]],[[135.76721763931326,34.9892817665982],[135.76919011053764,34.989294035917844]],[[135.76919011053764,34.989294035917844],[135.7691954559881,34.98893004610164]],[[135.78172786462105,34.99351468187642],[135.7790497939343,34.99261902154218]],[[135.77528125135112,34.994177225137356],[135.7751823605174,34.99503198773943]],[[135.77554852387476,34.99519557866806],[135.77597615991257,34.99496246159477]],[[135.77597615991257,34.99496246159477],[135.77705326818278,34.99467617746967]],[[135.7781063219259,34.995232386627],[135.77884933954158,34.99553502984496]],[[135.77884933954158,34.99553502984496],[135.77927964830462,34.995710890093235]],[[135.77927964830462,34.995710890093235],[135.78099821063154,34.99519557866806]],[[135.77895892127626,35.00743626990258],[135.7783441944719,35.00778390062591]],[[135.7783441944719,35.00778390062591],[135.77838963080094,35.00822968590642]],[[135.77860612154507,35.008217416586774],[135.77929033920557,35.00817651885461]],[[135.77929033920557,35.00817651885461],[135.7797420297705,35.00807836429744]],[[135.7797420297705,35.00807836429744],[135.77895892127626,35.00743626990258]],[[135.77837626717476,35.00541183216082],[135.77767868588808,35.00553452535729]],[[135.77767868588808,35.00553452535729],[135.7776867040638,35.005849437894895]],[[135.7776867040638,35.005849437894895],[135.7777615403704,35.006438365237955]],[[135.7777615403704,35.006438365237955],[135.77805821287163,35.00641791637187]],[[135.77805821287163,35.00641791637187],[135.77837626717476,35.00541183216082]],[[135.77706395908373,34.981196284950805],[135.7739154887554,34.98133124746692]],[[135.77391816148062,34.98137214519908],[135.77412930677428,34.98236596009049]],[[135.77412930677428,34.98236596009049],[135.7765534685636,34.98177703274743]],[[135.76922485596572,34.991465705495365],[135.76920347416382,34.99085223951301]],[[135.76920347416382,34.99085223951301],[135.76918209236192,34.99055368606827]],[[135.76918209236192,34.99055368606827],[135.76715349390759,34.99046780083074]],[[135.76715349390759,34.99046780083074],[135.76720962113754,34.9917356305276]],[[135.76865022003992,34.99183787485799],[135.76922485596572,34.991465705495365]],[[135.77447943378024,34.984676681957346],[135.77406248864338,34.98482800356632]],[[135.7736295071551,34.98549872637369],[135.77410257952192,34.98542920022903]],[[135.77410257952192,34.98542920022903],[135.77447943378024,34.984676681957346]],[[135.77274216237666,35.00800883815277],[135.77179067219254,35.00797611996705]],[[135.77179067219254,35.00797611996705],[135.7717719631159,35.008867690528064]],[[135.7717719631159,35.008867690528064],[135.77279027143092,35.00892085757987]],[[135.77279027143092,35.00892085757987],[135.77274216237666,35.00800883815277]],[[135.77863552152266,35.00918669283889],[135.77894288492485,35.00918260306567]],[[135.77894288492485,35.00918260306567],[135.778865375893,35.008839062115555]],[[135.778865375893,35.008839062115555],[135.77867828512646,35.008855421208416]],[[135.77867828512646,35.008855421208416],[135.77706395908373,35.00878589506375]],[[135.7732740346987,35.00744035967579],[135.77274216237666,35.00747716763473]],[[135.77274216237666,35.00747716763473],[135.77274216237666,35.00800883815277]],[[135.77279027143092,35.00892085757987],[135.77378719794405,35.00866320186728]],[[135.77378719794405,35.00866320186728],[135.7732740346987,35.00744035967579]],[[135.77478412445717,35.00800065860634],[135.7748669789395,35.007661207429436]],[[135.7748669789395,35.007661207429436],[135.7732740346987,35.00744035967579]],[[135.77378719794405,35.00866320186728],[135.77417474310332,35.00868774050657]],[[135.77417474310332,35.00868774050657],[135.77432708844177,35.00868365073336]],[[135.77432708844177,35.00868365073336],[135.77478412445717,35.00800065860634]],[[135.76933176497516,34.99292575453336],[135.7686929836437,34.992819420429754]],[[135.76877851085123,34.993637375072886],[135.76940660128176,34.99359238756752]],[[135.77412930677428,34.98236596009049],[135.7730334894274,34.98268905217453]],[[135.7730334894274,34.98268905217453],[135.7720739810676,34.98288945106209]],[[135.7739101433049,34.98329842838366],[135.77578906914601,34.98257453852449]],[[135.77059329128667,34.987547702754746],[135.7711465454106,34.98752316411545]],[[135.7711465454106,34.98752316411545],[135.77110110908157,34.98689742881346]],[[135.7760456507687,35.005914874266345],[135.7747413608534,35.00601711859674]],[[135.7747413608534,35.00601711859674],[135.77473601540294,35.00601711859674]],[[135.77473601540294,35.00601711859674],[135.77480283353384,35.0066592129916]],[[135.77480283353384,35.0066592129916],[135.77623006881,35.006552878887994]],[[135.77623006881,35.006552878887994],[135.7760456507687,35.005914874266345]],[[135.7849725530579,35.00887995984771],[135.7843310990012,35.00858549617618]],[[135.7843310990012,35.00858549617618],[135.78391148113909,35.00938709172645]],[[135.78391148113909,35.00938709172645],[135.7838981175129,35.00981242814088]],[[135.7838981175129,35.00981242814088],[135.78478278956612,35.01022958500889]],[[135.78478278956612,35.01022958500889],[135.78524249830676,35.0098942236052]],[[135.77030998241165,34.997064605027624],[135.7701148734694,34.996479767457785]],[[135.7701148734694,34.996479767457785],[135.7695402375436,34.996655627706055]],[[135.7695402375436,34.996655627706055],[135.76955894662024,34.99668834589178]],[[135.76955894662024,34.99668834589178],[135.76977811008962,34.9971872982241]],[[135.76977811008962,34.9971872982241],[135.77030998241165,34.997064605027624]],[[135.77058527311098,34.99740405620452],[135.7705131095296,34.99701143797582]],[[135.7705131095296,34.99701143797582],[135.77030998241165,34.997064605027624]],[[135.76977811008962,34.9971872982241],[135.76989036454955,34.997440864163465]],[[135.76989036454955,34.997440864163465],[135.76995718268046,34.997555377813505]],[[135.76995718268046,34.997555377813505],[135.77063605489047,34.99756355735994]],[[135.78699313333655,35.00663058457909],[135.78679000621858,35.00619706861823]],[[135.78679000621858,35.00619706861823],[135.78611915218428,35.006389287959365]],[[135.78611915218428,35.006389287959365],[135.7849137531027,35.00711317781854]],[[135.7849137531027,35.00711317781854],[135.7848683167737,35.00799247905991]],[[135.7848683167737,35.00799247905991],[135.78734326034248,35.00784524722415]],[[135.77137907250616,35.000164653125104],[135.7711545635863,34.99918719732656]],[[135.7711545635863,34.99918719732656],[135.76949212848933,34.99936305757483]],[[135.76949212848933,34.99936305757483],[135.77002400081136,35.00050001452879]],[[135.77002400081136,35.00050001452879],[135.77137907250616,35.000164653125104]],[[135.7709113455898,34.99711777207943],[135.7705131095296,34.99701143797582]],[[135.7717719631159,35.008867690528064],[135.7739154887554,35.009603849706885]],[[135.7739154887554,35.009603849706885],[135.77417474310332,35.00868774050657]],[[135.7730254712517,35.00442210704262],[135.77291856224224,35.00528504919113]],[[135.77291856224224,35.00528504919113],[135.7744179610998,35.00555906399658]],[[135.7744179610998,35.00555906399658],[135.77442063382506,35.004524351373014]],[[135.77442063382506,35.004524351373014],[135.7730254712517,35.00442210704262]],[[135.77639310504944,35.00538729352152],[135.77644655955416,35.00588624585384]],[[135.77644655955416,35.00588624585384],[135.7776867040638,35.005849437894895]],[[135.77767868588808,35.00553452535729],[135.77639310504944,35.00538729352152]],[[135.77447141560452,35.00556724354301],[135.7744179610998,35.00555906399658]],[[135.77291856224224,35.00528504919113],[135.7728490713861,35.00617661975215]],[[135.7728490713861,35.00617661975215],[135.77473601540294,35.00601711859674]],[[135.7747413608534,35.00601711859674],[135.77447141560452,35.00556724354301]],[[135.77644655955416,35.00588624585384],[135.7760456507687,35.005914874266345]],[[135.77623006881,35.006552878887994],[135.77708534088563,35.00648744251654]],[[135.77708534088563,35.00648744251654],[135.7777615403704,35.006438365237955]],[[135.78276488201274,35.00984514632661],[135.78276755473797,35.00979606904802]],[[135.78276755473797,35.00979606904802],[135.78203790074846,35.009832877006964]],[[135.78203790074846,35.009832877006964],[135.7809073379735,35.00971018381049]],[[135.7809073379735,35.00971018381049],[135.78145524664694,35.010405445257156]],[[135.78145524664694,35.010405445257156],[135.78274617293607,35.010679460062605]],[[135.78274617293607,35.010679460062605],[135.78276488201274,35.00984514632661]],[[135.7739154887554,35.009603849706885],[135.77527590590066,35.01011507135885]],[[135.77527590590066,35.01011507135885],[135.77543894214008,35.009133525787085]],[[135.7754549784915,35.008638663227984],[135.77432708844177,35.00868365073336]],[[135.7847293350614,34.98118401563116],[135.78557926168654,34.98102042470253]],[[135.7878377145112,34.980100225729004],[135.78676862441668,34.97881603693928],[135.7882947505266,34.976558482124226],[135.7865868791006,34.97392057840012],[135.78784840541215,34.971597587213616],[135.78444602618634,34.97123359739742],[135.78154344657975,34.97376516701792]],[[135.78154344657975,34.97376516701792],[135.78097682882967,34.97444406937173]],[[135.78265530027804,34.9756382831507],[135.78156750110688,34.97598182410082]],[[135.77889210314535,34.981965162315355],[135.77909790298855,34.982026508913584]],[[135.77853930341416,34.98264406466915],[135.77823728546247,34.98336386475511]],[[135.77823728546247,34.98336386475511],[135.77843773985518,34.983417031806916]],[[135.77843773985518,34.983417031806916],[135.77921817562418,34.98332296702296]],[[135.77921817562418,34.98332296702296],[135.78357739048457,34.98228825439939],[135.7845074988668,34.98144576111696]],[[135.76955894662024,34.99668834589178],[135.7684283838453,34.99691737319186]],[[135.7684283838453,34.99691737319186],[135.76878652902695,34.99775986647429]],[[135.76878652902695,34.99775986647429],[135.76989036454955,34.997440864163465]],[[135.7722530536584,35.0033710353262],[135.7714993451418,35.00351826716196]],[[135.7714993451418,35.00351826716196],[135.77164367230455,35.00439756840333]],[[135.77164367230455,35.00439756840333],[135.77241608989783,35.004364850217605]],[[135.77241608989783,35.004364850217605],[135.7722530536584,35.0033710353262]],[[135.7730254712517,35.00442210704262],[135.7730388348779,35.00431986271223]],[[135.7730388348779,35.00431986271223],[135.77269672604763,35.00433213203188]],[[135.77269672604763,35.00433213203188],[135.77241608989783,35.004364850217605]],[[135.77164367230455,35.00439756840333],[135.77170247225973,35.00517462531431]],[[135.77170247225973,35.00517462531431],[135.77291856224224,35.00528504919113]],[[135.77546566939245,35.008021107472416],[135.77478412445717,35.00800065860634]],[[135.77309496210785,35.00383726947278],[135.7730842712069,35.00391497516388]],[[135.7730842712069,35.00391497516388],[135.77306021667977,35.00412355359788]],[[135.77306021667977,35.00412355359788],[135.7754629966672,35.0046511343427]],[[135.7754629966672,35.0046511343427],[135.77551110572145,35.0054322810269]],[[135.77551110572145,35.0054322810269],[135.77639310504944,35.00538729352152]],[[135.77837626717476,35.00541183216082],[135.78062135637322,35.00437711953725]],[[135.78062135637322,35.00437711953725],[135.780618683648,35.00321153417079]],[[135.780618683648,35.00321153417079],[135.77837626717476,35.00301113528322],[135.7763984504999,35.00381273083349],[135.77309496210785,35.00383726947278]],[[135.7717799812916,35.00190689651498],[135.77179067219254,35.001718766947064]],[[135.77179067219254,35.001718766947064],[135.77157150872316,35.00082310661283]],[[135.77157150872316,35.00082310661283],[135.77033938238924,35.00117073733616]],[[135.77033938238924,35.00117073733616],[135.7709567819188,35.002172731774]],[[135.7709567819188,35.002172731774],[135.7717799812916,35.00190689651498]],[[135.76879187447742,34.99555138893783],[135.7679446205775,34.99567408213429]],[[135.7679446205775,34.99567408213429],[135.7684283838453,34.99691737319186]],[[135.7695402375436,34.996655627706055],[135.76928632864613,34.99600944353798]],[[135.76928632864613,34.99600944353798],[135.76879187447742,34.99555138893783]],[[135.7843310990012,35.00858549617618],[135.7848683167737,35.00799247905991]],[[135.7849137531027,35.00711317781854],[135.78444068073588,35.00641791637187],[135.7810623560372,35.00795158132775]],[[135.7810623560372,35.00795158132775],[135.781105119641,35.008528239351165]],[[135.781105119641,35.008528239351165],[135.78173321007154,35.00889631894057]],[[135.78173321007154,35.00889631894057],[135.78275953656225,35.00902310191026]],[[135.78275953656225,35.00902310191026],[135.78391148113909,35.00938709172645]],[[135.77447943378024,34.984676681957346],[135.77578105097032,34.98388735572672]],[[135.77470394270009,34.9860999230364],[135.77413732495,34.98616944918106]],[[135.77413732495,34.98616944918106],[135.77429501573894,34.98731458568145]],[[135.77429501573894,34.98731458568145],[135.77445805197834,34.989032290432036]],[[135.77707197725945,34.9886314926569],[135.7776359222843,34.98648845149189],[135.77531332405397,34.98703239132957],[135.77470394270009,34.9860999230364]],[[135.77927964830462,34.995710890093235],[135.7792716301289,34.99785802103147]],[[135.7792716301289,34.99785802103147],[135.78012422947927,34.99769443010284]],[[135.77895892127626,35.00743626990258],[135.77865690332456,35.00711726759175]],[[135.77865690332456,35.00711726759175],[135.77855266704034,35.00715816532391]],[[135.77855266704034,35.00715816532391],[135.77788448573128,35.007497616500814]],[[135.7779085402584,35.007743002893754],[135.7783441944719,35.00778390062591]],[[135.77708534088563,35.00648744251654],[135.7771949226203,35.00729721761324]],[[135.77778826762275,35.007235871015006],[135.77855266704034,35.00715816532391]],[[135.77865690332456,35.00711726759175],[135.77866224877502,35.00711317781854]],[[135.77866224877502,35.00711317781854],[135.77805821287163,35.00641791637187]],[[135.7770452500071,35.00831148137073],[135.7772670862017,35.0083033018243]],[[135.7786515578741,35.008528239351165],[135.77867828512646,35.008855421208416]],[[135.778865375893,35.008839062115555],[135.7790497939343,35.00882679279591]],[[135.7790497939343,35.00882679279591],[135.77929033920557,35.00817651885461]],[[135.78173321007154,35.00889631894057],[135.78203790074846,35.009832877006964]],[[135.78276755473797,35.00979606904802],[135.78275953656225,35.00902310191026]],[[135.77599754171445,34.996524754963154],[135.77674055933014,34.99652066518994]],[[135.77674055933014,34.99652066518994],[135.7767084866273,34.996381612900606]],[[135.7765989048926,34.99591537875402],[135.77593606903403,34.995776326464686]],[[135.78276488201274,35.00984514632661],[135.78353997233125,35.00982060768732]],[[135.78353997233125,35.00982060768732],[135.7838981175129,35.00981242814088]],[[135.7722530536584,35.0033710353262],[135.77254438070918,35.003289239861886]],[[135.77254438070918,35.003289239861886],[135.77238134446975,35.002679863652745]],[[135.77238134446975,35.002679863652745],[135.77235194449216,35.00253263181698]],[[135.7718387812468,35.00209911585612],[135.7717799812916,35.00190689651498]],[[135.7709567819188,35.002172731774],[135.7714993451418,35.00351826716196]],[[135.7864078065098,35.00113392937722],[135.7839702810943,35.001735126039925]],[[135.7839702810943,35.001735126039925],[135.78471329871,35.00274121025098]],[[135.78471329871,35.00274121025098],[135.78667240630818,35.0012075452951]],[[135.78679000621858,35.00619706861823],[135.7870492605665,35.00429123429972]],[[135.7870492605665,35.00429123429972],[135.7849351349046,35.004119463824665]],[[135.7849351349046,35.004119463824665],[135.78452086249297,35.00420943883541]],[[135.78452086249297,35.00420943883541],[135.78611915218428,35.006389287959365]],[[135.77764126773477,34.983171645413975],[135.77823728546247,34.98336386475511]],[[135.77597615991257,34.99496246159477],[135.77712275903892,34.99533872073061]],[[135.77744615879251,34.99531418209131],[135.77753970417578,34.99486839681081]],[[135.7740197250396,34.99569862077359],[135.7752491786483,34.99572315941288]],[[135.77791388570887,34.998369242683424],[135.77736597703543,34.998369242683424]],[[135.77736597703543,34.998369242683424],[135.77769739496475,34.99900315753185]],[[135.77769739496475,34.99900315753185],[135.7778871584565,34.998974529119344]],[[135.78903242269183,34.989036380205256],[135.7893103861164,34.987449548197574],[135.78698778788606,34.985245160434324]],[[135.78680336984476,34.985147005877145],[135.78511153477018,34.98454989898766]],[[135.7819390099147,34.98478301606095],[135.78135101036273,34.98543737977546]],[[135.78135101036273,34.98543737977546],[135.7822757732945,34.98610401280961],[135.7815327556788,34.98806710395314]],[[135.77157150872316,35.00082310661283],[135.77148063606512,35.00045093725021]],[[135.77148063606512,35.00045093725021],[135.77137907250616,35.000164653125104]],[[135.77002400081136,35.00050001452879],[135.77033938238924,35.00117073733616]],[[135.77140045430804,34.999138120047974],[135.7714779633399,34.999105401862245]],[[135.7714779633399,34.999105401862245],[135.77088461833745,34.99860644952994]],[[135.77088461833745,34.99860644952994],[135.77032334603783,34.99849602565311]],[[135.77032334603783,34.99849602565311],[135.769262274119,34.99887228478895]],[[135.769262274119,34.99887228478895],[135.76949212848933,34.99936305757483]],[[135.7711545635863,34.99918719732656],[135.77140045430804,34.999138120047974]],[[135.77671917752826,34.99849602565311],[135.77679668656012,34.99918310755334]],[[135.77679668656012,34.99918310755334],[135.77769739496475,34.99900315753185]],[[135.77274216237666,35.00747716763473],[135.77277690780474,35.006990484622065]],[[135.77277690780474,35.006990484622065],[135.77182007217013,35.006994574395286]],[[135.77182007217013,35.006994574395286],[135.77179067219254,35.00797611996705]],[[135.7792716301289,34.99785802103147],[135.77894021219961,34.99806659946547]],[[135.77894021219961,34.99806659946547],[135.77907919391188,34.999039965490795]],[[135.781105119641,35.008528239351165],[135.78057859276944,35.0087981643834]],[[135.78353997233125,35.00982060768732],[135.78394355384194,35.01059357482508]],[[135.78394355384194,35.01059357482508],[135.78478278956612,35.01022958500889]],[[135.7781063219259,34.999060414356876],[135.7780715764978,34.998945900706836]],[[135.77679668656012,34.99918310755334],[135.77574096009178,35.00031188496087]],[[135.77574096009178,35.00031188496087],[135.7778871584565,35.00035687246624]],[[135.7778871584565,35.00035687246624],[135.77832281267,34.999988792876835]],[[135.77699714095283,34.99762490395817],[135.77674055933014,34.99652066518994]],[[135.77879588503686,34.99976794512319],[135.77864888514884,35.00084764525212]],[[135.77864888514884,35.00084764525212],[135.77860344881984,35.00123617370761]],[[135.77858741246843,35.00162879193632],[135.77854732158988,35.00199278175251]],[[135.77854732158988,35.00199278175251],[135.7788439940911,35.00195597379357]],[[135.7822330096907,35.001624702163106],[135.78258848214713,35.00162879193632]],[[135.78258848214713,35.00162879193632],[135.78271410023325,35.00082719638605]],[[135.78271410023325,35.00082719638605],[135.7825564094443,34.99939577576056]],[[135.77921817562418,34.98332296702296],[135.77843773985518,34.983417031806916]],[[135.77647328680652,34.98391598413923],[135.77889210314535,34.985425110455814],[135.77535876038297,34.986157179861415]],[[135.77535876038297,34.986157179861415],[135.77951752085065,34.98605902530424],[135.78135101036273,34.98543737977546]],[[135.77574096009178,35.00031188496087],[135.77673254115444,35.00084355547891]],[[135.77673254115444,35.00084355547891],[135.7775263405496,35.00124026348083]],[[135.7775263405496,35.00124026348083],[135.7779887220155,35.001293430532634]],[[135.7779887220155,35.001293430532634],[135.77791388570887,35.000545002034166]],[[135.77791388570887,35.000545002034166],[135.7778871584565,35.00035687246624]],[[135.78471329871,35.00274121025098],[135.7849351349046,35.004119463824665]],[[135.7870492605665,35.00429123429972],[135.7877708963803,35.001178916882594]],[[135.780618683648,35.00321153417079],[135.7806855017789,35.00262260682773]],[[135.77854732158988,35.00199278175251],[135.7774301224411,35.00210729540255]],[[135.7774301224411,35.00210729540255],[135.7775263405496,35.00124026348083]],[[135.77673254115444,35.00084355547891],[135.77400636141343,35.001546996472],[135.7733408528296,35.00320744439757]],[[135.7733408528296,35.00320744439757],[135.77303081670217,35.00351826716196]],[[135.77303081670217,35.00351826716196],[135.77309496210785,35.00383726947278]],[[135.77623006881,35.006552878887994],[135.77610177799866,35.007448539222224]],[[135.77610177799866,35.007448539222224],[135.77705326818278,35.007485347181166]],[[135.78274617293607,35.010679460062605],[135.78394355384194,35.01059357482508]],[[135.77096747281976,34.998406050642366],[135.77088461833745,34.99860644952994]],[[135.7714779633399,34.999105401862245],[135.77361079807844,34.99823428016731]],[[135.77950415722447,35.008769535970885],[135.7790497939343,35.00882679279591]],[[135.77894288492485,35.00918260306567],[135.77938388458884,35.00912125646744]],[[135.77864888514884,35.00084764525212],[135.77791388570887,35.000545002034166]],[[135.7730388348779,35.00431986271223],[135.77306021667977,35.00412355359788]],[[135.7730842712069,35.00391497516388],[135.77269672604763,35.00433213203188]],[[135.78271410023325,35.00082719638605],[135.78501798938692,34.99903178594437]],[[135.78773347822698,35.00972245313014],[135.78839096863513,35.00961202925332]],[[135.78034873839914,35.008589585949395],[135.7797420297705,35.00807836429744]],[[135.7716703995569,35.00041821906448],[135.77148063606512,35.00045093725021]],[[135.77179067219254,35.001718766947064],[135.7716703995569,35.00041821906448]],[[135.77079107295418,34.995870391248644],[135.77083650928319,34.996230291291624]],[[135.77441528837457,35.00672055958984],[135.7727982896066,35.00683098346666]],[[135.7727982896066,35.00683098346666],[135.77277690780474,35.006990484622065]],[[135.7748669789395,35.007661207429436],[135.77441528837457,35.00672055958984]],[[135.7716703995569,35.00041821906448],[135.77140045430804,34.999138120047974]],[[135.79035007623332,35.0069209584774],[135.7905932942298,35.006929138023835]],[[135.7905932942298,35.006929138023835],[135.79035007623332,35.0069209584774]],[[135.77442063382506,35.004524351373014],[135.7754629966672,35.0046511343427]],[[135.77527590590066,35.01011507135885],[135.77617661430529,35.00977970995516]],[[135.77257110796154,34.986091743489965],[135.77413197949951,34.986046755984596]],[[135.77413197949951,34.986046755984596],[135.77410257952192,34.98542920022903]],[[135.78258848214713,35.00162879193632],[135.7839702810943,35.001735126039925]],[[135.7786675942255,35.00983696678018],[135.7789321940239,35.00984105655339]],[[135.78003870227172,35.01033591911249],[135.78145524664694,35.010405445257156]],[[135.79035007623332,35.0069209584774],[135.7901576400163,35.00755896309905]],[[135.78997856742546,35.00876135642446],[135.7905932942298,35.006929138023835]],[[135.7722958172622,35.0020663976704],[135.77226107183412,35.00186190900961]],[[135.77226107183412,35.00186190900961],[135.7717799812916,35.00190689651498]],[[135.7669851122177,34.97312307262306],[135.76652540347706,34.974227311391296]],[[135.76820387492543,34.9740719000091],[135.7700346917123,34.973981924998355]],[[135.7700346917123,34.973981924998355],[135.7701816916003,34.9736547431411]],[[135.770189709776,34.97307399534447],[135.7669851122177,34.97312307262306]],[[135.77778559489752,34.997784405113585],[135.77720561352126,34.997604455092095]],[[135.77551110572145,35.0054322810269],[135.77447141560452,35.00556724354301]],[[135.77777223127134,35.00192734538106],[135.7774301224411,35.00210729540255]],[[135.7727982896066,35.00683098346666],[135.7728490713861,35.00617661975215]],[[135.77170247225973,35.00517462531431],[135.77182007217013,35.006994574395286]],[[135.77226107183412,35.00186190900961],[135.77294796221986,35.001800562411375]],[[135.77294796221986,35.001800562411375],[135.7716703995569,35.00041821906448]],[[135.77294796221986,35.001800562411375],[135.77322058019396,35.00257352954914]],[[135.77322058019396,35.00257352954914],[135.7733408528296,35.00320744439757]],[[135.77238134446975,35.002679863652745],[135.77322058019396,35.00257352954914]],[[135.77024049155548,34.97118043034562],[135.77130690892477,34.97110272465452]],[[135.77130690892477,34.97110272465452],[135.77024049155548,34.97118043034562]],[[135.77065743669235,34.98115129744543],[135.77146192698848,34.98169932705633]],[[135.77146192698848,34.98169932705633],[135.7722583991089,34.98172795546884]],[[135.7722583991089,34.98172795546884],[135.77247221712778,34.98144576111696]],[[135.76919011053764,34.989294035917844],[135.76919278326287,34.98929812569106]],[[135.77001598263564,34.989277676824976],[135.77012556437035,34.988770544946235]],[[135.77254438070918,35.003289239861886],[135.77303081670217,35.00351826716196]],[[135.7702485097312,34.99588266056829],[135.76991174635143,34.99591537875402]],[[135.76991174635143,34.99591537875402],[135.77012021891986,34.996393882220254]],[[135.77012021891986,34.996393882220254],[135.7707563275261,34.99624256061127]],[[135.76987700092334,34.98110630994006],[135.76946272851174,34.982026508913584]],[[135.7698369100448,34.982026508913584],[135.7707509820756,34.98202241914037]],[[135.7707509820756,34.98202241914037],[135.77146192698848,34.98169932705633]],[[135.77060398218762,34.98490979903064],[135.76984492822052,34.98495887630923]],[[135.77057458221003,34.98604266621138],[135.77060398218762,34.98490979903064]],[[135.77610177799866,35.007448539222224],[135.7748669789395,35.007661207429436]],[[135.7722583991089,34.98172795546884],[135.7726192170158,34.981556184993785]],[[135.77001598263564,34.99172336120795],[135.7696364556521,34.99175198962046]],[[135.7696364556521,34.99175198962046],[135.76933176497516,34.99292575453336]],[[135.7700346917123,34.973981924998355],[135.7700934916675,34.975266113788074]],[[135.77129889074905,34.97389194998761],[135.7711091272573,34.97356476813035]],[[135.77124009079387,34.989179522267804],[135.7711973271901,34.9883697471711]],[[135.78062135637322,35.00437711953725],[135.78452086249297,35.00420943883541]],[[135.77413197949951,34.986046755984596],[135.77413732495,34.98616944918106]],[[135.77470394270009,34.9860999230364],[135.77535876038297,34.986157179861415]],[[135.76922485596572,34.991465705495365],[135.7696364556521,34.99175198962046]],[[135.76981552824293,34.99088495769874],[135.76920347416382,34.99085223951301]],[[135.77013358254604,34.9783252641534],[135.7714485633623,34.978648356237436]],[[135.7707509820756,34.98202241914037],[135.7709193637655,34.98277493741205]],[[135.7730334894274,34.98268905217453],[135.77299072582363,34.98183428957245]],[[135.76952152846692,34.99467208769646],[135.7695482557193,34.99486430703759]],[[135.7695482557193,34.99486430703759],[135.76924891049282,34.99515059116269]],[[135.76924891049282,34.99515059116269],[135.7696230920259,34.995440965061]],[[135.7696230920259,34.995440965061],[135.77022178247884,34.9953632593699]],[[135.7695482557193,34.99486430703759],[135.76895491071684,34.99502789796622]],[[135.76895491071684,34.99502789796622],[135.76896827434302,34.99511787297696]],[[135.76896827434302,34.99511787297696],[135.76924891049282,34.99515059116269]],[[135.7701148734694,34.996479767457785],[135.77012021891986,34.996393882220254]],[[135.76991174635143,34.99591537875402],[135.76928632864613,34.99600944353798]],[[135.7696230920259,34.995440965061],[135.76881325627932,34.995547299164606]],[[135.76881325627932,34.995547299164606],[135.76879187447742,34.99555138893783]],[[135.77024049155548,34.97118043034562],[135.7702110915779,34.97217424523703]],[[135.77120267264056,34.9724564395889],[135.77130690892477,34.97110272465452]],[[135.77032334603783,34.99849602565311],[135.76995718268046,34.997555377813505]],[[135.76878652902695,34.99775986647429],[135.769262274119,34.99887228478895]],[[135.78154344657975,34.97376516701792],[135.77699981367806,34.976296736638425]],[[135.7669851122177,34.97312307262306],[135.76472665939303,34.973180329448084],[135.7656888404781,34.97424367048416]],[[135.7710877454554,34.98414092166609],[135.77060398218762,34.98490979903064]],[[135.77429501573894,34.98731458568145],[135.77295598039555,34.98714690497961]],[[135.77295598039555,34.98714690497961],[135.7717291995121,34.98689742881346]],[[135.7717291995121,34.98689742881346],[135.7711465454106,34.98688515949381]],[[135.7711465454106,34.98752316411545],[135.77117327266296,34.988083463046]],[[135.77480283353384,35.0066592129916],[135.77441528837457,35.00672055958984]],[[135.76896827434302,34.99511787297696],[135.76881325627932,34.995547299164606]],[[135.76887205623453,34.994500317221394],[135.76895491071684,34.99502789796622]],[[135.7676265662744,34.99466799792324],[135.7679446205775,34.99567408213429]],[[135.7706841639447,34.98279129650492],[135.76970060105776,34.9828649124228]],[[135.77171316316068,34.9863616685222],[135.7717291995121,34.98689742881346]],[[135.77295598039555,34.98714690497961],[135.77258981703818,34.98626760373824]],[[135.76857271100806,34.98273812945311],[135.76885067443263,34.98271768058704]],[[135.77884933954158,34.99553502984496],[135.77808761284922,34.99522420708057]],[[135.7810623560372,35.00795158132775],[135.77866224877502,35.00711317781854]],[[135.7691954559881,34.989915681446625],[135.76918209236192,34.99055368606827]],[[135.76721763931326,34.9892817665982],[135.76715349390759,34.99046780083074]]]}