{"type":"Topology","bbox":[135.70482549415507,34.94178708169411,135.76792633101772,34.98596389721227],"objects":{"town":{"type":"GeometryCollection","geometries":[{"type":"Polygon","arcs":[[0,1,2,3,4,5,6,7]],"properties":{"name":"九条塔南西九条比永城町"}},{"type":"Polygon","arcs":[[8,9,10,11]],"properties":{"name":"九条塔南西九条東御幸田町"}},{"type":"Polygon","arcs":[[12,-1,-10,13]],"properties":{"name":"九条塔南西九条御幸田町"}},{"type":"Polygon","arcs":[[14,15,16,-3,17]],"properties":{"name":"九条塔南西九条南田町"}},{"type":"Polygon","arcs":[[18,19,20,21,22,23]],"properties":{"name":"九条塔南西九条開ケ町"}},{"type":"Polygon","arcs":[[24,-11,-8,25,-21]],"properties":{"name":"九条塔南西九条東比永城町"}},{"type":"Polygon","arcs":[[26,27,-16,28]],"properties":{"name":"九条塔南西九条大国町"}},{"type":"Polygon","arcs":[[29,30,31,32,33,34,-14,-9]],"properties":{"name":"九条塔南西九条森本町"}},{"type":"Polygon","arcs":[[35,-30,-12,-25,-20,36]],"properties":{"name":"九条塔南西九条西柳ノ内町"}},{"type":"Polygon","arcs":[[37,38,39,40]],"properties":{"name":"南大内八条寺内町"}},{"type":"Polygon","arcs":[[41,42,43,44,45]],"properties":{"name":"九条塔南西九条高畠町"}},{"type":"Polygon","arcs":[[46,47,48,49,-40,50]],"properties":{"name":"南大内八条源町"}},{"type":"Polygon","arcs":[[51,-29,-15,52,-45]],"properties":{"name":"九条塔南西九条豊田町"}},{"type":"Polygon","arcs":[[-44,53,54,55,56,57,58,-27,-52]],"properties":{"name":"九条塔南西九条唐戸町"}},{"type":"Polygon","arcs":[[59,60,61,62]],"properties":{"name":"南大内八条坊門町"}},{"type":"Polygon","arcs":[[63,-46,-53,-18,-2,-13]],"properties":{"name":"九条塔南西九条菅田町"}},{"type":"Polygon","arcs":[[64,-41,-50,65]],"properties":{"name":"梅逕東寺町"}},{"type":"Polygon","arcs":[[66,67,68,69,70,71]],"properties":{"name":"陶化東九条南松ノ木町"}},{"type":"Polygon","arcs":[[72,73,74,75]],"properties":{"name":"九条西九条戒光寺町"}},{"type":"Polygon","arcs":[[76,77,78,79,80]],"properties":{"name":"九条西九条南小路町"}},{"type":"Polygon","arcs":[[81,82,83,84]],"properties":{"name":"東梅逕塩屋町"}},{"type":"Polygon","arcs":[[85,86,87,88]],"properties":{"name":"東梅逕西九条小寺町"}},{"type":"Polygon","arcs":[[89,90,91,92,93]],"properties":{"name":"東和東九条西札辻町"}},{"type":"Polygon","arcs":[[94,95,96,97]],"properties":{"name":"九条西九条横町"}},{"type":"Polygon","arcs":[[98,99,100,101,102]],"properties":{"name":"陶化東九条中御霊町"}},{"type":"Polygon","arcs":[[103,104,-94,105,-100,106]],"properties":{"name":"陶化東九条中札辻町"}},{"type":"Polygon","arcs":[[-88,107,-82,108]],"properties":{"name":"東梅逕古御旅町"}},{"type":"Polygon","arcs":[[109,110,-79,111,112,113]],"properties":{"name":"九条西九条唐橋町"}},{"type":"Polygon","arcs":[[114,115,116,117,118]],"properties":{"name":"九条弘道西九条北ノ内町"}},{"type":"Polygon","arcs":[[119,120,121,-90,-105,122]],"properties":{"name":"東和東九条石田町"}},{"type":"Polygon","arcs":[[123,124,125,-116]],"properties":{"name":"九条弘道西九条鳥居口町"}},{"type":"Polygon","arcs":[[126,127,128,129,-71]],"properties":{"name":"陶化東九条北松ノ木町"}},{"type":"Polygon","arcs":[[130,131,132,133,134,135,136]],"properties":{"name":"山王東九条中殿田町"}},{"type":"Polygon","arcs":[[137,138,-31,-36,139]],"properties":{"name":"九条弘道西九条柳ノ内町"}},{"type":"Polygon","arcs":[[140,141,142,143,-121]],"properties":{"name":"東和東九条河辺町"}},{"type":"Polygon","arcs":[[144,145,146,147,148,149,150]],"properties":{"name":"東和東九条松田町"}},{"type":"Polygon","arcs":[[151,152,-91,-122,-144]],"properties":{"name":"東和東九条明田町"}},{"type":"Polygon","arcs":[[153,154,155,156]],"properties":{"name":"上鳥羽上鳥羽南苗代町"}},{"type":"Polygon","arcs":[[157,-148,158,159,160,161]],"properties":{"name":"東和東九条西山町"}},{"type":"Polygon","arcs":[[-140,-37,-19,162,163,-145]],"properties":{"name":"九条弘道西九条東柳ノ内町"}},{"type":"Polygon","arcs":[[-149,-158,164,165,-152,166]],"properties":{"name":"東和東九条西明田町"}},{"type":"Polygon","arcs":[[-137,167,168,169,170]],"properties":{"name":"山王東九条北烏丸町"}},{"type":"Polygon","arcs":[[171,172,173,174,175]],"properties":{"name":"上鳥羽上鳥羽鉾立町"}},{"type":"Polygon","arcs":[[176,177,-161,178,179,-125,-133]],"properties":{"name":"九条弘道西九条春日町"}},{"type":"Polygon","arcs":[[180,181,182,183,184,-175]],"properties":{"name":"上鳥羽上鳥羽尻切町"}},{"type":"Polygon","arcs":[[-118,185,186,-73,187]],"properties":{"name":"九条弘道西九条寺ノ前町"}},{"type":"Polygon","arcs":[[188,189,190,191,192]],"properties":{"name":"山王東九条東岩本町"}},{"type":"Polygon","arcs":[[-98,193,194,-74,-187,195,196]],"properties":{"name":"九条西九条藤ノ木町"}},{"type":"Polygon","arcs":[[-157,-173,197,198,199]],"properties":{"name":"上鳥羽上鳥羽苗代町"}},{"type":"Polygon","arcs":[[-114,200]],"properties":{"name":"九条西九条西蔵王町"}},{"type":"Polygon","arcs":[[201,202,-176,203,-138,-151]],"properties":{"name":"東和東九条南松田町"}},{"type":"Polygon","arcs":[[204,205,206,207,208]],"properties":{"name":"上鳥羽上鳥羽石橋町"}},{"type":"Polygon","arcs":[[209,-171,210,211,212]],"properties":{"name":"東和東九条烏丸町"}},{"type":"Polygon","arcs":[[-170,213,214,215,-189,216,217]],"properties":{"name":"山王東九条南山王町"}},{"type":"Polygon","arcs":[[-184,218,219,-33]],"properties":{"name":"上鳥羽上鳥羽仏現寺町"}},{"type":"Polygon","arcs":[[220,-181,-174,-156]],"properties":{"name":"上鳥羽上鳥羽南鉾立町"}},{"type":"Polygon","arcs":[[-146,-164,221,222,-179,-160,223]],"properties":{"name":"九条弘道西九条東島町"}},{"type":"Polygon","arcs":[[224,225,226,227]],"properties":{"name":"山王東九条南河原町"}},{"type":"Polygon","arcs":[[-135,228,229,230]],"properties":{"name":"山王東九条室町"}},{"type":"Polygon","arcs":[[-55,231,232,233]],"properties":{"name":"上鳥羽上鳥羽唐戸町"}},{"type":"Polygon","arcs":[[234,-199,235,-141,-120,236]],"properties":{"name":"東和東九条南石田町"}},{"type":"Polygon","arcs":[[237,-217,-193,238,-226]],"properties":{"name":"山王東九条南岩本町"}},{"type":"Polygon","arcs":[[239,240,241,242,243,244]],"properties":{"name":"祥豊吉祥院中河原里西町"}},{"type":"Polygon","arcs":[[-93,245,-212,-101,-106]],"properties":{"name":"東和東九条西御霊町"}},{"type":"Polygon","arcs":[[246,247,248,249,250,251,252,253]],"properties":{"name":"祥豊吉祥院西ノ庄猪之馬場町"}},{"type":"Polygon","arcs":[[-108,-87,254,-194,-97,255,256,-83]],"properties":{"name":"九条西九条小寺町"}},{"type":"Polygon","arcs":[[257,258,259,260,261,262,263]],"properties":{"name":"上鳥羽上鳥羽城ケ前町"}},{"type":"Polygon","arcs":[[264,-154,-200,-235,265]],"properties":{"name":"上鳥羽上鳥羽勧進橋町"}},{"type":"Polygon","arcs":[[266,267,268,269]],"properties":{"name":"祥豊吉祥院宮ノ東町"}},{"type":"Polygon","arcs":[[-163,-24,270,271,-222]],"properties":{"name":"九条弘道西九条島町"}},{"type":"Polygon","arcs":[[-215,272,273,274]],"properties":{"name":"山王東九条東山王町"}},{"type":"Polygon","arcs":[[-275,275,-190,-216]],"properties":{"name":"山王東九条西岩本町"}},{"type":"Polygon","arcs":[[-239,-192,276,-227]],"properties":{"name":"山王東九条北河原町"}},{"type":"Polygon","arcs":[[-143,277,-202,-150,-167]],"properties":{"name":"東和東九条西河辺町"}},{"type":"Polygon","arcs":[[278,-266,-237,-123,-104,279,-67,280]],"properties":{"name":"陶化東九条柳下町"}},{"type":"Polygon","arcs":[[-69,281,-103,282,283,284]],"properties":{"name":"陶化東九条東御霊町"}},{"type":"Polygon","arcs":[[285,-281,-72,-130]],"properties":{"name":"陶化東九条東松ノ木町"}},{"type":"Polygon","arcs":[[-28,-59,286,287,288,289,-4,-17]],"properties":{"name":"南大内四ツ塚町"}},{"type":"Polygon","arcs":[[-77,290,-95,291]],"properties":{"name":"九条西九条猪熊町"}},{"type":"Polygon","arcs":[[292,293,294,295,296,297]],"properties":{"name":"上鳥羽上鳥羽山ノ本町"}},{"type":"Polygon","arcs":[[-92,-153,-166,298,-213,-246]],"properties":{"name":"東和東九条南烏丸町"}},{"type":"Polygon","arcs":[[-280,-107,-99,-282,-68]],"properties":{"name":"陶化東九条東札辻町"}},{"type":"Polygon","arcs":[[299,300,301,302]],"properties":{"name":"上鳥羽上鳥羽塔ノ本"}},{"type":"Polygon","arcs":[[-214,-169,303,304,-273]],"properties":{"name":"山王東九条西山王町"}},{"type":"Polygon","arcs":[[305,306,307,-110,-201,-113,308]],"properties":{"name":"九条弘道西九条西蔵王町"}},{"type":"Polygon","arcs":[[309,310,311,312,313,314]],"properties":{"name":"祥豊吉祥院西ノ庄西浦町"}},{"type":"Polygon","arcs":[[315,316,317,318,319,320,321]],"properties":{"name":"上鳥羽上鳥羽塔ノ森東向町"}},{"type":"Polygon","arcs":[[322,323,324,325,326,327]],"properties":{"name":"上鳥羽上鳥羽堀子町"}},{"type":"Polygon","arcs":[[328,-328,329,330]],"properties":{"name":"上鳥羽上鳥羽大柳町"}},{"type":"Polygon","arcs":[[331,332,-43,333]],"properties":{"name":"上鳥羽上鳥羽高畠町"}},{"type":"Polygon","arcs":[[334,335,336,337]],"properties":{"name":"祥豊吉祥院大河原町"}},{"type":"Polygon","arcs":[[338,339,340,-322]],"properties":{"name":"上鳥羽上鳥羽西浦町"}},{"type":"Polygon","arcs":[[341,342,343,344,345]],"properties":{"name":"上鳥羽上鳥羽南花名町"}},{"type":"Polygon","arcs":[[-309,-112,-78,-292,-197,346]],"properties":{"name":"九条西九条針小路町"}},{"type":"Polygon","arcs":[[347,-177,-132]],"properties":{"name":"山王東九条下殿田町"}},{"type":"Polygon","arcs":[[348,349,350,351]],"properties":{"name":"祥豊吉祥院三ノ宮西町"}},{"type":"Polygon","arcs":[[-344,352,353,-264,354]],"properties":{"name":"上鳥羽上鳥羽花名"}},{"type":"Polygon","arcs":[[355,-294,356,357,358]],"properties":{"name":"上鳥羽上鳥羽戒光"}},{"type":"Polygon","arcs":[[-353,-343,359,-302,360,361,362]],"properties":{"name":"上鳥羽上鳥羽町田"}},{"type":"Polygon","arcs":[[363,-351,364,365,366,367,-250]],"properties":{"name":"祥豊吉祥院中河原里南町"}},{"type":"Polygon","arcs":[[368,369,-208,370,371]],"properties":{"name":"上鳥羽上鳥羽卯ノ花"}},{"type":"Polygon","arcs":[[-257,372,373,-60,374,-84]],"properties":{"name":"東梅逕大黒町"}},{"type":"Polygon","arcs":[[-253,375,-315,376]],"properties":{"name":"祥豊吉祥院西ノ庄淵ノ西町"}},{"type":"Polygon","arcs":[[-367,377,-365,378,379,-242,380]],"properties":{"name":"祥豊吉祥院新田参ノ段町"}},{"type":"Polygon","arcs":[[381,-326,382,383,384]],"properties":{"name":"上鳥羽上鳥羽北中ノ坪町"}},{"type":"Polygon","arcs":[[385,-258,-354,-363]],"properties":{"name":"上鳥羽上鳥羽鴨田"}},{"type":"Polygon","arcs":[[386,-248,387,388,389,390]],"properties":{"name":"祥豊吉祥院中島町"}},{"type":"Polygon","arcs":[[391,392,393,394,395,396]],"properties":{"name":"唐橋唐橋琵琶町"}},{"type":"Polygon","arcs":[[-70,-285,397,-127]],"properties":{"name":"陶化東九条宇賀辺町"}},{"type":"Polygon","arcs":[[398,399,400,401,402,403]],"properties":{"name":"唐橋唐橋西寺町"}},{"type":"Polygon","arcs":[[-352,-364,-249,-387,404]],"properties":{"name":"祥豊吉祥院三ノ宮町"}},{"type":"Polygon","arcs":[[405,-128,-398,-284,406,-238,-225]],"properties":{"name":"陶化東九条河西町"}},{"type":"Polygon","arcs":[[407,-334,-42,-64,-35]],"properties":{"name":"上鳥羽上鳥羽菅田町"}},{"type":"Polygon","arcs":[[-198,-172,-203,-278,-142,-236]],"properties":{"name":"東和東九条南河辺町"}},{"type":"Polygon","arcs":[[-75,-195,-255,-86,408]],"properties":{"name":"九条戒光寺町"}},{"type":"Polygon","arcs":[[-317,409,410,411,-369,412,413]],"properties":{"name":"上鳥羽上鳥羽火打形町"}},{"type":"Polygon","arcs":[[-81,414,-6,415,-373,-256,-96,-291]],"properties":{"name":"東梅逕東寺東門前町"}},{"type":"Polygon","arcs":[[416,417,418,419,420]],"properties":{"name":"上鳥羽上鳥羽北戒光町"}},{"type":"Polygon","arcs":[[421,422,423,424,-261,425]],"properties":{"name":"上鳥羽上鳥羽鍋ケ淵町"}},{"type":"Polygon","arcs":[[-168,-136,-231,426,-304]],"properties":{"name":"山王東九条上殿田町"}},{"type":"Polygon","arcs":[[427,-339,-321,428,429,430,431]],"properties":{"name":"上鳥羽上鳥羽塔ノ森柴東町"}},{"type":"Polygon","arcs":[[-330,432,-408,-34,-220]],"properties":{"name":"上鳥羽上鳥羽角田町"}},{"type":"Polygon","arcs":[[-5,-290,433,-38,-65,434,-61,-374,-416]],"properties":{"name":"梅逕九条町"}},{"type":"Polygon","arcs":[[435,436,-399,437,438,439]],"properties":{"name":"唐橋唐橋川久保町"}},{"type":"Polygon","arcs":[[-382,440,-332,-433,-327]],"properties":{"name":"上鳥羽上鳥羽上調子町"}},{"type":"Polygon","arcs":[[441,-403,442,443,444]],"properties":{"name":"唐橋唐橋花園町"}},{"type":"Polygon","arcs":[[-22,-26,-7,-415,-80,-111,-308,445]],"properties":{"name":"九条西九条川原城町"}},{"type":"Polygon","arcs":[[446,447,-205,448,-411]],"properties":{"name":"上鳥羽上鳥羽麻ノ本"}},{"type":"Polygon","arcs":[[449,-51,-39,-434,-289]],"properties":{"name":"南大内八条内田町"}},{"type":"Polygon","arcs":[[450,451,452,453,454]],"properties":{"name":"久世久世大築町"}},{"type":"Polygon","arcs":[[-162,-178,-348,-131,-210,-299,-165]],"properties":{"name":"東和東九条下殿田町"}},{"type":"Polygon","arcs":[[-204,-185,-32,-139]],"properties":{"name":"九条弘道西九条仏現寺町"}},{"type":"Polygon","arcs":[[455,456,457]],"properties":{"name":"久世久世高田町"}},{"type":"Polygon","arcs":[[458,-268,459,460,-335,461,462]],"properties":{"name":"祥豊吉祥院宮ノ西町"}},{"type":"Polygon","arcs":[[-223,-272,463,-306,464,-180]],"properties":{"name":"九条弘道西九条蔵王町"}},{"type":"Polygon","arcs":[[-392,465,-438,-404,-442,466]],"properties":{"name":"唐橋唐橋堂ノ前町"}},{"type":"Polygon","arcs":[[-412,-449,-209,-370]],"properties":{"name":"上鳥羽上鳥羽中河原"}},{"type":"Polygon","arcs":[[467,-251,-368,-381,-241,468]],"properties":{"name":"祥豊吉祥院中河原西屋敷町"}},{"type":"Polygon","arcs":[[-447,-410,-316,-341,469]],"properties":{"name":"上鳥羽上鳥羽奈須野町"}},{"type":"Polygon","arcs":[[470,471,-358,472,473,474,475]],"properties":{"name":"祥栄吉祥院長田町"}},{"type":"Polygon","arcs":[[476,477,-295,-356,478,-419]],"properties":{"name":"上鳥羽上鳥羽戒光町"}},{"type":"Polygon","arcs":[[479,-431,480,481,-298]],"properties":{"name":"上鳥羽上鳥羽金仏"}},{"type":"Polygon","arcs":[[482,483,484,485,486,487]],"properties":{"name":"上鳥羽上鳥羽塔ノ森柳原"}},{"type":"Polygon","arcs":[[488,-417,489,490,-324,491]],"properties":{"name":"上鳥羽上鳥羽北村山町"}},{"type":"Polygon","arcs":[[492,-270,493,494]],"properties":{"name":"祥豊吉祥院前河原町"}},{"type":"Polygon","arcs":[[-303,-360,-342,495,496,497]],"properties":{"name":"上鳥羽上鳥羽南塔ノ本町"}},{"type":"Polygon","arcs":[[498,499,500,-484,501,502]],"properties":{"name":"上鳥羽上鳥羽塔ノ森上河原"}},{"type":"Polygon","arcs":[[503,504,505,-400,-437,506]],"properties":{"name":"唐橋唐橋大宮尻町"}},{"type":"Polygon","arcs":[[-147,-224,-159]],"properties":{"name":"東和西九条東島町"}},{"type":"MultiPolygon","arcs":[[[528,529,724,-456,-553,-552,509,510,511,604]]],"properties":{"name":"久世久世中久世町"}},{"type":"Polygon","arcs":[[512,-424,513,-296,-478]],"properties":{"name":"上鳥羽上鳥羽川端町"}},{"type":"Polygon","arcs":[[514,-336,-461,-245]],"properties":{"name":"祥豊吉祥院内河原町"}},{"type":"Polygon","arcs":[[515,-479,-359,-472,516]],"properties":{"name":"祥栄吉祥院蒔絵南町"}},{"type":"Polygon","arcs":[[-481,-430,517,518,519,520,521]],"properties":{"name":"上鳥羽上鳥羽塔ノ森梅ノ木"}},{"type":"Polygon","arcs":[[-503,522,523]],"properties":{"name":"上鳥羽上鳥羽塔ノ森四ツ谷町"}},{"type":"Polygon","arcs":[[-520,524,525,526,527]],"properties":{"name":"上鳥羽上鳥羽塔ノ森上開ノ内"}},{"type":"Polygon","arcs":[[533,534,-490,-421,535,536]],"properties":{"name":"祥栄吉祥院稲葉町"}},{"type":"Polygon","arcs":[[-535,-383,-325,-491]],"properties":{"name":"上鳥羽上鳥羽南中ノ坪町"}},{"type":"Polygon","arcs":[[537,538,539,-453,540,541]],"properties":{"name":"祥栄吉祥院石原割畑"}},{"type":"Polygon","arcs":[[542,-526,543,544,545,546]],"properties":{"name":"祥栄吉祥院嶋笠井町"}},{"type":"Polygon","arcs":[[-458,547,548,549,550,-510,551,552]],"properties":{"name":"久世久世上久世町"}},{"type":"Polygon","arcs":[[-252,-468,553,-495,554,-310,-376]],"properties":{"name":"祥豊吉祥院西ノ庄西中町"}},{"type":"Polygon","arcs":[[-448,-470,555,-426,-260,556,-206]],"properties":{"name":"上鳥羽上鳥羽岩ノ本町"}},{"type":"Polygon","arcs":[[-475,557,558,559,560]],"properties":{"name":"祥栄吉祥院石原東之口"}},{"type":"Polygon","arcs":[[-340,-428,561,-422,-556]],"properties":{"name":"上鳥羽上鳥羽八王神町"}},{"type":"Polygon","arcs":[[-262,-425,-513,-477,-418,-489,562]],"properties":{"name":"上鳥羽上鳥羽南村山町"}},{"type":"Polygon","arcs":[[-429,-320,563,-499,-524,564,565,-518]],"properties":{"name":"上鳥羽上鳥羽塔ノ森江川町"}},{"type":"Polygon","arcs":[[-504,566,567,568,569]],"properties":{"name":"吉祥院吉祥院清水町"}},{"type":"Polygon","arcs":[[570,-497,571,572]],"properties":{"name":"上鳥羽上鳥羽北塔ノ本町"}},{"type":"Polygon","arcs":[[-183,573,-573,-331,-219]],"properties":{"name":"上鳥羽上鳥羽大物町"}},{"type":"Polygon","arcs":[[-420,-516,574,575,576]],"properties":{"name":"祥栄吉祥院蒔絵町"}},{"type":"Polygon","arcs":[[-423,-562,-432,-480,-297,-514]],"properties":{"name":"上鳥羽上鳥羽清井町"}},{"type":"Polygon","arcs":[[577,578,579]],"properties":{"name":"久世久世東土川町"}},{"type":"Polygon","arcs":[[580,581,582,-439,-466,-397]],"properties":{"name":"吉祥院吉祥院定成町"}},{"type":"Polygon","arcs":[[583,-476,-561,584,585,586]],"properties":{"name":"祥栄吉祥院観音堂南町"}},{"type":"Polygon","arcs":[[-345,-355,-263,-563,587]],"properties":{"name":"上鳥羽上鳥羽南島田町"}},{"type":"Polygon","arcs":[[-134,-124,-115,588,-229]],"properties":{"name":"九条弘道西九条院町"}},{"type":"Polygon","arcs":[[589,-455,590,591,592,-487,593]],"properties":{"name":"久世久世築山町"}},{"type":"Polygon","arcs":[[594,595,596,597,598,599]],"properties":{"name":"吉祥院吉祥院船戸町"}},{"type":"Polygon","arcs":[[-565,-523,-502,-483,600,601]],"properties":{"name":"上鳥羽上鳥羽塔ノ森西河原町"}},{"type":"Polygon","arcs":[[-572,-496,-346,602,-329]],"properties":{"name":"上鳥羽上鳥羽北花名町"}},{"type":"Polygon","arcs":[[605,-337,-515,-244,606]],"properties":{"name":"祥豊吉祥院流作町"}},{"type":"Polygon","arcs":[[-546,607,-592,608,609]],"properties":{"name":"祥栄吉祥院嶋中ノ島"}},{"type":"Polygon","arcs":[[610,611,-600,612,613,614,615,616]],"properties":{"name":"吉祥院吉祥院御池町"}},{"type":"Polygon","arcs":[[617,618,619,620,-597,621,622,623,624]],"properties":{"name":"吉祥院吉祥院西浦町"}},{"type":"Polygon","arcs":[[-622,-596,625,626]],"properties":{"name":"吉祥院吉祥院里ノ内町"}},{"type":"Polygon","arcs":[[-519,-566,-602,627,-544,-525]],"properties":{"name":"上鳥羽上鳥羽塔ノ森下開ノ内"}},{"type":"Polygon","arcs":[[628,629,-485,-501]],"properties":{"name":"上鳥羽上鳥羽塔ノ森下河原"}},{"type":"Polygon","arcs":[[630,631,632,-624,633]],"properties":{"name":"吉祥院吉祥院這登東町"}},{"type":"Polygon","arcs":[[634,635,636,-576,637]],"properties":{"name":"祥栄吉祥院前田町"}},{"type":"Polygon","arcs":[[-575,638,639,-638]],"properties":{"name":"祥栄吉祥院池田町"}},{"type":"Polygon","arcs":[[-207,-557,-259,-386,-362,-371]],"properties":{"name":"上鳥羽上鳥羽大溝"}},{"type":"Polygon","arcs":[[-578,640,-529,-605,-512,641,642]],"properties":{"name":"久世久世殿城町"}},{"type":"Polygon","arcs":[[643,644,645,-632,646,647]],"properties":{"name":"吉祥院吉祥院砂ノ町"}},{"type":"Polygon","arcs":[[648,649,650,651,652,-619]],"properties":{"name":"吉祥院吉祥院西ノ茶屋町"}},{"type":"Polygon","arcs":[[653,-463,654,655]],"properties":{"name":"祥豊吉祥院向田西町"}},{"type":"Polygon","arcs":[[656,-626,-595,-612,657,658]],"properties":{"name":"吉祥院吉祥院政所町"}},{"type":"Polygon","arcs":[[-493,-554,-469,-240,-460,-267]],"properties":{"name":"祥豊吉祥院中河原里北町"}},{"type":"Polygon","arcs":[[659,-549,660,661,662,-541,-452]],"properties":{"name":"久世久世川原町"}},{"type":"Polygon","arcs":[[663,664,665,666,667,668]],"properties":{"name":"祥栄吉祥院石原西町"}},{"type":"Polygon","arcs":[[-645,669,670,671,672]],"properties":{"name":"祥栄吉祥院石原堂ノ後町"}},{"type":"Polygon","arcs":[[673,-389,674,-569]],"properties":{"name":"祥豊吉祥院清水町"}},{"type":"Polygon","arcs":[[-49,675,-62,-435,-66]],"properties":{"name":"梅逕八条町"}},{"type":"Polygon","arcs":[[676,-542,-663,677,678]],"properties":{"name":"祥栄吉祥院石原橋裏"}},{"type":"Polygon","arcs":[[679,-629,-500,-564,-319]],"properties":{"name":"上鳥羽上鳥羽塔ノ森洲崎町"}},{"type":"Polygon","arcs":[[-664,680,-585,-560,681]],"properties":{"name":"祥栄吉祥院石原町"}},{"type":"Polygon","arcs":[[682,-521,-528,683,-474]],"properties":{"name":"祥栄吉祥院嶋野間詰町"}},{"type":"Polygon","arcs":[[-537,684,-636,685,-659,686,687]],"properties":{"name":"吉祥院吉祥院高畑町"}},{"type":"Polygon","arcs":[[688,-390,-674,-568]],"properties":{"name":"祥豊吉祥院九条町"}},{"type":"Polygon","arcs":[[689,690,-679,691]],"properties":{"name":"祥栄吉祥院石原野上町"}},{"type":"Polygon","arcs":[[-441,-385,692,693,694,-232,-54,-333]],"properties":{"name":"上鳥羽上鳥羽南唐戸町"}},{"type":"Polygon","arcs":[[695,-647,-631,696]],"properties":{"name":"吉祥院吉祥院菅原町"}},{"type":"Polygon","arcs":[[-234,697,698,-395,699,-56]],"properties":{"name":"唐橋唐橋芦辺町"}},{"type":"Polygon","arcs":[[700,701,702,-547,-610,703,704,-666]],"properties":{"name":"祥栄吉祥院嶋樫山町"}},{"type":"Polygon","arcs":[[705,706,707,708,709,-672]],"properties":{"name":"祥栄吉祥院石原堂ノ後西町"}},{"type":"Polygon","arcs":[[710,-704,-609,-591,-454,-540]],"properties":{"name":"祥栄吉祥院嶋堤外"}},{"type":"Polygon","arcs":[[711,-615,712,-440,-583]],"properties":{"name":"吉祥院吉祥院西定成町"}},{"type":"Polygon","arcs":[[-651,713,714,715,716,717,718,719,720]],"properties":{"name":"祥豊吉祥院新田下ノ向町"}},{"type":"Polygon","arcs":[[721,-707,-692,-678,-662,-718,722,-716]],"properties":{"name":"祥栄吉祥院石原西ノ開町"}},{"type":"Polygon","arcs":[[-705,-711,-539,723,-667]],"properties":{"name":"祥栄吉祥院嶋川原田町"}},{"type":"Polygon","arcs":[[-724,-538,-677,-691,-668]],"properties":{"name":"祥栄吉祥院石原開町"}},{"type":"Polygon","arcs":[[-642,-511,-551,726]],"properties":{"name":"久世久世中久町"}},{"type":"Polygon","arcs":[[727,-709,728,-714,-650]],"properties":{"name":"祥栄吉祥院石原上川原町"}},{"type":"Polygon","arcs":[[-393,-467,-445,729,-287,-58,730]],"properties":{"name":"唐橋唐橋羅城門町"}},{"type":"Polygon","arcs":[[731,-701,-665,-682,-559]],"properties":{"name":"祥栄吉祥院石原南町"}},{"type":"Polygon","arcs":[[-211,-218,-407,-283,-102]],"properties":{"name":"陶化東九条上御霊町"}},{"type":"Polygon","arcs":[[-465,-347,-196,-186,-117,-126]],"properties":{"name":"九条弘道西九条池ノ内町"}},{"type":"Polygon","arcs":[[-588,-492,-323,-603]],"properties":{"name":"上鳥羽上鳥羽北島田町"}},{"type":"Polygon","arcs":[[732,-649,-618,733]],"properties":{"name":"吉祥院吉祥院這登西町"}},{"type":"Polygon","arcs":[[-388,734,735,-505,-570,-675]],"properties":{"name":"唐橋唐橋西平垣町"}},{"type":"Polygon","arcs":[[-684,736,-702,-732,-558]],"properties":{"name":"祥栄吉祥院嶋高町"}},{"type":"Polygon","arcs":[[737,-687,-658,-611,738,739,-694]],"properties":{"name":"吉祥院吉祥院南落合町"}},{"type":"Polygon","arcs":[[-643,-727,-550,-660,-451,-590,740,-579]],"properties":{"name":"久世久世大藪町"}},{"type":"Polygon","arcs":[[-536,-577,-637,-685]],"properties":{"name":"祥栄吉祥院東前田町"}},{"type":"Polygon","arcs":[[-311,-555,-494,-269,-459,-654,741]],"properties":{"name":"祥豊吉祥院向田東町"}},{"type":"Polygon","arcs":[[742,-616,-712,-582,743]],"properties":{"name":"吉祥院吉祥院春日町"}},{"type":"Polygon","arcs":[[-652,-721,-379,-350,744]],"properties":{"name":"祥豊吉祥院新田弐ノ段町"}},{"type":"Polygon","arcs":[[745,-312,-742,-656]],"properties":{"name":"祥豊吉祥院西ノ庄向田町"}},{"type":"Polygon","arcs":[[-613,-599,746,-391,747]],"properties":{"name":"吉祥院吉祥院井ノ口町"}},{"type":"Polygon","arcs":[[-723,-717]],"properties":{"name":"祥栄吉祥院石原橋上"}},{"type":"Polygon","arcs":[[-693,-384,-534,-688,-738]],"properties":{"name":"吉祥院吉祥院東浦町"}},{"type":"Polygon","arcs":[[-697,-634,-623,-627,-657,-686,748]],"properties":{"name":"吉祥院吉祥院西ノ内町"}},{"type":"Polygon","arcs":[[749,-648,-696,-749,-635]],"properties":{"name":"吉祥院吉祥院東砂ノ町"}},{"type":"Polygon","arcs":[[-728,-733,750,-646,-673,-710]],"properties":{"name":"吉祥院吉祥院仁木ノ森町"}},{"type":"Polygon","arcs":[[-545,-628,-601,-488,-593,-608]],"properties":{"name":"祥栄吉祥院嶋西浦"}},{"type":"Polygon","arcs":[[-715,-729,-708,-722]],"properties":{"name":"祥栄吉祥院石原長田町"}},{"type":"Polygon","arcs":[[-751,-734,-625,-633]],"properties":{"name":"吉祥院吉祥院這登中町"}},{"type":"Polygon","arcs":[[-413,-372,-361,-301,751]],"properties":{"name":"上鳥羽上鳥羽藁田"}},{"type":"Polygon","arcs":[[-506,-736,752,753,754,-401]],"properties":{"name":"唐橋唐橋平垣町"}},{"type":"Polygon","arcs":[[-378,-366]],"properties":{"name":"祥豊吉祥院新田壱ノ段町"}},{"type":"Polygon","arcs":[[755,756,-744,-581,-396,-699]],"properties":{"name":"唐橋唐橋南琵琶町"}},{"type":"Polygon","arcs":[[-670,-644,-750,-640,-587]],"properties":{"name":"祥栄吉祥院観音堂町"}},{"type":"Polygon","arcs":[[-700,-394,-731,-57]],"properties":{"name":"唐橋唐橋経田町"}},{"type":"Polygon","arcs":[[-755,757,758,-402]],"properties":{"name":"唐橋唐橋門脇町"}},{"type":"Polygon","arcs":[[-653,-745,-349,759,-620]],"properties":{"name":"吉祥院吉祥院池ノ内町"}},{"type":"Polygon","arcs":[[-517,-471,-584,-639]],"properties":{"name":"祥栄吉祥院池田南町"}},{"type":"Polygon","arcs":[[-380,-720,760,-607,-243]],"properties":{"name":"祥豊吉祥院堤外町"}},{"type":"Polygon","arcs":[[-293,-482,-522,-683,-473,-357]],"properties":{"name":"上鳥羽上鳥羽馬廻"}},{"type":"Polygon","arcs":[[-444,761,-450,-288,-730]],"properties":{"name":"唐橋唐橋高田町"}},{"type":"Polygon","arcs":[[-527,-543,-703,-737]],"properties":{"name":"祥栄吉祥院嶋出在家町"}},{"type":"Polygon","arcs":[[-671,-586,-681,-669,-690,-706]],"properties":{"name":"祥栄吉祥院石原京道町"}},{"type":"Polygon","arcs":[[762,763,-47,-762]],"properties":{"name":"唐橋唐橋赤金町"}},{"type":"Polygon","arcs":[[-443,-759,764,-763]],"properties":{"name":"唐橋唐橋井園町"}},{"type":"Polygon","arcs":[[765,-739,-617,-743,-757]],"properties":{"name":"吉祥院吉祥院落合町"}},{"type":"Polygon","arcs":[[-748,-689,-567,-507,-436,-713,-614]],"properties":{"name":"吉祥院吉祥院九条町"}},{"type":"Polygon","arcs":[[-254,-377,-314,766,767]],"properties":{"name":"祥豊吉祥院西ノ庄東屋敷町"}},{"type":"Polygon","arcs":[[-753,-735,-247,-768,768]],"properties":{"name":"祥豊吉祥院西ノ庄門口町"}},{"type":"Polygon","arcs":[[-760,-405,-747,-598,-621]],"properties":{"name":"吉祥院吉祥院車道町"}},{"type":"Polygon","arcs":[[-766,-756,-698,-233,-695,-740]],"properties":{"name":"吉祥院吉祥院八反田町"}}]}},"arcs":[[[135.74978933680399,34.97608055524666],[135.74910777961014,34.97608055524666]],[[135.74910777961014,34.97608055524666],[135.748590301,34.976102645863484]],[[135.748590301,34.976102645863484],[135.74848301884913,34.97909371538101]],[[135.74848301884913,34.97909371538101],[135.74851457242292,34.97932345779595]],[[135.74851457242292,34.97932345779595],[135.74927185819385,34.979349966536134]],[[135.74927185819385,34.979349966536134],[135.7497514725154,34.97937205715296]],[[135.7497514725154,34.97937205715296],[135.74987137609583,34.97937647527632]],[[135.74987137609583,34.97937647527632],[135.74978933680399,34.97608055524666]],[[135.75069176901434,34.97333248251416],[135.74971360822687,34.973319228144064]],[[135.74971360822687,34.973319228144064],[135.74978933680399,34.97608055524666]],[[135.74978933680399,34.97608055524666],[135.75072963330288,34.97608055524666]],[[135.75072963330288,34.97608055524666],[135.75069176901434,34.97333248251416]],[[135.7486029224295,34.97330155565061],[135.74910777961014,34.97608055524666]],[[135.74971360822687,34.973319228144064],[135.7486029224295,34.97330155565061]],[[135.746141743674,34.976186590207405],[135.74614805438875,34.976327970155054]],[[135.74614805438875,34.976327970155054],[135.74621116153634,34.97886839108944]],[[135.74621116153634,34.97886839108944],[135.74848301884913,34.97909371538101]],[[135.748590301,34.976102645863484],[135.746141743674,34.976186590207405]],[[135.7524903227203,34.97608497337003],[135.7524903227203,34.97606730087657]],[[135.7524903227203,34.97606730087657],[135.7511272083326,34.97608055524666]],[[135.7511272083326,34.97608055524666],[135.7511587619064,34.97935880278286]],[[135.7511587619064,34.97935880278286],[135.7522315834152,34.979380893399686]],[[135.7522315834152,34.979380893399686],[135.75256605129738,34.979385311523046]],[[135.75256605129738,34.979385311523046],[135.7524903227203,34.97608497337003]],[[135.7511272083326,34.97608055524666],[135.75072963330288,34.97608055524666]],[[135.74987137609583,34.97937647527632],[135.7511587619064,34.97935880278286]],[[135.74296745415086,34.97638982388215],[135.74277182199336,34.978718174895064]],[[135.74277182199336,34.978718174895064],[135.74621116153634,34.97886839108944]],[[135.74614805438875,34.976327970155054],[135.74296745415086,34.97638982388215]],[[135.75069176901434,34.97333248251416],[135.7522820691333,34.973266210663695]],[[135.7522820691333,34.973266210663695],[135.752263136989,34.972378167867504]],[[135.752263136989,34.972378167867504],[135.7522315834152,34.97125596453301]],[[135.7522315834152,34.97125596453301],[135.7489058367379,34.971304563890016]],[[135.7489058367379,34.971304563890016],[135.74861554385905,34.971308982013376]],[[135.74861554385905,34.971308982013376],[135.7486029224295,34.97330155565061]],[[135.7524145941432,34.97327504691042],[135.7522820691333,34.973266210663695]],[[135.7524903227203,34.97606730087657],[135.7524145941432,34.97327504691042]],[[135.7462174722511,34.982363126670485],[135.74624271511013,34.98185504248361]],[[135.74624271511013,34.98185504248361],[135.74463979356165,34.98179318875651]],[[135.74463979356165,34.98179318875651],[135.7446334828469,34.9830523539153]],[[135.7446334828469,34.9830523539153],[135.7462174722511,34.982363126670485]],[[135.74605339366738,34.9733148100207],[135.74593980080175,34.973319228144064]],[[135.74593980080175,34.973319228144064],[135.74291065771803,34.97333690063753]],[[135.74291065771803,34.97333690063753],[135.74293590057707,34.97492742504862]],[[135.74293590057707,34.97492742504862],[135.74605970438216,34.97489208006171]],[[135.74605970438216,34.97489208006171],[135.74605339366738,34.9733148100207]],[[135.7423490041046,34.981788770633145],[135.7423300719603,34.9845191708722]],[[135.7423300719603,34.9845191708722],[135.74444416140418,34.98500516444225]],[[135.74444416140418,34.98500516444225],[135.74458299712884,34.98434244593763]],[[135.74458299712884,34.98434244593763],[135.7446334828469,34.9830523539153]],[[135.74463979356165,34.98179318875651],[135.7423490041046,34.981788770633145]],[[135.74293590057707,34.97492742504862],[135.74296745415086,34.97638982388215]],[[135.746141743674,34.976186590207405],[135.74605970438216,34.97489208006171]],[[135.74291065771803,34.97333690063753],[135.74255094697685,34.97334131876089]],[[135.74255094697685,34.97334131876089],[135.7424815291145,34.97449003083557]],[[135.7424815291145,34.97449003083557],[135.74259512198014,34.97564316103361]],[[135.74259512198014,34.97564316103361],[135.74262036483918,34.97833821628574]],[[135.74262036483918,34.97833821628574],[135.74272764699006,34.97888164545954]],[[135.74272764699006,34.97888164545954],[135.74277182199336,34.978718174895064]],[[135.7488742831641,34.985199561870274],[135.7488742831641,34.984346864060996]],[[135.7488742831641,34.984346864060996],[135.7486660295771,34.984346864060996]],[[135.7486660295771,34.984346864060996],[135.74766262593062,34.98516863500672]],[[135.74766262593062,34.98516863500672],[135.7488742831641,34.985199561870274]],[[135.7486029224295,34.97330155565061],[135.74605339366738,34.9733148100207]],[[135.74764369378633,34.98433802781427],[135.74759951878303,34.9823366179303],[135.7462174722511,34.982363126670485]],[[135.74458299712884,34.98434244593763],[135.74764369378633,34.98433802781427]],[[135.76511806295053,34.97505996874954],[135.76382436642518,34.97513065872337]],[[135.76382436642518,34.97513065872337],[135.7639695128646,34.97704370614005]],[[135.7639695128646,34.97704370614005],[135.76398213429414,34.97731762978862]],[[135.76398213429414,34.97731762978862],[135.76543359868842,34.977264612308254]],[[135.76543359868842,34.977264612308254],[135.7669418595155,34.97714974110079]],[[135.7669418595155,34.97714974110079],[135.76511806295053,34.97505996874954]],[[135.7522505155595,34.98524816122728],[135.75232624413658,34.984532425242286]],[[135.75232624413658,34.984532425242286],[135.75121555833923,34.98452358899556]],[[135.75121555833923,34.98452358899556],[135.7511335190474,34.985230488733826]],[[135.7511335190474,34.985230488733826],[135.7522505155595,34.98524816122728]],[[135.7495937046465,34.981872714977065],[135.75076118687667,34.981872714977065]],[[135.75076118687667,34.981872714977065],[135.75080536187997,34.981872714977065]],[[135.75080536187997,34.981872714977065],[135.75079274045046,34.98061796794165]],[[135.75079274045046,34.98061796794165],[135.7497388510859,34.981112797758435]],[[135.7497388510859,34.981112797758435],[135.7495937046465,34.981872714977065]],[[135.74982720109253,34.98521281624036],[135.7498461332368,34.98492122009833]],[[135.7498461332368,34.98492122009833],[135.74976409394495,34.98491680197497]],[[135.74976409394495,34.98491680197497],[135.74902574031827,34.985203979993635]],[[135.74902574031827,34.985203979993635],[135.74982720109253,34.98521281624036]],[[135.75036361184692,34.98521723436373],[135.75036361184692,34.98498307382543]],[[135.75036361184692,34.98498307382543],[135.75012380468613,34.98491680197497]],[[135.75012380468613,34.98491680197497],[135.75011749397137,34.98521723436373]],[[135.75011749397137,34.98521723436373],[135.75036361184692,34.98521723436373]],[[135.76182386984698,34.97509531373645],[135.76071318404962,34.97511740435328]],[[135.76071318404962,34.97511740435328],[135.76071949476437,34.9768272180952]],[[135.76071949476437,34.9768272180952],[135.76072580547913,34.97722043107461]],[[135.76072580547913,34.97722043107461],[135.7618932877093,34.97710997799051]],[[135.7618932877093,34.97710997799051],[135.76182386984698,34.97509531373645]],[[135.75080536187997,34.983074444532114],[135.74982089037775,34.98308769890221]],[[135.74982089037775,34.98308769890221],[135.74983351180728,34.984315937197444]],[[135.74983351180728,34.984315937197444],[135.75081798330947,34.98429384658062]],[[135.75081798330947,34.98429384658062],[135.75080536187997,34.983074444532114]],[[135.76284620563774,34.97710555986715],[135.76284620563774,34.977079051126964]],[[135.76284620563774,34.977079051126964],[135.7618932877093,34.97713648673069]],[[135.7618932877093,34.97713648673069],[135.76115493408267,34.979615053937984]],[[135.76115493408267,34.979615053937984],[135.7629850413624,34.97962830830808]],[[135.7629850413624,34.97962830830808],[135.76284620563774,34.97710555986715]],[[135.76271368062783,34.97487440756825],[135.76181755913223,34.97480813571779]],[[135.76181755913223,34.97480813571779],[135.76182386984698,34.97509531373645]],[[135.7618932877093,34.97710997799051],[135.7618932877093,34.97713648673069]],[[135.76284620563774,34.977079051126964],[135.76271368062783,34.97487440756825]],[[135.75012380468613,34.98491680197497],[135.7498461332368,34.98492122009833]],[[135.74982720109253,34.98521281624036],[135.75011749397137,34.98521723436373]],[[135.752054883402,34.98083003786313],[135.75210536912007,34.98064005855847]],[[135.75210536912007,34.98064005855847],[135.75079274045046,34.98061796794165]],[[135.75080536187997,34.981872714977065],[135.75220002984142,34.981872714977065]],[[135.75220002984142,34.981872714977065],[135.7521747869824,34.98143090264065]],[[135.7521747869824,34.98143090264065],[135.752054883402,34.98083003786313]],[[135.75527965864322,34.98494772883852],[135.75528596935797,34.983551601855446]],[[135.75528596935797,34.983551601855446],[135.75369566923902,34.983591364965726]],[[135.75369566923902,34.983591364965726],[135.75371460138328,34.98443522652828]],[[135.75371460138328,34.98443522652828],[135.75347479422248,34.98527466996747]],[[135.75347479422248,34.98527466996747],[135.75527965864322,34.98494772883852]],[[135.76183018056173,34.97328388315715],[135.75998745185248,34.97327946503379]],[[135.75998745185248,34.97327946503379],[135.76012628757715,34.975121822476645]],[[135.76012628757715,34.975121822476645],[135.76071318404962,34.97511740435328]],[[135.76181755913223,34.97480813571779],[135.76183018056173,34.97328388315715]],[[135.75528596935797,34.983551601855446],[135.7553995622236,34.981956659320986]],[[135.7553995622236,34.981956659320986],[135.75373353352757,34.98187713310043]],[[135.75373353352757,34.98187713310043],[135.75369566923902,34.983591364965726]],[[135.76543359868842,34.977264612308254],[135.76559767727213,34.97951343710061]],[[135.76559767727213,34.97951343710061],[135.76763603813887,34.97899209854364]],[[135.76763603813887,34.97899209854364],[135.76768021314217,34.97709672362042]],[[135.76768021314217,34.97709672362042],[135.7669418595155,34.97714974110079]],[[135.75822045172032,34.98074167539584],[135.75680054089983,34.980759347889304]],[[135.75680054089983,34.980759347889304],[135.7554311157974,34.98081678349303]],[[135.7554311157974,34.98081678349303],[135.7553995622236,34.981956659320986]],[[135.7553995622236,34.981956659320986],[135.7567626766113,34.981996422431266]],[[135.7567626766113,34.981996422431266],[135.75823307314982,34.981956659320986]],[[135.75823307314982,34.981956659320986],[135.75823307314982,34.981925732457434]],[[135.75823307314982,34.981925732457434],[135.75822045172032,34.98074167539584]],[[135.75339275493064,34.973310391897336],[135.75336120135685,34.97236049537405]],[[135.75336120135685,34.97236049537405],[135.752263136989,34.972378167867504]],[[135.7524145941432,34.97327504691042],[135.75339275493064,34.973310391897336]],[[135.75998745185248,34.97327946503379],[135.7592238553668,34.97328388315715]],[[135.7592238553668,34.97328388315715],[135.75848550174015,34.97328830128052]],[[135.75848550174015,34.97328830128052],[135.75847919102537,34.97513065872337]],[[135.75847919102537,34.97513065872337],[135.76012628757715,34.975121822476645]],[[135.75339275493064,34.973310391897336],[135.75350634779628,34.97572268725417]],[[135.75350634779628,34.97572268725417],[135.7543267407148,34.97608939149339]],[[135.7543267407148,34.97608939149339],[135.75467383002646,34.97608497337003]],[[135.75467383002646,34.97608497337003],[135.75564568009915,34.9760761371233]],[[135.75564568009915,34.9760761371233],[135.75568985510247,34.975223439314014]],[[135.75568985510247,34.975223439314014],[135.75568985510247,34.97329271940388]],[[135.75568985510247,34.97329271940388],[135.75339275493064,34.973310391897336]],[[135.75847919102537,34.97513065872337],[135.7584918124549,34.97683163621857]],[[135.7584918124549,34.97683163621857],[135.76071949476437,34.9768272180952]],[[135.75930589465864,34.969139683441576],[135.76049861974786,34.96815002380801]],[[135.76049861974786,34.96815002380801],[135.7596277411113,34.96717361854453],[135.75695830876876,34.96728407162863]],[[135.75695830876876,34.96728407162863],[135.75703403734585,34.969232464032224]],[[135.75703403734585,34.969232464032224],[135.75930589465864,34.969139683441576]],[[135.7556393693844,34.976765364368106],[135.75564568009915,34.9760761371233]],[[135.75467383002646,34.97608497337003],[135.75457285859034,34.97714532297742]],[[135.75457285859034,34.97714532297742],[135.75506509434143,34.979420656509966]],[[135.75506509434143,34.979420656509966],[135.75550684437448,34.979433910880054]],[[135.75550684437448,34.979433910880054],[135.7556393693844,34.976765364368106]],[[135.7524903227203,34.97608497337003],[135.75350634779628,34.97608939149339]],[[135.75350634779628,34.97608939149339],[135.75350634779628,34.97572268725417]],[[135.7556393693844,34.976765364368106],[135.75845394816636,34.9768272180952]],[[135.75845394816636,34.9768272180952],[135.7584918124549,34.97683163621857]],[[135.75847919102537,34.97513065872337],[135.75568985510247,34.975223439314014]],[[135.75823307314982,34.981925732457434],[135.7597602661212,34.981925732457434]],[[135.7597602661212,34.981925732457434],[135.7611044483646,34.9819301505808]],[[135.7611044483646,34.9819301505808],[135.76111075907937,34.980763766012664]],[[135.76111075907937,34.980763766012664],[135.75822045172032,34.98074167539584]],[[135.75633354800775,34.97112783895545],[135.75704034806063,34.97111900270872]],[[135.75704034806063,34.97111900270872],[135.75703403734585,34.969232464032224]],[[135.75703403734585,34.969232464032224],[135.753279162065,34.96925013652568]],[[135.753279162065,34.96925013652568],[135.7533422692126,34.971180856435815]],[[135.7533422692126,34.971180856435815],[135.75633354800775,34.97112783895545]],[[135.7554311157974,34.98081678349303],[135.75543742651215,34.980666567298655]],[[135.75543742651215,34.980666567298655],[135.75550684437448,34.979433910880054]],[[135.75506509434143,34.979420656509966],[135.75373984424232,34.97941182026323]],[[135.75373984424232,34.97941182026323],[135.75373353352757,34.98187713310043]],[[135.753279162065,34.96925013652568],[135.75319712277314,34.96712501918753]],[[135.75319712277314,34.96712501918753],[135.75211167983483,34.96724872664172]],[[135.75211167983483,34.96724872664172],[135.75216847626766,34.96928989963596]],[[135.75216847626766,34.96928989963596],[135.7522315834152,34.97125596453301]],[[135.7522315834152,34.97125596453301],[135.7533422692126,34.971180856435815]],[[135.75371460138328,34.98443522652828],[135.75232624413658,34.98442197215818]],[[135.75232624413658,34.98442197215818],[135.75232624413658,34.984532425242286]],[[135.7522505155595,34.98524816122728],[135.75347479422248,34.98527466996747]],[[135.76421563074018,34.981916896210706],[135.76421563074018,34.98193898682753]],[[135.76421563074018,34.98193898682753],[135.76432291289106,34.98436895467781]],[[135.76432291289106,34.98436895467781],[135.76585641657718,34.98417013912643]],[[135.76585641657718,34.98417013912643],[135.7660015630166,34.982005258677994]],[[135.7660015630166,34.982005258677994],[135.76421563074018,34.981916896210706]],[[135.75081798330947,34.98429384658062],[135.75081798330947,34.9845191708722]],[[135.75081798330947,34.9845191708722],[135.75121555833923,34.98452358899556]],[[135.75232624413658,34.98442197215818],[135.75233255485134,34.98303468142184]],[[135.75233255485134,34.98303468142184],[135.75080536187997,34.983074444532114]],[[135.75704034806063,34.97111900270872],[135.75911657321592,34.97111016646199]],[[135.75911657321592,34.97111016646199],[135.75974133397693,34.97057999165829]],[[135.75974133397693,34.97057999165829],[135.75930589465864,34.969139683441576]],[[135.7521747869824,34.98143090264065],[135.752054883402,34.98083003786313]],[[135.75568985510247,34.97329271940388],[135.75636510158154,34.97328388315715]],[[135.75636510158154,34.97328388315715],[135.75633354800775,34.97112783895545]],[[135.7533422692126,34.971180856435815],[135.75336120135685,34.97236049537405]],[[135.7456621293524,34.9581562287583],[135.7448291150044,34.95818715562184]],[[135.7448291150044,34.95818715562184],[135.74485435786343,34.9616067831057]],[[135.74485435786343,34.9616067831057],[135.74725242947136,34.96144331254123]],[[135.74725242947136,34.96144331254123],[135.74672864014647,34.95951701075445]],[[135.74672864014647,34.95951701075445],[135.7456621293524,34.9581562287583]],[[135.75836559815974,34.97953110959406],[135.75822045172032,34.98074167539584]],[[135.76111075907937,34.980763766012664],[135.76115493408267,34.979615053937984]],[[135.76115493408267,34.979615053937984],[135.76068794119058,34.979601799567895]],[[135.76068794119058,34.979601799567895],[135.75836559815974,34.97953110959406]],[[135.7611044483646,34.9819301505808],[135.7611044483646,34.98197433181444]],[[135.7611044483646,34.98197433181444],[135.76270736991307,34.981965495567714]],[[135.76270736991307,34.981965495567714],[135.76421563074018,34.98193898682753]],[[135.76421563074018,34.981916896210706],[135.7641777664516,34.98081678349303]],[[135.7641777664516,34.98081678349303],[135.76111075907937,34.980763766012664]],[[135.75216847626766,34.96928989963596],[135.74889952602314,34.969347335239696]],[[135.74889952602314,34.969347335239696],[135.7489058367379,34.971304563890016]],[[135.75695830876876,34.96728407162863],[135.75319712277314,34.96712501918753]],[[135.75350634779628,34.97608939149339],[135.7535631442291,34.97941182026323]],[[135.7535631442291,34.97941182026323],[135.75373984424232,34.97941182026323]],[[135.75457285859034,34.97714532297742],[135.7543267407148,34.97608939149339]],[[135.76751613455846,34.98033962616971],[135.7660015630166,34.98090072783695]],[[135.7660015630166,34.98090072783695],[135.7660015630166,34.98197433181444]],[[135.7660015630166,34.98197433181444],[135.76684719879415,34.98201851304808]],[[135.76684719879415,34.98201851304808],[135.76751613455846,34.98033962616971]],[[135.7567626766113,34.981996422431266],[135.75676898732604,34.984404299664725]],[[135.75676898732604,34.984404299664725],[135.75823938386458,34.984315937197444]],[[135.75823938386458,34.984315937197444],[135.75823307314982,34.981956659320986]],[[135.74255094697685,34.97334131876089],[135.74139608617617,34.97329713752725]],[[135.74139608617617,34.97329713752725],[135.74139608617617,34.974370741504735]],[[135.74139608617617,34.974370741504735],[135.7424815291145,34.97449003083557]],[[135.76235396988665,34.97130014576665],[135.75974133397693,34.97057999165829]],[[135.75911657321592,34.97111016646199],[135.7592238553668,34.97328388315715]],[[135.76183018056173,34.97328388315715],[135.76235396988665,34.97130014576665]],[[135.7660015630166,34.98090072783695],[135.7641777664516,34.98081678349303]],[[135.7660015630166,34.982005258677994],[135.7660015630166,34.98197433181444]],[[135.7218454918567,34.98152810135466],[135.72252704905054,34.980542859844455]],[[135.72252704905054,34.980542859844455],[135.72264695263092,34.98037938927998]],[[135.72264695263092,34.98037938927998],[135.7199333452851,34.97908046101092]],[[135.7199333452851,34.97908046101092],[135.71951052739632,34.98021591871551]],[[135.71951052739632,34.98021591871551],[135.71945373096352,34.98036613490989]],[[135.71945373096352,34.98036613490989],[135.7218454918567,34.98152810135466]],[[135.76072580547913,34.97722043107461],[135.76068794119058,34.979601799567895]],[[135.72934893170364,34.98237196291721],[135.7311033104063,34.980525187351]],[[135.7311033104063,34.980525187351],[135.7278343601618,34.978894899829626]],[[135.7278343601618,34.978894899829626],[135.72735474584022,34.9786519030446]],[[135.72735474584022,34.9786519030446],[135.7257139600032,34.98024242745569]],[[135.7257139600032,34.98024242745569],[135.726162020751,34.98096258156405]],[[135.726162020751,34.98096258156405],[135.7277460101552,34.981784352509784]],[[135.7277460101552,34.981784352509784],[135.72917223169043,34.982495670371414]],[[135.72917223169043,34.982495670371414],[135.72934893170364,34.98237196291721]],[[135.75036361184692,34.98498307382543],[135.75081798330947,34.9845191708722]],[[135.74983351180728,34.984315937197444],[135.7497704046597,34.984391045294636]],[[135.7497704046597,34.984391045294636],[135.74976409394495,34.98491680197497]],[[135.74494270787002,34.96446530892231],[135.74487960072244,34.962472735285075]],[[135.74487960072244,34.962472735285075],[135.74432425782376,34.962472735285075]],[[135.74432425782376,34.962472735285075],[135.74251939340306,34.96246831716171]],[[135.74251939340306,34.96246831716171],[135.74243735411122,34.963678882963485]],[[135.74243735411122,34.963678882963485],[135.74243735411122,34.96473039632416]],[[135.74243735411122,34.96473039632416],[135.74465872570593,34.96467737884378]],[[135.74465872570593,34.96467737884378],[135.74494270787002,34.96446530892231]],[[135.7627326127721,34.970822988443324],[135.76049861974786,34.96815002380801]],[[135.76235396988665,34.97130014576665],[135.7627326127721,34.970822988443324]],[[135.7245338563435,34.98180202500324],[135.72289938122125,34.98180644312661]],[[135.72289938122125,34.98180644312661],[135.72288675979172,34.984178975373155]],[[135.72288675979172,34.984178975373155],[135.72442026347787,34.984178975373155]],[[135.72442026347787,34.984178975373155],[135.7245338563435,34.98180202500324]],[[135.75256605129738,34.979385311523046],[135.75256605129738,34.97941182026323]],[[135.75256605129738,34.97941182026323],[135.7535631442291,34.97941182026323]],[[135.7611044483646,34.98197433181444],[135.76114862336792,34.98438220904791]],[[135.76114862336792,34.98438220904791],[135.76271999134258,34.98442639028155]],[[135.76271999134258,34.98442639028155],[135.76270736991307,34.981965495567714]],[[135.76271999134258,34.98442639028155],[135.76432291289106,34.98436895467781]],[[135.76585641657718,34.98417013912643],[135.76684719879415,34.98201851304808]],[[135.75848550174015,34.97328830128052],[135.75636510158154,34.97328388315715]],[[135.76472679863554,34.973177848196414],[135.7627326127721,34.970822988443324]],[[135.76271368062783,34.97487440756825],[135.76382436642518,34.97513065872337]],[[135.76511806295053,34.97505996874954],[135.76472679863554,34.973177848196414]],[[135.7639695128646,34.97704370614005],[135.76284620563774,34.97710555986715]],[[135.7629850413624,34.97962830830808],[135.76410834858928,34.97963714455481]],[[135.76410834858928,34.97963714455481],[135.76410834858928,34.97950018273052]],[[135.76410834858928,34.97950018273052],[135.76398213429414,34.97731762978862]],[[135.76768021314217,34.97709672362042],[135.76472679863554,34.973177848196414]],[[135.74272764699006,34.97888164545954],[135.74286648271473,34.97949134648379]],[[135.74286648271473,34.97949134648379],[135.74299900772465,34.97950901897725]],[[135.74299900772465,34.97950901897725],[135.74628057939867,34.979606217691256]],[[135.74628057939867,34.979606217691256],[135.74851457242292,34.97932345779595]],[[135.7495937046465,34.981872714977065],[135.74982089037775,34.98308769890221]],[[135.75080536187997,34.983074444532114],[135.75076118687667,34.981872714977065]],[[135.73743926802308,34.96106777205527],[135.7368965465539,34.96249924402526],[135.73836694309247,34.9628880388813],[135.7378557751971,34.964293002111106]],[[135.7378557751971,34.964293002111106],[135.740020350359,34.964787831927886]],[[135.740020350359,34.964787831927886],[135.7403043325231,34.96477899568116]],[[135.7403043325231,34.96477899568116],[135.73950918246362,34.962485989655164]],[[135.73950918246362,34.962485989655164],[135.7391810252962,34.96153609313187]],[[135.7391810252962,34.96153609313187],[135.73743926802308,34.96106777205527]],[[135.75845394816636,34.9768272180952],[135.75836559815974,34.97953110959406]],[[135.7519791548249,34.96444321830548],[135.75206119411675,34.96426649337092]],[[135.75206119411675,34.96426649337092],[135.7497262296564,34.964346019591474]],[[135.7497262296564,34.964346019591474],[135.7497388510859,34.964527162649404]],[[135.7497388510859,34.964527162649404],[135.7519791548249,34.96444321830548]],[[135.7597602661212,34.981925732457434],[135.7597602661212,34.98428942845726]],[[135.7597602661212,34.98428942845726],[135.76114862336792,34.98438220904791]],[[135.75250925486455,34.98188596934716],[135.7524272155727,34.980233591208965]],[[135.7524272155727,34.980233591208965],[135.75219371912667,34.98025126370242]],[[135.75219371912667,34.98025126370242],[135.75210536912007,34.98064005855847]],[[135.75220002984142,34.981872714977065],[135.75250925486455,34.98188596934716]],[[135.7274935815649,34.9841480485096],[135.72609260288866,34.984178975373155]],[[135.72609260288866,34.984178975373155],[135.72606104931486,34.9850979450329]],[[135.72606104931486,34.9850979450329],[135.7258591064426,34.985469067395485]],[[135.7258591064426,34.985469067395485],[135.72848436378183,34.98552650299922]],[[135.72848436378183,34.98552650299922],[135.72857271378845,34.98411270352269]],[[135.72857271378845,34.98411270352269],[135.7274935815649,34.9841480485096]],[[135.74177472906163,34.95457754883333],[135.74270871484578,34.954179917730556]],[[135.74270871484578,34.954179917730556],[135.74281599699668,34.954051792152995]],[[135.74281599699668,34.954051792152995],[135.74215968266188,34.95075587212334]],[[135.74215968266188,34.95075587212334],[135.74111210401207,34.95168809615318],[135.73866354668607,34.95176320425037]],[[135.73866354668607,34.95176320425037],[135.73866354668607,34.955112141760395]],[[135.73866354668607,34.955112141760395],[135.73897908242395,34.95590740396594]],[[135.73897908242395,34.95590740396594],[135.74177472906163,34.95457754883333]],[[135.74581989722137,34.96734592535573],[135.7425257041178,34.967496141550114]],[[135.7425257041178,34.967496141550114],[135.7425257041178,34.96751381404357]],[[135.7425257041178,34.96751381404357],[135.7425446362621,34.96942686146025]],[[135.7425446362621,34.96942686146025],[135.7425446362621,34.96944011583034]],[[135.7425446362621,34.96944011583034],[135.74587038293942,34.969404770843425]],[[135.74587038293942,34.969404770843425],[135.74581989722137,34.96734592535573]],[[135.74883641887556,34.96727965350527],[135.74581989722137,34.96734592535573]],[[135.74587038293942,34.969404770843425],[135.74889952602314,34.969347335239696]],[[135.74889952602314,34.969347335239696],[135.74883641887556,34.96727965350527]],[[135.745933490087,34.971304563890016],[135.74295483272135,34.97138409011057]],[[135.74295483272135,34.97138409011057],[135.74291065771803,34.97333690063753]],[[135.74593980080175,34.973319228144064],[135.745933490087,34.971304563890016]],[[135.7200848024393,34.984139212262875],[135.7211765560924,34.9825221791116]],[[135.7211765560924,34.9825221791116],[135.71906246664852,34.981912478087345]],[[135.71906246664852,34.981912478087345],[135.71886683449105,34.98317606136949]],[[135.71886683449105,34.98317606136949],[135.7200848024393,34.984139212262875]],[[135.73897908242395,34.95590740396594],[135.74021598251647,34.95736980279948]],[[135.74021598251647,34.95736980279948],[135.74309366844602,34.95781161513589]],[[135.74309366844602,34.95781161513589],[135.74177472906163,34.95457754883333]],[[135.74874806886893,34.96530917048486],[135.74871651529517,34.96454925326623]],[[135.74871651529517,34.96454925326623],[135.74743544019933,34.964571343883044]],[[135.74743544019933,34.964571343883044],[135.74575679007378,34.9646508701036]],[[135.74575679007378,34.9646508701036],[135.7457820329328,34.96556100351661]],[[135.7457820329328,34.96556100351661],[135.74874806886893,34.96530917048486]],[[135.75233255485134,34.98303468142184],[135.75250925486455,34.98188596934716]],[[135.75680054089983,34.980759347889304],[135.75543742651215,34.980666567298655]],[[135.7284464994933,34.975656415403705],[135.72666687793162,34.9746579195234]],[[135.72666687793162,34.9746579195234],[135.72477997421905,34.97728228480171]],[[135.72477997421905,34.97728228480171],[135.72647124577412,34.978183581968]],[[135.72647124577412,34.978183581968],[135.7284464994933,34.975656415403705]],[[135.74743544019933,34.964571343883044],[135.74741019734032,34.96436369208493]],[[135.74741019734032,34.96436369208493],[135.74494270787002,34.96446530892231]],[[135.74465872570593,34.96467737884378],[135.74575679007378,34.9646508701036]],[[135.7383480109482,34.9648231769148],[135.740020350359,34.964787831927886]],[[135.7378557751971,34.964293002111106],[135.73566595717614,34.96379817229432]],[[135.73566595717614,34.96379817229432],[135.73662518581932,34.964867358148446]],[[135.73662518581932,34.964867358148446],[135.7383480109482,34.9648231769148]],[[135.74871651529517,34.96454925326623],[135.7497388510859,34.964527162649404]],[[135.7497262296564,34.964346019591474],[135.7485461259967,34.96246389903835]],[[135.7485461259967,34.96246389903835],[135.74734077947798,34.96250808027199]],[[135.74734077947798,34.96250808027199],[135.74741019734032,34.96436369208493]],[[135.72735474584022,34.9786519030446],[135.72647124577412,34.978183581968]],[[135.72477997421905,34.97728228480171],[135.72411103845474,34.978320543792286]],[[135.72411103845474,34.978320543792286],[135.72375763842828,34.97880211923898]],[[135.72375763842828,34.97880211923898],[135.72320860624438,34.97957970895107]],[[135.72320860624438,34.97957970895107],[135.7257139600032,34.98024242745569]],[[135.75195391196587,34.96236670032433],[135.74946117963657,34.95906636217131]],[[135.74946117963657,34.95906636217131],[135.74672864014647,34.95951701075445]],[[135.74725242947136,34.96144331254123],[135.7485461259967,34.96246389903835]],[[135.7485461259967,34.96246389903835],[135.75195391196587,34.96236670032433]],[[135.7497704046597,34.984391045294636],[135.74928447962336,34.98433802781427]],[[135.74928447962336,34.98433802781427],[135.7488742831641,34.984346864060996]],[[135.7488742831641,34.985199561870274],[135.74902574031827,34.985203979993635]],[[135.7277460101552,34.981784352509784],[135.7274935815649,34.9841480485096]],[[135.72857271378845,34.98411270352269],[135.72917223169043,34.982495670371414]],[[135.72375763842828,34.97880211923898],[135.72411103845474,34.978320543792286]],[[135.72477997421905,34.97728228480171],[135.72216733830933,34.97589499406537]],[[135.72216733830933,34.97589499406537],[135.7199333452851,34.97908046101092]],[[135.72264695263092,34.98037938927998],[135.72320860624438,34.97957970895107]],[[135.74256356840635,34.9703325767499],[135.7425446362621,34.96944011583034]],[[135.7425446362621,34.96942686146025],[135.73995093249667,34.96946220644716]],[[135.73995093249667,34.96946220644716],[135.74110579329732,34.97047395669755]],[[135.74110579329732,34.97047395669755],[135.74256356840635,34.9703325767499]],[[135.74734077947798,34.96250808027199],[135.74487960072244,34.962472735285075]],[[135.73066156037325,34.97686698120548],[135.72941203885122,34.97693767117931],[135.7278343601618,34.978894899829626]],[[135.7311033104063,34.980525187351],[135.7312989425638,34.97985363259965]],[[135.7312989425638,34.97985363259965],[135.73187321760676,34.97822776320164]],[[135.73187321760676,34.97822776320164],[135.7322266176332,34.97777269649513]],[[135.7322266176332,34.97777269649513],[135.73066156037325,34.97686698120548]],[[135.73832907880393,34.977838968345594],[135.73950287174887,34.97797151204652]],[[135.73950287174887,34.97797151204652],[135.7408091897037,34.97812614636427]],[[135.7408091897037,34.97812614636427],[135.7411373468711,34.9760142833962]],[[135.7411373468711,34.9760142833962],[135.74106792900878,34.9760142833962]],[[135.74106792900878,34.9760142833962],[135.7384363609548,34.97611148211021]],[[135.7384363609548,34.97611148211021],[135.73832907880393,34.977838968345594]],[[135.76410834858928,34.97950018273052],[135.76559767727213,34.97951343710061]],[[135.73726887872462,34.979478092113695],[135.73617081435677,34.97948251023706]],[[135.73617081435677,34.97948251023706],[135.73618343578627,34.98060471357155]],[[135.73618343578627,34.98060471357155],[135.73622130007485,34.98166064505559]],[[135.73622130007485,34.98166064505559],[135.7389159752764,34.98170482628923]],[[135.7389159752764,34.98170482628923],[135.73886548955832,34.979464837743606]],[[135.73886548955832,34.979464837743606],[135.73726887872462,34.979478092113695]],[[135.73066156037325,34.97686698120548],[135.7284464994933,34.975656415403705]],[[135.76751613455846,34.98033962616971],[135.76763603813887,34.97899209854364]],[[135.76410834858928,34.97963714455481],[135.7641777664516,34.98081678349303]],[[135.74861554385905,34.971308982013376],[135.745933490087,34.971304563890016]],[[135.75036361184692,34.98521723436373],[135.7511335190474,34.985230488733826]],[[135.74270871484578,34.954179917730556],[135.74453882212552,34.95559371720709]],[[135.74453882212552,34.95559371720709],[135.7481548616817,34.95756861835086]],[[135.7481548616817,34.95756861835086],[135.74946117963657,34.95906636217131]],[[135.75195391196587,34.96236670032433],[135.7520233298282,34.96302941882895]],[[135.7520233298282,34.96302941882895],[135.75257867272688,34.961726072436534],[135.74919612961673,34.958359462433044],[135.7486534081476,34.95677777426868],[135.74559902220483,34.95540815602579],[135.74550436148346,34.953570216706304],[135.74281599699668,34.954051792152995]],[[135.7497388510859,34.981112797758435],[135.7497514725154,34.97937205715296]],[[135.74927185819385,34.979349966536134],[135.74928447962336,34.98433802781427]],[[135.73997617535568,34.967412197206194],[135.74041792538873,34.965720055957725]],[[135.74041792538873,34.965720055957725],[135.7402727789493,34.965724474081085]],[[135.7402727789493,34.965724474081085],[135.73837325380723,34.96578632780819]],[[135.73837325380723,34.96578632780819],[135.73841742881052,34.96729732599873]],[[135.73841742881052,34.96729732599873],[135.73997617535568,34.967412197206194]],[[135.7425572576916,34.960435980414196],[135.74079025755944,34.96047132540111]],[[135.74079025755944,34.96047132540111],[135.74102375400548,34.962123703539305]],[[135.74102375400548,34.962123703539305],[135.7418567683535,34.96374515481395]],[[135.7418567683535,34.96374515481395],[135.74243735411122,34.963678882963485]],[[135.74251939340306,34.96246831716171],[135.7425572576916,34.960435980414196]],[[135.75823938386458,34.984315937197444],[135.7597602661212,34.98428942845726]],[[135.74035481824114,34.957701162051784],[135.74021598251647,34.95736980279948]],[[135.73866354668607,34.955112141760395],[135.73724363586558,34.95677335614531]],[[135.73724363586558,34.95677335614531],[135.73787470734135,34.95838597117323]],[[135.73787470734135,34.95838597117323],[135.73820917522352,34.95849642425733]],[[135.73820917522352,34.95849642425733],[135.74035481824114,34.957701162051784]],[[135.74587038293942,34.969404770843425],[135.745933490087,34.971304563890016]],[[135.74628057939867,34.979606217691256],[135.74624271511013,34.98185504248361]],[[135.74764369378633,34.98433802781427],[135.7486660295771,34.984346864060996]],[[135.73498439998232,34.9777152608914],[135.73497808926757,34.97870492052497]],[[135.73497808926757,34.97870492052497],[135.73617081435677,34.97948251023706]],[[135.73726887872462,34.979478092113695],[135.73748344302638,34.977746187754946]],[[135.73748344302638,34.977746187754946],[135.7361518822125,34.97763131654748]],[[135.7361518822125,34.97763131654748],[135.73498439998232,34.9777152608914]],[[135.74256356840635,34.9703325767499],[135.74295483272135,34.97138409011057]],[[135.73951549317837,34.97945600149688],[135.73886548955832,34.979464837743606]],[[135.7389159752764,34.98170482628923],[135.7409732682874,34.98174900752287]],[[135.7409732682874,34.98174900752287],[135.74095433614315,34.97946925586697]],[[135.74095433614315,34.97946925586697],[135.73951549317837,34.97945600149688]],[[135.75219371912667,34.98025126370242],[135.7522315834152,34.979380893399686]],[[135.74453882212552,34.95559371720709],[135.7436805649185,34.95757745459759]],[[135.7436805649185,34.95757745459759],[135.7448291150044,34.95818715562184]],[[135.7456621293524,34.9581562287583],[135.7481548616817,34.95756861835086]],[[135.74299900772465,34.97950901897725],[135.7423490041046,34.981788770633145]],[[135.72176345256486,34.95816948312839],[135.7205139310428,34.95863780420499],[135.72092412750206,34.96117822513938],[135.7193843131012,34.96260969710936]],[[135.7193843131012,34.96260969710936],[135.72284258478842,34.962839439524295]],[[135.72284258478842,34.962839439524295],[135.72380812414636,34.96151400251505]],[[135.72380812414636,34.96151400251505],[135.7252027921078,34.9597820981563]],[[135.7252027921078,34.9597820981563],[135.72282996335892,34.9578602144929],[135.72176345256486,34.95816948312839]],[[135.71018960169914,34.96268480520655],[135.7096153266562,34.962658296466365]],[[135.7096153266562,34.962658296466365],[135.7061191906804,34.962614115232725],[135.70482549415507,34.96363028360648],[135.7048507370141,34.96871554359862],[135.71176728038859,34.96854323678742]],[[135.71176728038859,34.96854323678742],[135.71038523385664,34.964796668174614],[135.71018960169914,34.96268480520655]],[[135.72286151693268,34.984178975373155],[135.72288675979172,34.984178975373155]],[[135.72289938122125,34.98180644312661],[135.7218454918567,34.98152810135466]],[[135.7218454918567,34.98152810135466],[135.7211765560924,34.9825221791116]],[[135.7200848024393,34.984139212262875],[135.7200848024393,34.98420106598998]],[[135.7200848024393,34.98420106598998],[135.72286151693268,34.984178975373155]],[[135.75256605129738,34.97941182026323],[135.7524272155727,34.980233591208965]],[[135.75250925486455,34.98188596934716],[135.75373353352757,34.98187713310043]],[[135.73832907880393,34.977838968345594],[135.73748344302638,34.977746187754946]],[[135.73951549317837,34.97945600149688],[135.73950287174887,34.97797151204652]],[[135.726162020751,34.9812276689659],[135.726162020751,34.98096258156405]],[[135.72252704905054,34.980542859844455],[135.726162020751,34.9812276689659]],[[135.74309366844602,34.95781161513589],[135.7436805649185,34.95757745459759]],[[135.73403779276865,34.96490270313536],[135.7361518822125,34.964871776271806]],[[135.7361518822125,34.964871776271806],[135.73662518581932,34.964867358148446]],[[135.73566595717614,34.96379817229432],[135.73576692861226,34.962207647883226]],[[135.73576692861226,34.962207647883226],[135.73269992124003,34.96223415662341]],[[135.73269992124003,34.96223415662341],[135.73269361052525,34.96492921187554]],[[135.73269361052525,34.96492921187554],[135.73403779276865,34.96490270313536]],[[135.7402727789493,34.965724474081085],[135.7405125861101,34.9647745775578]],[[135.7405125861101,34.9647745775578],[135.7403043325231,34.96477899568116]],[[135.7383480109482,34.9648231769148],[135.73837325380723,34.96578632780819]],[[135.7391810252962,34.96153609313187],[135.73820917522352,34.95849642425733]],[[135.73787470734135,34.95838597117323],[135.73666305010786,34.96086012025716]],[[135.73666305010786,34.96086012025716],[135.73743926802308,34.96106777205527]],[[135.7331038069845,34.953963429685714],[135.7356280928876,34.950680764026146]],[[135.7356280928876,34.950680764026146],[135.73763490018055,34.94611684259098]],[[135.73763490018055,34.94611684259098],[135.7391999574405,34.942339347114626]],[[135.7391999574405,34.942339347114626],[135.73745820016734,34.94178708169411],[135.73666305010786,34.945348089125616],[135.73280089267612,34.95153787995879]],[[135.73280089267612,34.95153787995879],[135.7310906889768,34.953698342283865]],[[135.7310906889768,34.953698342283865],[135.7331038069845,34.953963429685714]],[[135.74246259697023,34.96565378410726],[135.74041792538873,34.965720055957725]],[[135.73997617535568,34.967412197206194],[135.74014656465414,34.96742545157629]],[[135.74014656465414,34.96742545157629],[135.7425257041178,34.96751381404357]],[[135.7425257041178,34.967496141550114],[135.74246259697023,34.96565378410726]],[[135.726162020751,34.98179760687987],[135.7245338563435,34.98180202500324]],[[135.72442026347787,34.984178975373155],[135.72609260288866,34.98416572100306]],[[135.72609260288866,34.98416572100306],[135.726162020751,34.98179760687987]],[[135.74874806886893,34.96530917048486],[135.74875437958372,34.965450550432514]],[[135.74875437958372,34.965450550432514],[135.7520107083987,34.96582609091846]],[[135.7520107083987,34.96582609091846],[135.7519791548249,34.96444321830548]],[[135.73799461092176,34.95145393561487],[135.73906112171582,34.949699940639306]],[[135.73906112171582,34.949699940639306],[135.73950287174887,34.94642611122647]],[[135.73950287174887,34.94642611122647],[135.73763490018055,34.94611684259098]],[[135.7356280928876,34.950680764026146],[135.73591207505171,34.95075587212334]],[[135.73591207505171,34.95075587212334],[135.73799461092176,34.95145393561487]],[[135.7333751677191,34.97862097618105],[135.73331837128626,34.979915486326746]],[[135.73331837128626,34.979915486326746],[135.73328050699772,34.98055611421455]],[[135.73328050699772,34.98055611421455],[135.73618343578627,34.98060471357155]],[[135.73497808926757,34.97870492052497],[135.7333751677191,34.97862097618105]],[[135.71495419134123,34.958664312945174],[135.71501729848882,34.959380048930164]],[[135.71501729848882,34.959380048930164],[135.71550322352516,34.96261853335609]],[[135.71550322352516,34.96261853335609],[135.7175163415329,34.96258760649254]],[[135.7175163415329,34.96258760649254],[135.71713769864743,34.95991905998059]],[[135.71713769864743,34.95991905998059],[135.71689789148664,34.95798392194709],[135.71495419134123,34.958664312945174]],[[135.7405125861101,34.9647745775578],[135.7418567683535,34.96374515481395]],[[135.74102375400548,34.962123703539305],[135.73950918246362,34.962485989655164]],[[135.71945373096352,34.98036613490989],[135.71906246664852,34.981912478087345]],[[135.73615819292726,34.9658702721521],[135.73837325380723,34.96578632780819]],[[135.7361518822125,34.964871776271806],[135.73615819292726,34.9658702721521]],[[135.73724363586558,34.95677335614531],[135.73622130007485,34.956539195607014]],[[135.73622130007485,34.956539195607014],[135.73577323932705,34.957970667577]],[[135.73577323932705,34.957970667577],[135.73500333212658,34.960435980414196]],[[135.73500333212658,34.960435980414196],[135.73593731791073,34.960665722829134]],[[135.73593731791073,34.960665722829134],[135.73666305010786,34.96086012025716]],[[135.73591207505171,34.95075587212334],[135.73549556787768,34.95212549036623],[135.7374077144493,34.95297818817551]],[[135.7374077144493,34.95297818817551],[135.73799461092176,34.95145393561487]],[[135.73577323932705,34.957970667577],[135.73175331402635,34.95712238789108]],[[135.73175331402635,34.95712238789108],[135.7319552568986,34.95783370575271]],[[135.7319552568986,34.95783370575271],[135.73255477480058,34.95998974995442]],[[135.73255477480058,34.95998974995442],[135.73500333212658,34.960435980414196]],[[135.71205757326746,34.956711502418216],[135.71082067317494,34.9553949016557]],[[135.71082067317494,34.9553949016557],[135.70950173379055,34.955381647285606],[135.70959639451192,34.95953026512455]],[[135.70959639451192,34.95953026512455],[135.71270126617273,34.959468411397445]],[[135.71270126617273,34.959468411397445],[135.71269495545798,34.9594374845339]],[[135.71269495545798,34.9594374845339],[135.71205757326746,34.956711502418216]],[[135.73851840024665,34.97058440978166],[135.73995093249667,34.96946220644716]],[[135.73995093249667,34.96946220644716],[135.74014656465414,34.96742545157629]],[[135.73841742881052,34.96729732599873],[135.7384994681024,34.97031932237981]],[[135.7384994681024,34.97031932237981],[135.73851840024665,34.97058440978166]],[[135.72443919562212,34.964293002111106],[135.7262503707576,34.962167884772946]],[[135.7262503707576,34.962167884772946],[135.72621881718382,34.962083940429025]],[[135.72621881718382,34.962083940429025],[135.72380812414636,34.96151400251505]],[[135.72284258478842,34.962839439524295],[135.72252704905054,34.96378049980086]],[[135.72252704905054,34.96378049980086],[135.72443919562212,34.964293002111106]],[[135.73039651035344,34.95932261332643],[135.7319552568986,34.95783370575271]],[[135.73175331402635,34.95712238789108],[135.73177224617064,34.95683962799578]],[[135.73177224617064,34.95683962799578],[135.72987272102856,34.9577983607658]],[[135.72987272102856,34.9577983607658],[135.72939941742172,34.958624549834894]],[[135.72939941742172,34.958624549834894],[135.73039651035344,34.95932261332643]],[[135.71176728038859,34.96854323678742],[135.71867120233355,34.96852998241732]],[[135.71867120233355,34.96852998241732],[135.72031829888533,34.96526057112785],[135.71909402022231,34.96524289863439],[135.71937169167165,34.962614115232725]],[[135.71937169167165,34.962614115232725],[135.71806537371683,34.9625920246159]],[[135.71806537371683,34.9625920246159],[135.7175163415329,34.96258760649254]],[[135.71550322352516,34.96261853335609],[135.71322505549762,34.96264946021964]],[[135.71322505549762,34.96264946021964],[135.71018960169914,34.96268480520655]],[[135.726162020751,34.9812276689659],[135.726162020751,34.98179760687987]],[[135.72609260288866,34.98416572100306],[135.72609260288866,34.984178975373155]],[[135.74309366844602,34.95781161513589],[135.7425572576916,34.960435980414196]],[[135.74432425782376,34.962472735285075],[135.74485435786343,34.9616067831057]],[[135.73269992124003,34.96223415662341],[135.73132418542284,34.96218997538977]],[[135.73132418542284,34.96218997538977],[135.73112855326534,34.96321939813362]],[[135.73112855326534,34.96321939813362],[135.7308193282422,34.96496013873909]],[[135.7308193282422,34.96496013873909],[135.73269361052525,34.96492921187554]],[[135.74035481824114,34.957701162051784],[135.74079025755944,34.96047132540111]],[[135.74246259697023,34.96565378410726],[135.74243735411122,34.96473039632416]],[[135.73866354668607,34.95176320425037],[135.73906112171582,34.949699940639306]],[[135.7374077144493,34.95297818817551],[135.73679557511778,34.95465707505389]],[[135.73679557511778,34.95465707505389],[135.73622130007485,34.956539195607014]],[[135.7333751677191,34.97862097618105],[135.73283244624992,34.978581213070775]],[[135.73283244624992,34.978581213070775],[135.73282613553516,34.9786519030446]],[[135.73282613553516,34.9786519030446],[135.73276933910236,34.97990223195666]],[[135.73276933910236,34.97990223195666],[135.73331837128626,34.979915486326746]],[[135.75203595125774,34.96721338165481],[135.7520107083987,34.96582609091846]],[[135.74875437958372,34.965450550432514],[135.74883641887556,34.96727965350527]],[[135.74883641887556,34.96727965350527],[135.75203595125774,34.96721338165481]],[[135.75211167983483,34.96724872664172],[135.75203595125774,34.96721338165481]],[[135.73615819292726,34.9658702721521],[135.73622130007485,34.96735476160246]],[[135.73622130007485,34.96735476160246],[135.7362402322191,34.96817211442483]],[[135.7362402322191,34.96817211442483],[135.73841742881052,34.96729732599873]],[[135.71737750580823,34.950539384078496],[135.71831149159237,34.95030080541683]],[[135.71831149159237,34.95030080541683],[135.71816634515292,34.94875004411601],[135.71955470239965,34.947747130112354],[135.722280931175,34.948237541805774]],[[135.722280931175,34.948237541805774],[135.72436346704504,34.94545412408635],[135.72493143137322,34.94266628824357],[135.71925178809127,34.942736978217404],[135.71821052015625,34.94235260148472],[135.71825469515954,34.94476047871818],[135.7168915807719,34.9447958237051],[135.7168284736243,34.9487146991291],[135.71737750580823,34.950539384078496]],[[135.7384363609548,34.97611148211021],[135.7384363609548,34.97603195588966]],[[135.7384363609548,34.97603195588966],[135.73616450364202,34.97639866012888]],[[135.73616450364202,34.97639866012888],[135.7361518822125,34.97763131654748]],[[135.7340441034834,34.96593654400257],[135.73403779276865,34.96490270313536]],[[135.7308193282422,34.96496013873909],[135.7301188389041,34.964968974985815]],[[135.7301188389041,34.964968974985815],[135.7301819460517,34.96604257896331]],[[135.7301819460517,34.96604257896331],[135.7340441034834,34.96593654400257]],[[135.74246259697023,34.96565378410726],[135.7457820329328,34.96556100351661]],[[135.75527965864322,34.98494772883852],[135.75676898732604,34.984404299664725]],[[135.72415521345803,34.9497131950094],[135.72174452042057,34.950539384078496],[135.72176345256486,34.95816948312839]],[[135.7252027921078,34.9597820981563],[135.72630085647566,34.95851851487416]],[[135.72630085647566,34.95851851487416],[135.7275188244239,34.95731678531911]],[[135.7275188244239,34.95731678531911],[135.7310906889768,34.953698342283865]],[[135.73280089267612,34.95153787995879],[135.730642628229,34.950495202844856],[135.7277144565814,34.950632164669145],[135.7276261065748,34.949669013775754],[135.72415521345803,34.9497131950094]],[[135.73532517857925,34.97371685924684],[135.73386109275543,34.973836148577675]],[[135.73386109275543,34.973836148577675],[135.73163972116072,34.9746711738935]],[[135.73163972116072,34.9746711738935],[135.73148195329176,34.97541783674204]],[[135.73148195329176,34.97541783674204],[135.7317154497378,34.97555038044296]],[[135.7317154497378,34.97555038044296],[135.7332237105649,34.97643400511579]],[[135.7332237105649,34.97643400511579],[135.73532517857925,34.97371685924684]],[[135.7331038069845,34.953963429685714],[135.7339683749063,34.95408713713991]],[[135.7339683749063,34.95408713713991],[135.73679557511778,34.95465707505389]],[[135.7457820329328,34.96556100351661],[135.74581989722137,34.96734592535573]],[[135.71269495545798,34.9594374845339],[135.71501729848882,34.959380048930164]],[[135.71495419134123,34.958664312945174],[135.7148532199051,34.95756861835086],[135.71205757326746,34.956711502418216]],[[135.71591973069917,34.97977852450246],[135.7162037128633,34.98153693760139],[135.71783818798554,34.981744589399504],[135.71886683449105,34.98317606136949]],[[135.71951052739632,34.98021591871551],[135.71591973069917,34.97977852450246]],[[135.72987272102856,34.9577983607658],[135.7275188244239,34.95731678531911]],[[135.72630085647566,34.95851851487416],[135.72867368522458,34.95916356088532]],[[135.72867368522458,34.95916356088532],[135.72939941742172,34.958624549834894]],[[135.73630333936669,34.97355338868237],[135.73599411434355,34.972868579560924]],[[135.73599411434355,34.972868579560924],[135.73532517857925,34.97371685924684]],[[135.7332237105649,34.97643400511579],[135.7332552641387,34.976451677609255]],[[135.7332552641387,34.976451677609255],[135.7342839106442,34.97705696051014]],[[135.7342839106442,34.97705696051014],[135.73599411434355,34.97479488134769]],[[135.73599411434355,34.97479488134769],[135.7362717857929,34.97442817710847]],[[135.7362717857929,34.97442817710847],[135.73630333936669,34.97355338868237]],[[135.7284906744966,34.97239584036096],[135.72664163507258,34.97243118534787]],[[135.72664163507258,34.97243118534787],[135.72664163507258,34.972550474678705]],[[135.72664163507258,34.972550474678705],[135.72950038885784,34.97427796091409]],[[135.72950038885784,34.97427796091409],[135.73148195329176,34.97541783674204]],[[135.73163972116072,34.9746711738935],[135.73178486760014,34.9722544604133]],[[135.73178486760014,34.9722544604133],[135.7317785568854,34.9722544604133]],[[135.7317785568854,34.9722544604133],[135.73061738536995,34.97233398663386]],[[135.73061738536995,34.97233398663386],[135.7284906744966,34.97239584036096]],[[135.73386109275543,34.973836148577675],[135.7339557534768,34.9730187957553]],[[135.7339557534768,34.9730187957553],[135.73178486760014,34.9722544604133]],[[135.7339683749063,34.95408713713991],[135.73177224617064,34.95683962799578]],[[135.73950287174887,34.94642611122647],[135.74005821464755,34.944208213297664]],[[135.74005821464755,34.944208213297664],[135.7391999574405,34.942339347114626]],[[135.73164603187547,34.970787643456404],[135.73139991399992,34.96961684076491]],[[135.73139991399992,34.96961684076491],[135.7303838889239,34.96964334950509]],[[135.7303838889239,34.96964334950509],[135.73061738536995,34.97233398663386]],[[135.7317785568854,34.9722544604133],[135.73164603187547,34.970787643456404]],[[135.7341513856343,34.96821629565847],[135.73418924992285,34.97052255605456]],[[135.73418924992285,34.97052255605456],[135.73630333936669,34.970469538574186]],[[135.73630333936669,34.970469538574186],[135.7362402322191,34.96817211442483]],[[135.73622130007485,34.96735476160246],[135.7341513856343,34.96821629565847]],[[135.73615819292726,34.9658702721521],[135.7340441034834,34.96593654400257]],[[135.7340441034834,34.96593654400257],[135.7341513856343,34.96821629565847]],[[135.71737750580823,34.950539384078496],[135.7157556521155,34.95171460489336],[135.71383088411437,34.95176320425037],[135.71082067317494,34.9553949016557]],[[135.71713769864743,34.95991905998059],[135.71810323800537,34.958262263719035]],[[135.71810323800537,34.958262263719035],[135.71937169167165,34.95683962799578],[135.71944742024877,34.95073819962988],[135.71831149159237,34.95030080541683]],[[135.73284506767945,34.96824722252202],[135.73027029605828,34.96830907624912]],[[135.73027029605828,34.96830907624912],[135.73027660677303,34.96833116686594]],[[135.73027660677303,34.96833116686594],[135.7303838889239,34.96964334950509]],[[135.73139991399992,34.96961684076491],[135.73273778552857,34.96959033202472]],[[135.73273778552857,34.96959033202472],[135.73284506767945,34.96824722252202]],[[135.72664163507258,34.97243118534787],[135.726578527925,34.969714039478916]],[[135.726578527925,34.969714039478916],[135.7248178385076,34.9697405482191]],[[135.7248178385076,34.9697405482191],[135.72600425288206,34.972956942028205]],[[135.72600425288206,34.972956942028205],[135.72663532435783,34.972943687658116]],[[135.72663532435783,34.972943687658116],[135.72664163507258,34.972550474678705]],[[135.72284889550318,34.98488587511142],[135.72286151693268,34.984178975373155]],[[135.7200848024393,34.98420106598998],[135.72007218100978,34.98490354760487]],[[135.72007218100978,34.98490354760487],[135.72284889550318,34.98488587511142]],[[135.73413245349002,34.97147687070122],[135.7339557534768,34.9730187957553]],[[135.73599411434355,34.972868579560924],[135.73635382508473,34.97245769408806]],[[135.73635382508473,34.97245769408806],[135.73413245349002,34.97147687070122]],[[135.7193843131012,34.96260969710936],[135.71937169167165,34.962614115232725]],[[135.71867120233355,34.96852998241732],[135.72206005615845,34.96849463743041]],[[135.72206005615845,34.96849463743041],[135.72219258116837,34.9647613231877]],[[135.72219258116837,34.9647613231877],[135.72252704905054,34.96378049980086]],[[135.72808047803736,34.965004319972735],[135.72803630303403,34.96336077808127]],[[135.72803630303403,34.96336077808127],[135.72797319588648,34.962265083486955]],[[135.72797319588648,34.962265083486955],[135.72715280296796,34.962309264720595]],[[135.72715280296796,34.962309264720595],[135.72683726723008,34.96262295147945]],[[135.72683726723008,34.96262295147945],[135.72645231362986,34.96502199246619]],[[135.72645231362986,34.96502199246619],[135.72808047803736,34.965004319972735]],[[135.73027029605828,34.96830907624912],[135.7301819460517,34.96604257896331]],[[135.7301819460517,34.96604257896331],[135.72815620661444,34.96609117832031]],[[135.72815620661444,34.96609117832031],[135.72826979948007,34.968393020593034]],[[135.72826979948007,34.968393020593034],[135.73027660677303,34.96833116686594]],[[135.73282613553516,34.9786519030446],[135.73187321760676,34.97822776320164]],[[135.7312989425638,34.97985363259965],[135.73276933910236,34.97990223195666]],[[135.74444416140418,34.98500516444225],[135.74766262593062,34.98516863500672]],[[135.72395327058578,34.96502641058955],[135.72443919562212,34.964293002111106]],[[135.72219258116837,34.9647613231877],[135.72370715271023,34.96524731675776]],[[135.72370715271023,34.96524731675776],[135.72395327058578,34.96502641058955]],[[135.74215968266188,34.95075587212334],[135.74037375038543,34.9468414148227],[135.74128249331054,34.94434517512195],[135.74005821464755,34.944208213297664]],[[135.72808047803736,34.965004319972735],[135.7301188389041,34.964968974985815]],[[135.73112855326534,34.96321939813362],[135.72803630303403,34.96336077808127]],[[135.73576692861226,34.962207647883226],[135.73593731791073,34.960665722829134]],[[135.73255477480058,34.95998974995442],[135.73269992124003,34.96223415662341]],[[135.7384994681024,34.97031932237981],[135.73630333936669,34.970469538574186]],[[135.73418924992285,34.97052255605456],[135.73413245349002,34.97147687070122]],[[135.73635382508473,34.97245769408806],[135.73808927164313,34.97145036196103]],[[135.73808927164313,34.97145036196103],[135.73851840024665,34.97058440978166]],[[135.73283244624992,34.978581213070775],[135.7322266176332,34.97777269649513]],[[135.72645862434462,34.96613094143059],[135.72645231362986,34.96502199246619]],[[135.72645231362986,34.96502199246619],[135.72395327058578,34.96502641058955]],[[135.72370715271023,34.96524731675776],[135.72645862434462,34.96613094143059]],[[135.74110579329732,34.97047395669755],[135.7411373468711,34.97159616003205]],[[135.7411373468711,34.97159616003205],[135.74118783258916,34.97329271940388]],[[135.74118783258916,34.97329271940388],[135.74139608617617,34.97329713752725]],[[135.73278196053187,34.97057115541156],[135.73273778552857,34.96959033202472]],[[135.73164603187547,34.970787643456404],[135.73278196053187,34.97057115541156]],[[135.74139608617617,34.974370741504735],[135.74089122899557,34.97451212145239]],[[135.74089122899557,34.97451212145239],[135.74106792900878,34.9760142833962]],[[135.7411373468711,34.9760142833962],[135.74259512198014,34.97564316103361]],[[135.72797319588648,34.962265083486955],[135.72914698883142,34.96158469248888]],[[135.72914698883142,34.96158469248888],[135.73018825676644,34.95952584700118]],[[135.73018825676644,34.95952584700118],[135.73039651035344,34.95932261332643]],[[135.72867368522458,34.95916356088532],[135.7270707636761,34.961279841976754]],[[135.7270707636761,34.961279841976754],[135.72715280296796,34.962309264720595]],[[135.72815620661444,34.96609117832031],[135.72645862434462,34.96613094143059]],[[135.72645862434462,34.96613094143059],[135.72647755648887,34.966877604279134]],[[135.72647755648887,34.966877604279134],[135.72651542077742,34.96734592535573]],[[135.72651542077742,34.96734592535573],[135.7265469743512,34.96844161995004]],[[135.7265469743512,34.96844161995004],[135.72826979948007,34.968393020593034]],[[135.72621881718382,34.962083940429025],[135.7270707636761,34.961279841976754]],[[135.73616450364202,34.97639866012888],[135.73599411434355,34.97479488134769]],[[135.7342839106442,34.97705696051014],[135.73498439998232,34.9777152608914]],[[135.7248178385076,34.9697405482191],[135.72462220635012,34.96879506981917]],[[135.72462220635012,34.96879506981917],[135.72434453490075,34.96853440054069]],[[135.72434453490075,34.96853440054069],[135.72416783488754,34.96852998241732]],[[135.72416783488754,34.96852998241732],[135.7238459884349,34.96852556429396]],[[135.7238459884349,34.96852556429396],[135.72206005615845,34.96849463743041]],[[135.72206005615845,34.96849463743041],[135.72154888826307,34.973473862461816],[135.72057703819038,34.975077641243]],[[135.72057703819038,34.975077641243],[135.72216733830933,34.97589499406537]],[[135.72216733830933,34.97589499406537],[135.72389647415295,34.973548970559],[135.72600425288206,34.972956942028205]],[[135.72434453490075,34.96853440054069],[135.7238775420087,34.966029324593215],[135.72647755648887,34.966877604279134]],[[135.7238459884349,34.96852556429396],[135.72416783488754,34.96852998241732]],[[135.7262503707576,34.962167884772946],[135.72683726723008,34.96262295147945]],[[135.70959639451192,34.95953026512455],[135.7096153266562,34.962658296466365]],[[135.71322505549762,34.96264946021964],[135.71270126617273,34.959468411397445]],[[135.71806537371683,34.9625920246159],[135.71810323800537,34.958262263719035]],[[135.726578527925,34.969714039478916],[135.7265469743512,34.96844161995004]],[[135.72651542077742,34.96734592535573],[135.72462220635012,34.96879506981917]],[[135.74095433614315,34.97946925586697],[135.74286648271473,34.97949134648379]],[[135.74262036483918,34.97833821628574],[135.7408091897037,34.97812614636427]],[[135.73132418542284,34.96218997538977],[135.72914698883142,34.96158469248888]],[[135.72832028519815,34.96968311261537],[135.726578527925,34.969714039478916]],[[135.7284906744966,34.97239584036096],[135.72832028519815,34.96968311261537]],[[135.7311033104063,34.980525187351],[135.73320477842063,34.98167831754905]],[[135.73320477842063,34.98167831754905],[135.73328050699772,34.98055611421455]],[[135.73255477480058,34.95998974995442],[135.73018825676644,34.95952584700118]],[[135.7411373468711,34.97159616003205],[135.73808927164313,34.97145036196103]],[[135.73630333936669,34.97355338868237],[135.73923782172903,34.973310391897336]],[[135.73923782172903,34.973310391897336],[135.74118783258916,34.97329271940388]],[[135.72415521345803,34.9497131950094],[135.722280931175,34.948237541805774]],[[135.72284889550318,34.98488587511142],[135.72606104931486,34.9850979450329]],[[135.73834170023343,34.97452537582248],[135.7362717857929,34.97442817710847]],[[135.7384363609548,34.97603195588966],[135.73834170023343,34.97452537582248]],[[135.72666687793162,34.9746579195234],[135.72663532435783,34.972943687658116]],[[135.72007218100978,34.98490354760487],[135.72291200265076,34.98584460788144],[135.7258591064426,34.985469067395485]],[[135.7317154497378,34.97555038044296],[135.73066156037325,34.97686698120548]],[[135.7322266176332,34.97777269649513],[135.7332552641387,34.976451677609255]],[[135.73418924992285,34.97052255605456],[135.73278196053187,34.97057115541156]],[[135.7341513856343,34.96821629565847],[135.73284506767945,34.96824722252202]],[[135.72832028519815,34.96968311261537],[135.7303838889239,34.96964334950509]],[[135.75206119411675,34.96426649337092],[135.7520233298282,34.96302941882895]],[[135.73320477842063,34.98167831754905],[135.73332468200104,34.98172691690605]],[[135.73332468200104,34.98172691690605],[135.7362528536486,34.98285795648727]],[[135.7362528536486,34.98285795648727],[135.73622130007485,34.98166064505559]],[[135.74089122899557,34.97451212145239],[135.7392441324438,34.97452095769912]],[[135.7392441324438,34.97452095769912],[135.73834170023343,34.97452537582248]],[[135.7362528536486,34.98285795648727],[135.73911791814862,34.983648800569455]],[[135.73911791814862,34.983648800569455],[135.7389159752764,34.98170482628923]],[[135.7284464994933,34.975656415403705],[135.72950038885784,34.97427796091409]],[[135.72057703819038,34.975077641243],[135.71591973069917,34.97977852450246]],[[135.7409732682874,34.98174900752287],[135.7423490041046,34.981788770633145]],[[135.7409732682874,34.98174900752287],[135.7409606468579,34.9841480485096]],[[135.7409606468579,34.9841480485096],[135.7423300719603,34.9845191708722]],[[135.73911791814862,34.983648800569455],[135.7409606468579,34.9841480485096]],[[135.7392441324438,34.97452095769912],[135.73923782172903,34.973310391897336]],[[135.72848436378183,34.98552650299922],[135.73013777104836,34.98551766675249],[135.73055427822237,34.9831009532723]],[[135.73055427822237,34.9831009532723],[135.72934893170364,34.98237196291721]],[[135.73055427822237,34.9831009532723],[135.73266205695145,34.983114207642394],[135.73332468200104,34.98172691690605]]]}