{"type":"Topology","bbox":[135.34467431085068,34.62155953435516,135.47213355385213,34.6997044690278],"objects":{"town":{"type":"GeometryCollection","geometries":[{"type":"MultiPolygon","arcs":[[[26,23,24,-91,-106,-94,57,-44,58,5,2,8]]],"properties":{"name":"西九条"}},{"type":"MultiPolygon","arcs":[[[10,152,-148,-147,-144,-85,-78,-77,-22,-114,-113,-72,154,136]]],"properties":{"name":"酉島"}},{"type":"MultiPolygon","arcs":[[[-30,-64,133,14,15,16,-125]]],"properties":{"name":"四貫島"}},{"type":"MultiPolygon","arcs":[[[-81,-80,-118,-108,-100,-104,-128,-127,-115,20,21,22,17,-73,-82]]],"properties":{"name":"島屋"}},{"type":"MultiPolygon","arcs":[[[72,-18,73,-86,28,29,30,31,-66,-83,75]]],"properties":{"name":"春日出中"}},{"type":"MultiPolygon","arcs":[[[33,34,35,155,159,-46,160,-42,-15,-134,-63,-62,143,146,147,148]]],"properties":{"name":"伝法"}},{"type":"MultiPolygon","arcs":[[[39,37,-123,128]]],"properties":{"name":"北港緑地"}},{"type":"MultiPolygon","arcs":[[[40,-16,41,42,43,-58,59]]],"properties":{"name":"朝日"}},{"type":"MultiPolygon","arcs":[[[-36,-35,157,48,45,-160,-156]]],"properties":{"name":"高見"}},{"type":"Polygon","arcs":[[49,50,51]],"properties":{"name":"夢洲東"}},{"type":"MultiPolygon","arcs":[[[53,54,55,-116,126,127,-103]]],"properties":{"name":"北港"}},{"type":"MultiPolygon","arcs":[[[-23,76,77,84,61,62,63,-29,85,-74]]],"properties":{"name":"春日出北"}},{"type":"MultiPolygon","arcs":[[[79,80,81,-76,82,65,-32,88,89,90,-25,87,67,83]]],"properties":{"name":"春日出南"}},{"type":"MultiPolygon","arcs":[[[132,70,71,68,-120]]],"properties":{"name":"常吉"}},{"type":"MultiPolygon","arcs":[[[-90,-89,-31,124,-17,-41,-60,93,105]]],"properties":{"name":"梅香"}},{"type":"MultiPolygon","arcs":[[[99,107,106,97,98,94,101,-54,102,103]]],"properties":{"name":"桜島"}},{"type":"MultiPolygon","arcs":[[[-55,-102,-95,-99,108,-117]]],"properties":{"name":"梅町"}},{"type":"Polygon","arcs":[[110,-50,111]],"properties":{"name":"夢洲"}},{"type":"Polygon","arcs":[[-69,112,113,-21,114,115,-56,116,-109,-98,-107,117,-84,-68,-88,-24,118,119],[-38,120,121,122],[-52,123,-112]],"properties":{"name":""}},{"type":"Polygon","arcs":[[-51,-111,-124]],"properties":{"name":"夢洲中"}},{"type":"MultiPolygon","arcs":[[[-121,-40,-129,-122]]],"properties":{"name":"北港白津"}}]}},"arcs":[[[135.46750632060787,34.67936130821643],[135.46598940392448,34.681815304564786]],[[135.46598940392448,34.681815304564786],[135.46921444527655,34.6846288035629]],[[135.46921444527655,34.6846288035629],[135.47213355385213,34.680666459140554],[135.46750632060787,34.67936130821643]],[[135.46598940392448,34.681815304564786],[135.4648676504107,34.683276760988804]],[[135.4648676504107,34.683276760988804],[135.4666395110745,34.686535730661625]],[[135.4666395110745,34.686535730661625],[135.46921444527655,34.6846288035629]],[[135.4624584297959,34.67770446991754],[135.461872058641,34.67916592634156]],[[135.461872058641,34.67916592634156],[135.46403908247441,34.67994745384104],[135.46598940392448,34.681815304564786]],[[135.46750632060787,34.67936130821643],[135.4624584297959,34.67770446991754]],[[135.43767787490094,34.68294851943903],[135.43470777752927,34.687559531685935]],[[135.43470777752927,34.687559531685935],[135.43965369074905,34.68942738240968]],[[135.43965369074905,34.68942738240968],[135.44213939455796,34.68445686751301]],[[135.44213939455796,34.68445686751301],[135.43767787490094,34.68294851943903]],[[135.4564799934555,34.68406610376328],[135.45466989119467,34.686715481986504]],[[135.45466989119467,34.686715481986504],[135.45860877569186,34.686207489111844]],[[135.45860877569186,34.686207489111844],[135.4586215228909,34.68491015346271]],[[135.4586215228909,34.68491015346271],[135.4564799934555,34.68406610376328]],[[135.44508399753158,34.678454736317036],[135.44442114318255,34.67809523366728]],[[135.44442114318255,34.67809523366728],[135.44154027620402,34.676696299443215]],[[135.44154027620402,34.676696299443215],[135.43932226357452,34.67960358174127]],[[135.43932226357452,34.67960358174127],[135.43911830839022,34.68000997604099]],[[135.43911830839022,34.68000997604099],[135.44275126011092,34.681658999064894]],[[135.44275126011092,34.681658999064894],[135.44508399753158,34.678454736317036]],[[135.45619955507706,34.67564905259392],[135.4553837343398,34.6761257843686],[135.45832833731342,34.677790437942484]],[[135.45832833731342,34.677790437942484],[135.45974327640465,34.67958013591628]],[[135.45974327640465,34.67958013591628],[135.461872058641,34.67916592634156]],[[135.4624584297959,34.67770446991754],[135.45619955507706,34.67564905259392]],[[135.45237539537106,34.678650118191904],[135.4505525459112,34.681158821465225]],[[135.4505525459112,34.681158821465225],[135.45381582886031,34.68277658338914]],[[135.45381582886031,34.68277658338914],[135.45384132325836,34.682745322289165]],[[135.45384132325836,34.682745322289165],[135.45554944792704,34.68008031351595]],[[135.45554944792704,34.68008031351595],[135.45237539537106,34.678650118191904]],[[135.45066727070238,34.68846610358533],[135.44707256057873,34.692608199332554]],[[135.44707256057873,34.692608199332554],[135.4526685809485,34.69515597898085]],[[135.4526685809485,34.69515597898085],[135.4548228575829,34.691146742908536]],[[135.4548228575829,34.691146742908536],[135.4549375823741,34.689044433934946]],[[135.4549375823741,34.689044433934946],[135.45066727070238,34.68846610358533]],[[135.4016670376693,34.66055775657903],[135.39754969238584,34.66118297857861]],[[135.39754969238584,34.66118297857861],[135.39900287307412,34.66712258757463],[135.40295450477032,34.666997543174716]],[[135.40295450477032,34.666997543174716],[135.4016670376693,34.66055775657903]],[[135.45897844446344,34.68500393676265],[135.4586215228909,34.68491015346271]],[[135.45860877569186,34.686207489111844],[135.46247117699494,34.687207844311175]],[[135.46247117699494,34.687207844311175],[135.46394985208127,34.68698901661132]],[[135.46394985208127,34.68698901661132],[135.46366941370283,34.68618404328686]],[[135.46366941370283,34.68618404328686],[135.45897844446344,34.68500393676265]],[[135.462509418592,34.68809878566058],[135.46221623301454,34.68918510888485],[135.4583155901144,34.68898972700998]],[[135.4583155901144,34.68898972700998],[135.4583155901144,34.69068564168384]],[[135.4583155901144,34.69068564168384],[135.45821361252223,34.69361636980688],[135.45613581908196,34.69669558815482]],[[135.45613581908196,34.69669558815482],[135.4620760138253,34.6997044690278],[135.46452347603716,34.69683626310472],[135.46296831775672,34.69535136085572],[135.4642302904597,34.6925456771326],[135.4641665544646,34.691076405433584],[135.462509418592,34.68809878566058]],[[135.3935215774955,34.642613885191054],[135.390016097765,34.64500535933945],[135.38796379872275,34.647240527987954],[135.38871588346495,34.650507312935765]],[[135.38871588346495,34.650507312935765],[135.3921193856033,34.65025722413593],[135.39565035973186,34.653805358983554],[135.39837826032215,34.657158111956306]],[[135.39837826032215,34.657158111956306],[135.39972946341825,34.65694709953145],[135.40454790464784,34.65371939095861],[135.3973967259976,34.64652933796343],[135.39539541575144,34.647654737562675],[135.39279498715135,34.645052250989416],[135.3948600333926,34.64397374304014],[135.3935215774955,34.642613885191054]],[[135.42032893703467,34.67110837782196],[135.42179486492196,34.66773999429922],[135.42605242939467,34.668935731373416]],[[135.42605242939467,34.668935731373416],[135.42647308696232,34.668115127498965]],[[135.42647308696232,34.668115127498965],[135.42619264858388,34.66799789837405]],[[135.42619264858388,34.66799789837405],[135.4245355127113,34.665754914450545],[135.41693818209532,34.663879248451806],[135.41715488447866,34.66882631752349],[135.4185060875748,34.67059256967231],[135.42032893703467,34.67110837782196]],[[135.4648676504107,34.683276760988804],[135.46284084576652,34.68410518013825]],[[135.46284084576652,34.68410518013825],[135.46366941370283,34.68618404328686]],[[135.46394985208127,34.68698901661132],[135.4666395110745,34.686535730661625]],[[135.46284084576652,34.68410518013825],[135.45897844446344,34.68500393676265]],[[135.4505525459112,34.681158821465225],[135.44850024686897,34.68405828848828]],[[135.44850024686897,34.68405828848828],[135.45213319858968,34.68592613921203]],[[135.45213319858968,34.68592613921203],[135.45215869298772,34.68592613921203]],[[135.45215869298772,34.68592613921203],[135.45381582886031,34.68277658338914]],[[135.45414725603484,34.676180491293565],[135.45238814257007,34.678634487641915]],[[135.45238814257007,34.678634487641915],[135.45237539537106,34.678650118191904]],[[135.45554944792704,34.68008031351595],[135.45721933099867,34.677352782542776]],[[135.45721933099867,34.677352782542776],[135.45414725603484,34.676180491293565]],[[135.4221390392955,34.67496130839438],[135.41775400283262,34.673679603295234]],[[135.41775400283262,34.673679603295234],[135.41466918066976,34.68154958521497]],[[135.41466918066976,34.68154958521497],[135.41896498673952,34.68271406118918]],[[135.41896498673952,34.68271406118918],[135.4221390392955,34.67496130839438]],[[135.44606553185614,34.67571939006887],[135.44442114318255,34.67809523366728]],[[135.44508399753158,34.678454736317036],[135.44843651087388,34.68010375934093]],[[135.44843651087388,34.68010375934093],[135.45025936033372,34.67759505606762]],[[135.45025936033372,34.67759505606762],[135.44606553185614,34.67571939006887]],[[135.44275126011092,34.681658999064894],[135.44341411445996,34.681995055889665]],[[135.44341411445996,34.681995055889665],[135.44582333507475,34.68318297768887]],[[135.44582333507475,34.68318297768887],[135.44843651087388,34.68010375934093]],[[135.44619300384633,34.67297622854571],[135.44488004234728,34.67471121959455]],[[135.44488004234728,34.67471121959455],[135.4448927895463,34.67471903486954]],[[135.4448927895463,34.67471903486954],[135.44606553185614,34.67571939006887]],[[135.45025936033372,34.67759505606762],[135.45238814257007,34.678634487641915]],[[135.45414725603484,34.676180491293565],[135.44619300384633,34.67297622854571]],[[135.44582333507475,34.68318297768887],[135.44850024686897,34.68405828848828]],[[135.4505525459112,34.681158821465225],[135.44843651087388,34.68010375934093]],[[135.461872058641,34.67916592634156],[135.4648676504107,34.683276760988804]],[[135.45832833731342,34.677790437942484],[135.45721933099867,34.677352782542776]],[[135.45554944792704,34.68008031351595],[135.45738504458595,34.680322587040784]],[[135.45738504458595,34.680322587040784],[135.45987074839485,34.67976770251616]],[[135.45987074839485,34.67976770251616],[135.45974327640465,34.67958013591628]],[[135.4611837098939,34.68153395466497],[135.45804789893498,34.682424896014375]],[[135.45804789893498,34.682424896014375],[135.4586215228909,34.68491015346271]],[[135.46284084576652,34.68410518013825],[135.4611837098939,34.68153395466497]],[[135.42491792868188,34.661308022978524],[135.4270212165202,34.66496557167608],[135.4281174756359,34.66528599795086]],[[135.4281174756359,34.66528599795086],[135.4299530722948,34.66276947940255]],[[135.4299530722948,34.66276947940255],[135.42973636991147,34.66219114905294]],[[135.42973636991147,34.66219114905294],[135.43067966263894,34.66007320952935],[135.4288695603781,34.65904940850504],[135.4235284839887,34.65713466613132],[135.42278914644552,34.657259710531235]],[[135.42278914644552,34.657259710531235],[135.42491792868188,34.661308022978524]],[[135.43493722711165,34.66838866212378],[135.43769062209995,34.666763084924874]],[[135.43769062209995,34.666763084924874],[135.43487349111652,34.66303519875237],[135.4316229553664,34.66147995902841],[135.4299530722948,34.66276947940255]],[[135.4281174756359,34.66528599795086],[135.42647308696232,34.668115127498965]],[[135.42605242939467,34.668935731373416],[135.4314699889782,34.671624185971616]],[[135.4314699889782,34.671624185971616],[135.43493722711165,34.66838866212378]],[[135.45738504458595,34.680322587040784],[135.45804789893498,34.682424896014375]],[[135.4611837098939,34.68153395466497],[135.45987074839485,34.67976770251616]],[[135.43929676917648,34.665833067200495],[135.4375758973088,34.664895234201126],[135.43812402686663,34.66395740120175],[135.43563832305773,34.661964506078085],[135.43108757300757,34.66024514557924],[135.42973636991147,34.66219114905294]],[[135.43769062209995,34.666763084924874],[135.43929676917648,34.665833067200495]],[[135.42278914644552,34.657259710531235],[135.4207368474033,34.6537350215086],[135.41920718352088,34.65336770358385],[135.42045640902487,34.66005757897936]],[[135.42045640902487,34.66005757897936],[135.42491792868188,34.661308022978524]],[[135.39234883518566,34.658103760230674],[135.3856438085011,34.65073395591061],[135.38871588346495,34.650507312935765]],[[135.3935215774955,34.642613885191054],[135.39203015521016,34.64230908946625],[135.37891328741853,34.64316876971568],[135.372858367884,34.65206255265972],[135.3794104281803,34.660127916454314],[135.39234883518566,34.658103760230674]],[[135.4221390392955,34.67496130839438],[135.42847439720848,34.67679789801815],[135.43514118229595,34.67975988724116],[135.4387996284147,34.68043200089071]],[[135.4387996284147,34.68043200089071],[135.43911830839022,34.68000997604099]],[[135.43932226357452,34.67960358174127],[135.43336932163217,34.67813431004225],[135.430080544285,34.67641494954341],[135.43074339863404,34.6738906157201]],[[135.43074339863404,34.6738906157201],[135.42988933629968,34.6750785375193],[135.42428056873086,34.67221814687122],[135.42032893703467,34.67110837782196]],[[135.42619264858388,34.66799789837405],[135.42389815276027,34.66359008327699],[135.41644104133354,34.661386175728474],[135.41436324789328,34.65204692210973],[135.41594390057176,34.65225793453459],[135.41807268280812,34.659526140279716],[135.42045640902487,34.66005757897936]],[[135.43929676917648,34.665833067200495],[135.4412088490295,34.66756805824933],[135.44440839598352,34.67185864422146],[135.44619300384633,34.67297622854571]],[[135.45619955507706,34.67564905259392],[135.44920134281506,34.67251512732102],[135.44160401219912,34.664324719126505],[135.43779259969213,34.66151903540339],[135.42971087551342,34.65822098935559],[135.42586122140935,34.65573573190726],[135.42192233691216,34.6514920375851],[135.39512772457203,34.63978475564295],[135.37784252270083,34.633610688397084],[135.34467431085068,34.62155953435516],[135.35794414503056,34.6376199244694],[135.38682929800999,34.67225722324619],[135.39883715948685,34.67604763161865],[135.4104880993912,34.680400739790734]],[[135.4104880993912,34.680400739790734],[135.41191578568143,34.67666503834324],[135.40888195231466,34.67549274709402],[135.40931535708134,34.674672143219574],[135.40824459236364,34.67183519839647],[135.41022040821176,34.67153821794667],[135.41775400283262,34.673679603295234]],[[135.4016670376693,34.66055775657903],[135.40161604887322,34.660292037229205],[135.40981249784312,34.65899470158008],[135.41098524015297,34.66573146862556],[135.4089711827078,34.66681779184984]],[[135.4089711827078,34.66681779184984],[135.40934085147939,34.66883413279848],[135.40670218128224,34.670537862747345]],[[135.40670218128224,34.670537862747345],[135.40271230798896,34.67321068679555],[135.38819324830513,34.6679197456241],[135.38682929800999,34.66267569610261],[135.3941589374465,34.66140180627846],[135.39754969238584,34.66118297857861]],[[135.39837826032215,34.657158111956306],[135.39234883518566,34.658103760230674]],[[135.45384132325836,34.682745322289165],[135.4564799934555,34.68406610376328]],[[135.40295450477032,34.666997543174716],[135.4089711827078,34.66681779184984]],[[135.43074339863404,34.6738906157201],[135.43176317455564,34.67185864422146]],[[135.43176317455564,34.67185864422146],[135.4314699889782,34.671624185971616]],[[135.40670218128224,34.670537862747345],[135.40346439273114,34.66923271182321],[135.40295450477032,34.666997543174716]],[[135.4412725850246,34.6713428360718],[135.4377798524931,34.66914674379827],[135.43493722711165,34.66838866212378]],[[135.43176317455564,34.67185864422146],[135.43792007168233,34.674836263994465]],[[135.43792007168233,34.674836263994465],[135.4412725850246,34.6713428360718]],[[135.4104880993912,34.680400739790734],[135.41466918066976,34.68154958521497]],[[135.45215869298772,34.68592613921203],[135.45466989119467,34.686715481986504]],[[135.44154027620402,34.676696299443215],[135.44021456750593,34.67603200106866]],[[135.44021456750593,34.67603200106866],[135.43792007168233,34.674836263994465]],[[135.42765857647117,34.68512116588757],[135.43470777752927,34.687559531685935]],[[135.43767787490094,34.68294851943903],[135.4375249085127,34.68290162778906]],[[135.4375249085127,34.68290162778906],[135.43125328659485,34.68078368826548],[135.42923922914966,34.68147143246502],[135.42765857647117,34.68512116588757]],[[135.4448927895463,34.67471903486954],[135.44021456750593,34.67603200106866]],[[135.4387996284147,34.68043200089071],[135.4375249085127,34.68290162778906]],[[135.44213939455796,34.68445686751301],[135.44219038335405,34.68447249806301]],[[135.44219038335405,34.68447249806301],[135.44341411445996,34.681995055889665]],[[135.44850024686897,34.68405828848828],[135.44727651576304,34.68618404328686]],[[135.44727651576304,34.68618404328686],[135.4513173778524,34.68768457608585]],[[135.4513173778524,34.68768457608585],[135.45213319858968,34.68592613921203]],[[135.44727651576304,34.68618404328686],[135.44722552696695,34.68617622801187]],[[135.44722552696695,34.68617622801187],[135.44663915581205,34.686879602761394],[135.44359257524624,34.68698901661132],[135.44143829861187,34.69009168078424]],[[135.44143829861187,34.69009168078424],[135.44707256057873,34.692608199332554]],[[135.45066727070238,34.68846610358533],[135.4513173778524,34.68768457608585]],[[135.4549375823741,34.689044433934946],[135.45466989119467,34.686715481986504]],[[135.44219038335405,34.68447249806301],[135.44722552696695,34.68617622801187]],[[135.43965369074905,34.68942738240968],[135.44143829861187,34.69009168078424]],[[135.4412725850246,34.6713428360718],[135.44488004234728,34.67471121959455]],[[135.41896498673952,34.68271406118918],[135.42765857647117,34.68512116588757]],[[135.4549375823741,34.689044433934946],[135.4583155901144,34.688966281184996]],[[135.4583155901144,34.688966281184996],[135.45860877569186,34.686207489111844]],[[135.4526685809485,34.69515597898085],[135.45613581908196,34.69669558815482]],[[135.4583155901144,34.69068564168384],[135.4548228575829,34.691146742908536]],[[135.4583155901144,34.688966281184996],[135.4583155901144,34.68898972700998]],[[135.462509418592,34.68809878566058],[135.46247117699494,34.687207844311175]]]}