{"type":"Topology","bbox":[135.50625424556142,34.645740881672864,135.53323755791106,34.675836237928685],"objects":{"town":{"type":"GeometryCollection","geometries":[{"type":"MultiPolygon","arcs":[[[16,62,63,12,101,-45,102,89,126,5,9,1,2,10,7,8,3,127,91,-75,-74,-85,103,104,14,15,64,65,18,19,20]]],"properties":{"name":"上本町"}},{"type":"Polygon","arcs":[[21,22,23,24]],"properties":{"name":"生玉町"}},{"type":"Polygon","arcs":[[25,26,27,28,29,30]],"properties":{"name":"六万体町"}},{"type":"Polygon","arcs":[[31,32,33,34,35]],"properties":{"name":"茶臼山町"}},{"type":"MultiPolygon","arcs":[[[60,39,40,41,36,37,61,-23]]],"properties":{"name":"下寺町"}},{"type":"MultiPolygon","arcs":[[[92,-31,-30,-67,-70,42,43,44,-102,-13,-64,-63,-17]]],"properties":{"name":"上汐"}},{"type":"Polygon","arcs":[[46,47,48,49,50,51]],"properties":{"name":"南河堀町"}},{"type":"Polygon","arcs":[[52,-32,53,54,-47]],"properties":{"name":"悲田院町"}},{"type":"Polygon","arcs":[[55,56,57,58,59]],"properties":{"name":"下味原町"}},{"type":"Polygon","arcs":[[66,-29,67,-25,68,-43,69]],"properties":{"name":"生玉前町"}},{"type":"Polygon","arcs":[[70,71,72,-48,-55]],"properties":{"name":"北河堀町"}},{"type":"Polygon","arcs":[[73,74,75,76,77]],"properties":{"name":"東高津町"}},{"type":"Polygon","arcs":[[-42,78,79,80]],"properties":{"name":"伶人町"}},{"type":"Polygon","arcs":[[-28,81,-40,-61,-22,-68]],"properties":{"name":"生玉寺町"}},{"type":"Polygon","arcs":[[84,-78,85,86,87]],"properties":{"name":"小橋町"}},{"type":"Polygon","arcs":[[93,-9,94,95,96]],"properties":{"name":"空清町"}},{"type":"Polygon","arcs":[[97,98,99,-59,100]],"properties":{"name":"舟橋町"}},{"type":"MultiPolygon","arcs":[[[107,-34,105,154,-37,-81,-109]]],"properties":{"name":"逢阪"}},{"type":"MultiPolygon","arcs":[[[128,112,113,114,108,-80,109,-26,-93,-21,110,129,-123]]],"properties":{"name":"四天王寺"}},{"type":"MultiPolygon","arcs":[[[146,-134,147,148,117,118,119,120,115,149]]],"properties":{"name":"堂ヶ芝"}},{"type":"Polygon","arcs":[[-54,-36,121,-71]],"properties":{"name":"堀越町"}},{"type":"Polygon","arcs":[[-110,-79,-41,-82,-27]],"properties":{"name":"夕陽丘町"}},{"type":"MultiPolygon","arcs":[[[-173,-193,190,-185,-113,-129,122,123,196,197,178,179,180,-174]]],"properties":{"name":"勝山"}},{"type":"MultiPolygon","arcs":[[[133,130,131,-144,181,182,-148]]],"properties":{"name":"細工谷"}},{"type":"Polygon","arcs":[[-4,-94,134,135,-76,-92,-128]],"properties":{"name":"城南寺町"}},{"type":"Polygon","arcs":[[136,137,138,139,-98]],"properties":{"name":"真田山町"}},{"type":"Polygon","arcs":[[140,141,142,143,-132,144,145]],"properties":{"name":"北山町"}},{"type":"MultiPolygon","arcs":[[[151,152,153,-190,-167,-186,-191,192,-172]]],"properties":{"name":"寺田町"}},{"type":"Polygon","arcs":[[-135,-97,155,156,-138,157,158]],"properties":{"name":"餌差町"}},{"type":"Polygon","arcs":[[159,-56,160,-119]],"properties":{"name":"東上町"}},{"type":"Polygon","arcs":[[-58,161,-87,162,-158,-137,-101]],"properties":{"name":"味原町"}},{"type":"Polygon","arcs":[[163,-145,-131,-147]],"properties":{"name":"松ケ鼻町"}},{"type":"MultiPolygon","arcs":[[[-114,184,185,166,189,-154,187,193,-51,-50,-49,-73,-72,-122,-35,-108,-115]]],"properties":{"name":"大道"}},{"type":"Polygon","arcs":[[-86,-77,-136,-159,-163]],"properties":{"name":"味原本町"}},{"type":"Polygon","arcs":[[-156,-96,168,169,170]],"properties":{"name":"空堀町"}},{"type":"Polygon","arcs":[[171,172,173,174,-152]],"properties":{"name":"国分町"}},{"type":"Polygon","arcs":[[-65,-16,175,-142,176]],"properties":{"name":"上之宮町"}},{"type":"Polygon","arcs":[[-8,-11,-3,186,-169,-95]],"properties":{"name":"清水谷町"}},{"type":"MultiPolygon","arcs":[[[-198,198,-164,-150,-116,-121,195,-180,-179]]],"properties":{"name":"烏ケ辻"}},{"type":"Polygon","arcs":[[-143,-176,-15,-105,199,-182]],"properties":{"name":"石ケ辻町"}},{"type":"Polygon","arcs":[[-157,-171,200,201,-139]],"properties":{"name":"玉造本町"}},{"type":"Polygon","arcs":[[-140,-202,202,-99]],"properties":{"name":"玉造元町"}},{"type":"Polygon","arcs":[[-200,-104,-88,-162,-57,-160,-118,-149,-183]],"properties":{"name":"筆ケ崎町"}},{"type":"Polygon","arcs":[[-111,-20,203,-146,-199,-197,-124,-130]],"properties":{"name":"真法院町"}},{"type":"Polygon","arcs":[[-19,-66,-177,-141,-204]],"properties":{"name":"小宮町"}}]}},"arcs":[[[135.5213394256829,34.67430724093119],[135.5206081047861,34.674394526192856]],[[135.5206081047861,34.674394526192856],[135.52153102636063,34.67578808054294]],[[135.52153102636063,34.67578808054294],[135.5213394256829,34.67430724093119]],[[135.52188994030627,34.67175489948655],[135.52103178515804,34.67155926010695]],[[135.52103178515804,34.67155926010695],[135.52026538244704,34.67161644700253]],[[135.52026538244704,34.67161644700253],[135.52044349011933,34.67311534563393]],[[135.52044349011933,34.67311534563393],[135.5211775096172,34.67307922759462]],[[135.5211775096172,34.67307922759462],[135.52210312979278,34.673003981679386]],[[135.52210312979278,34.673003981679386],[135.52188994030627,34.67175489948655]],[[135.52044349011933,34.67311534563393],[135.5206081047861,34.674394526192856]],[[135.5213394256829,34.67430724093119],[135.5211775096172,34.67307922759462]],[[135.5192507084353,34.66164786815271],[135.51735629046655,34.66248159289347]],[[135.51735629046655,34.66248159289347],[135.51752630233554,34.66353503570671]],[[135.51752630233554,34.66353503570671],[135.52014664399886,34.663197934006476]],[[135.52014664399886,34.663197934006476],[135.52017363000982,34.663191914333254]],[[135.52017363000982,34.663191914333254],[135.5192507084353,34.66164786815271]],[[135.51631732904497,34.657193309971035],[135.5166816401928,34.65899921193658]],[[135.5166816401928,34.65899921193658],[135.51880004205242,34.658770464354276]],[[135.51880004205242,34.658770464354276],[135.51873257702505,34.658213644581565]],[[135.51873257702505,34.658213644581565],[135.5183169924564,34.656940483695855]],[[135.5183169924564,34.656940483695855],[135.51631732904497,34.657193309971035]],[[135.5150246991204,34.663261140575266],[135.51207512812348,34.66351998652366]],[[135.51207512812348,34.66351998652366],[135.51214529175198,34.66588571809853],[135.51130062960922,34.66623184930859]],[[135.51130062960922,34.66623184930859],[135.51134380722672,34.666728472349114],[135.51570474659638,34.66654186247934]],[[135.51570474659638,34.66654186247934],[135.5150246991204,34.663261140575266]],[[135.51534853125182,34.65728661490592],[135.51401812091194,34.657428077226555]],[[135.51401812091194,34.657428077226555],[135.51439052786307,34.659640307134346]],[[135.51439052786307,34.659640307134346],[135.51472785299995,34.661569612400875]],[[135.51472785299995,34.661569612400875],[135.51556711794052,34.66146426811955]],[[135.51556711794052,34.66146426811955],[135.51518391658502,34.65935738249308]],[[135.51518391658502,34.65935738249308],[135.51534853125182,34.65728661490592]],[[135.5132787042119,34.64782368860646],[135.51311948674729,34.64688461958438]],[[135.51311948674729,34.64688461958438],[135.50625424556142,34.64872061991601],[135.50805960969402,34.653954725779485],[135.50968956475546,34.65375005689006]],[[135.50968956475546,34.65375005689006],[135.50975702978283,34.65179065325744],[135.51096870167453,34.65242271894538],[135.51369159017943,34.6521006664282]],[[135.51369159017943,34.6521006664282],[135.51383731463858,34.65106227279801]],[[135.51383731463858,34.65106227279801],[135.5132787042119,34.64782368860646]],[[135.51082297721538,34.65486670627209],[135.50997291787044,34.654996129246285]],[[135.50997291787044,34.654996129246285],[135.51077170379457,34.660278392495506]],[[135.51077170379457,34.660278392495506],[135.51183495262603,34.65989915308274]],[[135.51183495262603,34.65989915308274],[135.51181336381728,34.65986303504343]],[[135.51181336381728,34.65986303504343],[135.511295232407,34.65695252304229]],[[135.511295232407,34.65695252304229],[135.51082297721538,34.65486670627209]],[[135.5159611137004,34.663796891491714],[135.51649543671724,34.66645758705428]],[[135.51649543671724,34.66645758705428],[135.518106501571,34.666246898491636]],[[135.518106501571,34.666246898491636],[135.517539795341,34.663613291458546]],[[135.517539795341,34.663613291458546],[135.5159611137004,34.663796891491714]],[[135.5157398284106,34.64614118994189],[135.5165656003457,34.64834138050325]],[[135.5165656003457,34.64834138050325],[135.51881893226007,34.64869654122314]],[[135.51881893226007,34.64869654122314],[135.52015743840323,34.64898548553763]],[[135.52015743840323,34.64898548553763],[135.52064588520145,34.64882897403395]],[[135.52064588520145,34.64882897403395],[135.52189533750848,34.646463242459085]],[[135.52189533750848,34.646463242459085],[135.520179027212,34.645843216117576],[135.5157398284106,34.64614118994189]],[[135.5157398284106,34.64614118994189],[135.51311948674729,34.64688461958438]],[[135.5132787042119,34.64782368860646],[135.51433115863898,34.648001268966404],[135.5147629348142,34.650231557893854],[135.51641178008327,34.64931957740126]],[[135.51641178008327,34.64931957740126],[135.5165656003457,34.64834138050325]],[[135.53017734426925,34.66509714090691],[135.52859056682536,34.66516335731231]],[[135.52859056682536,34.66516335731231],[135.52858516962317,34.66516335731231]],[[135.52858516962317,34.66516335731231],[135.52882264651953,34.665982032870026]],[[135.52882264651953,34.665982032870026],[135.53050657360285,34.66604824927543]],[[135.53050657360285,34.66604824927543],[135.53017734426925,34.66509714090691]],[[135.51207512812348,34.66351998652366],[135.51183495262603,34.65989915308274]],[[135.51077170379457,34.660278392495506],[135.51130062960922,34.66623184930859]],[[135.5166816401928,34.65899921193658],[135.517113416368,34.66127163857656]],[[135.517113416368,34.66127163857656],[135.51735629046655,34.66248159289347]],[[135.5192507084353,34.66164786815271],[135.51912387418383,34.66079307455569]],[[135.51912387418383,34.66079307455569],[135.51880004205242,34.658770464354276]],[[135.51559680255258,34.66146426811955],[135.51556711794052,34.66146426811955]],[[135.51472785299995,34.661569612400875],[135.5150246991204,34.663261140575266]],[[135.51570474659638,34.66654186247934],[135.51649543671724,34.66645758705428]],[[135.5159611137004,34.663796891491714],[135.51559680255258,34.66146426811955]],[[135.51641178008327,34.64931957740126],[135.51659258635664,34.65120373511864]],[[135.51659258635664,34.65120373511864],[135.51867050919986,34.65081546619605]],[[135.51867050919986,34.65081546619605],[135.51881893226007,34.64869654122314]],[[135.5235819631929,34.66588872793514],[135.52114512640404,34.666749541205384]],[[135.52114512640404,34.666749541205384],[135.5213826033004,34.6690039088257]],[[135.5213826033004,34.6690039088257],[135.52377896107282,34.66888652519794]],[[135.52377896107282,34.66888652519794],[135.52364403101808,34.66765851186137]],[[135.52364403101808,34.66765851186137],[135.5235819631929,34.66588872793514]],[[135.511295232407,34.65695252304229],[135.51389938246376,34.65684416892436]],[[135.51389938246376,34.65684416892436],[135.5137185761904,34.65465902754605]],[[135.5137185761904,34.65465902754605],[135.51082297721538,34.65486670627209]],[[135.51439052786307,34.659640307134346],[135.51181336381728,34.65986303504343]],[[135.5166816401928,34.65899921193658],[135.51518391658502,34.65935738249308]],[[135.51559680255258,34.66146426811955],[135.517113416368,34.66127163857656]],[[135.5235306897721,34.66529879995973],[135.5235819631929,34.66588872793514]],[[135.52364403101808,34.66765851186137],[135.5269228313486,34.66771268892034]],[[135.5269228313486,34.66771268892034],[135.5275677970103,34.665205495024836]],[[135.5275677970103,34.665205495024836],[135.5235306897721,34.66529879995973]],[[135.52114512640404,34.666749541205384],[135.51939373429335,34.66689100352602]],[[135.51939373429335,34.66689100352602],[135.51984170207513,34.66917546951243]],[[135.51984170207513,34.66917546951243],[135.52058921457845,34.66909119408737]],[[135.52058921457845,34.66909119408737],[135.5213826033004,34.6690039088257]],[[135.51631732904497,34.657193309971035],[135.51534853125182,34.65728661490592]],[[135.5246694994342,34.67161644700253],[135.52188994030627,34.67175489948655]],[[135.52210312979278,34.673003981679386],[135.52534414970796,34.67361798834767]],[[135.52534414970796,34.67361798834767],[135.52506619379517,34.67312437514376]],[[135.52506619379517,34.67312437514376],[135.5246694994342,34.67161644700253]],[[135.52959174783163,34.66840495134046],[135.52991557996302,34.66935906954559]],[[135.52991557996302,34.66935906954559],[135.53155632942884,34.669226636734784]],[[135.53155632942884,34.669226636734784],[135.53050657360285,34.66604824927543]],[[135.52882264651953,34.665982032870026],[135.52959174783163,34.66840495134046]],[[135.51752630233554,34.66353503570671],[135.517539795341,34.663613291458546]],[[135.518106501571,34.666246898491636],[135.51939373429335,34.66689100352602]],[[135.5235306897721,34.66529879995973],[135.52351179956443,34.66515432780248]],[[135.52351179956443,34.66515432780248],[135.5203517376821,34.66497975727915],[135.52014664399886,34.663197934006476]],[[135.50968956475546,34.65375005689006],[135.5097138521653,34.65381928313207]],[[135.5097138521653,34.65381928313207],[135.51371048038712,34.65374704705345]],[[135.51371048038712,34.65374704705345],[135.51369159017943,34.6521006664282]],[[135.51371048038712,34.65374704705345],[135.5137185761904,34.65465902754605]],[[135.51389938246376,34.65684416892436],[135.51401812091194,34.657428077226555]],[[135.5183169924564,34.656940483695855],[135.51837906028157,34.65692844434942]],[[135.51837906028157,34.65692844434942],[135.5183088966531,34.654595820977256]],[[135.5183088966531,34.654595820977256],[135.51746423451036,34.65300361741097]],[[135.51746423451036,34.65300361741097],[135.51693530869574,34.65238961074268]],[[135.51693530869574,34.65238961074268],[135.51371048038712,34.65374704705345]],[[135.52636152232083,34.65821063474496],[135.5263129475011,34.658213644581565]],[[135.5263129475011,34.658213644581565],[135.52759748162237,34.66219264857899]],[[135.52759748162237,34.66219264857899],[135.52760827602674,34.662222746945076]],[[135.52760827602674,34.662222746945076],[135.5292220394816,34.662171579722724]],[[135.5292220394816,34.662171579722724],[135.52778098649682,34.657677893665124]],[[135.52778098649682,34.657677893665124],[135.52636152232083,34.65821063474496]],[[135.51383731463858,34.65106227279801],[135.51659258635664,34.65120373511864]],[[135.51841144349473,34.65458980130404],[135.5202329992339,34.65632948686418]],[[135.5202329992339,34.65632948686418],[135.5230827219903,34.655465663757326]],[[135.5230827219903,34.655465663757326],[135.52302065416512,34.65458077179421]],[[135.52302065416512,34.65458077179421],[135.51841144349473,34.65458980130404]],[[135.51984170207513,34.66917546951243],[135.52026538244704,34.67161644700253]],[[135.52103178515804,34.67155926010695],[135.52058921457845,34.66909119408737]],[[135.51841144349473,34.65458980130404],[135.5183088966531,34.654595820977256]],[[135.51837906028157,34.65692844434942],[135.5202329992339,34.65632948686418]],[[135.52529557488828,34.66030247118838],[135.52314748841658,34.66098871393529]],[[135.52314748841658,34.66098871393529],[135.52316368002315,34.661750202597425]],[[135.52316368002315,34.661750202597425],[135.52607277200363,34.66193380263059]],[[135.52607277200363,34.66193380263059],[135.52529557488828,34.66030247118838]],[[135.5246694994342,34.67161644700253],[135.52377896107282,34.66891662356404]],[[135.52377896107282,34.66891662356404],[135.52377896107282,34.66888652519794]],[[135.52959174783163,34.66840495134046],[135.52663947823362,34.66913935147312]],[[135.52663947823362,34.66913935147312],[135.5274085795457,34.67135760105413]],[[135.5274085795457,34.67135760105413],[135.53050387500176,34.67115594200131]],[[135.53050387500176,34.67115594200131],[135.52991557996302,34.66935906954559]],[[135.52076462364963,34.658117329810075],[135.52153642356282,34.6605372384439]],[[135.52153642356282,34.6605372384439],[135.5216713536176,34.66296918642417]],[[135.5216713536176,34.66296918642417],[135.52323114505054,34.66273140933204]],[[135.52323114505054,34.66273140933204],[135.52316368002315,34.661750202597425]],[[135.52314748841658,34.66098871393529],[135.52316098142205,34.658063152751104]],[[135.52316098142205,34.658063152751104],[135.52076462364963,34.658117329810075]],[[135.52397865755387,34.65819558556191],[135.52529557488828,34.66030247118838]],[[135.52607277200363,34.66193380263059],[135.5260376901894,34.662644124070376]],[[135.5260376901894,34.662644124070376],[135.52759748162237,34.66219264857899]],[[135.5263129475011,34.658213644581565],[135.52397865755387,34.65819558556191]],[[135.52193851512598,34.650385059560925],[135.52299906535634,34.65124888266778]],[[135.52299906535634,34.65124888266778],[135.52306113318153,34.65013524312236],[135.52534414970796,34.650117184102704]],[[135.52534414970796,34.650117184102704],[135.52417835403492,34.64847983298728]],[[135.52417835403492,34.64847983298728],[135.52193851512598,34.650385059560925]],[[135.5097138521653,34.65381928313207],[135.50997291787044,34.654996129246285]],[[135.52506619379517,34.67312437514376],[135.5276244676333,34.672934755437375]],[[135.5276244676333,34.672934755437375],[135.5274085795457,34.67135760105413]],[[135.52663947823362,34.66913935147312],[135.5267042446599,34.66865476777903]],[[135.5267042446599,34.66865476777903],[135.52377896107282,34.66891662356404]],[[135.52760827602674,34.662222746945076],[135.52859056682536,34.66516335731231]],[[135.53017734426925,34.66509714090691],[135.5292220394816,34.662171579722724]],[[135.52858516962317,34.66516335731231],[135.5275677970103,34.665205495024836]],[[135.5269228313486,34.66771268892034],[135.5267042446599,34.66865476777903]],[[135.52397865755387,34.65819558556191],[135.52316098142205,34.658063152751104]],[[135.51867050919986,34.65081546619605],[135.51868670080643,34.65081546619605]],[[135.51868670080643,34.65081546619605],[135.5215580123716,34.65072517109777]],[[135.5215580123716,34.65072517109777],[135.5219277207216,34.65039709890736]],[[135.5219277207216,34.65039709890736],[135.52015743840323,34.64898548553763]],[[135.52534414970796,34.67361798834767],[135.52622929086715,34.675047660737064]],[[135.52622929086715,34.675047660737064],[135.52962682964585,34.67459016557246]],[[135.52962682964585,34.67459016557246],[135.5276244676333,34.672934755437375]],[[135.52299906535634,34.65124888266778],[135.52301525696294,34.6529163321493]],[[135.52301525696294,34.6529163321493],[135.5247936350846,34.65347315192201]],[[135.5247936350846,34.65347315192201],[135.52629405729343,34.6531450797316]],[[135.52629405729343,34.6531450797316],[135.52534414970796,34.650117184102704]],[[135.52017363000982,34.663191914333254],[135.5216713536176,34.66296918642417]],[[135.52153642356282,34.6605372384439],[135.51912387418383,34.66079307455569]],[[135.5247936350846,34.65347315192201],[135.52523620566416,34.654848647252436]],[[135.52523620566416,34.654848647252436],[135.52555733919448,34.65582684415044]],[[135.52555733919448,34.65582684415044],[135.52709554181868,34.65567334248337]],[[135.52709554181868,34.65567334248337],[135.52629405729343,34.6531450797316]],[[135.52323114505054,34.66273140933204],[135.5233067058812,34.66332434714406]],[[135.5233067058812,34.66332434714406],[135.5260376901894,34.662644124070376]],[[135.51868670080643,34.65081546619605],[135.51693530869574,34.65238961074268]],[[135.51746423451036,34.65300361741097],[135.52019521881857,34.652314364827454]],[[135.52019521881857,34.652314364827454],[135.5215580123716,34.65072517109777]],[[135.52153102636063,34.67578808054294],[135.52622929086715,34.675047660737064]],[[135.52417835403492,34.64847983298728],[135.52360625060274,34.647886895175255]],[[135.52360625060274,34.647886895175255],[135.52064588520145,34.64882897403395]],[[135.5219277207216,34.65039709890736],[135.52193851512598,34.650385059560925]],[[135.52302065416512,34.65326848303258],[135.5201817258131,34.653253433849535],[135.52019521881857,34.652314364827454]],[[135.52302065416512,34.65458077179421],[135.52302065416512,34.65326848303258]],[[135.52302065416512,34.65326848303258],[135.52301525696294,34.6529163321493]],[[135.52360625060274,34.647886895175255],[135.52189533750848,34.646463242459085]],[[135.52555733919448,34.65582684415044],[135.52636152232083,34.65821063474496]],[[135.52778098649682,34.657677893665124],[135.52709554181868,34.65567334248337]],[[135.5230827219903,34.655465663757326],[135.5230827219903,34.65549275228681]],[[135.5230827219903,34.65549275228681],[135.52523620566416,34.654848647252436]],[[135.5230827219903,34.65549275228681],[135.52316098142205,34.658063152751104]],[[135.52351179956443,34.66515432780248],[135.5233067058812,34.66332434714406]],[[135.52962682964585,34.67459016557246],[135.53159680844527,34.67446375243487]],[[135.53159680844527,34.67446375243487],[135.53050387500176,34.67115594200131]],[[135.53159680844527,34.67446375243487],[135.53323755791106,34.6743433589705],[135.53155632942884,34.669226636734784]],[[135.51873257702505,34.658213644581565],[135.52076462364963,34.658117329810075]]]}