{"type":"Topology","bbox":[135.46207508161575,34.68066715778045,135.49120558422103,34.70678476830151],"objects":{"town":{"type":"GeometryCollection","geometries":[{"type":"MultiPolygon","arcs":[[[40,41,-50,-6,-95,-94,-107,107,31,32,52,71,2,104]]],"properties":{"name":"福島"}},{"type":"MultiPolygon","arcs":[[[4,5,49,-42,50,114,-98,-39,-49,7,8,9]]],"properties":{"name":"玉川"}},{"type":"MultiPolygon","arcs":[[[-10,-9,-48,-47,-65,-64,-19,11,12,13,14,15,86,-112,89,91,-81,92,93,94,-5]]],"properties":{"name":"吉野"}},{"type":"MultiPolygon","arcs":[[[46,47,-8,48,38,97,95,112,17,-12,18,63,64]]],"properties":{"name":"野田"}},{"type":"MultiPolygon","arcs":[[[54,55,56,73,113,-32,-108,106,-93,-80,21,-85]]],"properties":{"name":"鷺洲"}},{"type":"MultiPolygon","arcs":[[[26,108,77,-56,-55,84,-22,79,80,81,-111,101,102,-68,59,60,61]]],"properties":{"name":"海老江"}},{"type":"MultiPolygon","arcs":[[[115,-61,-60,67,-103,-102,110,-82,-92,-90,111,-87,-16,-15,-14]]],"properties":{"name":"大開"}}]}},"arcs":[[[135.48852530995393,34.69268246015037],[135.48709777257253,34.695618373164244]],[[135.48709777257253,34.695618373164244],[135.49027331491072,34.69676766295615]],[[135.49027331491072,34.69676766295615],[135.49120558422103,34.69377167343043],[135.48852530995393,34.69268246015037]],[[135.4798785121009,34.688889803837085],[135.47780712622708,34.69108651455298]],[[135.47780712622708,34.69108651455298],[135.4806447209403,34.69326755313534]],[[135.4806447209403,34.69326755313534],[135.4816265170577,34.689895432405]],[[135.4816265170577,34.689895432405],[135.4798785121009,34.688889803837085]],[[135.47864616860633,34.68750020799778],[135.4760999080526,34.689741323091994]],[[135.4760999080526,34.689741323091994],[135.47771681263762,34.69101598995211]],[[135.47771681263762,34.69101598995211],[135.47780712622708,34.69108651455298]],[[135.4798785121009,34.688889803837085],[135.47864616860633,34.68750020799778]],[[135.47024409144726,34.68534528963796],[135.46924772862187,34.68458257913969]],[[135.46924772862187,34.68458257913969],[135.46795711829543,34.68613150833651],[135.4651107835574,34.68680541007813]],[[135.4651107835574,34.68680541007813],[135.4669316220541,34.68818978187292]],[[135.4669316220541,34.68818978187292],[135.46904670805185,34.68961072197928]],[[135.46904670805185,34.68961072197928],[135.46908166815098,34.689631618157314]],[[135.46908166815098,34.689631618157314],[135.47024409144726,34.68534528963796]],[[135.47165706212067,34.68134105952207],[135.46924772862187,34.68458257913969]],[[135.47024409144726,34.68534528963796],[135.47152013506573,34.686322185961075]],[[135.47152013506573,34.686322185961075],[135.4719221762058,34.684689672052116],[135.47364687442985,34.68401838233275]],[[135.47364687442985,34.68401838233275],[135.47165706212067,34.68134105952207]],[[135.47733807823033,34.695414635428406],[135.4766913163963,34.69816509486222]],[[135.4766913163963,34.69816509486222],[135.48023685311705,34.698078898127825]],[[135.48023685311705,34.698078898127825],[135.48067385435624,34.695832558989096]],[[135.48067385435624,34.695832558989096],[135.47733807823033,34.695414635428406]],[[135.47117344741596,34.697138570116266],[135.46646548739895,34.702203281267415]],[[135.46646548739895,34.702203281267415],[135.467313269803,34.70268650538446]],[[135.467313269803,34.70268650538446],[135.47218729029092,34.6976740346784]],[[135.47218729029092,34.6976740346784],[135.47117344741596,34.697138570116266]],[[135.4841436441955,34.6955635206969],[135.48415821090347,34.69592920381251]],[[135.48415821090347,34.69592920381251],[135.4837124696395,34.698972209738805]],[[135.4837124696395,34.698972209738805],[135.48395427699185,34.69941364149979]],[[135.48395427699185,34.69941364149979],[135.48423687112654,34.700233816487646],[135.4871123392805,34.701124516076376]],[[135.4871123392805,34.701124516076376],[135.4870628124734,34.69728745538476]],[[135.4870628124734,34.69728745538476],[135.4841436441955,34.6955635206969]],[[135.4755347197832,34.68463743160703],[135.4748733912412,34.68463220756252]],[[135.4748733912412,34.68463220756252],[135.47413048913458,34.687272962061655]],[[135.47413048913458,34.687272962061655],[135.47894332944898,34.6873330385735]],[[135.47894332944898,34.6873330385735],[135.48061267418274,34.68639009853969]],[[135.48061267418274,34.68639009853969],[135.4755347197832,34.68463743160703]],[[135.48715021272122,34.691922361674365],[135.4848544995446,34.6895924378235]],[[135.4848544995446,34.6895924378235],[135.48400380379897,34.69009917014084]],[[135.48400380379897,34.69009917014084],[135.48406498397244,34.69450042763939]],[[135.48406498397244,34.69450042763939],[135.48559740165126,34.69506201242407]],[[135.48559740165126,34.69506201242407],[135.4860635363064,34.69267984812812],[135.48715021272122,34.691922361674365]],[[135.47413048913458,34.687272962061655],[135.47253980462386,34.68711885274865]],[[135.47253980462386,34.68711885274865],[135.47593967426488,34.68970214275818]],[[135.47593967426488,34.68970214275818],[135.4760999080526,34.689741323091994]],[[135.47864616860633,34.68750020799778],[135.47894332944898,34.6873330385735]],[[135.4816265170577,34.689895432405],[135.48400380379897,34.69009917014084]],[[135.4848544995446,34.6895924378235],[135.48243642602102,34.68672966143275]],[[135.48243642602102,34.68672966143275],[135.4798785121009,34.688889803837085]],[[135.4871123392805,34.701124516076376],[135.4879339016102,34.70230776215759],[135.4908414165217,34.70266560920643],[135.48960907302714,34.69852294191106]],[[135.48960907302714,34.69852294191106],[135.4870628124734,34.69728745538476]],[[135.47736138496307,34.70060211162551],[135.4763096686474,34.70241485507001]],[[135.4763096686474,34.70241485507001],[135.47742256513658,34.703114877034174]],[[135.47742256513658,34.703114877034174],[135.47966875150607,34.70120810078851]],[[135.47966875150607,34.70120810078851],[135.47969205823884,34.70107488765354]],[[135.47969205823884,34.70107488765354],[135.47736138496307,34.70060211162551]],[[135.46823097240534,34.6948373785102],[135.46613336645714,34.69555046058563]],[[135.46613336645714,34.69555046058563],[135.4645252018969,34.696832963512506]],[[135.4645252018969,34.696832963512506],[135.46207508161575,34.69970357597002],[135.46646548739895,34.702203281267415]],[[135.47117344741596,34.697138570116266],[135.46878159396672,34.696018012569155],[135.46823097240534,34.6948373785102]],[[135.47152013506573,34.686322185961075],[135.47251649789112,34.68710056859287]],[[135.47251649789112,34.68710056859287],[135.47253980462386,34.68711885274865]],[[135.4748733912412,34.68463220756252],[135.47364687442985,34.68401838233275]],[[135.4669316220541,34.68818978187292],[135.46740067005084,34.69112569488679],[135.46569927855955,34.69300635090991],[135.46613336645714,34.69555046058563]],[[135.46823097240534,34.6948373785102],[135.4682426257717,34.69482431839893]],[[135.4682426257717,34.69482431839893],[135.46904670805185,34.68961072197928]],[[135.48709777257253,34.695618373164244],[135.48559740165126,34.69506201242407]],[[135.48406498397244,34.69450042763939],[135.4841436441955,34.6955635206969]],[[135.48960907302714,34.69852294191106],[135.49027331491072,34.69676766295615]],[[135.48022519975066,34.69814942272869],[135.47969205823884,34.70107488765354]],[[135.47966875150607,34.70120810078851],[135.48280933374514,34.69980022079343]],[[135.48280933374514,34.69980022079343],[135.48022519975066,34.69814942272869]],[[135.47478307765178,34.69831920417522],[135.47371388128653,34.69831398013071]],[[135.47371388128653,34.69831398013071],[135.4707568395679,34.70039837388967],[135.4682892392372,34.70327421039169]],[[135.4682892392372,34.70327421039169],[135.47404308888673,34.70678476830151],[135.47742256513658,34.703114877034174]],[[135.4763096686474,34.70241485507001],[135.4747772509686,34.70115586034343],[135.47478307765178,34.69831920417522]],[[135.47733807823033,34.695414635428406],[135.47660100280686,34.694184372946616]],[[135.47660100280686,34.694184372946616],[135.47566873349658,34.69419743305789]],[[135.47566873349658,34.69419743305789],[135.47468402403757,34.69443512708303]],[[135.47468402403757,34.69443512708303],[135.47476851094382,34.69473289762002]],[[135.47476851094382,34.69473289762002],[135.47478307765178,34.69831920417522]],[[135.47736138496307,34.70060211162551],[135.47561920668946,34.70018418806482],[135.4766913163963,34.69816509486222]],[[135.48022519975066,34.69814942272869],[135.48023685311705,34.698078898127825]],[[135.46908166815098,34.689631618157314],[135.47226012383078,34.691627203159626]],[[135.47226012383078,34.691627203159626],[135.47251649789112,34.68710056859287]],[[135.47593967426488,34.68970214275818],[135.47473937752787,34.69314478808939]],[[135.47473937752787,34.69314478808939],[135.47534826592116,34.693526143338524]],[[135.47534826592116,34.693526143338524],[135.47771681263762,34.69101598995211]],[[135.47534826592116,34.693526143338524],[135.47566873349658,34.69419743305789]],[[135.47660100280686,34.694184372946616],[135.48113998901138,34.694032875655864]],[[135.48113998901138,34.694032875655864],[135.48116038240255,34.693769061408176]],[[135.48116038240255,34.693769061408176],[135.4806447209403,34.69326755313534]],[[135.48171100396394,34.685768437243155],[135.4801931529931,34.68342022923651],[135.47607660131982,34.68191048037351]],[[135.47607660131982,34.68191048037351],[135.4755347197832,34.68463743160703]],[[135.48061267418274,34.68639009853969],[135.48171100396394,34.685768437243155]],[[135.48116038240255,34.693769061408176],[135.48415821090347,34.69592920381251]],[[135.47476851094382,34.69473289762002],[135.47218729029092,34.6976740346784]],[[135.47218729029092,34.6976740346784],[135.47371388128653,34.69831398013071]],[[135.47424702279835,34.694450799216554],[135.47057038570586,34.69463886481887]],[[135.47057038570586,34.69463886481887],[135.4682426257717,34.69482431839893]],[[135.47117344741596,34.697138570116266],[135.47424702279835,34.694450799216554]],[[135.48852530995393,34.69268246015037],[135.48715021272122,34.691922361674365]],[[135.48067385435624,34.695832558989096],[135.48209265171286,34.696138165592856]],[[135.48209265171286,34.696138165592856],[135.48113998901138,34.694032875655864]],[[135.48209265171286,34.696138165592856],[135.4837124696395,34.698972209738805]],[[135.467313269803,34.70268650538446],[135.4682892392372,34.70327421039169]],[[135.47226012383078,34.691627203159626],[135.47069274605283,34.693139564044884],[135.47057038570586,34.69463886481887]],[[135.47424702279835,34.694450799216554],[135.47468402403757,34.69443512708303]],[[135.47473937752787,34.69314478808939],[135.47226012383078,34.691627203159626]],[[135.47607660131982,34.68191048037351],[135.4721348501422,34.68066715778045],[135.47165706212067,34.68134105952207]],[[135.48280933374514,34.69980022079343],[135.48395427699185,34.69941364149979]],[[135.48243642602102,34.68672966143275],[135.48171100396394,34.685768437243155]],[[135.4651107835574,34.68680541007813],[135.46246546938943,34.6872076615053],[135.46255869632046,34.68891592405963],[135.4641319007816,34.690971585573784],[135.4642280410542,34.69254402297089],[135.46300735092606,34.69522918184835],[135.4645252018969,34.696832963512506]]]}