{"type":"Topology","bbox":[135.46204817354467,34.66686313822472,135.49803203170902,34.69281112812536],"objects":{"town":{"type":"GeometryCollection","geometries":[{"type":"MultiPolygon","arcs":[[[5,6,39,-18,2,3,4,0,-15,8]]],"properties":{"name":"江戸堀"}},{"type":"MultiPolygon","arcs":[[[-28,-9,14,-1,-5,10,11,15,16,12,-45]]],"properties":{"name":"京町堀"}},{"type":"MultiPolygon","arcs":[[[-27,31,32,72,19,-3,17,-40,-7]]],"properties":{"name":"土佐堀"}},{"type":"MultiPolygon","arcs":[[[-47,21,22,23,-96,-94,87,-70,-44]]],"properties":{"name":"西本町"}},{"type":"MultiPolygon","arcs":[[[-17,-16,-12,25,-22,46,43,-29,44,-13]]],"properties":{"name":"靭本町"}},{"type":"MultiPolygon","arcs":[[[68,30,26,-6,27,28,69,70,71]]],"properties":{"name":"江之子島"}},{"type":"MultiPolygon","arcs":[[[-71,-88,93,94,35,40,41,42,37,38,-55,-87,-86,140,133,-107,134,-72]]],"properties":{"name":"立売堀"}},{"type":"MultiPolygon","arcs":[[[-144,-108,-134,-141,85,86,54,-39,-38,-43,49,50,47,51,52,83,-91]]],"properties":{"name":"新町"}},{"type":"MultiPolygon","arcs":[[[152,123,55,56,57,58,124,-145,153,-156,157]]],"properties":{"name":"南堀江"}},{"type":"MultiPolygon","arcs":[[[117,62,149,-32,-31,-69,-135,-106,60,-105,118,115,-138,146,147,148]]],"properties":{"name":"川口"}},{"type":"MultiPolygon","arcs":[[[-58,-57,67,64,65,112,113,-123,-109,143,-90]]],"properties":{"name":"千代崎"}},{"type":"MultiPolygon","arcs":[[[-81,75,76,77,73,151,-148,-151]]],"properties":{"name":"安治川"}},{"type":"MultiPolygon","arcs":[[[119,126,-111,78,79,-76,80,81,127,128,129,121,-103,122,-114]]],"properties":{"name":"九条"}},{"type":"MultiPolygon","arcs":[[[155,-154,144,-125,-59,89,90,-84,-53,-52,-48,-51,156]]],"properties":{"name":"北堀江"}},{"type":"MultiPolygon","arcs":[[[-36,-95,95,-24,101,-41]]],"properties":{"name":"阿波座"}},{"type":"MultiPolygon","arcs":[[[141,99,-78,100,97,-132,142,-65]]],"properties":{"name":"境川"}},{"type":"MultiPolygon","arcs":[[[137,-116,-119,104,-61,105,106,107,108,102,-122,-130,-129,-128,-82,150,-147]]],"properties":{"name":"本田"}},{"type":"MultiPolygon","arcs":[[[-79,110,-127,-120,-113,-66,-143,131,-98,-101,-77,-80]]],"properties":{"name":"九条南"}}]}},"arcs":[[[135.4921984649439,34.68713054507781],[135.49217687246974,34.687159090721266]],[[135.49217687246974,34.687159090721266],[135.49134556221514,34.68841250397479]],[[135.49134556221514,34.68841250397479],[135.49651695977312,34.69273587142898]],[[135.49651695977312,34.69273587142898],[135.49740944870447,34.69281112812536],[135.49776572452788,34.688947086024946]],[[135.49776572452788,34.688947086024946],[135.4921984649439,34.68713054507781]],[[135.48536444687667,34.68414622780751],[135.48445036547116,34.68531919424766]],[[135.48445036547116,34.68531919424766],[135.48791235882592,34.68695148604159]],[[135.48791235882592,34.68695148604159],[135.4887580640633,34.68559946056522]],[[135.4887580640633,34.68559946056522],[135.48536444687667,34.68414622780751]],[[135.49273827679755,34.68562022103318],[135.4921984649439,34.68713054507781]],[[135.49776572452788,34.688947086024946],[135.49794206306674,34.687172066013744]],[[135.49794206306674,34.687172066013744],[135.49273827679755,34.68562022103318]],[[135.4892762834428,34.68415660804149],[135.48934465961094,34.68456922234234]],[[135.48934465961094,34.68456922234234],[135.4887580640633,34.68559946056522]],[[135.4887580640633,34.68559946056522],[135.49217687246974,34.687159090721266]],[[135.49273827679755,34.68562022103318],[135.492709486832,34.68559946056522]],[[135.492709486832,34.68559946056522],[135.4892762834428,34.68415660804149]],[[135.49134556221514,34.68841250397479],[135.4913167722496,34.68845921502771]],[[135.4913167722496,34.68845921502771],[135.49058622687434,34.68958028029795]],[[135.49058622687434,34.68958028029795],[135.49433252113866,34.69231287689415],[135.49651695977312,34.69273587142898]],[[135.4929578002847,34.681652376592936],[135.4928786278795,34.683419611428654]],[[135.4928786278795,34.683419611428654],[135.49798884676073,34.6837699443256]],[[135.49798884676073,34.6837699443256],[135.49800684048918,34.682005304548376]],[[135.49800684048918,34.682005304548376],[135.4929578002847,34.681652376592936]],[[135.4928786278795,34.683419611428654],[135.492709486832,34.68559946056522]],[[135.49794206306674,34.687172066013744],[135.49798884676073,34.6837699443256]],[[135.48318720573363,34.684382378130636],[135.48445036547116,34.68531919424766]],[[135.48536444687667,34.68414622780751],[135.4857926976139,34.6831315599356]],[[135.4857926976139,34.6831315599356],[135.48610578848903,34.6821843635846]],[[135.48610578848903,34.6821843635846],[135.48317281075086,34.68297326136735]],[[135.48317281075086,34.68297326136735],[135.48318720573363,34.684382378130636]],[[135.48318720573363,34.684382378130636],[135.4830072684491,34.685277673311724]],[[135.4830072684491,34.685277673311724],[135.48728257833,34.68781045040374]],[[135.48728257833,34.68781045040374],[135.48791235882592,34.68695148604159]],[[135.49062581307692,34.678483810169425],[135.49062581307692,34.67995261327811]],[[135.49062581307692,34.67995261327811],[135.49305136767268,34.68016800313327]],[[135.49305136767268,34.68016800313327],[135.493152132552,34.67877705177946]],[[135.493152132552,34.67877705177946],[135.49314133631495,34.67877705177946]],[[135.49314133631495,34.67877705177946],[135.49062581307692,34.678483810169425]],[[135.48791235882592,34.68695148604159],[135.4913167722496,34.68845921502771]],[[135.49305136767268,34.68016800313327],[135.49794206306674,34.68056245202465]],[[135.49794206306674,34.68056245202465],[135.49787008815292,34.67922080678226]],[[135.49787008815292,34.67922080678226],[135.493152132552,34.67877705177946]],[[135.48897398880476,34.68244386943419],[135.48610578848903,34.6821843635846]],[[135.4857926976139,34.6831315599356],[135.48934465961094,34.68456922234234]],[[135.4892762834428,34.68415660804149],[135.48897398880476,34.68244386943419]],[[135.4928786278795,34.683419611428654],[135.48897398880476,34.68244386943419]],[[135.49349401339265,34.67524777222502],[135.4933932485133,34.675258152459]],[[135.4933932485133,34.675258152459],[135.49314133631495,34.67877705177946]],[[135.49787008815292,34.67922080678226],[135.49760737971746,34.6750064317849]],[[135.49760737971746,34.6750064317849],[135.49349401339265,34.67524777222502]],[[135.4933932485133,34.675258152459],[135.49054664067174,34.67535935974034]],[[135.49054664067174,34.67535935974034],[135.49049265948636,34.67536195479884]],[[135.49049265948636,34.67536195479884],[135.49061861558556,34.678483810169425]],[[135.49061861558556,34.678483810169425],[135.49062581307692,34.678483810169425]],[[135.48661681037714,34.670016134297256],[135.4820356071125,34.669266162391935],[135.48021464179286,34.66796863314398]],[[135.48021464179286,34.66796863314398],[135.48001311203416,34.67076870126107]],[[135.48001311203416,34.67076870126107],[135.48102076082765,34.67330407341158]],[[135.48102076082765,34.67330407341158],[135.48686152508415,34.67292000475418]],[[135.48686152508415,34.67292000475418],[135.48661681037714,34.670016134297256]],[[135.48053852890504,34.68004344032547],[135.48052773266798,34.68005382055945]],[[135.48052773266798,34.68005382055945],[135.47824612789987,34.682659259289345]],[[135.47824612789987,34.682659259289345],[135.48237748795316,34.684914365122296]],[[135.48237748795316,34.684914365122296],[135.48262220266014,34.68430971649275],[135.48053852890504,34.68004344032547]],[[135.473924034325,34.66753785343366],[135.47470496213992,34.66812433665373]],[[135.47470496213992,34.66812433665373],[135.47545350124366,34.670358682018716],[135.47665908105014,34.67031197096579],[135.47756596496427,34.672154462497886]],[[135.47756596496427,34.672154462497886],[135.48001311203416,34.67076870126107]],[[135.48021464179286,34.66796863314398],[135.47477333830807,34.66686313822472],[135.473924034325,34.66753785343366]],[[135.4826761838455,34.680699990124936],[135.48317281075086,34.68297326136735]],[[135.48610578848903,34.6821843635846],[135.48629292326495,34.68118786112216]],[[135.48629292326495,34.68118786112216],[135.48580709259667,34.68113336489375]],[[135.48580709259667,34.68113336489375],[135.4826761838455,34.680699990124936]],[[135.48728257833,34.68781045040374],[135.49058622687434,34.68958028029795]],[[135.46269234902337,34.676410358431184],[135.46204817354467,34.67756775452037],[135.46716918866298,34.6792597326597]],[[135.46716918866298,34.6792597326597],[135.46765861807694,34.678273610431255]],[[135.46765861807694,34.678273610431255],[135.4676730130597,34.678242469729305]],[[135.4676730130597,34.678242469729305],[135.46346607934692,34.676861898609474]],[[135.46346607934692,34.676861898609474],[135.46269234902337,34.676410358431184]],[[135.47074994062552,34.67577197404119],[135.4690729251335,34.67696570094931]],[[135.4690729251335,34.67696570094931],[135.4676730130597,34.678242469729305]],[[135.46765861807694,34.678273610431255],[135.4702425174831,34.6791351698519]],[[135.4702425174831,34.6791351698519],[135.47157045464306,34.67842931394101]],[[135.47157045464306,34.67842931394101],[135.47074994062552,34.67577197404119]],[[135.49049265948636,34.67536195479884],[135.48725018961878,34.67549949289912]],[[135.48725018961878,34.67549949289912],[135.4871602209765,34.67819835373487]],[[135.4871602209765,34.67819835373487],[135.488761662809,34.67834108195215]],[[135.488761662809,34.67834108195215],[135.49061861558556,34.678483810169425]],[[135.48893080385648,34.68138249050936],[135.48629292326495,34.68118786112216]],[[135.48897398880476,34.68244386943419],[135.48893080385648,34.68138249050936]],[[135.48102076082765,34.67330407341158],[135.48228392056518,34.67603926506627]],[[135.48228392056518,34.67603926506627],[135.48725018961878,34.67549949289912]],[[135.48725018961878,34.67549949289912],[135.48686152508415,34.67292000475418]],[[135.488761662809,34.67834108195215],[135.48893080385648,34.68138249050936]],[[135.48893080385648,34.68138249050936],[135.49044947453808,34.68148629284919]],[[135.49044947453808,34.68148629284919],[135.49062581307692,34.67995261327811]],[[135.49044947453808,34.68148629284919],[135.4929578002847,34.681652376592936]],[[135.4929578002847,34.681652376592936],[135.49305136767268,34.68016800313327]],[[135.46717638615436,34.67393726768458],[135.46921327621547,34.67237244741155]],[[135.46921327621547,34.67237244741155],[135.46850792206,34.6717703938405]],[[135.46850792206,34.6717703938405],[135.46269234902337,34.676410358431184]],[[135.46346607934692,34.676861898609474],[135.46717638615436,34.67393726768458]],[[135.49800684048918,34.682005304548376],[135.49794206306674,34.68056245202465]],[[135.47871036609402,34.676088571177694],[135.47870316860264,34.67609116623619]],[[135.47870316860264,34.67609116623619],[135.48049174521105,34.67999153915555]],[[135.48049174521105,34.67999153915555],[135.48052773266798,34.68005382055945]],[[135.48053852890504,34.68004344032547],[135.4826329988972,34.68050276567924]],[[135.4826329988972,34.68050276567924],[135.4828381274016,34.678003724347676]],[[135.4828381274016,34.678003724347676],[135.4825178390351,34.676900824486914]],[[135.4825178390351,34.676900824486914],[135.48074365740945,34.67757553969585],[135.47871036609402,34.676088571177694]],[[135.46717638615436,34.67393726768458],[135.4690729251335,34.67696570094931]],[[135.47074994062552,34.67577197404119],[135.47250972726843,34.6744952052612]],[[135.47250972726843,34.6744952052612],[135.46921327621547,34.67237244741155]],[[135.47756596496427,34.672154462497886],[135.47601490557145,34.67279025182939]],[[135.47601490557145,34.67279025182939],[135.47767392733502,34.67435766716092]],[[135.47767392733502,34.67435766716092],[135.48102076082765,34.67330407341158]],[[135.47741121889956,34.678434504058],[135.477278065309,34.678463049701456]],[[135.477278065309,34.678463049701456],[135.47573420340757,34.68178991469322]],[[135.47573420340757,34.68178991469322],[135.47824612789987,34.682659259289345]],[[135.48049174521105,34.67999153915555],[135.47741121889956,34.678434504058]],[[135.47601490557145,34.67279025182939],[135.4725565109624,34.67452634596315]],[[135.4725565109624,34.67452634596315],[135.4755254761575,34.67673474074318]],[[135.4755254761575,34.67673474074318],[135.47870316860264,34.67609116623619]],[[135.47871036609402,34.676088571177694],[135.47767392733502,34.67435766716092]],[[135.49007160624052,34.66971251245323],[135.48661681037714,34.670016134297256]],[[135.48686152508415,34.67292000475418],[135.49032351843888,34.67276170618593]],[[135.49032351843888,34.67276170618593],[135.49007160624052,34.66971251245323]],[[135.4725565109624,34.67452634596315],[135.47250972726843,34.6744952052612]],[[135.47157045464306,34.67842931394101],[135.4736361346697,34.67745616700504]],[[135.4736361346697,34.67745616700504],[135.47533834138156,34.67675290615265]],[[135.47533834138156,34.67675290615265],[135.4755254761575,34.67673474074318]],[[135.49054664067174,34.67535935974034],[135.49032351843888,34.67276170618593]],[[135.47263208462192,34.66971510751173],[135.46921327621547,34.67237244741155]],[[135.47601490557145,34.67279025182939],[135.47263208462192,34.66971510751173]],[[135.48444676672548,34.67794403800227],[135.4828381274016,34.678003724347676]],[[135.4826329988972,34.68050276567924],[135.4826761838455,34.680699990124936]],[[135.48580709259667,34.68113336489375],[135.48444676672548,34.67794403800227]],[[135.4736361346697,34.67745616700504],[135.47442785872173,34.67923378207474]],[[135.47442785872173,34.67923378207474],[135.477278065309,34.678463049701456]],[[135.47741121889956,34.678434504058],[135.47533834138156,34.67675290615265]],[[135.48629292326495,34.68118786112216],[135.4871602209765,34.67819835373487]],[[135.4871602209765,34.67819835373487],[135.48444676672548,34.67794403800227]],[[135.473924034325,34.66753785343366],[135.46850792206,34.6717703938405]],[[135.47263208462192,34.66971510751173],[135.47470496213992,34.66812433665373]],[[135.4825178390351,34.676900824486914],[135.48228392056518,34.67603926506627]],[[135.49286063415104,34.67262935820264],[135.49032351843888,34.67276170618593]],[[135.49349401339265,34.67524777222502],[135.49286063415104,34.67262935820264]],[[135.47442785872173,34.67923378207474],[135.47317549522126,34.67960487543966]],[[135.47317549522126,34.67960487543966],[135.47213185897087,34.68066625436449]],[[135.47213185897087,34.68066625436449],[135.47573420340757,34.68178991469322]],[[135.48237748795316,34.684914365122296],[135.4830072684491,34.685277673311724]],[[135.4702425174831,34.6791351698519],[135.47317549522126,34.67960487543966]],[[135.46716918866298,34.6792597326597],[135.47213185897087,34.68066625436449]],[[135.4920833050818,34.66955161882649],[135.49007160624052,34.66971251245323]],[[135.49286063415104,34.67262935820264],[135.4928714303881,34.672626763144144]],[[135.4928714303881,34.672626763144144],[135.4920833050818,34.66955161882649]],[[135.49733747379065,34.672445109049434],[135.4928714303881,34.672626763144144]],[[135.49760737971746,34.6750064317849],[135.49733747379065,34.672445109049434]],[[135.49733747379065,34.672445109049434],[135.49698479671292,34.66901184665934],[135.4920833050818,34.66955161882649]]]}