{"type":"Topology","bbox":[135.44058696732898,34.62459494492725,135.48207478567383,34.668030172210294],"objects":{"town":{"type":"GeometryCollection","geometries":[{"type":"MultiPolygon","arcs":[[[8,4,-64,99,100,72,-30,-29,2,3,110]]],"properties":{"name":"三軒家東"}},{"type":"MultiPolygon","arcs":[[[-27,9,10,11,101,60,-3,-28]]],"properties":{"name":"三軒家西"}},{"type":"MultiPolygon","arcs":[[[-63,-62,48,49,43,44,45,-35,-91,98,15,-11,-10,26,27,28,29,-73,-101,-100]]],"properties":{"name":"泉尾"}},{"type":"MultiPolygon","arcs":[[[-93,-92,18,-95,-94,37]],[[-96]]],"properties":{"name":"鶴町"}},{"type":"MultiPolygon","arcs":[[[-124,-42,-55,-54,120,121,128,-59,23,24,25,20,-125]]],"properties":{"name":"平尾"}},{"type":"MultiPolygon","arcs":[[[-78,33,34,35,31,-127]]],"properties":{"name":"北恩加島"}},{"type":"MultiPolygon","arcs":[[[51,52,53,54,41,123,124,-21,125,118,-89,-115,-85,-84,-83]]],"properties":{"name":"南恩加島"}},{"type":"MultiPolygon","arcs":[[[56,-68,-66,131,-25,-24,58,-129,-122,-131,132,-69]]],"properties":{"name":"小林東"}},{"type":"MultiPolygon","arcs":[[[-80,115,-113,-44,-50,-49,61,62,63,-5,64,65,67,-57,68,69,116]]],"properties":{"name":"千島"}},{"type":"Polygon","arcs":[[-34,77,78,79,80,81,-52,82,83,84,85,86,87,88,89,90],[91,92,-38,93,94,-19],[95]],"properties":{"name":""}},{"type":"MultiPolygon","arcs":[[[126,-32,-36,-46,-45,112,-116,-79]]],"properties":{"name":"北村"}},{"type":"MultiPolygon","arcs":[[[-86,114,-88,-87]]],"properties":{"name":"船町"}},{"type":"MultiPolygon","arcs":[[[-117,-70,-133,130,-121,-53,-82,-81]]],"properties":{"name":"小林西"}}]}},"arcs":[[[135.48191296700043,34.663377794130476],[135.47968069914668,34.6633473864306]],[[135.47968069914668,34.6633473864306],[135.4771538383234,34.663316978730734]],[[135.4771538383234,34.663316978730734],[135.4797512354915,34.66724825992797],[135.4795977152116,34.667834694139714]],[[135.4795977152116,34.667834694139714],[135.48050224010402,34.668030172210294],[135.48191296700043,34.663377794130476]],[[135.4788923517634,34.65013306885935],[135.47793388731318,34.65360389060144],[135.478494028875,34.6551894349517],[135.47665178551614,34.655658582321095]],[[135.47665178551614,34.655658582321095],[135.47708745117532,34.65808685435342]],[[135.47708745117532,34.65808685435342],[135.4784483877107,34.65945520084748]],[[135.4784483877107,34.65945520084748],[135.4818424306556,34.658060790610676]],[[135.4818424306556,34.658060790610676],[135.48125739391327,34.655289345965556],[135.4788923517634,34.65013306885935]],[[135.4741041787091,34.663269195202375],[135.4706354502226,34.66396857229934]],[[135.4706354502226,34.66396857229934],[135.4696230462146,34.66434649656913]],[[135.4696230462146,34.66434649656913],[135.47371000501744,34.66685730378681]],[[135.47371000501744,34.66685730378681],[135.4741041787091,34.663269195202375]],[[135.46900066670148,34.65995475591675],[135.46830360164677,34.65827798846688]],[[135.46830360164677,34.65827798846688],[135.46626219684373,34.661275318882446]],[[135.46626219684373,34.661275318882446],[135.4696230462146,34.66434649656913]],[[135.4706354502226,34.66396857229934],[135.46964794139512,34.66153161235277]],[[135.46964794139512,34.66153161235277],[135.46900066670148,34.65995475591675]],[[135.4512835965612,34.642557207635065],[135.45083548331175,34.645363403937175],[135.45502202283672,34.64675781417399],[135.45839531979783,34.64453805208361]],[[135.45839531979783,34.64453805208361],[135.45604687443497,34.643052418747196],[135.4512835965612,34.642557207635065]],[[135.47802516964177,34.63684056005985],[135.4757140670497,34.63810030762582]],[[135.4757140670497,34.63810030762582],[135.47608334556082,34.639976897103395]],[[135.47608334556082,34.639976897103395],[135.47650241443299,34.642604991163424]],[[135.47650241443299,34.642604991163424],[135.47653975720377,34.643373871574376]],[[135.47653975720377,34.643373871574376],[135.47917864633942,34.643621477130445]],[[135.47917864633942,34.643621477130445],[135.4789089485504,34.63987264213242],[135.47802516964177,34.63684056005985]],[[135.4741041787091,34.663269195202375],[135.47598376483873,34.66329960290224]],[[135.47598376483873,34.66329960290224],[135.4771538383234,34.663316978730734]],[[135.4771538383234,34.663316978730734],[135.47563523231136,34.66087567482704]],[[135.47563523231136,34.66087567482704],[135.47517467147165,34.66000253944511]],[[135.47517467147165,34.66000253944511],[135.46964794139512,34.66153161235277]],[[135.464772635209,34.65161001428151],[135.46402163059648,34.65071950307109]],[[135.46402163059648,34.65071950307109],[135.46185160069405,34.65190974732307]],[[135.46185160069405,34.65190974732307],[135.46351127939573,34.653986158828346],[135.46180181033301,34.654963549181254],[135.4626980368319,34.65619288904735]],[[135.4626980368319,34.65619288904735],[135.46535352275455,34.65544138446489],[135.46647795507494,34.65410778962782]],[[135.46647795507494,34.65410778962782],[135.464772635209,34.65161001428151]],[[135.45490999452434,34.63373897467331],[135.45392248569686,34.63623675001962],[135.45724184310018,34.63620634231975],[135.4580094444997,34.63717504475841]],[[135.4580094444997,34.63717504475841],[135.46073961596394,34.63679277653149],[135.46341584787038,34.632861495334254],[135.46270218602865,34.63253569854996],[135.45490999452434,34.63373897467331]],[[135.4720046851515,34.6364148522617],[135.46903386027552,34.63681884027424]],[[135.46903386027552,34.63681884027424],[135.46933675163856,34.63848691980986]],[[135.46933675163856,34.63848691980986],[135.46944463075417,34.6389647550935]],[[135.46944463075417,34.6389647550935],[135.47243205241716,34.63856945499521]],[[135.47243205241716,34.63856945499521],[135.4720046851515,34.6364148522617]],[[135.47214160864436,34.65253962110605],[135.4701499942024,34.65307827178943]],[[135.4701499942024,34.65307827178943],[135.46873926730595,34.653473571887716]],[[135.46873926730595,34.653473571887716],[135.46647795507494,34.65410778962782]],[[135.46647795507494,34.65410778962782],[135.4673243912128,34.6559843791054]],[[135.4673243912128,34.6559843791054],[135.47283867369907,34.6544118666265]],[[135.47283867369907,34.6544118666265],[135.47243205241716,34.65346922793059]],[[135.47243205241716,34.65346922793059],[135.47214160864436,34.65253962110605]],[[135.46933675163856,34.63848691980986],[135.4647518892252,34.63895606717925],[135.4618847942681,34.63820890655392]],[[135.4618847942681,34.63820890655392],[135.4621088508928,34.63904729027885],[135.46532032918054,34.639850922346795],[135.46565226492086,34.641293116111974],[135.46317104526187,34.64089347205656],[135.46242418984613,34.64239213726435],[135.4667891448315,34.643143641846805]],[[135.4667891448315,34.643143641846805],[135.470021369103,34.642196659193765]],[[135.470021369103,34.642196659193765],[135.4697599697075,34.64084134457107]],[[135.4697599697075,34.64084134457107],[135.46944463075417,34.6389647550935]],[[135.4733158313258,34.643035042918704],[135.47370170662393,34.6475918539418]],[[135.47370170662393,34.6475918539418],[135.47683020097656,34.64756579019905]],[[135.47683020097656,34.64756579019905],[135.47653975720377,34.643373871574376]],[[135.47650241443299,34.642604991163424],[135.4733158313258,34.643035042918704]],[[135.47598376483873,34.66329960290224],[135.47564353070487,34.66703974998602]],[[135.47564353070487,34.66703974998602],[135.4795977152116,34.667834694139714]],[[135.47283867369907,34.6544118666265],[135.4736062750986,34.656318863803946]],[[135.4736062750986,34.656318863803946],[135.47367266224666,34.65646221438904]],[[135.47367266224666,34.65646221438904],[135.47665178551614,34.655658582321095]],[[135.4788923517634,34.65013306885935],[135.4788923517634,34.64789593094048]],[[135.4788923517634,34.64789593094048],[135.47687584214086,34.64813050462517]],[[135.47687584214086,34.64813050462517],[135.4769837212565,34.64885160150776],[135.4736228718856,34.65308695970368],[135.47243205241716,34.65346922793059]],[[135.47687584214086,34.64813050462517],[135.47683020097656,34.64756579019905]],[[135.47370170662393,34.6475918539418],[135.47112090624285,34.64760922977029]],[[135.47112090624285,34.64760922977029],[135.47112505543961,34.647622261641665]],[[135.47112505543961,34.647622261641665],[135.47214160864436,34.65253962110605]],[[135.47708745117532,34.65808685435342],[135.47446930802346,34.65842568300909]],[[135.47446930802346,34.65842568300909],[135.47517467147165,34.66000253944511]],[[135.47563523231136,34.66087567482704],[135.47784260498457,34.65991131634551]],[[135.47784260498457,34.65991131634551],[135.4784483877107,34.65945520084748]],[[135.4673243912128,34.6559843791054],[135.46830360164677,34.65827798846688]],[[135.46830360164677,34.65827798846688],[135.4736062750986,34.656318863803946]],[[135.46185160069405,34.65190974732307],[135.4591670703941,34.648404173923986],[135.45988903062934,34.64720089780064],[135.46276857317673,34.648065345268314]],[[135.46276857317673,34.648065345268314],[135.46521659926168,34.6486778432228],[135.46893842875016,34.64875169049391]],[[135.46893842875016,34.64875169049391],[135.46870192453517,34.6475918539418]],[[135.46870192453517,34.6475918539418],[135.46097197098217,34.64553716222213],[135.46176861675897,34.64383867498665],[135.46614601933462,34.64451198834087]],[[135.46614601933462,34.64451198834087],[135.4667891448315,34.643143641846805]],[[135.4618847942681,34.63820890655392],[135.46193043543238,34.63552434105128]],[[135.46193043543238,34.63552434105128],[135.4642290904342,34.63222727759415],[135.46786378679084,34.631658219210905]],[[135.46786378679084,34.631658219210905],[135.46783474241354,34.63130635868386]],[[135.46783474241354,34.63130635868386],[135.45781443225226,34.63268339309217]],[[135.45781443225226,34.63268339309217],[135.45288933570507,34.633452273503124],[135.45354905798897,34.62917347573597],[135.44830862248847,34.63101096959942],[135.44847459035864,34.62840893928214],[135.45401376802545,34.62597632329269],[135.45791401297436,34.625828628750476],[135.46242833904287,34.62670610808952]],[[135.46242833904287,34.62670610808952],[135.46913759019435,34.62791372817],[135.47197149157745,34.62954271209151],[135.47183456808457,34.63045059913043],[135.46797166590645,34.631262919112615]],[[135.46797166590645,34.631262919112615],[135.47323699658747,34.63085458714296],[135.47205447551252,34.6301030825605],[135.47361872268885,34.6291256922076]],[[135.47361872268885,34.6291256922076],[135.4701292482186,34.627071000487945],[135.45756548044702,34.62466444824124],[135.45213003269905,34.625042372511025],[135.44607635463473,34.62741417310074],[135.44583155202625,34.62863048109546],[135.44154958097596,34.641649320596144],[135.44058696732898,34.64402546514298],[135.44327564682567,34.643339119917385],[135.45379386059747,34.64707492304404],[135.45729578265798,34.64939025219114],[135.46390130389062,34.65836486760936]],[[135.46390130389062,34.65836486760936],[135.4626980368319,34.65619288904735]],[[135.4512835965612,34.642557207635065],[135.44709705703627,34.64126705236923],[135.4473833516123,34.63972060363308]],[[135.4473833516123,34.63972060363308],[135.44827542891443,34.63485102769705],[135.45092676564036,34.635194200309854],[135.45490999452434,34.63373897467331]],[[135.4580094444997,34.63717504475841],[135.45748664570868,34.63995083336065]],[[135.45748664570868,34.63995083336065],[135.45700118968844,34.642995947304584],[135.45839531979783,34.64453805208361]],[[135.45794305735163,34.643069794575695],[135.4574119601671,34.64262236699192],[135.458308186666,34.637609440470804],[135.4604533213879,34.63710988540154],[135.4612499671647,34.64023319057371],[135.4591338768201,34.6434868144596],[135.45794305735163,34.643069794575695]],[[135.4670256490465,34.650962764670034],[135.464772635209,34.65161001428151]],[[135.46873926730595,34.653473571887716],[135.4670256490465,34.650962764670034]],[[135.46390130389062,34.65836486760936],[135.46626219684373,34.661275318882446]],[[135.47367266224666,34.65646221438904],[135.47445686043318,34.6583909313521]],[[135.47445686043318,34.6583909313521],[135.47446930802346,34.65842568300909]],[[135.47371000501744,34.66685730378681],[135.47564353070487,34.66703974998602]],[[135.46859404541956,34.63458604631249],[135.46786378679084,34.631658219210905]],[[135.46193043543238,34.63552434105128],[135.46859404541956,34.63458604631249]],[[135.4714528419832,34.63375200654468],[135.46859404541956,34.63458604631249]],[[135.46859404541956,34.63458604631249],[135.46903386027552,34.63681884027424]],[[135.4720046851515,34.6364148522617],[135.4714528419832,34.63375200654468]],[[135.45748664570868,34.63995083336065],[135.4519433188451,34.63925580022081],[135.45164872587557,34.64101075889891],[135.4473833516123,34.63972060363308]],[[135.46900066670148,34.65995475591675],[135.47445686043318,34.6583909313521]],[[135.47968069914668,34.6633473864306],[135.47926992866803,34.661049433112],[135.47784260498457,34.65991131634551]],[[135.48191296700043,34.663377794130476],[135.4818424306556,34.658060790610676]],[[135.46954421147626,34.650232979873195],[135.4670256490465,34.650962764670034]],[[135.4701499942024,34.65307827178943],[135.46954421147626,34.650232979873195]],[[135.46242833904287,34.62670610808952],[135.46321668642616,34.62919519552159],[135.4572501414937,34.63016824191737],[135.45781443225226,34.63268339309217]],[[135.46783474241354,34.63130635868386],[135.46797166590645,34.631262919112615]],[[135.46893842875016,34.64875169049391],[135.46954421147626,34.650232979873195]],[[135.47112505543961,34.647622261641665],[135.46870192453517,34.6475918539418]],[[135.4714528419832,34.63375200654468],[135.47632399897256,34.63243144357898]],[[135.47632399897256,34.63243144357898],[135.47361872268885,34.6291256922076]],[[135.47279718173152,34.64042432468717],[135.4697599697075,34.64084134457107]],[[135.470021369103,34.642196659193765],[135.47027861930175,34.64344337488836]],[[135.47027861930175,34.64344337488836],[135.47330338373553,34.643035042918704]],[[135.47330338373553,34.643035042918704],[135.47279718173152,34.64042432468717]],[[135.47243205241716,34.63856945499521],[135.47244864920418,34.63856945499521]],[[135.47244864920418,34.63856945499521],[135.4757140670497,34.63810030762582]],[[135.47802516964177,34.63684056005985],[135.47632399897256,34.63243144357898]],[[135.46276857317673,34.648065345268314],[135.46205906053177,34.64843892558098],[135.46402163059648,34.65071950307109]],[[135.47608334556082,34.639976897103395],[135.47279718173152,34.64042432468717]],[[135.47330338373553,34.643035042918704],[135.4733158313258,34.643035042918704]],[[135.46614601933462,34.64451198834087],[135.46656093901004,34.645133174209604],[135.47066864379664,34.645415531422664]],[[135.47066864379664,34.645415531422664],[135.47027861930175,34.64344337488836]],[[135.4788923517634,34.64789593094048],[135.47917864633942,34.643621477130445]],[[135.47066864379664,34.645415531422664],[135.47112090624285,34.64760922977029]],[[135.47279718173152,34.64042432468717],[135.47244864920418,34.63856945499521]]]}