{"type":"Topology","bbox":[135.39723496722888,34.64068302975832,135.47477162361707,34.67756827385786],"objects":{"town":{"type":"GeometryCollection","geometries":[{"type":"MultiPolygon","arcs":[[[-44,71,10,11,-21,52,0,1,2,3,4,23,24]]],"properties":{"name":"波除"}},{"type":"MultiPolygon","arcs":[[[48,49,-32,13,-19,-3,-74,80,15,50,-40]]],"properties":{"name":"磯路"}},{"type":"MultiPolygon","arcs":[[[27,28,29,103,64,45,46,41,42,43,-25,-24,-5,-4,18,-14,31]]],"properties":{"name":"弁天"}},{"type":"MultiPolygon","arcs":[[[73,-2,-1,-53,20,-12,21,22,-69,-79,75]]],"properties":{"name":"市岡元町"}},{"type":"MultiPolygon","arcs":[[[112,32,33,-29,34,-102,-101,-120,-138,-115,-153]]],"properties":{"name":"田中"}},{"type":"MultiPolygon","arcs":[[[94,-58,37,38,39,-51,-16,-81,-78,-77,89,96]]],"properties":{"name":"市岡"}},{"type":"MultiPolygon","arcs":[[[121,55,56,-38,57,58,157]]],"properties":{"name":"福崎"}},{"type":"MultiPolygon","arcs":[[[-92,149,140,59,60,61,105,106,-93]]],"properties":{"name":"築港"}},{"type":"MultiPolygon","arcs":[[[66,158,-146,159]],[[-150,91,92,93,156,-60,-141]]],"properties":{"name":"海岸通"}},{"type":"MultiPolygon","arcs":[[[76,77,-76,78,68,-23,123,70,79]]],"properties":{"name":"南市岡"}},{"type":"MultiPolygon","arcs":[[[139,128,129,82,124,125,126,-136,-135,-116,137,-119]]],"properties":{"name":"八幡屋"}},{"type":"MultiPolygon","arcs":[[[114,115,134,135,-127,-126,148,145,146,154,-106,-62,155,-151]]],"properties":{"name":"港晴"}},{"type":"MultiPolygon","arcs":[[[97,98,99,100,101,-35,-28,-50,142]]],"properties":{"name":"夕凪"}},{"type":"MultiPolygon","arcs":[[[160,110,107,108,-99,-98,-143,-49,-39,-57]]],"properties":{"name":"三先"}},{"type":"MultiPolygon","arcs":[[[-129,-140,118,119,-100,-109,-108,144,153]]],"properties":{"name":"池島"}},{"type":"MultiPolygon","arcs":[[[150,151,131,136,-46,-65,-104,-30,-34,-33,-113,152]]],"properties":{"name":"石田"}},{"type":"Polygon","arcs":[[-47,-137,-132,-152,-156,-61,-157,-94,-107,-155,-147,-159,-67,-160,-149,-125,-83,-130,-154,-145,-111,-161,-56,-122,-158,-59,-95,161,-42]],"properties":{"name":""}}]}},"arcs":[[[135.46465207800387,34.669364175160254],[135.4646365691217,34.66935679737365]],[[135.4646365691217,34.66935679737365],[135.46220167462164,34.66851204080812]],[[135.46220167462164,34.66851204080812],[135.4621784112984,34.66854892974111]],[[135.4621784112984,34.66854892974111],[135.46062752308183,34.671101643904215]],[[135.46062752308183,34.671101643904215],[135.46051896090665,34.67129715524908]],[[135.46051896090665,34.67129715524908],[135.46296160984778,34.6721935563208]],[[135.46296160984778,34.6721935563208],[135.46465207800387,34.669364175160254]],[[135.4675755022921,34.67111639947741],[135.465132853351,34.672997735060044]],[[135.465132853351,34.672997735060044],[135.4615425471296,34.6757791606077]],[[135.4615425471296,34.6757791606077],[135.46269020440988,34.676409961361884]],[[135.46269020440988,34.676409961361884],[135.4683974730469,34.671850489243965]],[[135.4683974730469,34.671850489243965],[135.4675755022921,34.67111639947741]],[[135.45959618241778,34.66373123509224],[135.45611443837154,34.66643519388062]],[[135.45611443837154,34.66643519388062],[135.45956516465344,34.667685728709074]],[[135.45956516465344,34.667685728709074],[135.46284529323154,34.664992836600604]],[[135.46284529323154,34.664992836600604],[135.45959618241778,34.66373123509224]],[[135.45956516465344,34.667685728709074],[135.45683560139227,34.669677731090694]],[[135.45683560139227,34.669677731090694],[135.46062752308183,34.671101643904215]],[[135.4621784112984,34.66854892974111],[135.45956516465344,34.667685728709074]],[[135.46955288476826,34.6675935063766],[135.46751346676345,34.671061066077925]],[[135.46751346676345,34.671061066077925],[135.4675755022921,34.67111639947741]],[[135.4683974730469,34.671850489243965],[135.4719955337094,34.66899897472362]],[[135.4719955337094,34.66899897472362],[135.46955288476826,34.6675935063766]],[[135.46051896090665,34.67129715524908],[135.4597202534751,34.672754268102295]],[[135.4597202534751,34.672754268102295],[135.45878196610408,34.67433311443439]],[[135.45878196610408,34.67433311443439],[135.4609997362538,34.67549880471696]],[[135.4609997362538,34.67549880471696],[135.46296160984778,34.6721935563208]],[[135.452601676561,34.66523630355835],[135.45210539233167,34.66506661446659]],[[135.45210539233167,34.66506661446659],[135.45043818749886,34.667294706019355]],[[135.45043818749886,34.667294706019355],[135.45353996393203,34.66845301851533]],[[135.45353996393203,34.66845301851533],[135.45611443837154,34.66643519388062]],[[135.45611443837154,34.66643519388062],[135.452601676561,34.66523630355835]],[[135.44767760647332,34.66540599265012],[135.45026758979503,34.66720986147347]],[[135.45026758979503,34.66720986147347],[135.45043818749886,34.667294706019355]],[[135.45210539233167,34.66506661446659],[135.45103527946225,34.6639415020103]],[[135.45103527946225,34.6639415020103],[135.44767760647332,34.66540599265012]],[[135.46156581045284,34.66052189792187],[135.46037938096717,34.65903527392226]],[[135.46037938096717,34.65903527392226],[135.45806080308336,34.66044074226929]],[[135.45806080308336,34.66044074226929],[135.45603689396071,34.66231101117202]],[[135.45603689396071,34.66231101117202],[135.4595496557713,34.66371279062575]],[[135.4595496557713,34.66371279062575],[135.46156581045284,34.66052189792187]],[[135.45429214471707,34.67210871177492],[135.45097324393356,34.67082128801347],[135.4504149241756,34.67183573367077],[135.45521492320594,34.67361746913433],[135.45620749166454,34.67538444902468]],[[135.45620749166454,34.67538444902468],[135.4576730810292,34.67611484989794]],[[135.4576730810292,34.67611484989794],[135.45878196610408,34.67433311443439]],[[135.45878196610408,34.67433311443439],[135.45457130459604,34.672728445849195],[135.45429214471707,34.67210871177492]],[[135.4557267163174,34.6706700433882],[135.4550520799432,34.67046346536344]],[[135.4550520799432,34.67046346536344],[135.45429214471707,34.67210871177492]],[[135.4597202534751,34.672754268102295],[135.45544755643843,34.67110902169081],[135.4557267163174,34.6706700433882]],[[135.45603689396071,34.66231101117202],[135.45593608622664,34.662292566705524]],[[135.45593608622664,34.662292566705524],[135.452601676561,34.66523630355835]],[[135.45959618241778,34.66373123509224],[135.4595496557713,34.66371279062575]],[[135.46296160984778,34.6721935563208],[135.465132853351,34.672997735060044]],[[135.46751346676345,34.671061066077925],[135.46465207800387,34.669364175160254]],[[135.4579134687028,34.65681087126279],[135.45783592429197,34.65685513798238]],[[135.45783592429197,34.65685513798238],[135.45773511655787,34.65691047138187]],[[135.45773511655787,34.65691047138187],[135.4552769587346,34.65847087324747]],[[135.4552769587346,34.65847087324747],[135.45806080308336,34.66044074226929]],[[135.46037938096717,34.65903527392226],[135.46280652102612,34.657751539054104]],[[135.46280652102612,34.657751539054104],[135.4609997362538,34.65547918078175],[135.4579134687028,34.65681087126279]],[[135.43174223004792,34.65589971461787],[135.43056355500332,34.656976871461254]],[[135.43056355500332,34.656976871461254],[135.43347147040942,34.65841185095468],[135.43355676926132,34.65738264972418],[135.43744174424387,34.65530580279668]],[[135.43744174424387,34.65530580279668],[135.43772865856394,34.655121358131716]],[[135.43772865856394,34.655121358131716],[135.43341718932183,34.653424467214045]],[[135.43341718932183,34.653424467214045],[135.43174223004792,34.65589971461787]],[[135.45683560139227,34.669677731090694],[135.4557267163174,34.6706700433882]],[[135.44575450508475,34.64865472817807],[135.4458785761421,34.648761706083754]],[[135.4458785761421,34.648761706083754],[135.44729763886025,34.64945890691732],[135.45170216139536,34.64731197101713],[135.44413382689842,34.6443829897375],[135.44211767221685,34.64538267982161],[135.44570797843826,34.64676601480884],[135.44575450508475,34.64865472817807]],[[135.46837420972366,34.66328487900303],[135.46652089830485,34.66640937162752]],[[135.46652089830485,34.66640937162752],[135.46955288476826,34.6675935063766]],[[135.46955288476826,34.6675935063766],[135.47094868416318,34.66541705933002]],[[135.47094868416318,34.66541705933002],[135.46837420972366,34.66328487900303]],[[135.4576730810292,34.67611484989794],[135.46204658579998,34.67756827385786],[135.46269020440988,34.676409961361884]],[[135.4615425471296,34.6757791606077],[135.4609997362538,34.67549880471696]],[[135.4640394771583,34.665453948263014],[135.46220167462164,34.66851204080812]],[[135.4646365691217,34.66935679737365],[135.46633479171885,34.66634297154814]],[[135.46633479171885,34.66634297154814],[135.4640394771583,34.665453948263014]],[[135.46631928283668,34.661333454447714],[135.4647296224147,34.66427719130054]],[[135.4647296224147,34.66427719130054],[135.4640394771583,34.665453948263014]],[[135.46633479171885,34.66634297154814],[135.46652089830485,34.66640937162752]],[[135.46837420972366,34.66328487900303],[135.46631928283668,34.661333454447714]],[[135.4640394771583,34.665453948263014],[135.46284529323154,34.664992836600604]],[[135.4456459429096,34.651945221001036],[135.44670054689686,34.65335068934806]],[[135.44670054689686,34.65335068934806],[135.44961621674406,34.652550199502116],[135.44763107982683,34.65080535297155],[135.4456459429096,34.651945221001036]],[[135.43995418315473,34.65590709240446],[135.43948116224868,34.65729042739169],[135.4407839083506,34.65920865190732]],[[135.4407839083506,34.65920865190732],[135.44235030544937,34.65685144908908]],[[135.44235030544937,34.65685144908908],[135.44210991777578,34.6567555378633]],[[135.44210991777578,34.6567555378633],[135.43995418315473,34.65590709240446]],[[135.46470635909142,34.659404163252184],[135.46273673105637,34.66203065528128]],[[135.46273673105637,34.66203065528128],[135.4647296224147,34.66427719130054]],[[135.46631928283668,34.661333454447714],[135.46470635909142,34.659404163252184]],[[135.4291600011673,34.65149517601852],[135.43064885385522,34.652277221397966]],[[135.43064885385522,34.652277221397966],[135.43312252056066,34.65066148613288],[135.4346966721005,34.65125539795407]],[[135.4346966721005,34.65125539795407],[135.43740297203846,34.652214510211884],[135.4388297891977,34.65154313163141]],[[135.4388297891977,34.65154313163141],[135.4332078194126,34.64914903988018],[135.42945466992845,34.65080535297155],[135.4291600011673,34.65149517601852]],[[135.4638998972188,34.658363895341786],[135.46280652102612,34.657751539054104]],[[135.46156581045284,34.66052189792187],[135.46273673105637,34.66203065528128]],[[135.46470635909142,34.659404163252184],[135.4638998972188,34.658363895341786]],[[135.45358649057852,34.66129287662142],[135.45240781553392,34.660831764959006]],[[135.45240781553392,34.660831764959006],[135.44889505372333,34.65945580775838]],[[135.44889505372333,34.65945580775838],[135.44792574858798,34.65899838498927]],[[135.44792574858798,34.65899838498927],[135.44961621674406,34.66167283263125]],[[135.44961621674406,34.66167283263125],[135.45103527946225,34.6639415020103]],[[135.45103527946225,34.6639415020103],[135.45239230665175,34.663358656869015],[135.45358649057852,34.66129287662142]],[[135.45353996393203,34.66845301851533],[135.45683560139227,34.669677731090694]],[[135.4346966721005,34.65125539795407],[135.43341718932183,34.653424467214045]],[[135.43772865856394,34.655121358131716],[135.43783722073908,34.65505495805233]],[[135.43783722073908,34.65505495805233],[135.43995418315473,34.65339495606765],[135.4388297891977,34.65154313163141]],[[135.4532297862887,34.65694736031486],[135.45039166085235,34.65823478407631]],[[135.45039166085235,34.65823478407631],[135.44889505372333,34.65945580775838]],[[135.45240781553392,34.660831764959006],[135.45524594097026,34.65845611767427]],[[135.45524594097026,34.65845611767427],[135.4532297862887,34.65694736031486]],[[135.44961621674406,34.66167283263125],[135.44608019161024,34.663214790030345]],[[135.44608019161024,34.663214790030345],[135.44767760647332,34.66540599265012]],[[135.4407839083506,34.65920865190732],[135.44335062834907,34.66002758621976]],[[135.44335062834907,34.66002758621976],[135.444188107986,34.65833438419539],[135.44595612055292,34.65826798411601]],[[135.44595612055292,34.65826798411601],[135.44453705783474,34.657674072294824]],[[135.44453705783474,34.657674072294824],[135.44235030544937,34.65685144908908]],[[135.44886403595902,34.65618375940191],[135.44873996490168,34.656228026121504]],[[135.44873996490168,34.656228026121504],[135.44775515088415,34.65894305158977]],[[135.44775515088415,34.65894305158977],[135.44792574858798,34.65899838498927]],[[135.45039166085235,34.65823478407631],[135.44886403595902,34.65618375940191]],[[135.45015902761986,34.64879121723015],[135.44866242049085,34.65032579684265],[135.45107405166766,34.65259446622171],[135.4536950527537,34.656268603947794],[135.4555095919671,34.657965494865465],[135.45773511655787,34.65691047138187]],[[135.45783592429197,34.65685513798238],[135.45239230665175,34.65001224091221],[135.45015902761986,34.64879121723015]],[[135.4719955337094,34.66899897472362],[135.47477162361707,34.66686310550334],[135.47094868416318,34.66541705933002]],[[135.4456459429096,34.651945221001036],[135.4439167025481,34.65294491108514],[135.44283883523758,34.65220713242528]],[[135.44283883523758,34.65220713242528],[135.44444400454174,34.65496642461315]],[[135.44444400454174,34.65496642461315],[135.44480070883156,34.65577429224569]],[[135.44480070883156,34.65577429224569],[135.4481506273794,34.65473771322859]],[[135.4481506273794,34.65473771322859],[135.447553535416,34.65335068934806]],[[135.447553535416,34.65335068934806],[135.44670054689686,34.65335068934806]],[[135.44608019161024,34.663214790030345],[135.44462235668666,34.66386034635772]],[[135.44462235668666,34.66386034635772],[135.44780167753066,34.667903373413736],[135.4494611279224,34.668504663021515]],[[135.4494611279224,34.668504663021515],[135.45026758979503,34.66720986147347]],[[135.44444400454174,34.65496642461315],[135.44210991777578,34.6567555378633]],[[135.44453705783474,34.657674072294824],[135.44510313203378,34.65646780418596]],[[135.44510313203378,34.65646780418596],[135.44480070883156,34.65577429224569]],[[135.4494611279224,34.668504663021515],[135.4550520799432,34.67046346536344]],[[135.44595612055292,34.65826798411601],[135.44775515088415,34.65894305158977]],[[135.44873996490168,34.656228026121504],[135.44549860852902,34.657338383004586],[135.44510313203378,34.65646780418596]],[[135.44873996490168,34.656228026121504],[135.4481506273794,34.65473771322859]],[[135.43060232720873,34.65239157709025],[135.4298423919826,34.65448686848424],[135.43174223004792,34.65589971461787]],[[135.43341718932183,34.653424467214045],[135.43060232720873,34.65239157709025]],[[135.45593608622664,34.662292566705524],[135.45358649057852,34.66129287662142]],[[135.4511903682839,34.654372512791966],[135.44886403595902,34.65618375940191]],[[135.4532297862887,34.65694736031486],[135.4511903682839,34.654372512791966]],[[135.4420013556006,34.652760466420176],[135.44166791463405,34.65294122219184]],[[135.44166791463405,34.65294122219184],[135.4381551528235,34.65516931374461]],[[135.4381551528235,34.65516931374461],[135.43995418315473,34.65590709240446]],[[135.44283883523758,34.65220713242528],[135.44314125843982,34.653343311561464],[135.44084594387925,34.6547008242956],[135.4420013556006,34.652760466420176]],[[135.43064885385522,34.652277221397966],[135.43060232720873,34.65239157709025]],[[135.44335062834907,34.66002758621976],[135.4423270421261,34.661204343182234]],[[135.4423270421261,34.661204343182234],[135.44462235668666,34.66386034635772]],[[135.44608019161024,34.663214790030345],[135.44335062834907,34.66002758621976]],[[135.4511903682839,34.654372512791966],[135.4499108855052,34.65289695547225],[135.447553535416,34.65335068934806]],[[135.4381551528235,34.65516931374461],[135.43783722073908,34.65505495805233]],[[135.43744174424387,34.65530580279668],[135.43913221239993,34.66031900879041],[135.4423270421261,34.661204343182234]],[[135.4291600011673,34.65149517601852],[135.42617454135038,34.65010815213799],[135.42554643162265,34.65130704246026],[135.42890410461155,34.652299354757766],[135.42803560721026,34.65484838002757],[135.43056355500332,34.656976871461254]],[[135.4579134687028,34.65681087126279],[135.46055773311207,34.65496273571985],[135.45502106217884,34.64834117224763],[135.45240781553392,34.64777677157284],[135.45015902761986,34.64879121723015]],[[135.44575450508475,34.64865472817807],[135.43989990206714,34.64619423634745],[135.4353713084747,34.64802392742389],[135.43886856140313,34.64958801818279],[135.44062881952894,34.653074022350616],[135.44166791463405,34.65294122219184]],[[135.4420013556006,34.652760466420176],[135.44639812369465,34.64990895189983],[135.4458785761421,34.648761706083754]],[[135.4552769587346,34.65847087324747],[135.45524594097026,34.65845611767427]],[[135.4638998972188,34.658363895341786],[135.45729311341614,34.64939250683793],[135.45379586048776,34.64707219295268],[135.4432808383793,34.6433390329338],[135.4333861715575,34.64589174709691],[135.42773318400805,34.64576263583143],[135.41608601350148,34.6448846792262],[135.4075871460746,34.642741432219324],[135.39723496722888,34.64068302975832],[135.40764918160326,34.64532734642212],[135.42192510763692,34.651487798231926],[135.42586436370706,34.6557374033127],[135.42971056648418,34.658216339609815],[135.4377906940926,34.661521588005975],[135.44159812466432,34.66432514691343],[135.44919747692558,34.67251817893114],[135.45620749166454,34.67538444902468]]]}