{"type":"Topology","bbox":[135.51431072165516,34.69100343736981,135.54068796275823,34.73113808729262],"objects":{"town":{"type":"GeometryCollection","geometries":[{"type":"MultiPolygon","arcs":[[[3,0,1,76,77,78,79]]],"properties":{"name":"片町"}},{"type":"MultiPolygon","arcs":[[[11,12,5,6,7,8,9,-111,-58,116,-113]]],"properties":{"name":"都島中通"}},{"type":"MultiPolygon","arcs":[[[13,14,15,120,121,122,-109]]],"properties":{"name":"善源寺町"}},{"type":"MultiPolygon","arcs":[[[-22,-104,-98,87,88,82,17,18,83,89,115]]],"properties":{"name":"内代町"}},{"type":"MultiPolygon","arcs":[[[-42,72,-15,-108,102,-95,103,21,22,-6,-13,-12,112,-117,-57,-43]]],"properties":{"name":"都島本通"}},{"type":"MultiPolygon","arcs":[[[104,128,-119,23,24,129,106,-37,-67]]],"properties":{"name":"大東町"}},{"type":"Polygon","arcs":[[26,27,28,-1]],"properties":{"name":"網島町"}},{"type":"MultiPolygon","arcs":[[[-49,-28,75,31,40,41,42,43,-56,-50,46]]],"properties":{"name":"中野町"}},{"type":"MultiPolygon","arcs":[[[67,68,69,114,35,36,37,38,-93,71]]],"properties":{"name":"高倉町"}},{"type":"MultiPolygon","arcs":[[[-2,-29,48,-47,49,50,51,-112,-8,123,86,-79,-78,-77]]],"properties":{"name":"東野田町"}},{"type":"MultiPolygon","arcs":[[[-52,-51,55,-44,56,57,110,-10,-9,111]]],"properties":{"name":"都島南通"}},{"type":"MultiPolygon","arcs":[[[117,-24,118,-129,-105,-66,-127,-126,131,59,98]]],"properties":{"name":"毛馬町"}},{"type":"MultiPolygon","arcs":[[[-110,-123,-122,124,125,126,65,66,-36,-115,-70]]],"properties":{"name":"友渕町"}},{"type":"MultiPolygon","arcs":[[[-97,-72,92,-39,93,-18,-83,-89]]],"properties":{"name":"御幸町"}},{"type":"MultiPolygon","arcs":[[[-68,96,-88,97,94,-103,107,-14,108,109,-69]]],"properties":{"name":"都島北通"}}]}},"arcs":[[[135.52091360539163,34.69147707360252],[135.52700735746166,34.69431086326604]],[[135.52700735746166,34.69431086326604],[135.52706803118355,34.694106156080714]],[[135.52706803118355,34.694106156080714],[135.52862708203784,34.69321909161097]],[[135.52862708203784,34.69321909161097],[135.52500776262656,34.6916336143913],[135.5222932730681,34.69100343736981],[135.52091360539163,34.69147707360252]],[[135.5337790724243,34.70252724774369],[135.5341615806711,34.70579052110975]],[[135.5341615806711,34.70579052110975],[135.53652257984976,34.70567813285113]],[[135.53652257984976,34.70567813285113],[135.53689717413286,34.70222219389889]],[[135.53689717413286,34.70222219389889],[135.53539615901258,34.70237873468766]],[[135.53539615901258,34.70237873468766],[135.5337790724243,34.70252724774369]],[[135.5337790724243,34.70252724774369],[135.53028901442056,34.70324974369189]],[[135.53028901442056,34.70324974369189],[135.53039453393694,34.70594706189853]],[[135.53039453393694,34.70594706189853],[135.53039453393694,34.70596311736404]],[[135.53039453393694,34.70596311736404],[135.5341615806711,34.70579052110975]],[[135.52713134289337,34.71042252291102],[135.5260075600441,34.70900562807926]],[[135.5260075600441,34.70900562807926],[135.52105078076292,34.71137380924282]],[[135.52105078076292,34.71137380924282],[135.52150451468327,34.71259001075563]],[[135.52150451468327,34.71259001075563],[135.52298178791236,34.71242142836772],[135.52713134289337,34.71042252291102]],[[135.53512972223376,34.71464912420802],[135.53541462492794,34.71755917733274]],[[135.53541462492794,34.71755917733274],[135.5381897882083,34.714404278358906]],[[135.5381897882083,34.714404278358906],[135.53512972223376,34.71464912420802]],[[135.5341615806711,34.70579052110975],[135.5345335369663,34.70853199184655]],[[135.5345335369663,34.70853199184655],[135.5360398280624,34.70824700733365]],[[135.5360398280624,34.70824700733365],[135.53652257984976,34.70567813285113]],[[135.52682269830802,34.72583175593969],[135.5249972106749,34.72724062303869],[135.5252214396472,34.72848090774978],[135.52366766476874,34.7309895742366]],[[135.52366766476874,34.7309895742366],[135.52663012519065,34.73113808729262],[135.52938418456773,34.726076601788805]],[[135.52938418456773,34.726076601788805],[135.52682269830802,34.72583175593969]],[[135.52091360539163,34.69147707360252],[135.52037017988235,34.69176205811542],[135.52256498582273,34.694535639783254],[135.5228498885169,34.697497873170896]],[[135.5228498885169,34.697497873170896],[135.52623442700428,34.69736942944677]],[[135.52623442700428,34.69736942944677],[135.52700735746166,34.69431086326604]],[[135.52422164222963,34.70152378114896],[135.52421636625382,34.70152378114896]],[[135.52421636625382,34.70152378114896],[135.52091096740372,34.70096585372229]],[[135.52091096740372,34.70096585372229],[135.51853941627346,34.70414483589439]],[[135.51853941627346,34.70414483589439],[135.52344079780855,34.70492753983828]],[[135.52344079780855,34.70492753983828],[135.52422164222963,34.70152378114896]],[[135.53291117440222,34.717575232798254],[135.53068998858274,34.71771170425514]],[[135.53068998858274,34.71771170425514],[135.53106194487793,34.72159712690993]],[[135.53106194487793,34.72159712690993],[135.53217253778766,34.72149276638408]],[[135.53217253778766,34.72149276638408],[135.5342459962842,34.71896403056536]],[[135.5342459962842,34.71896403056536],[135.53291117440222,34.717575232798254]],[[135.52344079780855,34.70493155370466],[135.52344079780855,34.70492753983828]],[[135.51853941627346,34.70414483589439],[135.51772164002162,34.706653502381215],[135.5185024844427,34.70846776998449]],[[135.5185024844427,34.70846776998449],[135.52001405151464,34.708018216950045],[135.52297387394864,34.70847981158362]],[[135.52297387394864,34.70847981158362],[135.52329834646144,34.70691841756222],[135.52558548197865,34.70613571361833]],[[135.52558548197865,34.70613571361833],[135.52344079780855,34.70493155370466]],[[135.5261526493791,34.697839051813105],[135.52421636625382,34.70152378114896]],[[135.52422164222963,34.70152378114896],[135.52845825081164,34.7017445437998],[135.52855321837637,34.70117858864037]],[[135.52855321837637,34.70117858864037],[135.5261526493791,34.697839051813105]],[[135.529579395673,34.698003620334646],[135.52623442700428,34.69736942944677]],[[135.52623442700428,34.69736942944677],[135.5261526493791,34.697839051813105]],[[135.52855321837637,34.70117858864037],[135.52918369748664,34.70169637740325]],[[135.52918369748664,34.70169637740325],[135.52920743937784,34.70172848833428]],[[135.52920743937784,34.70172848833428],[135.53173463179476,34.70021124684305]],[[135.53173463179476,34.70021124684305],[135.53303515983393,34.69869400535182]],[[135.53303515983393,34.69869400535182],[135.53302988385812,34.69869400535182]],[[135.53302988385812,34.69869400535182],[135.529579395673,34.698003620334646]],[[135.52918369748664,34.70169637740325],[135.52344079780855,34.70493155370466]],[[135.52558548197865,34.70613571361833],[135.52647712189193,34.70548546726495]],[[135.52647712189193,34.70548546726495],[135.53024680661403,34.7032096050281]],[[135.53024680661403,34.7032096050281],[135.52920743937784,34.70172848833428]],[[135.51746311720655,34.719325278539465],[135.51431072165516,34.72069802084105],[135.51575106305353,34.72260059350466]],[[135.51575106305353,34.72260059350466],[135.5205020792778,34.72248820524605],[135.5217709514621,34.72194231941852]],[[135.5217709514621,34.72194231941852],[135.52236977471745,34.720914769625516]],[[135.52236977471745,34.720914769625516],[135.51746311720655,34.719325278539465]],[[135.53068998858274,34.71771170425514],[135.5299196961133,34.71775987065168]],[[135.5299196961133,34.71775987065168],[135.530043681545,34.71900416922915],[135.52784623761673,34.71999158035836],[135.5280045168913,34.721625223974584]],[[135.5280045168913,34.721625223974584],[135.52825248775474,34.721689445836645]],[[135.52825248775474,34.721689445836645],[135.53106194487793,34.72159712690993]],[[135.532394128772,34.7119879307988],[135.5308509058452,34.71208827745827]],[[135.5308509058452,34.71208827745827],[135.52864027197737,34.71254585822547]],[[135.52864027197737,34.71254585822547],[135.5304103618644,34.714934108720925]],[[135.5304103618644,34.714934108720925],[135.53266320353876,34.71478559566491]],[[135.53266320353876,34.71478559566491],[135.532394128772,34.7119879307988]],[[135.5185024844427,34.70846776998449],[135.52105078076292,34.71137380924282]],[[135.5260075600441,34.70900562807926],[135.525720019362,34.708921336885304]],[[135.525720019362,34.708921336885304],[135.52297387394864,34.70847981158362]],[[135.5228498885169,34.697497873170896],[135.52091096740372,34.70096585372229]],[[135.52706803118355,34.694106156080714],[135.53077968017166,34.696129144735686]],[[135.53077968017166,34.696129144735686],[135.53373950260567,34.697068389468356]],[[135.53373950260567,34.697068389468356],[135.5341246488404,34.69689980708044]],[[135.5341246488404,34.69689980708044],[135.53478678380557,34.6954026349211],[135.52862708203784,34.69321909161097]],[[135.53077968017166,34.696129144735686],[135.529579395673,34.698003620334646]],[[135.53302988385812,34.69869400535182],[135.53373950260567,34.697068389468356]],[[135.53495825301968,34.71279471794096],[135.53512972223376,34.71464912420802]],[[135.5381897882083,34.714404278358906],[135.53881235335487,34.713589463483984]],[[135.53881235335487,34.713589463483984],[135.53863824615286,34.71252578889357],[135.53495825301968,34.71279471794096]],[[135.53303515983393,34.69869400535182],[135.5363880424664,34.69938439036899]],[[135.5363880424664,34.69938439036899],[135.5356652337793,34.697004167606295],[135.5341246488404,34.69689980708044]],[[135.53477623185395,34.710920242342006],[135.53486592344285,34.71183941774278]],[[135.53486592344285,34.71183941774278],[135.53495825301968,34.71279471794096]],[[135.53881235335487,34.713589463483984],[135.54068796275823,34.7113978924411],[135.53974620107468,34.710386398113606]],[[135.53974620107468,34.710386398113606],[135.53477623185395,34.710920242342006]],[[135.53512972223376,34.71464912420802],[135.53266320353876,34.71478559566491]],[[135.53266320353876,34.71478559566491],[135.53291117440222,34.717575232798254]],[[135.5342459962842,34.71896403056536],[135.53541462492794,34.71755917733274]],[[135.53454672690586,34.70863233850602],[135.53057919309057,34.7088089486267]],[[135.53057919309057,34.7088089486267],[135.5308509058452,34.71208827745827]],[[135.532394128772,34.7119879307988],[135.53486592344285,34.71183941774278]],[[135.53477623185395,34.710920242342006],[135.53454672690586,34.70863233850602]],[[135.51575106305353,34.72260059350466],[135.51950491984817,34.72661445988358]],[[135.51950491984817,34.72661445988358],[135.52274964497636,34.72476005361652]],[[135.52274964497636,34.72476005361652],[135.5217709514621,34.72194231941852]],[[135.53039453393694,34.70596311736404],[135.53057919309057,34.708800920893935]],[[135.53057919309057,34.708800920893935],[135.53057919309057,34.7088089486267]],[[135.53454672690586,34.70863233850602],[135.5345335369663,34.70853199184655]],[[135.52825248775474,34.721689445836645],[135.52658000342038,34.72244806658226]],[[135.52658000342038,34.72244806658226],[135.5300093877022,34.72494067760357]],[[135.5300093877022,34.72494067760357],[135.53217253778766,34.72149276638408]],[[135.53057919309057,34.708800920893935],[135.5260075600441,34.70900562807926]],[[135.52713134289337,34.71042252291102],[135.5284978206303,34.71235720650566]],[[135.5284978206303,34.71235720650566],[135.52864027197737,34.71254585822547]],[[135.53024680661403,34.7032096050281],[135.53028901442056,34.70324974369189]],[[135.53539615901258,34.70237873468766],[135.53429084207866,34.70040391242924],[135.53173463179476,34.70021124684305]],[[135.53039453393694,34.70594706189853],[135.52630565267782,34.70620394934677]],[[135.52630565267782,34.70620394934677],[135.525720019362,34.708921336885304]],[[135.5304103618644,34.714934108720925],[135.53068998858274,34.71771170425514]],[[135.53974620107468,34.710386398113606],[135.53762525879577,34.70838347879053],[135.5360398280624,34.70824700733365]],[[135.52647712189193,34.70548546726495],[135.52630565267782,34.70620394934677]],[[135.51950491984817,34.72661445988358],[135.52289209632346,34.72898264104714],[135.52199518043437,34.729873719383264],[135.52366766476874,34.7309895742366]],[[135.52682269830802,34.72583175593969],[135.52593633437056,34.72438676404328]],[[135.52593633437056,34.72438676404328],[135.52274964497636,34.72476005361652]],[[135.52150451468327,34.71259001075563],[135.5215625504173,34.713818253867586]],[[135.5215625504173,34.713818253867586],[135.5265061397589,34.71336067310039]],[[135.5265061397589,34.71336067310039],[135.5284978206303,34.71235720650566]],[[135.53689717413286,34.70222219389889],[135.5363880424664,34.69938439036899]],[[135.5215625504173,34.713818253867586],[135.52092151935537,34.71615432410012]],[[135.52092151935537,34.71615432410012],[135.52409501881002,34.71942161133256]],[[135.52409501881002,34.71942161133256],[135.5280045168913,34.721625223974584]],[[135.5299196961133,34.71775987065168],[135.52967436323775,34.71523113483296],[135.5265061397589,34.71336067310039]],[[135.52658000342038,34.72244806658226],[135.52527947538118,34.72254038550898],[135.52593633437056,34.72438676404328]],[[135.52938418456773,34.726076601788805],[135.5300093877022,34.72494067760357]],[[135.52409501881002,34.71942161133256],[135.52236977471745,34.720914769625516]],[[135.52092151935537,34.71615432410012],[135.51885861281045,34.718763337246415],[135.51746311720655,34.719325278539465]]]}