{"type":"Topology","bbox":[135.53390031251874,34.67827554256413,135.56717116917457,34.71544784123956],"objects":{"town":{"type":"GeometryCollection","geometries":[{"type":"MultiPolygon","arcs":[[[-7,12,15,16,3,4,0,1,14,10,191,-121,-8]]],"properties":{"name":"野江"}},{"type":"MultiPolygon","arcs":[[[-16,-13,6,7,120,121,181,-60,-59,-58,-44,140,100,101,102]]],"properties":{"name":"成育"}},{"type":"MultiPolygon","arcs":[[[-119,163,19,20,21,22,-25,-89,-88,93,-136,159,157,-55,-120]]],"properties":{"name":"今福西"}},{"type":"MultiPolygon","arcs":[[[26,89,90,86,87,88,24,-23,-22,-106,145]]],"properties":{"name":"今福東"}},{"type":"MultiPolygon","arcs":[[[29,30,31,32,33,34,185,-72]]],"properties":{"name":"森之宮"}},{"type":"MultiPolygon","arcs":[[[43,57,58,59,60,69,70,67,128,37,38,-21,-20,-164,-118,-101,-141]]],"properties":{"name":"関目"}},{"type":"MultiPolygon","arcs":[[[40,41,50,47,48,49,192,193,194,195,196]]],"properties":{"name":"鴫野東"}},{"type":"MultiPolygon","arcs":[[[-102,117,118,119,54,55,56,51,-96,-4,-17,-103]]],"properties":{"name":"中央"}},{"type":"MultiPolygon","arcs":[[[-134,161,66,62,63,-154,187,188,-138,-130]]],"properties":{"name":"放出西"}},{"type":"MultiPolygon","arcs":[[[-151,-201,-194,-193,-50,-175,-174,-31,-30,71,72,207,-147]]],"properties":{"name":"鴫野西"}},{"type":"MultiPolygon","arcs":[[[76,77,107,106,-34,-33,-32,173,174,-85,175]]],"properties":{"name":"中浜"}},{"type":"MultiPolygon","arcs":[[[208,-108,-78,-77,-176,84,-49,-48,-181,-180,-109,-167,-166,-198,171,-126,172,112]]],"properties":{"name":"東中浜"}},{"type":"MultiPolygon","arcs":[[[-5,95,-52,-57,-56,-158,176,177,-199,97,98,-149,186,-1]]],"properties":{"name":"蒲生"}},{"type":"MultiPolygon","arcs":[[[139,104,105,-39,-38,-129,-68,-71,164]]],"properties":{"name":"古市"}},{"type":"MultiPolygon","arcs":[[[124,125,-172,197,165,166,108,109,-63,110,167,-142,-156,127]]],"properties":{"name":"永田"}},{"type":"MultiPolygon","arcs":[[[135,-94,-87,-91,184,132,133,129,137,-189,205,-196,-200,-177,-160]]],"properties":{"name":"今福南"}},{"type":"MultiPolygon","arcs":[[[143,156,204,-128,155,141,-168,206]]],"properties":{"name":"諏訪"}},{"type":"MultiPolygon","arcs":[[[150,146,147,148,-99,-98,198,-178,199,-195,200]]],"properties":{"name":"新喜多"}},{"type":"MultiPolygon","arcs":[[[153,-64,151,-42,-41,-197,-206,-188]]],"properties":{"name":"新喜多東"}},{"type":"Polygon","arcs":[[179,180,-51,-152,-110]],"properties":{"name":"天王田"}}]}},"arcs":[[[135.5384122918792,34.69991198403738],[135.53641584083476,34.69951420066321]],[[135.53641584083476,34.69951420066321],[135.53694822777993,34.70252174038003]],[[135.53694822777993,34.70252174038003],[135.53708132451624,34.703216931884405],[135.54024902684012,34.70290837094931],[135.5411840314126,34.70372252570578]],[[135.5411840314126,34.70372252570578],[135.54109086369718,34.702592374810955]],[[135.54109086369718,34.702592374810955],[135.54016584137992,34.7007335739971],[135.5384122918792,34.69991198403738]],[[135.54291096156604,34.7065441853412],[135.54138700393545,34.70657764375585]],[[135.54138700393545,34.70657764375585],[135.54147018939562,34.708291458106224]],[[135.54147018939562,34.708291458106224],[135.54138700393545,34.70999783725334]],[[135.54138700393545,34.70999783725334],[135.5449506690498,34.70955916026127]],[[135.5449506690498,34.70955916026127],[135.54291096156604,34.7065441853412]],[[135.53653895531582,34.705648243348925],[135.53601322320745,34.708436444569706],[135.5376503130639,34.70840670375669]],[[135.5376503130639,34.70840670375669],[135.54147018939562,34.708291458106224]],[[135.54138700393545,34.70657764375585],[135.5412705442912,34.70553299769847]],[[135.5412705442912,34.70553299769847],[135.53653895531582,34.705648243348925]],[[135.53694822777993,34.70252174038003],[135.53653895531582,34.705648243348925]],[[135.5412705442912,34.70553299769847],[135.54121065075984,34.70457013887689]],[[135.54121065075984,34.70457013887689],[135.5411840314126,34.70372252570578]],[[135.55002830953953,34.702607245217465],[135.54941939197096,34.702826583713495]],[[135.54941939197096,34.702826583713495],[135.54980204508783,34.70511662631616]],[[135.54980204508783,34.70511662631616],[135.54986193861916,34.70548466887731]],[[135.54986193861916,34.70548466887731],[135.55415763578313,34.7054028816415]],[[135.55415763578313,34.7054028816415],[135.5540611406493,34.70354036322602]],[[135.5540611406493,34.70354036322602],[135.5540112293732,34.70251058757514]],[[135.5540112293732,34.70251058757514],[135.55002830953953,34.702607245217465]],[[135.55393469874983,34.701161098184286],[135.5540112293732,34.70251058757514]],[[135.5540611406493,34.70354036322602],[135.56006713087473,34.703402811965795]],[[135.56006713087473,34.703402811965795],[135.56002054701702,34.70194922972936]],[[135.56002054701702,34.70194922972936],[135.55393469874983,34.701161098184286]],[[135.53759041953256,34.68149870317535],[135.5380063468335,34.682654877281564],[135.5377867372186,34.68956589870747]],[[135.5377867372186,34.68956589870747],[135.5397964979367,34.6893948890326]],[[135.5397964979367,34.6893948890326],[135.54018580589036,34.68935027781306]],[[135.54018580589036,34.68935027781306],[135.54147018939562,34.68797848281244],[135.5409644217977,34.68673308626716]],[[135.5409644217977,34.68673308626716],[135.54065829930423,34.68585944988465]],[[135.54065829930423,34.68585944988465],[135.54012258494063,34.68367721772918]],[[135.54012258494063,34.68367721772918],[135.5404653090366,34.68136858711838],[135.53759041953256,34.68149870317535]],[[135.54986193861916,34.70548466887731],[135.5499684160082,34.709235728919666]],[[135.5499684160082,34.709235728919666],[135.55429405993783,34.70913535367571]],[[135.55429405993783,34.70913535367571],[135.55429405993783,34.70912420087083]],[[135.55429405993783,34.70912420087083],[135.55415763578313,34.7054028816415]],[[135.54619512353418,34.69225744228593],[135.54646797184358,34.695272417206]],[[135.54646797184358,34.695272417206],[135.54946930324706,34.69317568988797]],[[135.54946930324706,34.69317568988797],[135.5501480966022,34.69160686200108]],[[135.5501480966022,34.69160686200108],[135.54619512353418,34.69225744228593]],[[135.5464313702411,34.709310080952214],[135.54645133475154,34.71177113322976]],[[135.54645133475154,34.71177113322976],[135.5500682385604,34.712053670953466]],[[135.5500682385604,34.712053670953466],[135.5499684160082,34.709235728919666]],[[135.5499684160082,34.709235728919666],[135.5464313702411,34.709310080952214]],[[135.55021131755194,34.68819410370685],[135.5488171292392,34.688253585332895]],[[135.5488171292392,34.688253585332895],[135.54560949789447,34.68859932228427]],[[135.54560949789447,34.68859932228427],[135.54619512353418,34.69225744228593]],[[135.5501480966022,34.69160686200108],[135.55021131755194,34.68819410370685]],[[135.54097107663452,34.70009786411876],[135.54104095242107,34.701993840948894]],[[135.54104095242107,34.701993840948894],[135.543882567741,34.70168528001379]],[[135.543882567741,34.70168528001379],[135.54631491059683,34.70156259916008]],[[135.54631491059683,34.70156259916008],[135.54630160092321,34.70032092021643]],[[135.54630160092321,34.70032092021643],[135.54384596613852,34.70021682737085]],[[135.54384596613852,34.70021682737085],[135.54097107663452,34.70009786411876]],[[135.54645133475154,34.71177113322976],[135.5464346976595,34.7117636980265]],[[135.5464346976595,34.7117636980265],[135.5464346976595,34.71204995335184]],[[135.5464346976595,34.71204995335184],[135.5465212105381,34.71538092441026]],[[135.5465212105381,34.71538092441026],[135.55016140627583,34.71536605400375]],[[135.55016140627583,34.71536605400375],[135.5500682385604,34.712053670953466]],[[135.55914876339426,34.68858073427613],[135.5542740954274,34.69022763179721]],[[135.5542740954274,34.69022763179721],[135.55436060830598,34.691249972244826]],[[135.55436060830598,34.691249972244826],[135.55444379376618,34.692309488708716]],[[135.55444379376618,34.692309488708716],[135.55943824879571,34.69180761248898]],[[135.55943824879571,34.69180761248898],[135.55914876339426,34.68858073427613]],[[135.5544038647453,34.71194214290463],[135.5543639357244,34.71192727249812]],[[135.5543639357244,34.71192727249812],[135.5500682385604,34.712053670953466]],[[135.55016140627583,34.71536605400375],[135.55451699697113,34.71525452595492]],[[135.55451699697113,34.71525452595492],[135.5544038647453,34.71194214290463]],[[135.5377867372186,34.68956589870747],[135.53469889293652,34.68977408439862]],[[135.53469889293652,34.68977408439862],[135.53548749109908,34.692900587367525]],[[135.53548749109908,34.692900587367525],[135.53927742066514,34.693290935538435]],[[135.53927742066514,34.693290935538435],[135.5397964979367,34.6893948890326]],[[135.5409644217977,34.68673308626716],[135.5452201899408,34.68561780577885]],[[135.5452201899408,34.68561780577885],[135.5450005803259,34.68396719065615]],[[135.5450005803259,34.68396719065615],[135.54495732388662,34.68367350012756]],[[135.54495732388662,34.68367350012756],[135.54178962156274,34.684008084274055],[135.54065829930423,34.68585944988465]],[[135.55112635761398,34.68358799529012],[135.5484577680512,34.68374041695686]],[[135.5484577680512,34.68374041695686],[135.5486807050845,34.68618659882789]],[[135.5486807050845,34.68618659882789],[135.55131934788162,34.686034177161154]],[[135.55131934788162,34.686034177161154],[135.55112635761398,34.68358799529012]],[[135.5486807050845,34.68618659882789],[135.54532333991142,34.68637247890927]],[[135.54532333991142,34.68637247890927],[135.54560949789447,34.68859932228427]],[[135.5488171292392,34.688253585332895],[135.5486807050845,34.68618659882789]],[[135.55389476972894,34.69901975964673],[135.5538714778001,34.69905321806138]],[[135.5538714778001,34.69905321806138],[135.5539213890762,34.70120199180219]],[[135.5539213890762,34.70120199180219],[135.55393469874983,34.701161098184286]],[[135.56002054701702,34.70194922972936],[135.55993736155682,34.69992313684226]],[[135.55993736155682,34.69992313684226],[135.55389476972894,34.69901975964673]],[[135.5495757806361,34.69829854493095],[135.5497088773724,34.70071126838733]],[[135.5497088773724,34.70071126838733],[135.5539213890762,34.70120199180219]],[[135.5538714778001,34.69905321806138],[135.5495757806361,34.69829854493095]],[[135.53799969199667,34.69741003814193],[135.5394870480248,34.699350626191595],[135.5384122918792,34.69991198403738]],[[135.54109086369718,34.702592374810955],[135.54104095242107,34.701993840948894]],[[135.54097107663452,34.70009786411876],[135.54184618767567,34.697952807979576]],[[135.54184618767567,34.697952807979576],[135.54111082820762,34.697949090377946]],[[135.54111082820762,34.697949090377946],[135.53799969199667,34.69741003814193]],[[135.54291096156604,34.7065441853412],[135.54638478638338,34.70649585652004]],[[135.54638478638338,34.70649585652004],[135.546381458965,34.70555902090986]],[[135.546381458965,34.70555902090986],[135.54421863700017,34.70546236326754]],[[135.54421863700017,34.70546236326754],[135.54121065075984,34.70457013887689]],[[135.55429405993783,34.70912420087083],[135.56021686470305,34.70899780241549]],[[135.56021686470305,34.70899780241549],[135.56012702440606,34.70525417757639]],[[135.56012702440606,34.70525417757639],[135.55415763578313,34.7054028816415]],[[135.54474769652694,34.68190392175277],[135.54164986998964,34.68227939951717],[135.54012258494063,34.68367721772918]],[[135.54495732388662,34.68367350012756],[135.54474769652694,34.68190392175277]],[[135.55408775999658,34.6879598948043],[135.55409108741497,34.68799707082058]],[[135.55409108741497,34.68799707082058],[135.5542740954274,34.69022763179721]],[[135.55914876339426,34.68858073427613],[135.5590788876077,34.68761415785293]],[[135.5590788876077,34.68761415785293],[135.55408775999658,34.6879598948043]],[[135.5508235625389,34.68107117898816],[135.5479054165956,34.6814652447607]],[[135.5479054165956,34.6814652447607],[135.548447785796,34.68374041695686]],[[135.548447785796,34.68374041695686],[135.5484577680512,34.68374041695686]],[[135.55112635761398,34.68358799529012],[135.5508235625389,34.68107117898816]],[[135.543882567741,34.70168528001379],[135.54421863700017,34.70546236326754]],[[135.546381458965,34.70555902090986],[135.54635483961772,34.70460731489317]],[[135.54635483961772,34.70460731489317],[135.54633154768888,34.70286375972977]],[[135.54633154768888,34.70286375972977],[135.54631491059683,34.70156259916008]],[[135.54138700393545,34.70999783725334],[135.5406017331913,34.711306433026294]],[[135.5406017331913,34.711306433026294],[135.54207245212737,34.712897566522955]],[[135.54207245212737,34.712897566522955],[135.5464346976595,34.71204995335184]],[[135.5464346976595,34.7117636980265],[135.5449506690498,34.70955916026127]],[[135.55801078629892,34.67927185980035],[135.55357866498025,34.68077005325632]],[[135.55357866498025,34.68077005325632],[135.55366185044042,34.681833287321844]],[[135.55366185044042,34.681833287321844],[135.55832023621082,34.68148383276884]],[[135.55832023621082,34.68148383276884],[135.55801078629892,34.67927185980035]],[[135.5543639357244,34.71192727249812],[135.55429405993783,34.70913535367571]],[[135.55448705020547,34.69564045976714],[135.55379827459512,34.69559956614924]],[[135.55379827459512,34.69559956614924],[135.55383154877921,34.69744721415821]],[[135.55383154877921,34.69744721415821],[135.55971775194195,34.697309662897986]],[[135.55971775194195,34.697309662897986],[135.5596146019713,34.69592299749085]],[[135.5596146019713,34.69592299749085],[135.55448705020547,34.69564045976714]],[[135.55121287049258,34.6954731676939],[135.5492130920297,34.6980903592398]],[[135.5492130920297,34.6980903592398],[135.5495757806361,34.69829854493095]],[[135.55389476972894,34.69901975964673],[135.55383154877921,34.69744721415821]],[[135.55379827459512,34.69559956614924],[135.55121287049258,34.6954731676939]],[[135.5544038647453,34.71194214290463],[135.56029672274482,34.71180459164441]],[[135.56029672274482,34.71180459164441],[135.56021686470305,34.70899780241549]],[[135.5464313702411,34.709310080952214],[135.54638478638338,34.70649585652004]],[[135.55865963288838,34.684004366672426],[135.55889920701372,34.6860007187465]],[[135.55889920701372,34.6860007187465],[135.56298860423644,34.68566241699838],[135.5640966345661,34.684636358949135]],[[135.5640966345661,34.684636358949135],[135.56452587154067,34.683465314436404]],[[135.56452587154067,34.683465314436404],[135.55865963288838,34.684004366672426]],[[135.56012702440606,34.70525417757639],[135.56006713087473,34.703402811965795]],[[135.53889476754827,34.6961981000113],[135.5347887332335,34.69540253326297]],[[135.5347887332335,34.69540253326297],[135.53412324955204,34.69689700911731],[135.5356671716931,34.69700481956451]],[[135.5356671716931,34.69700481956451],[135.53799969199667,34.69741003814193]],[[135.54111082820762,34.697949090377946],[135.54075479443804,34.69623527602758]],[[135.54075479443804,34.69623527602758],[135.53889476754827,34.6961981000113]],[[135.5542740954274,34.69022763179721],[135.5501480966022,34.69160686200108]],[[135.54946930324706,34.69317568988797],[135.5519016461029,34.69439506322186]],[[135.5519016461029,34.69439506322186],[135.55436060830598,34.691249972244826]],[[135.56365741533634,34.681015414963746],[135.55832023621082,34.68148383276884]],[[135.55832023621082,34.68148383276884],[135.55865963288838,34.684004366672426]],[[135.56452587154067,34.683465314436404],[135.56365741533634,34.681015414963746]],[[135.5462550170655,34.69726133407682],[135.54630160092321,34.70032092021643]],[[135.54630160092321,34.70032092021643],[135.5497088773724,34.70071126838733]],[[135.5492130920297,34.6980903592398],[135.5462550170655,34.69726133407682]],[[135.55444379376618,34.692309488708716],[135.55448705020547,34.69564045976714]],[[135.5596146019713,34.69592299749085],[135.55943824879571,34.69180761248898]],[[135.54941939197096,34.702826583713495],[135.54633154768888,34.70286375972977]],[[135.54635483961772,34.70460731489317],[135.54980204508783,34.70511662631616]],[[135.55451699697113,34.71525452595492],[135.56039987271546,34.715116974694695],[135.56029672274482,34.71180459164441]],[[135.5538348761976,34.684260881184734],[135.55394135358665,34.68585944988465]],[[135.55394135358665,34.68585944988465],[135.55408775999658,34.6879598948043]],[[135.5590788876077,34.68761415785293],[135.55889920701372,34.6860007187465]],[[135.55865963288838,34.684004366672426],[135.5538348761976,34.684260881184734]],[[135.5497088773724,34.70071126838733],[135.55002830953953,34.702607245217465]],[[135.55112635761398,34.68358799529012],[135.55376832782946,34.683446726428265]],[[135.55376832782946,34.683446726428265],[135.55366185044042,34.681833287321844]],[[135.55357866498025,34.68077005325632],[135.5508235625389,34.68107117898816]],[[135.54018580589036,34.68935027781306],[135.54220222144525,34.68901197606495]],[[135.54220222144525,34.68901197606495],[135.54560949789447,34.68859932228427]],[[135.54532333991142,34.68637247890927],[135.5452201899408,34.68561780577885]],[[135.5462550170655,34.69726133407682],[135.54621508804462,34.69725389887357]],[[135.54621508804462,34.69725389887357],[135.5432004469675,34.69761822383308]],[[135.5432004469675,34.69761822383308],[135.54384596613852,34.70021682737085]],[[135.55409108741497,34.68799707082058],[135.55148239138356,34.68812718687755]],[[135.55148239138356,34.68812718687755],[135.55021131755194,34.68819410370685]],[[135.54207245212737,34.712897566522955],[135.5465212105381,34.71538092441026]],[[135.55394135358665,34.68585944988465],[135.55131934788162,34.686034177161154]],[[135.55131934788162,34.686034177161154],[135.55148239138356,34.68812718687755]],[[135.55993736155682,34.69992313684226],[135.55971775194195,34.697309662897986]],[[135.53759041953256,34.68149870317535],[135.53394689637645,34.68156562000465],[135.53469889293652,34.68977408439862]],[[135.5356671716931,34.69700481956451],[135.53641584083476,34.69951420066321]],[[135.5519016461029,34.69439506322186],[135.5511829237269,34.6954731676939]],[[135.5511829237269,34.6954731676939],[135.55121287049258,34.6954731676939]],[[135.53927742066514,34.693290935538435],[135.54174636512346,34.693495403627956]],[[135.54174636512346,34.693495403627956],[135.54220222144525,34.68901197606495]],[[135.5376503130639,34.70840670375669],[135.5406017331913,34.711306433026294]],[[135.54619512353418,34.69225744228593],[135.54426522085785,34.693714742123994]],[[135.54426522085785,34.693714742123994],[135.54308398732323,34.69625014643409]],[[135.54308398732323,34.69625014643409],[135.54621176062622,34.696774328263594]],[[135.54621176062622,34.696774328263594],[135.54624170739189,34.69677804586522]],[[135.54624170739189,34.69677804586522],[135.54646797184358,34.695272417206]],[[135.55376832782946,34.683446726428265],[135.5538348761976,34.684260881184734]],[[135.54184618767567,34.697952807979576],[135.5432004469675,34.69761822383308]],[[135.54621508804462,34.69725389887357],[135.54621176062622,34.696774328263594]],[[135.54308398732323,34.69625014643409],[135.54075479443804,34.69623527602758]],[[135.53927742066514,34.693290935538435],[135.53889476754827,34.6961981000113]],[[135.54426522085785,34.693714742123994],[135.54174636512346,34.693495403627956]],[[135.548447785796,34.68374041695686],[135.5450005803259,34.68396719065615]],[[135.56365741533634,34.681015414963746],[135.56333465575082,34.67827554256413],[135.55801078629892,34.67927185980035]],[[135.5511829237269,34.6954731676939],[135.54624170739189,34.69677804586522]],[[135.5590788876077,34.68761415785293],[135.56398017492185,34.68701190638924],[135.56532112454005,34.68775170911315],[135.5640966345661,34.684636358949135]],[[135.53548749109908,34.692900587367525],[135.5347887332335,34.69540253326297]],[[135.5479054165956,34.6814652447607],[135.54474769652694,34.68190392175277]]]}