{"type":"Topology","bbox":[135.52715829675816,34.7113977297263,135.56762309898537,34.745288205600076],"objects":{"town":{"type":"GeometryCollection","geometries":[{"type":"MultiPolygon","arcs":[[[70,71,13,14,15,-92,93,5,0,1,2,3,-30,-59,11,68,69,-11,-10,31,32]]],"properties":{"name":"大宮"}},{"type":"MultiPolygon","arcs":[[[27,-27,-26,-21,-40,-45,-44,7,8,9,10,-70,-69,-12,58,29,-4,30]]],"properties":{"name":"中宮"}},{"type":"MultiPolygon","arcs":[[[39,20,25,26,22,23,24,17,18,40,41,42,-8,43,44]]],"properties":{"name":"生江"}},{"type":"MultiPolygon","arcs":[[[99,65,66,-24,-23,-28,-31,-3,-2,-1,74,75,76,38,94]]],"properties":{"name":"高殿"}},{"type":"MultiPolygon","arcs":[[[-67,97,117,80,47,-42,-41,-19,-18,-25]]],"properties":{"name":"赤川"}},{"type":"MultiPolygon","arcs":[[[-33,103,49,107,51,104,105,106,-71]]],"properties":{"name":"太子橋"}},{"type":"MultiPolygon","arcs":[[[-76,114,123,83,-65,84,54,-114,-86,125,109,79,122,116]]],"properties":{"name":"新森"}},{"type":"MultiPolygon","arcs":[[[-15,-120,120,121,61,62,63,64,59,-93]]],"properties":{"name":"千林"}},{"type":"MultiPolygon","arcs":[[[-85,-64,-63,126,102,89,85,113,-55]]],"properties":{"name":"清水"}},{"type":"MultiPolygon","arcs":[[[-115,-75,-6,-94,91,-16,92,-60,-84,-124]]],"properties":{"name":"森小路"}},{"type":"MultiPolygon","arcs":[[[119,-14,-72,-107,-106,127,-121]]],"properties":{"name":"今市"}}]}},"arcs":[[[135.54780145669025,34.71955937248098],[135.54777312849586,34.71956276186751]],[[135.54777312849586,34.71956276186751],[135.54311111707815,34.72040332972596]],[[135.54311111707815,34.72040332972596],[135.54311516396308,34.720420276658594]],[[135.54311516396308,34.720420276658594],[135.54396905667934,34.72260982035441]],[[135.54396905667934,34.72260982035441],[135.54856227105356,34.72204718219109]],[[135.54856227105356,34.72204718219109],[135.54780145669025,34.71955937248098]],[[135.54423615108348,34.7288191764701],[135.54035518845362,34.728426007633075]],[[135.54035518845362,34.728426007633075],[135.53965103047906,34.732689855882825]],[[135.53965103047906,34.732689855882825],[135.5444951517178,34.734157460248596]],[[135.5444951517178,34.734157460248596],[135.5456566076873,34.72897169886377]],[[135.5456566076873,34.72897169886377],[135.54423615108348,34.7288191764701]],[[135.54434137009116,34.72485359423464],[135.5446367926897,34.726331366759986]],[[135.5446367926897,34.726331366759986],[135.55011627485948,34.72663641154733]],[[135.55011627485948,34.72663641154733],[135.5497682427571,34.72580262246193]],[[135.5497682427571,34.72580262246193],[135.54920977263936,34.724138433677645]],[[135.54920977263936,34.724138433677645],[135.5491976319846,34.72410453981239]],[[135.5491976319846,34.72410453981239],[135.54434137009116,34.72485359423464]],[[135.53473001842704,34.72362324692569],[135.53473406531194,34.723636804471795]],[[135.53473406531194,34.723636804471795],[135.53508209741432,34.726283915348624]],[[135.53508209741432,34.726283915348624],[135.5385786059776,34.72554502908595]],[[135.5385786059776,34.72554502908595],[135.5385462308983,34.72337921109582]],[[135.5385462308983,34.72337921109582],[135.53473001842704,34.72362324692569]],[[135.5384652932001,34.72097613604886],[135.53581053669834,34.72118627801348]],[[135.53581053669834,34.72118627801348],[135.5345074397569,34.721291348995784]],[[135.5345074397569,34.721291348995784],[135.53473001842704,34.72362324692569]],[[135.5385462308983,34.72337921109582],[135.5385462308983,34.72337243232276]],[[135.5385462308983,34.72337243232276],[135.5384652932001,34.72097613604886]],[[135.53849362139445,34.72097613604886],[135.5384652932001,34.72097613604886]],[[135.5385462308983,34.72337243232276],[135.54360483703732,34.722664050538825]],[[135.54360483703732,34.722664050538825],[135.54396905667934,34.72260982035441]],[[135.54311516396308,34.720420276658594],[135.53849362139445,34.72097613604886]],[[135.5444951517178,34.734157460248596],[135.54892244381065,34.73565217970657]],[[135.54892244381065,34.73565217970657],[135.55073140136597,34.7294834962292]],[[135.55073140136597,34.7294834962292],[135.5456566076873,34.72897169886377]],[[135.5409986431545,34.711736668378904],[135.54129406575302,34.71663433190902]],[[135.54129406575302,34.71663433190902],[135.54264977219827,34.71644113687703]],[[135.54264977219827,34.71644113687703],[135.5466683289151,34.71589205625982]],[[135.5466683289151,34.71589205625982],[135.54652264105832,34.715380258894385]],[[135.54652264105832,34.715380258894385],[135.54396096290952,34.71434649600395],[135.5409986431545,34.711736668378904]],[[135.5385866997474,34.725551807859006],[135.5385786059776,34.72554502908595]],[[135.53508209741432,34.726283915348624],[135.53451958041165,34.72724650112202]],[[135.53451958041165,34.72724650112202],[135.53317196773622,34.72803622818258],[135.53536133247317,34.73250005023736]],[[135.53536133247317,34.73250005023736],[135.53965103047906,34.732689855882825]],[[135.54035518845362,34.728426007633075],[135.53855432466813,34.72821925505499],[135.5385786059776,34.72664319032038]],[[135.5385786059776,34.72664319032038],[135.5385866997474,34.725551807859006]],[[135.53451958041165,34.72724650112202],[135.53293724841137,34.726605907068596]],[[135.53293724841137,34.726605907068596],[135.53267824777706,34.72716515584539],[135.5279676737404,34.7288327340162]],[[135.5279676737404,34.7288327340162],[135.52715829675816,34.732442430666424],[135.53536133247317,34.73250005023736]],[[135.55409031584227,34.73355076006043],[135.55126963705916,34.736760509100584]],[[135.55126963705916,34.736760509100584],[135.55491183347925,34.739705885991704],[135.5557293042313,34.74237333318769],[135.55568074161238,34.745288205600076],[135.5592581878739,34.742224200180544]],[[135.5592581878739,34.742224200180544],[135.55884135872805,34.74068880808425],[135.55621088353575,34.73712317345887],[135.55774060603218,34.73549287853985]],[[135.55774060603218,34.73549287853985],[135.55409031584227,34.73355076006043]],[[135.55595188290144,34.71856289284233],[135.55595592978634,34.71856967161538]],[[135.55595592978634,34.71856967161538],[135.55615018026208,34.720488064389116]],[[135.55615018026208,34.720488064389116],[135.56074744152122,34.72037621463375]],[[135.56074744152122,34.72037621463375],[135.56066245693808,34.71846460063308]],[[135.56066245693808,34.71846460063308],[135.55595188290144,34.71856289284233]],[[135.5385866997474,34.725551807859006],[135.54434137009116,34.72485359423464]],[[135.54434137009116,34.72485359423464],[135.54360483703732,34.722664050538825]],[[135.55311501657866,34.72158622562355],[135.5514274655707,34.72394862803219]],[[135.5514274655707,34.72394862803219],[135.5550008649473,34.72467056736223]],[[135.5550008649473,34.72467056736223],[135.55529628754581,34.72474513386581]],[[135.55529628754581,34.72474513386581],[135.5550372869115,34.724379080121]],[[135.5550372869115,34.724379080121],[135.55319190739198,34.721691296605854]],[[135.55319190739198,34.721691296605854],[135.55311501657866,34.72158622562355]],[[135.53541394197703,34.71755963443062],[135.53217238716314,34.721491322800816]],[[135.53217238716314,34.721491322800816],[135.5345074397569,34.721291348995784]],[[135.53581053669834,34.72118627801348],[135.53541394197703,34.71755963443062]],[[135.5446367926897,34.726331366759986],[135.54448705794798,34.72724311173549]],[[135.54448705794798,34.72724311173549],[135.54423615108348,34.7288191764701]],[[135.55073140136597,34.7294834962292],[135.55247156187778,34.72966313371508]],[[135.55247156187778,34.72966313371508],[135.55011627485948,34.72663641154733]],[[135.5385786059776,34.72664319032038],[135.54236244336957,34.726605907068596],[135.54448705794798,34.72724311173549]],[[135.5466683289151,34.71589205625982],[135.54777312849586,34.71956276186751]],[[135.54780145669025,34.71955937248098],[135.55072330759614,34.718078210569104]],[[135.55072330759614,34.718078210569104],[135.54891839692576,34.71544804662491]],[[135.54891839692576,34.71544804662491],[135.54652264105832,34.715380258894385]],[[135.55596402355616,34.71522434711419],[135.55595188290144,34.71856289284233]],[[135.56066245693808,34.71846460063308],[135.560528909736,34.71511249735883]],[[135.560528909736,34.71511249735883],[135.55596402355616,34.71522434711419]],[[135.53000730373566,34.72494171828432],[135.5279676737404,34.7288327340162]],[[135.53293724841137,34.726605907068596],[135.53000730373566,34.72494171828432]],[[135.55595592978634,34.71856967161538],[135.55177145078815,34.71960343450582]],[[135.55177145078815,34.71960343450582],[135.55311501657866,34.72158622562355]],[[135.55319190739198,34.721691296605854],[135.5547499580828,34.71995593070453],[135.55615018026208,34.720488064389116]],[[135.56570082865255,34.72047111745648],[135.56075148840614,34.72044061297775]],[[135.56075148840614,34.72044061297775],[135.56079195725525,34.72159639378312]],[[135.56079195725525,34.72159639378312],[135.5608202854496,34.72255220078347]],[[135.5608202854496,34.72255220078347],[135.56516259295935,34.72251491753168]],[[135.56516259295935,34.72251491753168],[135.56570082865255,34.72047111745648]],[[135.55177145078815,34.71960343450582],[135.55043597876744,34.721813314520794],[135.54856227105356,34.72205057157761]],[[135.54856227105356,34.72205057157761],[135.5491976319846,34.72410453981239]],[[135.54920977263936,34.724138433677645],[135.5514274655707,34.72394862803219]],[[135.54856227105356,34.72205057157761],[135.54856227105356,34.72204718219109]],[[135.5409986431545,34.711736668378904],[135.53802418274475,34.714580363674244]],[[135.53802418274475,34.714580363674244],[135.5382143863356,34.717051226451716]],[[135.5382143863356,34.717051226451716],[135.54129406575302,34.71663433190902]],[[135.53217238716314,34.721491322800816],[135.530492929925,34.724009636989656]],[[135.530492929925,34.724009636989656],[135.53473406531194,34.723636804471795]],[[135.53802418274475,34.714580363674244],[135.53541394197703,34.71755963443062]],[[135.53849362139445,34.72097613604886],[135.5382143863356,34.717051226451716]],[[135.5608202854496,34.72255220078347],[135.56088098872328,34.725080683131885]],[[135.56088098872328,34.725080683131885],[135.56368143308185,34.72448076171678],[135.56516259295935,34.72251491753168]],[[135.54892244381065,34.73565217970657],[135.55126963705916,34.736760509100584]],[[135.55409031584227,34.73355076006043],[135.55432503516712,34.730995162619806]],[[135.55432503516712,34.730995162619806],[135.55260915596477,34.729768204697386]],[[135.55260915596477,34.729768204697386],[135.55247156187778,34.72966313371508]],[[135.5592581878739,34.742224200180544],[135.56108333296885,34.7405125599849],[135.56040750318869,34.73711300529929],[135.55774060603218,34.73549287853985]],[[135.56066245693808,34.71846460063308],[135.56631190827414,34.71845782186002],[135.5667004092256,34.718993344931135]],[[135.5667004092256,34.718993344931135],[135.56740861408508,34.71720374884539],[135.56269804004842,34.717505404246204],[135.5632322288567,34.71512266551841],[135.560528909736,34.71511249735883]],[[135.54264977219827,34.71644113687703],[135.54311111707815,34.72040332972596]],[[135.55615018026208,34.720488064389116],[135.55603282059965,34.72396896435134]],[[135.55603282059965,34.72396896435134],[135.56079195725525,34.72159639378312]],[[135.56075148840614,34.72044061297775],[135.56074744152122,34.72037621463375]],[[135.55072330759614,34.718078210569104],[135.55072735448107,34.71808498934216]],[[135.55072735448107,34.71808498934216],[135.5538191745532,34.716430968717454],[135.55437764467098,34.71525824097945]],[[135.55437764467098,34.71525824097945],[135.54891839692576,34.71544804662491]],[[135.530492929925,34.724009636989656],[135.53000730373566,34.72494171828432]],[[135.55260915596477,34.729768204697386],[135.5527305625121,34.72546707319585]],[[135.5527305625121,34.72546707319585],[135.5497682427571,34.72580262246193]],[[135.5527305625121,34.72546707319585],[135.55480256758665,34.7256433212952]],[[135.55480256758665,34.7256433212952],[135.5550008649473,34.72467056736223]],[[135.55596402355616,34.71522434711419],[135.55437764467098,34.71525824097945]],[[135.55072735448107,34.71808498934216],[135.55177145078815,34.71960343450582]],[[135.5550372869115,34.724379080121],[135.55603282059965,34.72396896435134]],[[135.56570082865255,34.72047111745648],[135.5667004092256,34.718993344931135]],[[135.55529628754581,34.72474513386581],[135.55985712684074,34.726009375040015],[135.56088098872328,34.725080683131885]],[[135.55432503516712,34.730995162619806],[135.55480256758665,34.7256433212952]]]}