{"type":"Topology","bbox":[135.5018408249754,34.71998065905812,135.55983028495334,34.76873394121237],"objects":{"town":{"type":"GeometryCollection","geometries":[{"type":"MultiPolygon","arcs":[[[22,21,19,4,5,6,0,1,7]]],"properties":{"name":"井高野"}},{"type":"MultiPolygon","arcs":[[[23,24,-7,-6,-5,-20,137,-62,-16,-15,-33]]],"properties":{"name":"北江口"}},{"type":"MultiPolygon","arcs":[[[30,31,-24,32,14,15,61,62,59,60,17,18,33,34]]],"properties":{"name":"南江口"}},{"type":"MultiPolygon","arcs":[[[42,43,39,40,70,29,26,27,68,69,36,37,-31,-35,-34,-19,116]]],"properties":{"name":"小松"}},{"type":"MultiPolygon","arcs":[[[88,89,90,91,46,47,48,49,44,92]]],"properties":{"name":"大隅"}},{"type":"MultiPolygon","arcs":[[[-32,-38,-37,-70,50,51,71,125,-1,-25]]],"properties":{"name":"相川"}},{"type":"MultiPolygon","arcs":[[[237,-157,130,131,132,-90,133,82,56,57,58,160,161,162,163]]],"properties":{"name":"豊新"}},{"type":"MultiPolygon","arcs":[[[65,66,-177,-118,205,87,109,110,111,-58,-57,-83,-134,-89,-159,-106]]],"properties":{"name":"豊里"}},{"type":"MultiPolygon","arcs":[[[139,140,244,246,-98,-156,-241,217,-163,-166,79,73,74,193,194]]],"properties":{"name":"下新庄"}},{"type":"MultiPolygon","arcs":[[[-66,105,158,-93,-45,-50,-49,135,-114,-60,136,95,96,-175,-178,108]]],"properties":{"name":"大桐"}},{"type":"MultiPolygon","arcs":[[[-164,-218,240,155,97,98,-51,-69,-28,-143,-131,156,-238]]],"properties":{"name":"上新庄"}},{"type":"MultiPolygon","arcs":[[[-148,-202,179,100,101,102,103,-74,-80,165,-162,-161,-59,-112,-111,243,242]]],"properties":{"name":"菅原"}},{"type":"MultiPolygon","arcs":[[[142,-27,-30,-71,-41,-40,-44,-43,-117,-18,-61,113,-136,-48,-47,-92,-91,-133,-132]]],"properties":{"name":"瑞光"}},{"type":"MultiPolygon","arcs":[[[174,-97,175,120,117,176,-67,-109,177]]],"properties":{"name":"大道南"}},{"type":"MultiPolygon","arcs":[[[-103,-199,123,154,150,151,152,182,183,180,181,121,226,207,208,-194,-75,-104]]],"properties":{"name":"淡路"}},{"type":"MultiPolygon","arcs":[[[-191,-155,-124,198,-102,-101,-180,201,147,148,149,231]]],"properties":{"name":"東淡路"}},{"type":"MultiPolygon","arcs":[[[222,184,185,186,187,188,189,-151,190,-232,-150,239]]],"properties":{"name":"柴島"}},{"type":"MultiPolygon","arcs":[[[-187,-186,218,-211,-210,-225,-184,-183,-153,-152,-190,-189,-188]]],"properties":{"name":"東中島"}},{"type":"MultiPolygon","arcs":[[[238,-140,-195,-209,-208,-227,-122,-182,-181,224,209,210,211,233]]],"properties":{"name":"西淡路"}}]}},"arcs":[[[135.5406280545316,34.76082049217383],[135.5399263118916,34.76182003441222]],[[135.5399263118916,34.76182003441222],[135.54116161091903,34.764847916022156]],[[135.54116161091903,34.764847916022156],[135.54506469188365,34.76352169412537],[135.5473961013157,34.76218572059699]],[[135.5473961013157,34.76218572059699],[135.5473381060562,34.76108378622687]],[[135.5473381060562,34.76108378622687],[135.54733230653025,34.76108866204267]],[[135.54733230653025,34.76108866204267],[135.54238531089456,34.761230060700775]],[[135.54238531089456,34.761230060700775],[135.5406280545316,34.76082049217383]],[[135.54116161091903,34.764847916022156],[135.54395118290117,34.76804645118499]],[[135.54395118290117,34.76804645118499],[135.54630579043703,34.76605224252402],[135.548880779959,34.765642673997064]],[[135.548880779959,34.765642673997064],[135.54708872644034,34.764345706995066],[135.5473961013157,34.76218572059699]],[[135.54726271221884,34.759050571039516],[135.54317404642381,34.76091800848977]],[[135.54317404642381,34.76091800848977],[135.54238531089456,34.761230060700775]],[[135.54733230653025,34.76108866204267],[135.54726271221884,34.759050571039516]],[[135.5463347880668,34.75494025832264],[135.54651457337124,34.757339159694766]],[[135.54651457337124,34.757339159694766],[135.5472685117448,34.75732940806318]],[[135.5472685117448,34.75732940806318],[135.55104980266444,34.75709536890492]],[[135.55104980266444,34.75709536890492],[135.55016827472,34.75414550034773]],[[135.55016827472,34.75414550034773],[135.5495361263914,34.75433078134802]],[[135.5495361263914,34.75433078134802],[135.5463347880668,34.75494025832264]],[[135.55023206950546,34.760727851673686],[135.5473381060562,34.76108378622687]],[[135.548880779959,34.765642673997064],[135.54899097095205,34.76553540604953]],[[135.54899097095205,34.76553540604953],[135.55081782162642,34.764326203731876],[135.55023206950546,34.760727851673686]],[[135.54395118290117,34.76804645118499],[135.54545326012231,34.76873394121237],[135.54901416905585,34.76862667326483],[135.55085841830808,34.76723218994689],[135.55114259507965,34.76453098799535],[135.54899097095205,34.76553540604953]],[[135.54412516867967,34.757241643378826],[135.54014089435177,34.75678331669391]],[[135.54014089435177,34.75678331669391],[135.5399611090473,34.75990383880399],[135.5406280545316,34.76082049217383]],[[135.54317404642381,34.76091800848977],[135.54412516867967,34.757241643378826]],[[135.53602903045294,34.74949397207739],[135.5331234679518,34.750288730052304]],[[135.5331234679518,34.750288730052304],[135.5333902461455,34.75449655908512]],[[135.5333902461455,34.75449655908512],[135.53519969824202,34.75360916061006],[135.53677136977458,34.75029848168389]],[[135.53677136977458,34.75029848168389],[135.53602903045294,34.74949397207739]],[[135.53996690857326,34.75503289882278],[135.5397059299055,34.75672968272014]],[[135.5397059299055,34.75672968272014],[135.54014089435177,34.75678331669391]],[[135.54412516867967,34.757241643378826],[135.54651457337124,34.757339159694766]],[[135.5463347880668,34.75494025832264],[135.54532567055142,34.75455506887468]],[[135.54532567055142,34.75455506887468],[135.54398018053092,34.755393709191765],[135.53996690857326,34.75503289882278]],[[135.53829084557358,34.75081044234258],[135.53822705078815,34.752638873266456],[135.5367829688265,34.75622747369305]],[[135.5367829688265,34.75622747369305],[135.53728172805822,34.75633961745638]],[[135.53728172805822,34.75633961745638],[135.5397059299055,34.75672968272014]],[[135.53996690857326,34.75503289882278],[135.5407324459987,34.75156619379111]],[[135.5407324459987,34.75156619379111],[135.54073824552466,34.75155644215952]],[[135.54073824552466,34.75155644215952],[135.53829084557358,34.75081044234258]],[[135.54532567055142,34.75455506887468],[135.54486750800135,34.75315570974094]],[[135.54486750800135,34.75315570974094],[135.54467612364496,34.752624245819064]],[[135.54467612364496,34.752624245819064],[135.5407324459987,34.75156619379111]],[[135.54339442840993,34.74904539702406],[135.54333643315044,34.749016142129285]],[[135.54333643315044,34.749016142129285],[135.54207213649326,34.749888913156944]],[[135.54207213649326,34.749888913156944],[135.54403817579043,34.75053252084215]],[[135.54403817579043,34.75053252084215],[135.54892717616661,34.75180510876517]],[[135.54892717616661,34.75180510876517],[135.5482486316304,34.751000599158665]],[[135.5482486316304,34.751000599158665],[135.54339442840993,34.74904539702406]],[[135.53340764472335,34.75522305563887],[135.52993372867908,34.75411136963715]],[[135.52993372867908,34.75411136963715],[135.52874482585926,34.75374080763658],[135.53270590208336,34.75958691077719],[135.53464874327676,34.76031340733094]],[[135.53464874327676,34.76031340733094],[135.53340764472335,34.75522305563887]],[[135.52953936091447,34.74070775201119],[135.53178957698321,34.74268733322477]],[[135.53178957698321,34.74268733322477],[135.533802012488,34.74414032633228]],[[135.533802012488,34.74414032633228],[135.53542008022816,34.74267758159318]],[[135.53542008022816,34.74267758159318],[135.5334134442493,34.74113682380133]],[[135.5334134442493,34.74113682380133],[135.53173738124966,34.739966628010045]],[[135.53173738124966,34.739966628010045],[135.52953936091447,34.74070775201119]],[[135.5570871091788,34.75118588015895],[135.55388577085418,34.75219029821313]],[[135.55388577085418,34.75219029821313],[135.55350880166742,34.753467761951946],[135.55016827472,34.75414550034773]],[[135.55104980266444,34.75709536890492],[135.55182113961584,34.757051486562744]],[[135.55182113961584,34.757051486562744],[135.555660425795,34.75688083300985],[135.55983028495334,34.75405773566339],[135.5570871091788,34.75118588015895]],[[135.54268688624398,34.737943164454286],[135.5415965753653,34.741253843380456]],[[135.5415965753653,34.741253843380456],[135.5448617084754,34.743452836304904]],[[135.5448617084754,34.743452836304904],[135.5452676752919,34.74305789522534]],[[135.5452676752919,34.74305789522534],[135.54705392928463,34.74126359501204]],[[135.54705392928463,34.74126359501204],[135.54580123167935,34.738430746033984],[135.54268688624398,34.737943164454286]],[[135.5333902461455,34.75449655908512],[135.53340764472335,34.75522305563887]],[[135.53340764472335,34.75522305563887],[135.5367829688265,34.75622747369305]],[[135.53829084557358,34.75081044234258],[135.53677136977458,34.75029848168389]],[[135.53464874327676,34.76031340733094],[135.53630740769856,34.760518191594414]],[[135.53630740769856,34.760518191594414],[135.53728172805822,34.75633961745638]],[[135.51933799476774,34.741585398854646],[135.51894942652905,34.74208760788174]],[[135.51894942652905,34.74208760788174],[135.5189436270031,34.74209735951334]],[[135.5189436270031,34.74209735951334],[135.51988315020705,34.74482294054386]],[[135.51988315020705,34.74482294054386],[135.51989474925895,34.744939960122984]],[[135.51989474925895,34.744939960122984],[135.52155341368078,34.74517399928124]],[[135.52155341368078,34.74517399928124],[135.52186078855615,34.742355777750575]],[[135.52186078855615,34.742355777750575],[135.51933799476774,34.741585398854646]],[[135.533802012488,34.74414032633228],[135.53309447032206,34.746344195072524]],[[135.53309447032206,34.746344195072524],[135.53646979442516,34.74634907088832],[135.53795447306848,34.74487169870183]],[[135.53795447306848,34.74487169870183],[135.53542008022816,34.74267758159318]],[[135.5381980531584,34.73261389778816],[135.53794287401658,34.73669007979446],[135.5334134442493,34.74113682380133]],[[135.53542008022816,34.74267758159318],[135.53950294649724,34.7385672688763]],[[135.53950294649724,34.7385672688763],[135.54047146733095,34.73757260245372],[135.54268688624398,34.737943164454286]],[[135.54268688624398,34.737943164454286],[135.54364960755174,34.733905988974364]],[[135.54364960755174,34.733905988974364],[135.5381980531584,34.73261389778816]],[[135.54019309008532,34.74694879623135],[135.54017569150747,34.74695367204715]],[[135.54017569150747,34.74695367204715],[135.53794867354253,34.748421292602046]],[[135.53794867354253,34.748421292602046],[135.54160237489126,34.74973776286724]],[[135.54160237489126,34.74973776286724],[135.54207213649326,34.749888913156944]],[[135.54333643315044,34.749016142129285],[135.54019309008532,34.74694879623135]],[[135.5483066268899,34.74643195975687],[135.54780206813223,34.748669959207696]],[[135.54780206813223,34.748669959207696],[135.5490315676337,34.74954273023536],[135.55140937327337,34.74885036439218],[135.55316662963634,34.750074194157236],[135.55628677459765,34.74938182831406]],[[135.55628677459765,34.74938182831406],[135.55558503195766,34.74608577683529]],[[135.55558503195766,34.74608577683529],[135.551333979436,34.74601263959833],[135.5483066268899,34.74643195975687]],[[135.52801988511547,34.74872359318146],[135.5279792884338,34.748830861128994]],[[135.5279792884338,34.748830861128994],[135.53104723766157,34.751132246185186],[135.52993372867908,34.75411136963715]],[[135.5331234679518,34.750288730052304],[135.52801988511547,34.74872359318146]],[[135.5219245833416,34.738791556402965],[135.52084007198889,34.73919137329832]],[[135.52084007198889,34.73919137329832],[135.5175053445674,34.740176288089316]],[[135.5175053445674,34.740176288089316],[135.51794030901368,34.740717503642784]],[[135.51794030901368,34.740717503642784],[135.51894942652905,34.74208760788174]],[[135.51933799476774,34.741585398854646],[135.5219245833416,34.738791556402965]],[[135.5448617084754,34.743452836304904],[135.54304645685292,34.74497896664936]],[[135.54304645685292,34.74497896664936],[135.5459114226724,34.74712432560005]],[[135.5459114226724,34.74712432560005],[135.54816743826711,34.745476299860655]],[[135.54816743826711,34.745476299860655],[135.5452676752919,34.74305789522534]],[[135.5381980531584,34.73261389778816],[135.53463714422486,34.73248712657744]],[[135.53463714422486,34.73248712657744],[135.53441676223872,34.73656330858373],[135.53184757224273,34.73992274566787]],[[135.53184757224273,34.73992274566787],[135.53173738124966,34.739966628010045]],[[135.54908376336726,34.751848991107344],[135.55016827472,34.75414550034773]],[[135.55388577085418,34.75219029821313],[135.54908376336726,34.751848991107344]],[[135.53795447306848,34.74487169870183],[135.5415965753653,34.741253843380456]],[[135.5415965753653,34.741253843380456],[135.53903318489523,34.73960581764106],[135.53950294649724,34.7385672688763]],[[135.5495361263914,34.75433078134802],[135.5489155771147,34.75335074237282],[135.54486750800135,34.75315570974094]],[[135.5511251965018,34.736807099373586],[135.54705972881058,34.741258719196246]],[[135.54705972881058,34.741258719196246],[135.54839361977918,34.74404281001634]],[[135.54839361977918,34.74404281001634],[135.54904896621156,34.74330656183099],[135.5518965334532,34.74338945069954],[135.55519646371897,34.740468837037135]],[[135.55519646371897,34.740468837037135],[135.55397276374345,34.73863553029746],[135.5511251965018,34.736807099373586]],[[135.50993696320214,34.73847462837616],[135.5123031697899,34.74072725527438]],[[135.5123031697899,34.74072725527438],[135.51388644037436,34.74030793511584],[135.51424601098327,34.73788953048052],[135.51560889958162,34.737865151401536]],[[135.51560889958162,34.737865151401536],[135.51480856500046,34.73686560916315]],[[135.51480856500046,34.73686560916315],[135.51410102283452,34.73647066808359],[135.50993696320214,34.73847462837616]],[[135.53630740769856,34.760518191594414],[135.5399263118916,34.76182003441222]],[[135.54726271221884,34.759050571039516],[135.5472685117448,34.75732940806318]],[[135.54160237489126,34.74973776286724],[135.54073824552466,34.75155644215952]],[[135.54467612364496,34.752624245819064],[135.54403817579043,34.75053252084215]],[[135.53309447032206,34.746344195072524],[135.53293208359543,34.7468659073628]],[[135.53293208359543,34.7468659073628],[135.53300167790684,34.74688541062599]],[[135.53300167790684,34.74688541062599],[135.53786748017922,34.74848467820741]],[[135.53786748017922,34.74848467820741],[135.53794867354253,34.748421292602046]],[[135.54017569150747,34.74695367204715],[135.53795447306848,34.74487169870183]],[[135.54780206813223,34.748669959207696],[135.5482486316304,34.751000599158665]],[[135.54892717616661,34.75180510876517],[135.54908376336726,34.751848991107344]],[[135.5570871091788,34.75118588015895],[135.55628677459765,34.74938182831406]],[[135.55023206950546,34.760727851673686],[135.55064963537387,34.75838746009112],[135.55182113961584,34.757051486562744]],[[135.51988315020705,34.74482294054386],[135.51698918675783,34.74464253535937]],[[135.51698918675783,34.74464253535937],[135.5145707844365,34.74904539702406]],[[135.5145707844365,34.74904539702406],[135.5190132213145,34.74992791968332],[135.51926260093038,34.74905027283986]],[[135.51926260093038,34.74905027283986],[135.51989474925895,34.744939960122984]],[[135.53300167790684,34.74688541062599],[135.5331234679518,34.750288730052304]],[[135.53602903045294,34.74949397207739],[135.53786748017922,34.74848467820741]],[[135.51700658533568,34.73443745289624],[135.5179867052213,34.73464223715971]],[[135.5179867052213,34.73464223715971],[135.52262052645565,34.735846563661575]],[[135.52262052645565,34.735846563661575],[135.52321207810257,34.73724104697952]],[[135.52321207810257,34.73724104697952],[135.52483014584274,34.734769008370435],[135.52608284344802,34.73113652560167]],[[135.52608284344802,34.73113652560167],[135.52393121932045,34.73111702233848],[135.52240594399547,34.73014185917908]],[[135.52240594399547,34.73014185917908],[135.51984835305137,34.73310147936786],[135.51700658533568,34.73443745289624]],[[135.5134514759281,34.73520295597637],[135.5130281105337,34.73462273389653]],[[135.5130281105337,34.73462273389653],[135.51040092527816,34.73495916518652]],[[135.51040092527816,34.73495916518652],[135.51039512575224,34.73495916518652]],[[135.51039512575224,34.73495916518652],[135.50993696320214,34.73847462837616]],[[135.51480856500046,34.73686560916315],[135.5134514759281,34.73520295597637]],[[135.52701656712603,34.74587124094022],[135.52801988511547,34.74872359318146]],[[135.53293208359543,34.7468659073628],[135.53258991156437,34.74662211657295]],[[135.53258991156437,34.74662211657295],[135.52701656712603,34.74587124094022]],[[135.54304645685292,34.74497896664936],[135.54019309008532,34.74694879623135]],[[135.54339442840993,34.74904539702406],[135.5459114226724,34.74712432560005]],[[135.52953936091447,34.74070775201119],[135.52527090981496,34.742160745118696]],[[135.52527090981496,34.742160745118696],[135.52594945435118,34.74335044417317]],[[135.52594945435118,34.74335044417317],[135.52599585055876,34.74343820885751]],[[135.52599585055876,34.74343820885751],[135.52928418177265,34.74438899293793]],[[135.52928418177265,34.74438899293793],[135.53178957698321,34.74268733322477]],[[135.52186078855615,34.742355777750575],[135.52594945435118,34.74335044417317]],[[135.52527090981496,34.742160745118696],[135.52492293825796,34.74147813090711]],[[135.52492293825796,34.74147813090711],[135.52400661315778,34.73936202685122]],[[135.52400661315778,34.73936202685122],[135.52278291318225,34.73982522935193],[135.52186078855615,34.742355777750575]],[[135.5233280686216,34.73746533450618],[135.52400661315778,34.73936202685122]],[[135.52492293825796,34.74147813090711],[135.52680198466587,34.74078088924814],[135.52771830976604,34.73867453682384]],[[135.52771830976604,34.73867453682384],[135.52675558845826,34.73839173950761]],[[135.52675558845826,34.73839173950761],[135.5233280686216,34.73746533450618]],[[135.54839361977918,34.74404281001634],[135.54859660318743,34.74542754170269]],[[135.54859660318743,34.74542754170269],[135.5483066268899,34.74643195975687]],[[135.55558503195766,34.74608577683529],[135.5557300201064,34.742375281013764],[135.55519646371897,34.740468837037135]],[[135.54705972881058,34.741258719196246],[135.54705392928463,34.74126359501204]],[[135.54816743826711,34.745476299860655],[135.54859660318743,34.74542754170269]],[[135.5233280686216,34.73746533450618],[135.52322367715448,34.73725567442691]],[[135.52322367715448,34.73725567442691],[135.5219245833416,34.738791556402965]],[[135.50549452632416,34.73454959665957],[135.50893944473867,34.73751896847995]],[[135.50893944473867,34.73751896847995],[135.50993696320214,34.73847462837616]],[[135.51039512575224,34.73495916518652],[135.50708359643454,34.73470562276508]],[[135.50708359643454,34.73470562276508],[135.50549452632416,34.73454959665957]],[[135.51151443426065,34.72016106424261],[135.50366767564978,34.71998065905812],[135.50303552732117,34.72601691901482]],[[135.50303552732117,34.72601691901482],[135.5033603007744,34.72610468369916]],[[135.5033603007744,34.72610468369916],[135.508318895462,34.729161820203885]],[[135.508318895462,34.729161820203885],[135.51037192764844,34.731667989523544]],[[135.51037192764844,34.731667989523544],[135.51085328830231,34.731877649602815]],[[135.51085328830231,34.731877649602815],[135.5130281105337,34.73462273389653]],[[135.5134514759281,34.73520295597637],[135.5159626706646,34.73436919147508]],[[135.5159626706646,34.73436919147508],[135.5130165114818,34.73038077415313]],[[135.5130165114818,34.73038077415313],[135.51042992290792,34.727274879490444],[135.51038352670034,34.723193821668346],[135.51151443426065,34.72016106424261]],[[135.5189436270031,34.74209735951334],[135.51702398391353,34.744569398122415]],[[135.51702398391353,34.744569398122415],[135.51698918675783,34.74464253535937]],[[135.53184757224273,34.73992274566787],[135.52771830976604,34.73867453682384]],[[135.51930899713798,34.73660231511011],[135.5176213350864,34.736807099373586]],[[135.5176213350864,34.736807099373586],[135.51560889958162,34.737865151401536]],[[135.51560889958162,34.737865151401536],[135.5175053445674,34.740176288089316]],[[135.52084007198889,34.73919137329832],[135.51930899713798,34.73660231511011]],[[135.52262052645565,34.735846563661575],[135.51930899713798,34.73660231511011]],[[135.52322367715448,34.73725567442691],[135.52321207810257,34.73724104697952]],[[135.51037192764844,34.731667989523544],[135.5076867471334,34.73143882618108]],[[135.5076867471334,34.73143882618108],[135.50708359643454,34.73470562276508]],[[135.51040092527816,34.73495916518652],[135.51085328830231,34.731877649602815]],[[135.5511251965018,34.736807099373586],[135.54623039659967,34.73462273389653],[135.54364960755174,34.733905988974364]],[[135.51794030901368,34.740717503642784],[135.51564369673733,34.74199496738159],[135.51366605838825,34.742029098092175]],[[135.51366605838825,34.742029098092175],[135.51600326734626,34.74440362038532]],[[135.51600326734626,34.74440362038532],[135.51702398391353,34.744569398122415]],[[135.5048565784696,34.73431068168552],[135.50476958558036,34.73430093005393]],[[135.50476958558036,34.73430093005393],[135.50235118325904,34.73386698244799]],[[135.50235118325904,34.73386698244799],[135.50297173253574,34.736753465399815],[135.50517555239688,34.7402006671683]],[[135.50517555239688,34.7402006671683],[135.50614987275654,34.74039569980018]],[[135.50614987275654,34.74039569980018],[135.5065964362547,34.739430288272374]],[[135.5065964362547,34.739430288272374],[135.5048565784696,34.73431068168552]],[[135.52155341368078,34.74517399928124],[135.52440098092242,34.74554456128182]],[[135.52440098092242,34.74554456128182],[135.5269875694963,34.74587124094022]],[[135.5269875694963,34.74587124094022],[135.52599585055876,34.74343820885751]],[[135.50303552732117,34.72601691901482],[135.50214819985078,34.7284743301765],[135.50188142165706,34.73182889144484],[135.50235118325904,34.73386698244799]],[[135.50476958558036,34.73430093005393],[135.5037024728055,34.731126773970075]],[[135.5037024728055,34.731126773970075],[135.5033950979301,34.72969328412576]],[[135.5033950979301,34.72969328412576],[135.5033603007744,34.72610468369916]],[[135.52014992840077,34.72713348083233],[135.51602646545004,34.723174318405164],[135.5144895910732,34.72084855426999],[135.51151443426065,34.72016106424261]],[[135.5130165114818,34.73038077415313],[135.52014992840077,34.72713348083233]],[[135.50549452632416,34.73454959665957],[135.5048565784696,34.73431068168552]],[[135.5065964362547,34.739430288272374],[135.50893944473867,34.73751896847995]],[[135.5123031697899,34.74072725527438],[135.51366605838825,34.742029098092175]],[[135.5123031697899,34.74072725527438],[135.50914242814693,34.74171217006537]],[[135.50914242814693,34.74171217006537],[135.51035452907058,34.74210223532913],[135.51021534044776,34.74388678391083]],[[135.51021534044776,34.74388678391083],[135.51600326734626,34.74440362038532]],[[135.5176213350864,34.736807099373586],[135.5179867052213,34.73464223715971]],[[135.51700658533568,34.73443745289624],[135.5159626706646,34.73436919147508]],[[135.5033950979301,34.72969328412576],[135.5069966035453,34.72981517952068],[135.508318895462,34.729161820203885]],[[135.50517555239688,34.7402006671683],[135.50623106611985,34.74384777738446]],[[135.50623106611985,34.74384777738446],[135.51021534044776,34.74388678391083]],[[135.50914242814693,34.74171217006537],[135.50614987275654,34.74039569980018]],[[135.5076867471334,34.73143882618108],[135.5037024728055,34.731126773970075]],[[135.52928418177265,34.74438899293793],[135.53258991156437,34.74662211657295]],[[135.50623106611985,34.74384777738446],[135.50653844099523,34.74471567259633],[135.50935701060712,34.74511548949168],[135.5145707844365,34.74904539702406]],[[135.52240594399547,34.73014185917908],[135.52289310417532,34.72898141501939],[135.52014992840077,34.72713348083233]],[[135.5269875694963,34.74587124094022],[135.52701656712603,34.74587124094022]],[[135.52675558845826,34.73839173950761],[135.52619883396704,34.73720691626894],[135.53008451635378,34.7361293609778],[135.53054847842984,34.73246274749845]],[[135.53054847842984,34.73246274749845],[135.52715575574885,34.73244324423526],[135.5271963524305,34.73016136244227],[135.52608284344802,34.73113652560167]],[[135.53463714422486,34.73248712657744],[135.53054847842984,34.73246274749845]],[[135.51926260093038,34.74905027283986],[135.52234214921003,34.74886986765537]],[[135.52234214921003,34.74886986765537],[135.52360064634127,34.74828964557553],[135.52440098092242,34.74554456128182]],[[135.52234214921003,34.74886986765537],[135.52464456101234,34.74808486131206],[135.5279792884338,34.748830861128994]]]}