{"type":"Topology","bbox":[135.52411221219512,34.63319053391989,135.56399955345134,34.66563512231539],"objects":{"town":{"type":"GeometryCollection","geometries":[{"type":"MultiPolygon","arcs":[[[-18,9,6,1,2,3,4,7,85,89,90,-32]]],"properties":{"name":"鶴橋"}},{"type":"MultiPolygon","arcs":[[[67,-3,-2,-7,-10,17,31,32,33,34,19,15,-30,40,10,11,12,68]]],"properties":{"name":"桃谷"}},{"type":"MultiPolygon","arcs":[[[199,194,-137,-36,-119,-122,-175,75,76,-99,-226,22,23,178]]],"properties":{"name":"林寺"}},{"type":"MultiPolygon","arcs":[[[-50,25,-207,209,224,135,132,133,-73,-72,-209,-208,-115,221,-51]]],"properties":{"name":"中川"}},{"type":"MultiPolygon","arcs":[[[87,-69,-13,-12,-11,-41,29,-16,-20,-35,42,41,27,185,-81,-47,82,88]]],"properties":{"name":"勝山北"}},{"type":"MultiPolygon","arcs":[[[183,-173,-45,-44,-194,39,35,136,137]]],"properties":{"name":"生野西"}},{"type":"MultiPolygon","arcs":[[[46,80,-186,-28,-42,-70,-134,-197,-140,78,79,43,44,172,173,-89,-83]]],"properties":{"name":"勝山南"}},{"type":"MultiPolygon","arcs":[[[229,215,143,144,101,102,-60,166,48,-26,49,50,-222,-114,222]]],"properties":{"name":"新今里"}},{"type":"MultiPolygon","arcs":[[[64,-23,225,-98,55,-118,-142,-141,196,-133,197,-147,-146,-157,57,204,-221,-187,226,66]]],"properties":{"name":"田島"}},{"type":"MultiPolygon","arcs":[[[59,60,61,62,63,-161,205,206,-49,-167]]],"properties":{"name":"中川東"}},{"type":"MultiPolygon","arcs":[[[207,208,71,72,69,-43,-34,-33,-91,112,113,114]]],"properties":{"name":"中川西"}},{"type":"MultiPolygon","arcs":[[[174,121,118,-40,193,-80,-79,93,94,-96,-76]]],"properties":{"name":"生野東"}},{"type":"MultiPolygon","arcs":[[[117,-56,97,98,-77,95,-95,-94,139,140,141]]],"properties":{"name":"舎利寺"}},{"type":"MultiPolygon","arcs":[[[-212,105,106,-191,-124,-232,-189,103,-158,-149,-163,-172,176]]],"properties":{"name":"巽中"}},{"type":"MultiPolygon","arcs":[[[155,163,216,-202,-170,217,128,129,108,109,235]]],"properties":{"name":"小路東"}},{"type":"MultiPolygon","arcs":[[[123,124,125,228,233,236,230,-67,-227,-190,231]]],"properties":{"name":"巽南"}},{"type":"MultiPolygon","arcs":[[[186,220,-205,-58,156,145,146,147,148,157,-104,188,189]]],"properties":{"name":"巽西"}},{"type":"MultiPolygon","arcs":[[[-125,190,-107,-106,211,-177,-201,181,182,153,192]]],"properties":{"name":"巽東"}},{"type":"MultiPolygon","arcs":[[[160,-64,-63,168,169,201,202,-182,200,171,162,-148,-198,-136,-225,-210,-206]]],"properties":{"name":"巽北"}},{"type":"MultiPolygon","arcs":[[[-169,-62,-61,-103,-102,-145,219,-109,-130,-129,-218]]],"properties":{"name":"小路"}}]}},"arcs":[[[135.53157986924398,34.665437190533005],[135.53146418438587,34.662403318130785]],[[135.53146418438587,34.662403318130785],[135.53039110759838,34.66210155328222]],[[135.53039110759838,34.66210155328222],[135.529222291618,34.66217293851521]],[[135.529222291618,34.66217293851521],[135.53029137927243,34.66541123226646],[135.53157986924398,34.665437190533005]],[[135.53157986924398,34.665437190533005],[135.53406908826028,34.66553777881586]],[[135.53406908826028,34.66553777881586],[135.53393345773696,34.66226703723143]],[[135.53393345773696,34.66226703723143],[135.53146418438587,34.662403318130785]],[[135.53406908826028,34.66553777881586],[135.5358123393983,34.66558969534894]],[[135.5358123393983,34.66558969534894],[135.53605168738062,34.66220863113171]],[[135.53605168738062,34.66220863113171],[135.53393345773696,34.66226703723143]],[[135.5334667291714,34.65788657975229],[135.5334467835062,34.65784115278584]],[[135.5334467835062,34.65784115278584],[135.53073417303975,34.65762375230354]],[[135.53073417303975,34.65762375230354],[135.5306902925763,34.657617262736906]],[[135.5306902925763,34.657617262736906],[135.53039110759838,34.66210155328222]],[[135.53393345773696,34.66226703723143],[135.5334667291714,34.65788657975229]],[[135.53736411215044,34.65751667445405],[135.53648251374884,34.657773012336165]],[[135.53648251374884,34.657773012336165],[135.53605168738062,34.66220863113171]],[[135.53605168738062,34.66220863113171],[135.53778297111953,34.66194580368296]],[[135.53778297111953,34.66194580368296],[135.5382217757538,34.65755236707055]],[[135.5382217757538,34.65755236707055],[135.53736411215044,34.65751667445405]],[[135.535373534764,34.64046209333526],[135.5358961111921,34.64367118403665]],[[135.5358961111921,34.64367118403665],[135.53913927635276,34.643317502654995]],[[135.53913927635276,34.643317502654995],[135.53881216744355,34.64147446573044]],[[135.53881216744355,34.64147446573044],[135.53719257942976,34.64164319446297],[135.535373534764,34.64046209333526]],[[135.54396612732987,34.6586134112155],[135.54418154051396,34.66187117366665]],[[135.54418154051396,34.66187117366665],[135.54613222657,34.65859718729891]],[[135.54613222657,34.65859718729891],[135.54396612732987,34.6586134112155]],[[135.53755957966933,34.653895496271296],[135.53639475282196,34.65401230847074]],[[135.53639475282196,34.65401230847074],[135.5359679155868,34.6555470909801],[135.53403318606294,34.6577795019028]],[[135.53403318606294,34.6577795019028],[135.53648251374884,34.657773012336165]],[[135.53736411215044,34.65751667445405],[135.53692530751616,34.65481376995026],[135.53755957966933,34.653895496271296]],[[135.53778297111953,34.66194580368296],[135.53952622225754,34.66197825151614]],[[135.53952622225754,34.66197825151614],[135.5398014724372,34.65762375230354]],[[135.5398014724372,34.65762375230354],[135.53980546157027,34.657591304470365]],[[135.53980546157027,34.657591304470365],[135.5382217757538,34.65755236707055]],[[135.52957732445844,34.64615668805815],[135.52638202889426,34.646769952105224]],[[135.52638202889426,34.646769952105224],[135.52663334427572,34.64857080684665]],[[135.52663334427572,34.64857080684665],[135.52674902913384,34.64951503879215]],[[135.52674902913384,34.64951503879215],[135.5300839443544,34.648577296413286]],[[135.5300839443544,34.648577296413286],[135.52957732445844,34.64615668805815]],[[135.53403318606294,34.6577795019028],[135.5334667291714,34.65788657975229]],[[135.54008470088297,34.65361968968927],[135.53755957966933,34.653895496271296]],[[135.53980546157027,34.657591304470365],[135.54008470088297,34.65361968968927]],[[135.53151205398234,34.651854527564346],[135.52909463936075,34.65203948021347]],[[135.52909463936075,34.65203948021347],[135.52909862849378,34.652052459346734]],[[135.52909862849378,34.652052459346734],[135.53053870552083,34.65439519290225]],[[135.53053870552083,34.65439519290225],[135.53238966325088,34.65428811505276]],[[135.53238966325088,34.65428811505276],[135.53151205398234,34.651854527564346]],[[135.54774383631772,34.65858745294895],[135.54613222657,34.65859718729891]],[[135.54418154051396,34.66187117366665],[135.54389033380212,34.662182672865164]],[[135.54389033380212,34.662182672865164],[135.54387038813692,34.66221512069834]],[[135.54387038813692,34.66221512069834],[135.5458649546564,34.662078839798994]],[[135.5458649546564,34.662078839798994],[135.5480908908921,34.661913355849784]],[[135.5480908908921,34.661913355849784],[135.54774383631772,34.65858745294895]],[[135.5444208884963,34.647684981000864],[135.53986928769888,34.647704449700775]],[[135.53986928769888,34.647704449700775],[135.5401285813464,34.649161357410506]],[[135.5401285813464,34.649161357410506],[135.5442693014408,34.64913539914396]],[[135.5442693014408,34.64913539914396],[135.5444208884963,34.647684981000864]],[[135.5487770217748,34.656342062892975],[135.54934347866632,34.658567984249046]],[[135.54934347866632,34.658567984249046],[135.55238718717501,34.65853229163255]],[[135.55238718717501,34.65853229163255],[135.55241910023935,34.65850308858269]],[[135.55241910023935,34.65850308858269],[135.55317703551674,34.65709809740604]],[[135.55317703551674,34.65709809740604],[135.5523233610464,34.65687420735711]],[[135.5523233610464,34.65687420735711],[135.5487770217748,34.656342062892975]],[[135.54489958446095,34.6405789055347],[135.53881216744355,34.64147446573044]],[[135.53913927635276,34.643317502654995],[135.5440219751924,34.64276264470764]],[[135.5440219751924,34.64276264470764],[135.54489958446095,34.6405789055347]],[[135.52778620372396,34.65769189275322],[135.529222291618,34.66217293851521]],[[135.5306902925763,34.657617262736906],[135.52778620372396,34.65769189275322]],[[135.54084263616036,34.653525590973054],[135.54008470088297,34.65361968968927]],[[135.5398014724372,34.65762375230354],[135.54144499524926,34.65769838231985]],[[135.54144499524926,34.65769838231985],[135.54126149512948,34.65631285984312]],[[135.54126149512948,34.65631285984312],[135.54084263616036,34.653525590973054]],[[135.5358961111921,34.64367118403665],[135.53297207667458,34.644044334118206]],[[135.53297207667458,34.644044334118206],[135.53325929425338,34.64612099544165]],[[135.53325929425338,34.64612099544165],[135.53587217639387,34.64601391759216]],[[135.53587217639387,34.64601391759216],[135.53636283975766,34.64596524584239]],[[135.53636283975766,34.64596524584239],[135.5358961111921,34.64367118403665]],[[135.53601179605025,34.65200054281365],[135.53288830488077,34.65183505886444]],[[135.53288830488077,34.65183505886444],[135.53151205398234,34.651854527564346]],[[135.53238966325088,34.65428811505276],[135.53637081802373,34.65400906368742]],[[135.53637081802373,34.65400906368742],[135.53601179605025,34.65200054281365]],[[135.53053870552083,34.65439519290225],[135.53053870552083,34.654417906385476]],[[135.53053870552083,34.654417906385476],[135.53073417303975,34.65762375230354]],[[135.5334467835062,34.65784115278584],[135.53238966325088,34.65428811505276]],[[135.5358123393983,34.66558969534894],[135.53772313412392,34.665618898398805]],[[135.53772313412392,34.665618898398805],[135.53778297111953,34.66194580368296]],[[135.5267530182669,34.65454445293487],[135.52778620372396,34.65769189275322]],[[135.53053870552083,34.654417906385476],[135.5267530182669,34.65454445293487]],[[135.53772313412392,34.665618898398805],[135.53928288514214,34.66562214318212]],[[135.53928288514214,34.66562214318212],[135.53952622225754,34.66197825151614]],[[135.5359679155868,34.64846048421384],[135.53341088130887,34.64840207811412]],[[135.53341088130887,34.64840207811412],[135.53288830488077,34.65183505886444]],[[135.53601179605025,34.65200054281365],[135.5360596656467,34.650650712953414]],[[135.5360596656467,34.650650712953414],[135.5359679155868,34.64846048421384]],[[135.53587217639387,34.64601391759216],[135.5359679155868,34.64846048421384]],[[135.5359679155868,34.64846048421384],[135.53986928769888,34.647704449700775]],[[135.53986928769888,34.647704449700775],[135.53949829832627,34.64558236141088]],[[135.53949829832627,34.64558236141088],[135.53636283975766,34.64596524584239]],[[135.54934347866632,34.658567984249046],[135.55014928354018,34.66176409581716]],[[135.55014928354018,34.66176409581716],[135.55257467642787,34.661877663233284]],[[135.55257467642787,34.661877663233284],[135.5525986112261,34.661845215400106]],[[135.5525986112261,34.661845215400106],[135.55238718717501,34.65853229163255]],[[135.5487171847792,34.64504697216343],[135.54860947818716,34.64800296976602]],[[135.54860947818716,34.64800296976602],[135.55416235137736,34.648392343764165]],[[135.55416235137736,34.648392343764165],[135.5541463948452,34.64831122418122]],[[135.5541463948452,34.64831122418122],[135.55359589448582,34.6452416591625]],[[135.55359589448582,34.6452416591625],[135.5487171847792,34.64504697216343]],[[135.55627659188798,34.66175111668389],[135.55650796160424,34.664346943338195]],[[135.55650796160424,34.664346943338195],[135.55709436416095,34.66352276837545],[135.5611154102642,34.662828384745424],[135.56129492125095,34.661478554885186]],[[135.56129492125095,34.661478554885186],[135.5588296370329,34.661669997100944]],[[135.5588296370329,34.661669997100944],[135.55627659188798,34.66175111668389]],[[135.53928288514214,34.66562214318212],[135.5424741915733,34.66537878443328]],[[135.5424741915733,34.66537878443328],[135.54239839804555,34.66493749390205]],[[135.54239839804555,34.66493749390205],[135.54201544127383,34.66207559501568]],[[135.54201544127383,34.66207559501568],[135.53952622225754,34.66197825151614]],[[135.5360596656467,34.650650712953414],[135.54031607059923,34.650232135905405]],[[135.54031607059923,34.650232135905405],[135.5401285813464,34.649161357410506]],[[135.5296930093166,34.64615668805815],[135.52957732445844,34.64615668805815]],[[135.5300839443544,34.648577296413286],[135.53311568546397,34.64840207811412]],[[135.53311568546397,34.64840207811412],[135.5329042614129,34.6461112610917]],[[135.5329042614129,34.6461112610917],[135.5296930093166,34.64615668805815]],[[135.5489605218946,34.63993319365445],[135.54883286963735,34.6425744472752]],[[135.54883286963735,34.6425744472752],[135.55311719852114,34.64268476990801]],[[135.55311719852114,34.64268476990801],[135.5540546447853,34.642710728174556]],[[135.5540546447853,34.642710728174556],[135.55377141633954,34.640101922386975]],[[135.55377141633954,34.640101922386975],[135.55197231733897,34.64002080280403]],[[135.55197231733897,34.64002080280403],[135.5489605218946,34.63993319365445]],[[135.55571013499645,34.65849010944942],[135.55666353779276,34.65931103962884],[135.5562686136219,34.66169271058417]],[[135.5562686136219,34.66169271058417],[135.55627659188798,34.66175111668389]],[[135.5588296370329,34.661669997100944],[135.55884559356505,34.65849335423273]],[[135.55884559356505,34.65849335423273],[135.55571013499645,34.65849010944942]],[[135.54323212685068,34.65349963270651],[135.5409184296881,34.653519101406424]],[[135.5409184296881,34.653519101406424],[135.54084263616036,34.653525590973054]],[[135.54126149512948,34.65631285984312],[135.54278534395033,34.65636802115952]],[[135.54278534395033,34.65636802115952],[135.54323212685068,34.65349963270651]],[[135.52638202889426,34.646769952105224],[135.52631820276565,34.646552551622925]],[[135.52631820276565,34.646552551622925],[135.52434358191138,34.64863894729633]],[[135.52434358191138,34.64863894729633],[135.52663334427572,34.64857080684665]],[[135.53601179605025,34.65200054281365],[135.5405873316459,34.65173447058159]],[[135.5405873316459,34.65173447058159],[135.54045170112255,34.65092976431875]],[[135.54045170112255,34.65092976431875],[135.54031607059923,34.650232135905405]],[[135.55014928354018,34.66176409581716],[135.550847381822,34.664755786036245]],[[135.550847381822,34.664755786036245],[135.5519124803434,34.66469089036989]],[[135.5519124803434,34.66469089036989],[135.55257467642787,34.661877663233284]],[[135.54411771438532,34.65053065597065],[135.54406984478888,34.651059555651464]],[[135.54406984478888,34.651059555651464],[135.54395814906377,34.653493143139876]],[[135.54395814906377,34.653493143139876],[135.54830231494316,34.6534250026902]],[[135.54830231494316,34.6534250026902],[135.54842597806737,34.65066369208668]],[[135.54842597806737,34.65066369208668],[135.54411771438532,34.65053065597065]],[[135.55702255976627,34.6443331198335],[135.55677922265087,34.648651926429594]],[[135.55677922265087,34.648651926429594],[135.55704250543144,34.64869410861273]],[[135.55704250543144,34.64869410861273],[135.56066064909777,34.64904130042774]],[[135.56066064909777,34.64904130042774],[135.5609438775435,34.64343755963776],[135.55708638589488,34.643311013088365],[135.55702255976627,34.6443331198335]],[[135.56169782368787,34.65580667364553],[135.56164197582532,34.658470640749506]],[[135.56164197582532,34.658470640749506],[135.56399955345134,34.65849984379937],[135.56397162952007,34.656559463375274],[135.56169782368787,34.65580667364553]],[[135.5442693014408,34.64913539914396],[135.54411771438532,34.65053065597065]],[[135.54842597806737,34.65066369208668],[135.54860947818716,34.64800296976602]],[[135.54860947818716,34.64800296976602],[135.5444208884963,34.647684981000864]],[[135.54830231494316,34.6534250026902],[135.5487490978435,34.656342062892975]],[[135.5487490978435,34.656342062892975],[135.5487770217748,34.656342062892975]],[[135.5523233610464,34.65687420735711],[135.55228745884907,34.653353617457206]],[[135.55228745884907,34.653353617457206],[135.54830231494316,34.6534250026902]],[[135.56169782368787,34.65580667364553],[135.55880171310162,34.655994871077965]],[[135.55880171310162,34.655994871077965],[135.55884559356505,34.65849335423273]],[[135.55884559356505,34.65849335423273],[135.56164197582532,34.658470640749506]],[[135.54934347866632,34.658567984249046],[135.54774383631772,34.65858745294895]],[[135.5480908908921,34.661913355849784],[135.55014928354018,34.66176409581716]],[[135.55317703551674,34.65709809740604],[135.5531730463837,34.656020829344506],[135.55548674354628,34.656011094994554]],[[135.55548674354628,34.656011094994554],[135.55569816759734,34.65600785021124]],[[135.55569816759734,34.65600785021124],[135.55502001498073,34.65331468005739]],[[135.55502001498073,34.65331468005739],[135.55228745884907,34.653353617457206]],[[135.52909862849378,34.652052459346734],[135.52601502865468,34.65226661504572]],[[135.52601502865468,34.65226661504572],[135.5267530182669,34.65454445293487]],[[135.53325929425338,34.64612099544165],[135.5329042614129,34.6461112610917]],[[135.53311568546397,34.64840207811412],[135.53341088130887,34.64840207811412]],[[135.55502001498073,34.65331468005739],[135.55461312341075,34.650877847785665]],[[135.55461312341075,34.650877847785665],[135.54842597806737,34.65066369208668]],[[135.535373534764,34.64046209333526],[135.53439619716949,34.639761220138595],[135.53244950024649,34.641961183228126]],[[135.53244950024649,34.641961183228126],[135.53297207667458,34.644044334118206]],[[135.55704250543144,34.64869410861273],[135.55671539652226,34.653240050041084]],[[135.55671539652226,34.653240050041084],[135.55945992005303,34.65310701392505]],[[135.55945992005303,34.65310701392505],[135.56168585628876,34.653022649558785],[135.56176563894954,34.65007638630615],[135.56066064909777,34.64904130042774]],[[135.52434358191138,34.64863894729633],[135.52601502865468,34.65226661504572]],[[135.52909463936075,34.65203948021347],[135.52674902913384,34.64951503879215]],[[135.53639475282196,34.65401230847074],[135.53637081802373,34.65400906368742]],[[135.54495144319046,34.642639342941564],[135.54478788873587,34.64493664953062]],[[135.54478788873587,34.64493664953062],[135.5487171847792,34.64504697216343]],[[135.5487171847792,34.64504697216343],[135.54880494570608,34.6425744472752]],[[135.54880494570608,34.6425744472752],[135.54495144319046,34.642639342941564]],[[135.55311719852114,34.64268476990801],[135.55359589448582,34.6452416591625]],[[135.5541463948452,34.64831122418122],[135.55677922265087,34.648651926429594]],[[135.55702255976627,34.6443331198335],[135.55389507946373,34.64421630763405],[135.5540546447853,34.642710728174556]],[[135.5300839443544,34.648577296413286],[135.53151205398234,34.651854527564346]],[[135.52940180260472,34.64419359415083],[135.52631820276565,34.646552551622925]],[[135.5296930093166,34.64615668805815],[135.52940180260472,34.64419359415083]],[[135.5405873316459,34.65173447058159],[135.5409184296881,34.653519101406424]],[[135.54323212685068,34.65349963270651],[135.54395814906377,34.653493143139876]],[[135.54406984478888,34.651059555651464],[135.54045170112255,34.65092976431875]],[[135.53244950024649,34.641961183228126],[135.52940180260472,34.64419359415083]],[[135.55671539652226,34.653240050041084],[135.55502001498073,34.65331468005739]],[[135.55569816759734,34.65600785021124],[135.55843471286204,34.65599811586128]],[[135.55843471286204,34.65599811586128],[135.55945992005303,34.65310701392505]],[[135.544696138676,34.64560507489411],[135.53949829832627,34.64558236141088]],[[135.5444208884963,34.647684981000864],[135.544696138676,34.64560507489411]],[[135.5487490978435,34.656342062892975],[135.54657502033731,34.65635828680957]],[[135.54657502033731,34.65635828680957],[135.54613222657,34.65859718729891]],[[135.54201544127383,34.66207559501568],[135.54157264750648,34.65866532774858]],[[135.54157264750648,34.65866532774858],[135.54144499524926,34.65769838231985]],[[135.54657502033731,34.65635828680957],[135.5439501707977,34.6563647763762]],[[135.5439501707977,34.6563647763762],[135.54396612732987,34.6586134112155]],[[135.55416235137736,34.648392343764165],[135.55461312341075,34.650877847785665]],[[135.54201544127383,34.66207559501568],[135.54389033380212,34.662182672865164]],[[135.54396612732987,34.6586134112155],[135.54157264750648,34.65866532774858]],[[135.5480908908921,34.661913355849784],[135.54836215193876,34.66493749390205]],[[135.54836215193876,34.66493749390205],[135.550847381822,34.664755786036245]],[[135.55880171310162,34.655994871077965],[135.55843471286204,34.65599811586128]],[[135.55548674354628,34.656011094994554],[135.55571013499645,34.65849010944942]],[[135.5562686136219,34.66169271058417],[135.5525986112261,34.661845215400106]],[[135.5519124803434,34.66469089036989],[135.55650796160424,34.664346943338195]],[[135.54478788873587,34.64493664953062],[135.544696138676,34.64560507489411]],[[135.54239839804555,34.66493749390205],[135.54387038813692,34.66221512069834]],[[135.5424741915733,34.66537878443328],[135.5461960526986,34.66509973306794]],[[135.5461960526986,34.66509973306794],[135.5458649546564,34.662078839798994]],[[135.5439501707977,34.6563647763762],[135.54278534395033,34.65636802115952]],[[135.53913927635276,34.643317502654995],[135.53949829832627,34.64558236141088]],[[135.54495144319046,34.642639342941564],[135.5440219751924,34.64276264470764]],[[135.54939533739582,34.63533858047632],[135.55197231733897,34.64002080280403]],[[135.55377141633954,34.640101922386975],[135.55386715553246,34.638463306811445],[135.5523353284455,34.636814956885964],[135.5541663405104,34.63323596088634],[135.551768871554,34.63348256441849],[135.54939533739582,34.63533858047632]],[[135.5461960526986,34.66509973306794],[135.54836215193876,34.66493749390205]],[[135.5448437365984,34.63981962623832],[135.54489958446095,34.6405789055347]],[[135.54880494570608,34.6425744472752],[135.54883286963735,34.6425744472752]],[[135.5489605218946,34.63993319365445],[135.5448437365984,34.63981962623832]],[[135.54939533739582,34.63533858047632],[135.5491559894135,34.635611142275025]],[[135.5491559894135,34.635611142275025],[135.5489605218946,34.63993319365445]],[[135.56129492125095,34.661478554885186],[135.56164197582532,34.658470640749506]],[[135.5491559894135,34.635611142275025],[135.5452625955675,34.63820696892933],[135.5448437365984,34.63981962623832]],[[135.55241910023935,34.65850308858269],[135.55571013499645,34.65849010944942]]]}