{"type":"Topology","bbox":[135.480501355873,34.64872139517883,135.51091905701432,34.67001736741596],"objects":{"town":{"type":"GeometryCollection","geometries":[{"type":"MultiPolygon","arcs":[[[32,2,0,31,4,5]]],"properties":{"name":"下寺"}},{"type":"MultiPolygon","arcs":[[[26,-23,-18,27,28,46,47,7,8,9,-44,48,30]]],"properties":{"name":"日本橋"}},{"type":"MultiPolygon","arcs":[[[22,23,19,14,10,11,12,20,21,15,16,17]]],"properties":{"name":"恵美須西"}},{"type":"MultiPolygon","arcs":[[[45,25,-11,-15,-20,-24,-27,40,41]]],"properties":{"name":"恵美須東"}},{"type":"MultiPolygon","arcs":[[[107,152,-92,-149,-65,33,34,35,36,109,-8,-48,-84]]],"properties":{"name":"難波中"}},{"type":"MultiPolygon","arcs":[[[60,-41,-31,-49,43,-10,44,-5,-32,-1]]],"properties":{"name":"日本橋東"}},{"type":"MultiPolygon","arcs":[[[122,154,51,52,49,153,-87,-86,124,-102]]],"properties":{"name":"幸町"}},{"type":"MultiPolygon","arcs":[[[110,111,72,66,67,68,69,70,55,56,57,58,112,-90]]],"properties":{"name":"塩草"}},{"type":"MultiPolygon","arcs":[[[59]],[[-21,-13,103,104,105,106]]],"properties":{"name":"戎本町"}},{"type":"MultiPolygon","arcs":[[[-34,64,148,-91,-113,-59,-58,62,-81,140,-35]]],"properties":{"name":"元町"}},{"type":"MultiPolygon","arcs":[[[160,-159,73,74,75,76,-89,161]]],"properties":{"name":"立葉"}},{"type":"MultiPolygon","arcs":[[[80,-63,-57,78,156,-53,157,-36,-141]]],"properties":{"name":"湊町"}},{"type":"MultiPolygon","arcs":[[[-17,95,96,97,82,83,-47,-29,-28]]],"properties":{"name":"日本橋西"}},{"type":"MultiPolygon","arcs":[[[162,-103,-125,85,86,-154,-50,-157,-165,-164,-151,-70,169,-162,88,-77,-76],[-60]]],"properties":{"name":"桜川"}},{"type":"MultiPolygon","arcs":[[[-106,125,126,127,128,-111,89,90,91,92,93,129,130]]],"properties":{"name":"敷津西"}},{"type":"MultiPolygon","arcs":[[[167,100,101,102,98,168,-118]]],"properties":{"name":"木津川"}},{"type":"MultiPolygon","arcs":[[[-99,-163,-75,115,113,-119,-169]]],"properties":{"name":"久保吉"}},{"type":"MultiPolygon","arcs":[[[131,155,116,117,118,-114,119,-67,120,-145,133,165,166]]],"properties":{"name":"浪速西"}},{"type":"MultiPolygon","arcs":[[[-97,-96,-16,-22,-107,-131,-130,-94,-93,-153,-108,-83,-98]]],"properties":{"name":"敷津東"}},{"type":"MultiPolygon","arcs":[[[-166,-134,144,-121,-73,-112,-129,137,-147,171]]],"properties":{"name":"浪速東"}},{"type":"MultiPolygon","arcs":[[[-127,-126,-105,142,149,145,146,-138,-128]]],"properties":{"name":"大国"}},{"type":"MultiPolygon","arcs":[[[-56,-71,150,163,164,-79]]],"properties":{"name":"稲荷"}},{"type":"MultiPolygon","arcs":[[[-68,-120,-116,-74,158,-161,-170,-69]]],"properties":{"name":"芦原"}}]}},"arcs":[[[135.50822682123973,34.65393091093961],[135.5090268867863,34.65819905058989]],[[135.5090268867863,34.65819905058989],[135.51054183979844,34.65789661754082]],[[135.51054183979844,34.65789661754082],[135.5096900589884,34.65374987707221],[135.50822682123973,34.65393091093961]],[[135.51076695329823,34.660145697117024],[135.50938280948193,34.66046516864773]],[[135.50938280948193,34.66046516864773],[135.50982086818425,34.66251191625448]],[[135.50982086818425,34.66251191625448],[135.51091905701432,34.662375608401376],[135.51076695329823,34.660145697117024]],[[135.50759406978085,34.660876222017244],[135.50492921267517,34.66144701115211]],[[135.50492921267517,34.66144701115211],[135.5051725786209,34.66309761406078]],[[135.5051725786209,34.66309761406078],[135.50801996018586,34.66275258480761]],[[135.50801996018586,34.66275258480761],[135.50759406978085,34.660876222017244]],[[135.50443031248642,34.651458201291916],[135.5036667518317,34.64933052089739]],[[135.5036667518317,34.64933052089739],[135.5003752274158,34.65016540649764],[135.50100189472602,34.65276803456783]],[[135.50100189472602,34.65276803456783],[135.50104448376652,34.65291499147195]],[[135.50104448376652,34.65291499147195],[135.50468280465512,34.65218233676152]],[[135.50468280465512,34.65218233676152],[135.50443031248642,34.651458201291916]],[[135.50156772054984,34.65460819058472],[135.50186888590767,34.65587755746674]],[[135.50186888590767,34.65587755746674],[135.5039892117098,34.65555808593602]],[[135.5039892117098,34.65555808593602],[135.50542507078958,34.654482531782634]],[[135.50542507078958,34.654482531782634],[135.50156772054984,34.65460819058472]],[[135.504880539486,34.65269988064127],[135.50468280465512,34.65218233676152]],[[135.50104448376652,34.65291499147195],[135.50155859432687,34.65456133476021]],[[135.50155859432687,34.65456133476021],[135.50156772054984,34.65460819058472]],[[135.50542507078958,34.654482531782634],[135.50553154339082,34.65445910387038]],[[135.50553154339082,34.65445910387038],[135.504880539486,34.65269988064127]],[[135.50443031248642,34.651458201291916],[135.50707083299753,34.65084481595295]],[[135.50707083299753,34.65084481595295],[135.50625555707936,34.64872139517883],[135.5036667518317,34.64933052089739]],[[135.50625251500503,34.654337704688714],[135.50553154339082,34.65445910387038]],[[135.5039892117098,34.65555808593602],[135.50400138000708,34.657338607267185]],[[135.50400138000708,34.657338607267185],[135.5042873349933,34.65915107575141]],[[135.5042873349933,34.65915107575141],[135.50731419894328,34.658573897185924]],[[135.50731419894328,34.658573897185924],[135.50625251500503,34.654337704688714]],[[135.5090268867863,34.65819905058989],[135.50938280948193,34.66046516864773]],[[135.51076695329823,34.660145697117024],[135.51054183979844,34.65789661754082]],[[135.49792027343827,34.66270572898311],[135.49791114721532,34.66270572898311]],[[135.49791114721532,34.66270572898311],[135.49791418928965,34.66716981117223]],[[135.49791418928965,34.66716981117223],[135.49823056501907,34.66710804667629]],[[135.49823056501907,34.66710804667629],[135.50090759042206,34.663276518117975]],[[135.50090759042206,34.663276518117975],[135.50085283308425,34.66295917639747]],[[135.50085283308425,34.66295917639747],[135.49792027343827,34.66270572898311]],[[135.50749672340257,34.65208436549211],[135.504880539486,34.65269988064127]],[[135.50625251500503,34.654337704688714],[135.50805950715204,34.65395646866207]],[[135.50805950715204,34.65395646866207],[135.50749672340257,34.65208436549211]],[[135.50938280948193,34.66046516864773],[135.5076153643011,34.66087196239683]],[[135.5076153643011,34.66087196239683],[135.50759406978085,34.660876222017244]],[[135.50801996018586,34.66275258480761],[135.50982086818425,34.66251191625448]],[[135.50749672340257,34.65208436549211],[135.50707083299753,34.65084481595295]],[[135.5042873349933,34.65915107575141],[135.5048927077833,34.66075695264578]],[[135.5048927077833,34.66075695264578],[135.50492921267517,34.66144701115211]],[[135.5076153643011,34.66087196239683],[135.50731419894328,34.658573897185924]],[[135.49448272945492,34.66784922062754],[135.49179353575465,34.66816656234805]],[[135.49179353575465,34.66816656234805],[135.49214945845026,34.6695424197403]],[[135.49214945845026,34.6695424197403],[135.4947778106641,34.66925276555246]],[[135.4947778106641,34.66925276555246],[135.49448272945492,34.66784922062754]],[[135.49325677350333,34.660309692502786],[135.49008997413458,34.660629164033494]],[[135.49008997413458,34.660629164033494],[135.49043677060723,34.66336384033637]],[[135.49043677060723,34.66336384033637],[135.4930590386724,34.66313808045467]],[[135.4930590386724,34.66313808045467],[135.49430324706995,34.662982604309725]],[[135.49430324706995,34.662982604309725],[135.49366441146242,34.66107216455608]],[[135.49366441146242,34.66107216455608],[135.49325677350333,34.660309692502786]],[[135.48887618648027,34.66730398921513],[135.48887618648027,34.66730398921513]],[[135.50822682123973,34.65393091093961],[135.50805950715204,34.65395646866207]],[[135.50731419894328,34.658573897185924],[135.5090268867863,34.65819905058989]],[[135.49430324706995,34.662982604309725],[135.49499379794094,34.66293787829542]],[[135.49499379794094,34.66293787829542],[135.49791114721532,34.66270572898311]],[[135.49792027343827,34.66270572898311],[135.49784726365456,34.66093585670298]],[[135.49784726365456,34.66093585670298],[135.49366441146242,34.66107216455608]],[[135.48838032836585,34.65970695621485],[135.48817346731198,34.65999235078228]],[[135.48817346731198,34.65999235078228],[135.48816434108903,34.660201072182346]],[[135.48816434108903,34.660201072182346],[135.48807003678505,34.66349588856907]],[[135.48807003678505,34.66349588856907],[135.4893477080001,34.66345329236497]],[[135.4893477080001,34.66345329236497],[135.49043677060723,34.66336384033637]],[[135.49008997413458,34.660629164033494],[135.4902238254047,34.65902328713913]],[[135.4902238254047,34.65902328713913],[135.48838032836585,34.65970695621485]],[[135.48651857888106,34.66350653762009],[135.4850857618756,34.66345755198538]],[[135.4850857618756,34.66345755198538],[135.4842400652142,34.66343838369354]],[[135.4842400652142,34.66343838369354],[135.4840970877211,34.665259371418585],[135.48631780197584,34.66535308306759]],[[135.48631780197584,34.66535308306759],[135.48632997027312,34.66535308306759]],[[135.48632997027312,34.66535308306759],[135.48651857888106,34.66350653762009]],[[135.4930590386724,34.66313808045467],[135.4937921785839,34.6655809727595]],[[135.4937921785839,34.6655809727595],[135.49621062766957,34.66535947249821]],[[135.49621062766957,34.66535947249821],[135.49499379794094,34.66293787829542]],[[135.50400138000708,34.657338607267185],[135.50233128120453,34.657745401016285]],[[135.50233128120453,34.657745401016285],[135.50275108746092,34.659291643224925]],[[135.50275108746092,34.659291643224925],[135.5032560717983,34.66116587620509],[135.5048927077833,34.66075695264578]],[[135.48631780197584,34.66535308306759],[135.48558161999,34.66847538482773]],[[135.48558161999,34.66847538482773],[135.48667372467145,34.66860530325022]],[[135.48667372467145,34.66860530325022],[135.48820997220383,34.66852437046244]],[[135.48820997220383,34.66852437046244],[135.4880335318932,34.66541697737374]],[[135.4880335318932,34.66541697737374],[135.48632997027312,34.66535308306759]],[[135.4928734721388,34.65864205111248],[135.49311683808452,34.65988160065163]],[[135.49311683808452,34.65988160065163],[135.4977985904654,34.65917237385346]],[[135.4977985904654,34.65917237385346],[135.49780771668838,34.65899559960646]],[[135.49780771668838,34.65899559960646],[135.4978381374316,34.65769215576117]],[[135.4978381374316,34.65769215576117],[135.49784422158024,34.65733008802636]],[[135.49784422158024,34.65733008802636],[135.4928734721388,34.65864205111248]],[[135.50186888590767,34.65587755746674],[135.50199665302918,34.65646325527304]],[[135.50199665302918,34.65646325527304],[135.5022278506776,34.65736203517943]],[[135.5022278506776,34.65736203517943],[135.50233128120453,34.657745401016285]],[[135.48283766895196,34.66340217692006],[135.48257909263464,34.66339791729965]],[[135.48257909263464,34.66339791729965],[135.4819128783582,34.663378749007805]],[[135.4819128783582,34.663378749007805],[135.4806960486296,34.667568085680514]],[[135.4806960486296,34.667568085680514],[135.48243003099287,34.66793015341532]],[[135.48243003099287,34.66793015341532],[135.48329702217453,34.665146491477735],[135.48283766895196,34.66340217692006]],[[135.50100189472602,34.65276803456783],[135.49773166483035,34.65353902586194]],[[135.49773166483035,34.65353902586194],[135.49782901120864,34.65522583554409]],[[135.49782901120864,34.65522583554409],[135.4978807264721,34.655217316303265]],[[135.4978807264721,34.655217316303265],[135.50155859432687,34.65456133476021]],[[135.50275108746092,34.659291643224925],[135.500235291997,34.65953018196785]],[[135.500235291997,34.65953018196785],[135.50085283308425,34.66295917639747]],[[135.50090759042206,34.663276518117975],[135.50269633012314,34.66372377826097],[135.5051725786209,34.66309761406078]],[[135.4928734721388,34.65864205111248],[135.4927061580511,34.658105338940885]],[[135.4927061580511,34.658105338940885],[135.4902238254047,34.65902328713913]],[[135.49325677350333,34.660309692502786],[135.49311683808452,34.65988160065163]],[[135.4860014262464,34.66006050470883],[135.48532000159835,34.65995188438839]],[[135.48532000159835,34.65995188438839],[135.4842400652142,34.66343838369354]],[[135.4850857618756,34.66345755198538],[135.48591624816538,34.66265248372799],[135.4860014262464,34.66006050470883]],[[135.48530174915243,34.657261934099814],[135.48529566500378,34.65736842461005]],[[135.48529566500378,34.65736842461005],[135.4847328812543,34.6598198361557]],[[135.4847328812543,34.6598198361557],[135.48532000159835,34.65995188438839]],[[135.4860014262464,34.66006050470883],[135.48817346731198,34.65999235078228]],[[135.48838032836585,34.65970695621485],[135.48829819235917,34.6576154825938]],[[135.48829819235917,34.6576154825938],[135.48530174915243,34.657261934099814]],[[135.4806960486296,34.667568085680514],[135.48203456133106,34.66926554441369],[135.48654899962426,34.67001736741596]],[[135.48654899962426,34.67001736741596],[135.48667372467145,34.66860530325022]],[[135.48558161999,34.66847538482773],[135.48243003099287,34.66793015341532]],[[135.49782901120864,34.65522583554409],[135.49623496426412,34.655822182401415]],[[135.49623496426412,34.655822182401415],[135.49448272945492,34.65682106338743]],[[135.49448272945492,34.65682106338743],[135.49275483124026,34.65808191102863]],[[135.49275483124026,34.65808191102863],[135.4927061580511,34.658105338940885]],[[135.49784422158024,34.65733008802636],[135.4978655161005,34.65616508184437]],[[135.4978655161005,34.65616508184437],[135.4978807264721,34.655217316303265]],[[135.4854933998347,34.65393943018043],[135.4853565064902,34.65562623986258]],[[135.4853565064902,34.65562623986258],[135.4883590338456,34.655977658546355]],[[135.4883590338456,34.655977658546355],[135.48841074910908,34.65458689248267]],[[135.48841074910908,34.65458689248267],[135.4854933998347,34.65393943018043]],[[135.4978381374316,34.65769215576117],[135.5022278506776,34.65736203517943]],[[135.50199665302918,34.65646325527304],[135.4978655161005,34.65616508184437]],[[135.49275483124026,34.65808191102863],[135.49182699857218,34.65567096587688]],[[135.49182699857218,34.65567096587688],[135.49172661011957,34.65567309568708]],[[135.49172661011957,34.65567309568708],[135.49002000642517,34.657832723234684],[135.48829819235917,34.6576154825938]],[[135.49621062766957,34.66535947249821],[135.4969376834324,34.66738918162332],[135.49791418928965,34.66716981117223]],[[135.4966851912637,34.6510918739367],[135.49623496426412,34.655822182401415]],[[135.49773166483035,34.65353902586194],[135.49759172941154,34.65084481595295],[135.4966851912637,34.6510918739367]],[[135.49172661011957,34.65567309568708],[135.4883590338456,34.655977658546355]],[[135.4883590338456,34.655977658546355],[135.48829819235917,34.6576154825938]],[[135.49485082044782,34.65174572566956],[135.49374046332045,34.65245495246773]],[[135.49374046332045,34.65245495246773],[135.49182699857218,34.65567096587688]],[[135.49448272945492,34.65682106338743],[135.49485082044782,34.65174572566956]],[[135.49784726365456,34.66093585670298],[135.4977985904654,34.65917237385346]],[[135.4966851912637,34.6510918739367],[135.49485082044782,34.65174572566956]],[[135.4893477080001,34.66345329236497],[135.48912259450032,34.6662561225944],[135.49110602695797,34.66583867979427]],[[135.49110602695797,34.66583867979427],[135.49043677060723,34.66336384033637]],[[135.500235291997,34.65953018196785],[135.49780771668838,34.65899559960646]],[[135.49179353575465,34.66816656234805],[135.48820997220383,34.66852437046244]],[[135.48654899962426,34.67001736741596],[135.49214945845026,34.6695424197403]],[[135.4853565064902,34.65562623986258],[135.48530174915243,34.657261934099814]],[[135.4937921785839,34.6655809727595],[135.49448272945492,34.66784922062754]],[[135.4947778106641,34.66925276555246],[135.49734227931717,34.668980149846256],[135.49823056501907,34.66710804667629]],[[135.48651857888106,34.66350653762009],[135.48657637829317,34.66350866743029]],[[135.48657637829317,34.66350866743029],[135.48816434108903,34.660201072182346]],[[135.48806699471072,34.66357469154664],[135.48657637829317,34.66350866743029]],[[135.4880335318932,34.66541697737374],[135.48806699471072,34.66357469154664]],[[135.4842400652142,34.66343838369354],[135.48283766895196,34.66340217692006]],[[135.49110602695797,34.66583867979427],[135.49118512089032,34.66610916569027]],[[135.49118512089032,34.66610916569027],[135.4937921785839,34.6655809727595]],[[135.48841074910908,34.65458689248267],[135.48838032836585,34.653941559990635]],[[135.48838032836585,34.653941559990635],[135.485675924294,34.65173294680832],[135.4854933998347,34.65393943018043]],[[135.48529566500378,34.65736842461005],[135.4812892531223,34.65543455694415],[135.4820406454797,34.659404523165776],[135.4819128783582,34.663378749007805]],[[135.48257909263464,34.66339791729965],[135.48322705446512,34.66083362581315],[135.4847328812543,34.6598198361557]],[[135.48807003678505,34.66349588856907],[135.48806699471072,34.66357469154664]],[[135.49179353575465,34.66816656234805],[135.49118512089032,34.66610916569027]],[[135.49374046332045,34.65245495246773],[135.491872629687,34.65352411719051],[135.48838032836585,34.653941559990635]]]}