{"type":"Topology","bbox":[135.38857587402575,34.674516569760975,135.47385185863726,34.72912881659112],"objects":{"town":{"type":"GeometryCollection","geometries":[{"type":"MultiPolygon","arcs":[[[12,13,14,-9,1,2,3,15]]],"properties":{"name":"花川"}},{"type":"MultiPolygon","arcs":[[[6,16,-3,-2,8,4,9,10,11]]],"properties":{"name":"柏里"}},{"type":"MultiPolygon","arcs":[[[92,19,55,56,57,58,24,-11,22,17,93,-62]]],"properties":{"name":"歌島"}},{"type":"MultiPolygon","arcs":[[[81,123,-58,-96,122,83,119,120,121,25,35]]],"properties":{"name":"竹島"}},{"type":"MultiPolygon","arcs":[[[29,30,142,143,-136,144,-113,145,32,33,-173,-76,174,-164]]],"properties":{"name":"出来島"}},{"type":"MultiPolygon","arcs":[[[97,-89,41,42,43,37,38,67,68,69,70]]],"properties":{"name":"千舟"}},{"type":"MultiPolygon","arcs":[[[-52,-115,-79,-116,-174,73,-64,46,47,177]]],"properties":{"name":"福町"}},{"type":"MultiPolygon","arcs":[[[-94,-18,-23,-10,-5,-15,48,137,-110,59,60,61]]],"properties":{"name":"野里"}},{"type":"MultiPolygon","arcs":[[[51,52,53,54,-80,114]]],"properties":{"name":"百島"}},{"type":"MultiPolygon","arcs":[[[124,-38,-109,125,106,107,175,100,-47,63,64,101]]],"properties":{"name":"姫島"}},{"type":"MultiPolygon","arcs":[[[-34,117,118,115,78,79,-55,74,75,172]]],"properties":{"name":"大野"}},{"type":"MultiPolygon","arcs":[[[151,-120,-84,-123,95,-57,-56,-20,-93,-61,-43,-42,88,84,85,89]]],"properties":{"name":"御幣島"}},{"type":"MultiPolygon","arcs":[[[-107,-126,108,-44,-60,109,-138,-49,-14,-13,128]]],"properties":{"name":"姫里"}},{"type":"MultiPolygon","arcs":[[[112,139,149,-69,-68,-39,-125,-102,-65,-74,173,-119,-118,-33,-146]]],"properties":{"name":"大和田"}},{"type":"MultiPolygon","arcs":[[[146,165,159,133,167,130,170,-121,-152,-90,-86,-85,-98,-71,-70,-150,-140,-145,135,-144,-143,-31,-163,148]]],"properties":{"name":"佃"}},{"type":"Polygon","arcs":[[152,153,154,155,156,157]],"properties":{"name":""}},{"type":"MultiPolygon","arcs":[[[-158,161,-149,162,-30,163,164,-154,-153]]],"properties":{"name":"中島"}},{"type":"MultiPolygon","arcs":[[[-54,176,168,-156,-155,-165,-175,-75]]],"properties":{"name":"西島"}}]}},"arcs":[[[135.46842776360646,34.70335471990231],[135.4659033420198,34.70634230856278],[135.46666237418606,34.70939543847358]],[[135.46666237418606,34.70939543847358],[135.46762608918368,34.70999077149733]],[[135.46762608918368,34.70999077149733],[135.47207794076556,34.70557766064237]],[[135.47207794076556,34.70557766064237],[135.46842776360646,34.70335471990231]],[[135.46538310649012,34.708598019928004],[135.46511872449963,34.71103396973161]],[[135.46511872449963,34.71103396973161],[135.4691612104188,34.712071706195026]],[[135.4691612104188,34.712071706195026],[135.4698093727181,34.71132890535805]],[[135.4698093727181,34.71132890535805],[135.46762608918368,34.70999077149733]],[[135.46666237418606,34.70939543847358],[135.46538310649012,34.708598019928004]],[[135.46511872449963,34.71103396973161],[135.46469230193432,34.71313675151275]],[[135.46469230193432,34.71313675151275],[135.4676687314402,34.71394509360004]],[[135.4676687314402,34.71394509360004],[135.4691612104188,34.712071706195026]],[[135.46637240684166,34.702153130313086],[135.46220199415288,34.70662632064751]],[[135.46220199415288,34.70662632064751],[135.46213376654242,34.706664553043524]],[[135.46213376654242,34.706664553043524],[135.46538310649012,34.708598019928004]],[[135.46842776360646,34.70335471990231],[135.46637240684166,34.702153130313086]],[[135.4698093727181,34.71132890535805],[135.47385185863726,34.706670014814385],[135.47207794076556,34.70557766064237]],[[135.4646752450317,34.71313128974189],[135.46203995357806,34.712421259530075]],[[135.46203995357806,34.712421259530075],[135.4612638645092,34.71438203526885],[135.45996753991062,34.71501013891776]],[[135.45996753991062,34.71501013891776],[135.4611444661909,34.716654131946655]],[[135.4611444661909,34.716654131946655],[135.46147707579183,34.716823446843314]],[[135.46147707579183,34.716823446843314],[135.4641294241481,34.71565462787925],[135.4646752450317,34.71313128974189]],[[135.46469230193432,34.71313675151275],[135.4646752450317,34.71313128974189]],[[135.46147707579183,34.716823446843314],[135.46441939149253,34.71765909778491]],[[135.46441939149253,34.71765909778491],[135.4676687314402,34.71394509360004]],[[135.44721750520773,34.724939638341425],[135.4456482701674,34.72912881659112],[135.45105530829557,34.72814023606544]],[[135.45105530829557,34.72814023606544],[135.45133674718866,34.72627231043129]],[[135.45133674718866,34.72627231043129],[135.44721750520773,34.724939638341425]],[[135.43700894899413,34.70333287281887],[135.4341348609039,34.70664816773095]],[[135.4341348609039,34.70664816773095],[135.4359940632887,34.708221157738656]],[[135.4359940632887,34.708221157738656],[135.4360196486426,34.70822661950952]],[[135.4360196486426,34.70822661950952],[135.43852701332665,34.70501509824378]],[[135.43852701332665,34.70501509824378],[135.43879139531714,34.704687391992174]],[[135.43879139531714,34.704687391992174],[135.43700894899413,34.70333287281887]],[[135.45215547851407,34.72466108802756],[135.45133674718866,34.72627231043129]],[[135.45105530829557,34.72814023606544],[135.45457755868506,34.72702603480998]],[[135.45457755868506,34.72702603480998],[135.45401468089884,34.72527826813475],[135.45215547851407,34.72466108802756]],[[135.4538270549701,34.706664553043524],[135.4538099980675,34.70665362950181]],[[135.4538099980675,34.70665362950181],[135.45079945475638,34.70789891325791]],[[135.45079945475638,34.70789891325791],[135.4531362504143,34.709187891180896]],[[135.4531362504143,34.709187891180896],[135.45553274523138,34.71053148681248]],[[135.45553274523138,34.71053148681248],[135.4556095012931,34.71048233087474]],[[135.4556095012931,34.71048233087474],[135.45631736275155,34.71005085097679]],[[135.45631736275155,34.71005085097679],[135.4538270549701,34.706664553043524]],[[135.44786566750702,34.6929664317264],[135.44326030380162,34.69895253258907]],[[135.44326030380162,34.69895253258907],[135.4463646600771,34.70020327811603]],[[135.4463646600771,34.70020327811603],[135.44858205741676,34.69875044706724],[135.45131116183475,34.69455580704668]],[[135.45131116183475,34.69455580704668],[135.44786566750702,34.6929664317264]],[[135.46213376654242,34.706664553043524],[135.4619376121624,34.70679563554417]],[[135.4619376121624,34.70679563554417],[135.4627734003904,34.70887110847101],[135.46203995357806,34.712421259530075]],[[135.43653135572097,34.69565362298957],[135.43753771297511,34.6933487556866]],[[135.43753771297511,34.6933487556866],[135.43592583567823,34.692376560473505],[135.43783620877082,34.68874448285154]],[[135.43783620877082,34.68874448285154],[135.4349280068754,34.687646666908655]],[[135.4349280068754,34.687646666908655],[135.43179806524597,34.69463227183873],[135.43176395144076,34.697685401749524]],[[135.43176395144076,34.697685401749524],[135.43532031563547,34.69770724883296],[135.43538001479462,34.69576832017763],[135.43653135572097,34.69565362298957]],[[135.4611444661909,34.716654131946655],[135.4605730599534,34.71880606966553]],[[135.4605730599534,34.71880606966553],[135.46006135287502,34.72054291279904]],[[135.46006135287502,34.72054291279904],[135.46138326282747,34.721149169364516]],[[135.46138326282747,34.721149169364516],[135.46441939149253,34.71765909778491]],[[135.45859445925032,34.708745487741226],[135.45631736275155,34.71005085097679]],[[135.45631736275155,34.71005085097679],[135.4570593380152,34.711104972752786]],[[135.4570593380152,34.711104972752786],[135.46089714110303,34.71211540036191]],[[135.46089714110303,34.71211540036191],[135.45859445925032,34.708745487741226]],[[135.4463646600771,34.70020327811603],[135.4445566284002,34.70321271385994],[135.44600646512225,34.7043542239697]],[[135.44600646512225,34.7043542239697],[135.44766951312698,34.704457997616046]],[[135.44766951312698,34.704457997616046],[135.44936667493693,34.70139940593439]],[[135.44936667493693,34.70139940593439],[135.4463646600771,34.70020327811603]],[[135.45079945475638,34.70789891325791],[135.45075681249986,34.70792076034135]],[[135.45075681249986,34.70792076034135],[135.44764392777304,34.709149658784874],[135.44627937556405,34.71060795160452]],[[135.44627937556405,34.71060795160452],[135.44650964374932,34.71067349285484]],[[135.44650964374932,34.71067349285484],[135.44826650471842,34.7115965321302]],[[135.44826650471842,34.7115965321302],[135.4531362504143,34.709187891180896]],[[135.44326030380162,34.69895253258907],[135.44192986539784,34.700683913951714]],[[135.44192986539784,34.700683913951714],[135.4437464255261,34.70366057907047],[135.44600646512225,34.7043542239697]],[[135.43176395144076,34.697685401749524],[135.432105089493,34.70073853166032]],[[135.432105089493,34.70073853166032],[135.43255709741226,34.700514599055055]],[[135.43255709741226,34.700514599055055],[135.43811764766394,34.699618868634],[135.43993420779216,34.70038351655441]],[[135.43993420779216,34.70038351655441],[135.44122200393943,34.69950417144594]],[[135.44122200393943,34.69950417144594],[135.44082969517933,34.697445083831674]],[[135.44082969517933,34.697445083831674],[135.43653135572097,34.69565362298957]],[[135.4529912667421,34.72288601249802],[135.45215547851407,34.72466108802756]],[[135.45457755868506,34.72702603480998],[135.45643676106982,34.72587906292936]],[[135.45643676106982,34.72587906292936],[135.4559591677967,34.723825437085964]],[[135.4559591677967,34.723825437085964],[135.4529912667421,34.72288601249802]],[[135.4500063087849,34.71360100203586],[135.45003189413882,34.71362831089016]],[[135.45003189413882,34.71362831089016],[135.45042420289892,34.714316494018526]],[[135.45042420289892,34.714316494018526],[135.4523004621863,34.71546346589915],[135.45565214354966,34.71547438944087]],[[135.45565214354966,34.71547438944087],[135.4556095012931,34.71048233087474]],[[135.45553274523138,34.71053148681248],[135.4500063087849,34.71360100203586]],[[135.45042420289892,34.714316494018526],[135.45130263338345,34.716938144031374],[135.4509359099773,34.71871321956091]],[[135.4509359099773,34.71871321956091],[135.4555924443905,34.71874599018607]],[[135.4555924443905,34.71874599018607],[135.45565214354966,34.71547438944087]],[[135.4570593380152,34.711104972752786],[135.45996753991062,34.71501013891776]],[[135.46203995357806,34.712421259530075],[135.46089714110303,34.71211540036191]],[[135.4555924443905,34.71874599018607],[135.45603592385845,34.72380905177339]],[[135.45603592385845,34.72380905177339],[135.45699963885605,34.72364519864758],[135.46006135287502,34.72054291279904]],[[135.4605730599534,34.71880606966553],[135.4555924443905,34.71874599018607]],[[135.44826650471842,34.7115965321302],[135.4500063087849,34.71360100203586]],[[135.44936667493693,34.70139940593439],[135.4502792192267,34.701770806352876]],[[135.4502792192267,34.701770806352876],[135.45397203864232,34.69994111311475],[135.45574595651402,34.69652750632718]],[[135.45574595651402,34.69652750632718],[135.45131116183475,34.69455580704668]],[[135.44766951312698,34.704457997616046],[135.44859058586806,34.70476385678421]],[[135.44859058586806,34.70476385678421],[135.45091885307468,34.703982823551215],[135.45499545279907,34.703693349695634]],[[135.45499545279907,34.703693349695634],[135.4502792192267,34.701770806352876]],[[135.45670967151165,34.69695898622513],[135.45494428209125,34.70027428113721],[135.45520013563043,34.70376981448767]],[[135.45520013563043,34.70376981448767],[135.45769044341185,34.70478570386765]],[[135.45769044341185,34.70478570386765],[135.46206553893197,34.6997007951969]],[[135.46206553893197,34.6997007951969],[135.45670967151165,34.69695898622513]],[[135.45644528952113,34.705533966475485],[135.4538270549701,34.706664553043524]],[[135.45859445925032,34.708745487741226],[135.45898676801042,34.70852701690682]],[[135.45898676801042,34.70852701690682],[135.45644528952113,34.705533966475485]],[[135.44284240968761,34.705594045954946],[135.43980628102258,34.706757403148146]],[[135.43980628102258,34.706757403148146],[135.4445736853028,34.71041678962442]],[[135.4445736853028,34.71041678962442],[135.44480395348808,34.708161078259195],[135.44284240968761,34.705594045954946]],[[135.44082969517933,34.697445083831674],[135.43980628102258,34.69554438757236],[135.43753771297511,34.6933487556866]],[[135.44190428004393,34.7006456815557],[135.44122200393943,34.69950417144594]],[[135.43993420779216,34.70038351655441],[135.43700894899413,34.70333287281887]],[[135.43879139531714,34.704687391992174],[135.4399427362435,34.703201790318225]],[[135.4399427362435,34.703201790318225],[135.44190428004393,34.7006456815557]],[[135.4529912667421,34.72288601249802],[135.44940931719344,34.72168988467966]],[[135.44940931719344,34.72168988467966],[135.44804476498445,34.72331749239597]],[[135.44804476498445,34.72331749239597],[135.44721750520773,34.724939638341425]],[[135.45603592385845,34.72380905177339],[135.4559591677967,34.723825437085964]],[[135.45643676106982,34.72587906292936],[135.46138326282747,34.721149169364516]],[[135.44859058586806,34.70476385678421],[135.45280364081336,34.705708743143006],[135.4538099980675,34.70665362950181]],[[135.45644528952113,34.705533966475485],[135.45769044341185,34.70478570386765]],[[135.45520013563043,34.70376981448767],[135.45499545279907,34.703693349695634]],[[135.45769044341185,34.70478570386765],[135.46220199415288,34.70662632064751]],[[135.46637240684166,34.702153130313086],[135.46206553893197,34.6997007951969]],[[135.44650964374932,34.71067349285484],[135.44305562097028,34.714868132875395],[135.441349930709,34.716299116840744]],[[135.441349930709,34.716299116840744],[135.44521331915075,34.71781202736899]],[[135.44521331915075,34.71781202736899],[135.44710663534076,34.71553993069119],[135.45003189413882,34.71362831089016]],[[135.43951631367818,34.70975591535034],[135.43625844527918,34.71466058558271]],[[135.43625844527918,34.71466058558271],[135.43902166350242,34.71561093371237]],[[135.43902166350242,34.71561093371237],[135.44149491438122,34.710258398269474]],[[135.44149491438122,34.710258398269474],[135.43951631367818,34.70975591535034]],[[135.45565214354966,34.71547438944087],[135.45996753991062,34.71501013891776]],[[135.4619376121624,34.70679563554417],[135.45898676801042,34.70852701690682]],[[135.443882880747,34.70485124511797],[135.44284240968761,34.705594045954946]],[[135.4445736853028,34.71041678962442],[135.44547770114127,34.710460483791294]],[[135.44547770114127,34.710460483791294],[135.44755864325998,34.70639692627138]],[[135.44755864325998,34.70639692627138],[135.443882880747,34.70485124511797]],[[135.4360196486426,34.70822661950952],[135.43613051850957,34.70825392836382]],[[135.43613051850957,34.70825392836382],[135.43951631367818,34.70975591535034]],[[135.44149491438122,34.710258398269474],[135.4445736853028,34.71041678962442]],[[135.43980628102258,34.706757403148146],[135.43852701332665,34.70501509824378]],[[135.42512028787317,34.70604737293633],[135.42958919635765,34.711399908379235]],[[135.42958919635765,34.711399908379235],[135.43323937351676,34.707745983673824]],[[135.43323937351676,34.707745983673824],[135.42512028787317,34.70604737293633]],[[135.44547770114127,34.710460483791294],[135.44627937556405,34.71060795160452]],[[135.45075681249986,34.70792076034135],[135.44755864325998,34.70639692627138]],[[135.4509359099773,34.71871321956091],[135.44940931719344,34.72168988467966]],[[135.4185363234647,34.7032727933394],[135.4132316267522,34.70096792603644],[135.409828774681,34.6984828202951],[135.40823395428671,34.6965657387232],[135.40958144959313,34.69314120839392],[135.41089483109428,34.69144805942729],[135.41442560993508,34.68943812775077],[135.42622045809168,34.69662581820266],[135.42689420574487,34.697221151226415]],[[135.42689420574487,34.697221151226415],[135.4272097584432,34.69706822164233]],[[135.4272097584432,34.69706822164233],[135.42757648184937,34.69690983028739]],[[135.42757648184937,34.69690983028739],[135.4268003927805,34.696025023408055],[135.4174617386001,34.6880781468066],[135.41799903103242,34.6867782453419],[135.40825101118935,34.684118362933035],[135.40973496171662,34.68024050562236]],[[135.40973496171662,34.68024050562236],[135.38857587402575,34.674516569760975],[135.39799128426787,34.6856695058573],[135.4081913120302,34.69805134039715],[135.41298430166432,34.70233883052233],[135.4175555515645,34.703900896988316]],[[135.4175555515645,34.703900896988316],[135.4185363234647,34.7032727933394]],[[135.43613051850957,34.70825392836382],[135.4325144551557,34.71292920422006]],[[135.4325144551557,34.71292920422006],[135.43625844527918,34.71466058558271]],[[135.42689420574487,34.697221151226415],[135.4235339959302,34.7006183727014],[135.4185363234647,34.7032727933394]],[[135.4175555515645,34.703900896988316],[135.42512028787317,34.70604737293633]],[[135.43323937351676,34.707745983673824],[135.4359940632887,34.708221157738656]],[[135.4341348609039,34.70664816773095],[135.43175542298945,34.704250450323364]],[[135.43175542298945,34.704250450323364],[135.42900073321752,34.701361173538366],[135.4272097584432,34.69706822164233]],[[135.42958919635765,34.711399908379235],[135.4325144551557,34.71292920422006]],[[135.44859058586806,34.70476385678421],[135.44755864325998,34.70639692627138]],[[135.43902166350242,34.71561093371237],[135.441349930709,34.716299116840744]],[[135.43328201577327,34.687029486801464],[135.42959772480896,34.68565312054472],[135.40973496171662,34.68024050562236]],[[135.42757648184937,34.69690983028739],[135.43105608998235,34.69216355140996],[135.43328201577327,34.687029486801464]],[[135.44521331915075,34.71781202736899],[135.4474051311365,34.71966902946143],[135.44804476498445,34.72331749239597]],[[135.443882880747,34.70485124511797],[135.4399427362435,34.703201790318225]],[[135.43255709741226,34.700514599055055],[135.43700894899413,34.70333287281887]],[[135.44192986539784,34.700683913951714],[135.44190428004393,34.7006456815557]],[[135.432105089493,34.70073853166032],[135.43264238192532,34.70291231646264],[135.43175542298945,34.704250450323364]],[[135.45670967151165,34.69695898622513],[135.45574595651402,34.69652750632718]],[[135.4349280068754,34.687646666908655],[135.43328201577327,34.687029486801464]],[[135.44786566750702,34.6929664317264],[135.43783620877082,34.68874448285154]]]}