{"type":"Topology","bbox":[135.49565570525215,34.6162674418599,135.52896528562965,34.64839358510624],"objects":{"town":{"type":"GeometryCollection","geometries":[{"type":"MultiPolygon","arcs":[[[5,6,81,0,1,2,3,82,8]]],"properties":{"name":"天王寺町北"}},{"type":"MultiPolygon","arcs":[[[18,19,-43,50,117,114,115,116,46,47,48,49,16,11,12,13,14,15,104]]],"properties":{"name":"阿倍野筋"}},{"type":"MultiPolygon","arcs":[[[-114,-173,22,23,43,44,39,40,41,42,-20,-19,-105,-16,-15,26,-3,27]]],"properties":{"name":"松崎町"}},{"type":"MultiPolygon","arcs":[[[186,-110,-54,-53,-144,31,-124,-161,-160,67,68,64,65,-142,-141,-104,28,29,-188,-62,185,168,169,-118,-51,-42,170]]],"properties":{"name":"阪南町"}},{"type":"MultiPolygon","arcs":[[[-72,-175,-136,34,35,36,37,-97,-146,181,176]]],"properties":{"name":"美章園"}},{"type":"MultiPolygon","arcs":[[[122,123,-32,143,52,53,109,-187,-171,-41,-190,-157,-183,111,55,56,144,125]]],"properties":{"name":"昭和町"}},{"type":"MultiPolygon","arcs":[[[-103,-179,58,59,-154,-153,-168,-115,-170,-169,-186,61,187,-30]]],"properties":{"name":"王子町"}},{"type":"MultiPolygon","arcs":[[[-12,-17,-50,62,192,190,-13]]],"properties":{"name":"旭町"}},{"type":"MultiPolygon","arcs":[[[-45,-137,174,71,72,158,155,156,189,-40]]],"properties":{"name":"文の里"}},{"type":"Polygon","arcs":[[74,75,76,77]],"properties":{"name":"万代"}},{"type":"MultiPolygon","arcs":[[[80,78,-57,-56,-112,182,-156,183]]],"properties":{"name":"桃ケ池町"}},{"type":"MultiPolygon","arcs":[[[119,120,85,86,83,121,147,-95,148,149]]],"properties":{"name":"松虫通"}},{"type":"MultiPolygon","arcs":[[[131,132,87,88,89,90,91,133,134]]],"properties":{"name":"相生通"}},{"type":"Polygon","arcs":[[93,94,95,-91]],"properties":{"name":"橋本町"}},{"type":"MultiPolygon","arcs":[[[-1,-82,-7,-6,146,145,96,-38,-37,112,113,-28,-2]]],"properties":{"name":"天王寺町南"}},{"type":"MultiPolygon","arcs":[[[142,139,100,-78,101,102,-29,103,140,141,-66]]],"properties":{"name":"播磨町"}},{"type":"MultiPolygon","arcs":[[[-167,105,106,107,-48,-47,-117]]],"properties":{"name":"共立通"}},{"type":"MultiPolygon","arcs":[[[127,-69,-68,159,160,-123,161,162]]],"properties":{"name":"西田辺町"}},{"type":"MultiPolygon","arcs":[[[-77,177,163,128,129,-89,-88,-133,-132,-155,-59,178,-102]]],"properties":{"name":"北畠"}},{"type":"MultiPolygon","arcs":[[[-35,135,136,-44,-24,-23,172,-113,-36]]],"properties":{"name":"三明町"}},{"type":"Polygon","arcs":[[-135,150,-87,151,152,153,-60,154]],"properties":{"name":"阿倍野元町"}},{"type":"Polygon","arcs":[[-92,-96,-148,-122,-84,-151,-134]],"properties":{"name":"晴明通"}},{"type":"MultiPolygon","arcs":[[[-106,166,-116,167,-152,-86,-121,-120,-150,193,-107]]],"properties":{"name":"丸山通"}},{"type":"Polygon","arcs":[[-129,-164,-178,-76,179]],"properties":{"name":"帝塚山"}},{"type":"Polygon","arcs":[[-126,-145,-79,180,-162]],"properties":{"name":"長池町"}}]}},"arcs":[[[135.52276575276812,34.64415893596146],[135.52082361001783,34.644894698218025]],[[135.52082361001783,34.644894698218025],[135.51933119157508,34.64548587837177]],[[135.51933119157508,34.64548587837177],[135.51819188999602,34.64583287541854]],[[135.51819188999602,34.64583287541854],[135.52124335270486,34.64612525255979],[135.52274909631228,34.64712126260144]],[[135.52274909631228,34.64712126260144],[135.52276575276812,34.64415893596146]],[[135.52785596567108,34.642025546710975],[135.52602708682048,34.64277416071002]],[[135.52602708682048,34.64277416071002],[135.52387840401784,34.64373804139547]],[[135.52387840401784,34.64373804139547],[135.52632024044317,34.64655257299702]],[[135.52632024044317,34.64655257299702],[135.5289219788445,34.64454770117126],[135.52785596567108,34.642025546710975]],[[135.51417435284876,34.64459589520553],[135.51262530245617,34.64482080069881],[135.5118191299938,34.64318220353353]],[[135.5118191299938,34.64318220353353],[135.50970042881167,34.643840855335256]],[[135.50970042881167,34.643840855335256],[135.51004688309303,34.64532523159087]],[[135.51004688309303,34.64532523159087],[135.51187576194363,34.64726584470426]],[[135.51187576194363,34.64726584470426],[135.51574005969718,34.646141317237884]],[[135.51574005969718,34.646141317237884],[135.51559348288586,34.64513245545377]],[[135.51559348288586,34.64513245545377],[135.51417435284876,34.64459589520553]],[[135.5094639071388,34.64159180040252],[135.50970042881167,34.643840855335256]],[[135.5118191299938,34.64318220353353],[135.51414770251944,34.64266170796338]],[[135.51414770251944,34.64266170796338],[135.51373462241474,34.64051546697043]],[[135.51373462241474,34.64051546697043],[135.5137079720854,34.64039658835255]],[[135.5137079720854,34.64039658835255],[135.5094639071388,34.64159180040252]],[[135.51414770251944,34.64266170796338],[135.51877819724137,34.64196450093423]],[[135.51877819724137,34.64196450093423],[135.5187748659502,34.64195164919176]],[[135.5187748659502,34.64195164919176],[135.51819188999602,34.63936844895473]],[[135.51819188999602,34.63936844895473],[135.51373462241474,34.64051546697043]],[[135.51918461476373,34.64382800359279],[135.51559348288586,34.64513245545377]],[[135.51574005969718,34.646141317237884],[135.51819188999602,34.64583287541854]],[[135.51933119157508,34.64548587837177],[135.51918461476373,34.64382800359279]],[[135.51174251029695,34.624903812801605],[135.51179247966445,34.625241171041516]],[[135.51179247966445,34.625241171041516],[135.5120789707048,34.627046840858945]],[[135.5120789707048,34.627046840858945],[135.51581667939402,34.626677353262856]],[[135.51581667939402,34.626677353262856],[135.51550020673318,34.6245311122699]],[[135.51550020673318,34.6245311122699],[135.51174251029695,34.624903812801605]],[[135.52369518300367,34.63794511847587],[135.52155649407453,34.63848489165972]],[[135.52155649407453,34.63848489165972],[135.52202953742022,34.64056044806908]],[[135.52202953742022,34.64056044806908],[135.5227957343886,34.64192273277119]],[[135.5227957343886,34.64192273277119],[135.52314551996113,34.641726743698484]],[[135.52314551996113,34.641726743698484],[135.52315551383464,34.64172353076287]],[[135.52315551383464,34.64172353076287],[135.52369518300367,34.63794511847587]],[[135.51769552761215,34.63709690347266],[135.51761557662414,34.63669207358477]],[[135.51761557662414,34.63669207358477],[135.51760225145946,34.63661496312994]],[[135.51760225145946,34.63661496312994],[135.5137179659589,34.64039016248132]],[[135.5137179659589,34.64039016248132],[135.5137079720854,34.64039658835255]],[[135.51819188999602,34.63936844895473],[135.51818855870485,34.63932989372731]],[[135.51818855870485,34.63932989372731],[135.51769552761215,34.63709690347266]],[[135.51271191602652,34.638597344406364],[135.509567177165,34.63922386685191]],[[135.509567177165,34.63922386685191],[135.5074451446917,34.640258432120966]],[[135.5074451446917,34.640258432120966],[135.50551632710608,34.64051546697043]],[[135.50551632710608,34.64051546697043],[135.50622922341577,34.64200305616165]],[[135.50622922341577,34.64200305616165],[135.5094639071388,34.64159180040252]],[[135.5137179659589,34.64039016248132],[135.51271191602652,34.638597344406364]],[[135.51847838103635,34.62642353134901],[135.51585332359687,34.626690205005325]],[[135.51585332359687,34.626690205005325],[135.51633969210724,34.63011840730994]],[[135.51633969210724,34.63011840730994],[135.51633969210724,34.63012162024556]],[[135.51633969210724,34.63012162024556],[135.51896141825554,34.62990635355914]],[[135.51896141825554,34.62990635355914],[135.51869824625336,34.627866139441586]],[[135.51869824625336,34.627866139441586],[135.51847838103635,34.62642353134901]],[[135.51084972426423,34.62716571947682],[135.50916742222495,34.627548058815385]],[[135.50916742222495,34.627548058815385],[135.50923404804828,34.62817136832531]],[[135.50923404804828,34.62817136832531],[135.50964712815298,34.630928067085726]],[[135.50964712815298,34.630928067085726],[135.51136274310392,34.63073850388425]],[[135.51136274310392,34.63073850388425],[135.51084972426423,34.62716571947682]],[[135.50622922341577,34.64200305616165],[135.50695544489017,34.64371233791053]],[[135.50695544489017,34.64371233791053],[135.50970042881167,34.643840855335256]],[[135.51324159132204,34.61648592148193],[135.51059987742673,34.61671725284644]],[[135.51059987742673,34.61671725284644],[135.51096631945506,34.619339008310895]],[[135.51096631945506,34.619339008310895],[135.51351142590656,34.61907233465458]],[[135.51351142590656,34.61907233465458],[135.51346145653906,34.61864822715298]],[[135.51346145653906,34.61864822715298],[135.51324159132204,34.61648592148193]],[[135.52075032161216,34.63481571918374],[135.5207170087005,34.63712581989323]],[[135.5207170087005,34.63712581989323],[135.5210168249055,34.63802865480194]],[[135.5210168249055,34.63802865480194],[135.52133329756637,34.63710654227952],[135.52367519525666,34.636830229816354]],[[135.52367519525666,34.636830229816354],[135.52362855718033,34.63495066247971]],[[135.52362855718033,34.63495066247971],[135.52075032161216,34.63481571918374]],[[135.5071419971955,34.62228205733716],[135.50448029555318,34.62315918876093]],[[135.50448029555318,34.62315918876093],[135.5052931305979,34.62453753814113]],[[135.5052931305979,34.62453753814113],[135.50785489350523,34.62350939874331]],[[135.50785489350523,34.62350939874331],[135.5071419971955,34.62228205733716]],[[135.52101016232317,34.62619219998451],[135.51847838103635,34.62642353134901]],[[135.51869824625336,34.627866139441586],[135.52208616937008,34.62859547582691]],[[135.52208616937008,34.62859547582691],[135.52101016232317,34.62619219998451]],[[135.52387840401784,34.64373804139547],[135.52276575276812,34.64415893596146]],[[135.52274909631228,34.64712126260144],[135.52413824472887,34.64839358510624],[135.52632024044317,34.64655257299702]],[[135.5090141828313,34.6336076553913],[135.50764835345288,34.633999633536725]],[[135.50764835345288,34.633999633536725],[135.50711534686616,34.63649287157644]],[[135.50711534686616,34.63649287157644],[135.50996360081385,34.63587598793775]],[[135.50996360081385,34.63587598793775],[135.5090141828313,34.6336076553913]],[[135.50312446004827,34.629482246057535],[135.50228164338304,34.629588272932935]],[[135.50228164338304,34.629588272932935],[135.50022956802425,34.63014411079489]],[[135.50022956802425,34.63014411079489],[135.50042944549426,34.63113369496529]],[[135.50042944549426,34.63113369496529],[135.50363081630562,34.63183411493006]],[[135.50363081630562,34.63183411493006],[135.50493668244303,34.63118510193518]],[[135.50493668244303,34.63118510193518],[135.50312446004827,34.629482246057535]],[[135.50042944549426,34.63113369496529],[135.5023782508269,34.6347900156988]],[[135.5023782508269,34.6347900156988],[135.50471681722604,34.63416991912449]],[[135.50471681722604,34.63416991912449],[135.50363081630562,34.63183411493006]],[[135.5248478097474,34.640724307785604],[135.52315551383464,34.64172353076287]],[[135.52314551996113,34.641726743698484],[135.52082361001783,34.644894698218025]],[[135.52602708682048,34.64277416071002],[135.5248478097474,34.640724307785604]],[[135.51126946695126,34.62158485030801],[135.50871436662626,34.62182582047938]],[[135.50871436662626,34.62182582047938],[135.5071419971955,34.62228205733716]],[[135.50785489350523,34.62350939874331],[135.50894089442562,34.625405030758046]],[[135.50894089442562,34.625405030758046],[135.51179247966445,34.625241171041516]],[[135.51174251029695,34.624903812801605],[135.51126946695126,34.62158485030801]],[[135.51417435284876,34.64459589520553],[135.51414770251944,34.64266170796338]],[[135.50759838408536,34.63803508067318],[135.50650572058262,34.637806962244284]],[[135.50650572058262,34.637806962244284],[135.504217123551,34.63807042296498]],[[135.504217123551,34.63807042296498],[135.50551632710608,34.64051546697043]],[[135.5074451446917,34.640258432120966],[135.50759838408536,34.63803508067318]],[[135.51633969210724,34.63012162024556],[135.51676942866774,34.632727311031914]],[[135.51676942866774,34.632727311031914],[135.5209168861705,34.632059020423334]],[[135.5209168861705,34.632059020423334],[135.51896141825554,34.62990635355914]],[[135.5227957343886,34.64192273277119],[135.51919127734607,34.643821577721546]],[[135.51919127734607,34.643821577721546],[135.51918461476373,34.64382800359279]],[[135.51215225911048,34.63647680689835],[135.51037334962737,34.636743480554664]],[[135.51037334962737,34.636743480554664],[135.5093239929098,34.638092913514306]],[[135.5093239929098,34.638092913514306],[135.509567177165,34.63922386685191]],[[135.51271191602652,34.638597344406364],[135.51215225911048,34.63647680689835]],[[135.50572952974076,34.63421811315876],[135.5057961555641,34.636791674588935]],[[135.5057961555641,34.636791674588935],[135.50621589825113,34.6368912755931]],[[135.50621589825113,34.6368912755931],[135.50711534686616,34.63649287157644]],[[135.50764835345288,34.633999633536725],[135.50572952974076,34.63421811315876]],[[135.51649959408323,34.621437055269574],[135.51507713275498,34.62157521150116]],[[135.51507713275498,34.62157521150116],[135.51550020673318,34.6245311122699]],[[135.51550020673318,34.6245311122699],[135.5177388343973,34.62430941971224]],[[135.5177388343973,34.62430941971224],[135.51649959408323,34.621437055269574]],[[135.51346145653906,34.61864822715298],[135.51713253940494,34.61834942414049]],[[135.51713253940494,34.61834942414049],[135.51592661200254,34.6162674418599],[135.51324159132204,34.61648592148193]],[[135.50021957415075,34.62588375816516],[135.49722141210057,34.62714001599187]],[[135.49722141210057,34.62714001599187],[135.4996532546524,34.63039150683749],[135.50022956802425,34.63014411079489]],[[135.50228164338304,34.629588272932935],[135.50150545254115,34.62655526170936],[135.50021957415075,34.62588375816516]],[[135.50632583085962,34.62857619821321],[135.50612928468078,34.62829024694319]],[[135.50612928468078,34.62829024694319],[135.50493668244303,34.627548058815385],[135.50310447230126,34.62838342207611],[135.50312446004827,34.629482246057535]],[[135.50493668244303,34.63118510193518],[135.50787154996104,34.63141964623531]],[[135.50787154996104,34.63141964623531],[135.50632583085962,34.62857619821321]],[[135.52155649407453,34.63848489165972],[135.52122336495785,34.638568427985795]],[[135.52122336495785,34.638568427985795],[135.51818855870485,34.63932989372731]],[[135.5187748659502,34.64195164919176],[135.52202953742022,34.64056044806908]],[[135.51096631945506,34.619339008310895],[135.50839456267425,34.61961532077406]],[[135.50839456267425,34.61961532077406],[135.50871436662626,34.62182582047938]],[[135.51126946695126,34.62158485030801],[135.51130944244525,34.621581637372394]],[[135.51130944244525,34.621581637372394],[135.51096631945506,34.619339008310895]],[[135.51059987742673,34.61671725284644],[135.50829129264807,34.61702890760141],[135.50839456267425,34.61961532077406]],[[135.51581667939402,34.626677353262856],[135.51585332359687,34.626690205005325]],[[135.51847838103635,34.62642353134901],[135.5177388343973,34.62430941971224]],[[135.5263868662665,34.63889293448324],[135.5248478097474,34.640724307785604]],[[135.52785596567108,34.642025546710975],[135.5263868662665,34.63889293448324]],[[135.50572952974076,34.63421811315876],[135.50471681722604,34.63416991912449]],[[135.5023782508269,34.6347900156988],[135.50306449680727,34.63633222479553]],[[135.50306449680727,34.63633222479553],[135.5057961555641,34.636791674588935]],[[135.50787154996104,34.63141964623531],[135.5090141828313,34.6336076553913]],[[135.50996360081385,34.63587598793775],[135.5101701408662,34.636357928280475]],[[135.5101701408662,34.636357928280475],[135.50995360694034,34.63421811315876]],[[135.50995360694034,34.63421811315876],[135.50964712815298,34.630928067085726]],[[135.50923404804828,34.62817136832531],[135.50632583085962,34.62857619821321]],[[135.52308222542896,34.63084453075965],[135.52095353037333,34.6332188901815]],[[135.52095353037333,34.6332188901815],[135.51950108742457,34.634754673406995]],[[135.51950108742457,34.634754673406995],[135.52075032161216,34.63481571918374]],[[135.52362855718033,34.63495066247971],[135.52308222542896,34.63084453075965]],[[135.51351142590656,34.61907233465458],[135.51378459178224,34.621273195553044]],[[135.51378459178224,34.621273195553044],[135.51507713275498,34.62157521150116]],[[135.51649959408323,34.621437055269574],[135.5186949149622,34.62124427913248]],[[135.5186949149622,34.62124427913248],[135.51713253940494,34.61834942414049]],[[135.5041138535248,34.62544679892108],[135.50021957415075,34.62588375816516]],[[135.50612928468078,34.62829024694319],[135.5041138535248,34.62544679892108]],[[135.50621589825113,34.6368912755931],[135.50650572058262,34.637806962244284]],[[135.50759838408536,34.63803508067318],[135.5093239929098,34.638092913514306]],[[135.51037334962737,34.636743480554664],[135.5101701408662,34.636357928280475]],[[135.51173251642345,34.633527332000845],[135.5117491728793,34.63374259868726]],[[135.5117491728793,34.63374259868726],[135.51215225911048,34.63647680689835]],[[135.51760225145946,34.63661496312994],[135.5167461096296,34.63273052396753]],[[135.5167461096296,34.63273052396753],[135.51173251642345,34.633527332000845]],[[135.51877819724137,34.64196450093423],[135.51919127734607,34.643821577721546]],[[135.5207170087005,34.63712581989323],[135.51769552761215,34.63709690347266]],[[135.52122336495785,34.638568427985795],[135.5210168249055,34.63802865480194]],[[135.51378459178224,34.621273195553044],[135.51130944244525,34.621581637372394]],[[135.52369518300367,34.63794511847587],[135.52367519525666,34.636830229816354]],[[135.5052931305979,34.62453753814113],[135.5041138535248,34.62544679892108]],[[135.50916742222495,34.627548058815385],[135.50894089442562,34.625405030758046]],[[135.50448029555318,34.62315918876093],[135.49831074431214,34.62478493418374],[135.49565570525215,34.623358390769255],[135.49722141210057,34.62714001599187]],[[135.52101016232317,34.62619219998451],[135.5186949149622,34.62124427913248]],[[135.5263868662665,34.63889293448324],[135.52569062641263,34.63743426171257],[135.52369518300367,34.63794511847587]],[[135.5209168861705,34.632059020423334],[135.52095353037333,34.6332188901815]],[[135.52308222542896,34.63084453075965],[135.52208616937008,34.62859547582691]],[[135.51633969210724,34.63011840730994],[135.51136274310392,34.63073850388425]],[[135.51136274310392,34.63073850388425],[135.51173251642345,34.633527332000845]],[[135.5167461096296,34.63273052396753],[135.51676942866774,34.632727311031914]],[[135.51084972426423,34.62716571947682],[135.5120789707048,34.627046840858945]],[[135.50995360694034,34.63421811315876],[135.5117491728793,34.63374259868726]],[[135.51950108742457,34.634754673406995],[135.51761557662414,34.63669207358477]],[[135.5072819114245,34.64433564742046],[135.50868438500578,34.64777027559631],[135.51187576194363,34.64726584470426]],[[135.51004688309303,34.64532523159087],[135.5072819114245,34.64433564742046]],[[135.50695544489017,34.64371233791053],[135.5072819114245,34.64433564742046]],[[135.50306449680727,34.63633222479553],[135.504217123551,34.63807042296498]]]}