{"type":"Topology","bbox":[135.5302908729283,34.66430802198343,135.56333323195082,34.683675487422995],"objects":{"town":{"type":"GeometryCollection","geometries":[{"type":"MultiPolygon","arcs":[[[-62,-73,34,35,0,110,-58,-20,-63]]],"properties":{"name":"中道"}},{"type":"MultiPolygon","arcs":[[[33,-16,4,5,6,31,50,-35,51]]],"properties":{"name":"東小橋"}},{"type":"MultiPolygon","arcs":[[[17,9,7,-6,-5,15,-34,-52,72,73,-23]]],"properties":{"name":"玉津"}},{"type":"MultiPolygon","arcs":[[[19,57,58,59,49,12,13,14,60,61,62]]],"properties":{"name":"中本"}},{"type":"MultiPolygon","arcs":[[[-55,24,-54,77,-10,-18,22,-74,-61,-15,-99,111]]],"properties":{"name":"大今里西"}},{"type":"MultiPolygon","arcs":[[[98,99,100,28,29,-87,104,-70,-69,-56,-112]]],"properties":{"name":"大今里"}},{"type":"MultiPolygon","arcs":[[[89,92,41,37,38,39,93,91]]],"properties":{"name":"深江北"}},{"type":"MultiPolygon","arcs":[[[-29,-101,113,-107,43,44,84,85,-79,46,-76]]],"properties":{"name":"東今里"}},{"type":"MultiPolygon","arcs":[[[112,80,108,71,52,53,-25,54,55,68,69,-105,82,-89,-64,-68,95,96]]],"properties":{"name":"大今里南"}},{"type":"MultiPolygon","arcs":[[[115,-96,67,63,64,65,-42,-93,-90,102]]],"properties":{"name":"深江南"}},{"type":"MultiPolygon","arcs":[[[-83,86,-30,75,-47,78,79,-39,-38,-66,-65,88]]],"properties":{"name":"神路"}},{"type":"MultiPolygon","arcs":[[[-45,-44,106,-114,-100,-14,-13,-50,-60,114,-85]]],"properties":{"name":"東中本"}}]}},"arcs":[[[135.53421669776267,34.67795570290024],[135.53394572332124,34.68156615950384],[135.5375906600151,34.681498366595505]],[[135.5375906600151,34.681498366595505],[135.5366653814346,34.6776477294024]],[[135.5366653814346,34.6776477294024],[135.53421669776267,34.67795570290024]],[[135.5312558063051,34.66825356924819],[135.53498666172428,34.66832910991748]],[[135.53498666172428,34.66832910991748],[135.5343323575852,34.66631662901022]],[[135.5343323575852,34.66631662901022],[135.5340679922765,34.665537979034546]],[[135.5340679922765,34.665537979034546],[135.5302908729283,34.66541207791908],[135.5312558063051,34.66825356924819]],[[135.53929251168992,34.66562126746478],[135.5340679922765,34.665537979034546]],[[135.5343323575852,34.66631662901022],[135.53916363360193,34.66780226217275]],[[135.53916363360193,34.66780226217275],[135.53929251168992,34.66562126746478]],[[135.54099436336475,34.67429294891022],[135.5408291350468,34.67760899059764]],[[135.5408291350468,34.67760899059764],[135.54420970643193,34.678172640206895]],[[135.54420970643193,34.678172640206895],[135.5441469196711,34.677661287984066]],[[135.5441469196711,34.677661287984066],[135.54368758494724,34.67439948062331]],[[135.54368758494724,34.67439948062331],[135.54099436336475,34.67429294891022]],[[135.53498666172428,34.66832910991748],[135.5356277475979,34.67071348335043]],[[135.5356277475979,34.67071348335043],[135.53899179615127,34.67057014977282]],[[135.53899179615127,34.67057014977282],[135.53916363360193,34.66780226217275]],[[135.5403136226948,34.67837989281236],[135.540425977951,34.6792999394254]],[[135.540425977951,34.6792999394254],[135.54048546014548,34.68128142928885]],[[135.54048546014548,34.68128142928885],[135.54403125984857,34.68080881587078]],[[135.54403125984857,34.68080881587078],[135.5403136226948,34.67837989281236]],[[135.53899179615127,34.67057014977282],[135.53917685186735,34.672104206441304]],[[135.53917685186735,34.672104206441304],[135.54290770728653,34.66899541735934]],[[135.54290770728653,34.66899541735934],[135.5428944890211,34.66900122818006]],[[135.5428944890211,34.66900122818006],[135.53916363360193,34.66780226217275]],[[135.547709242206,34.670742537454004],[135.547709242206,34.670748348274714]],[[135.547709242206,34.670748348274714],[135.54891871349335,34.67430069667117]],[[135.54891871349335,34.67430069667117],[135.55241494470107,34.67385713735667]],[[135.55241494470107,34.67385713735667],[135.55179368622558,34.670289293438316]],[[135.55179368622558,34.670289293438316],[135.547709242206,34.670742537454004]],[[135.5312558063051,34.66825356924819],[135.5320588159303,34.670792897900185]],[[135.5320588159303,34.670792897900185],[135.5356277475979,34.67071929417114]],[[135.5356277475979,34.67071929417114],[135.5356277475979,34.67071348335043]],[[135.53626222433883,34.6741999757788],[135.53318236849233,34.67438011122093]],[[135.53318236849233,34.67438011122093],[135.53421669776267,34.67795570290024]],[[135.5366653814346,34.6776477294024],[135.53626222433883,34.6741999757788]],[[135.55521060784068,34.673481370950505],[135.5555608918747,34.676224078327486]],[[135.5555608918747,34.676224078327486],[135.55618545491654,34.67986358903465]],[[135.55618545491654,34.67986358903465],[135.55799305271486,34.67927863308278]],[[135.55799305271486,34.67927863308278],[135.55744119013292,34.67331866797051]],[[135.55744119013292,34.67331866797051],[135.55521060784068,34.673481370950505]],[[135.55287427942494,34.67660178167389],[135.54890219066155,34.677423044334795]],[[135.54890219066155,34.677423044334795],[135.54940118018175,34.680107643504634]],[[135.54940118018175,34.680107643504634],[135.54940118018175,34.68011345432535]],[[135.54940118018175,34.68011345432535],[135.55339640090963,34.67960210210252]],[[135.55339640090963,34.67960210210252],[135.55287427942494,34.67660178167389]],[[135.5408291350468,34.67760899059764],[135.5403136226948,34.67837989281236]],[[135.54403125984857,34.68080881587078],[135.54457981786413,34.68073714908198]],[[135.54457981786413,34.68073714908198],[135.54420970643193,34.678172640206895]],[[135.5320588159303,34.670792897900185],[135.53318236849233,34.67438011122093]],[[135.53626222433883,34.6741999757788],[135.5356277475979,34.67071929417114]],[[135.5454588325156,34.665140906285764],[135.54239219493456,34.665394645456935]],[[135.54239219493456,34.665394645456935],[135.5428944890211,34.66900122818006]],[[135.54290770728653,34.66899541735934],[135.5429341438174,34.66898573265815]],[[135.5429341438174,34.66898573265815],[135.54612965948644,34.66822064126415]],[[135.54612965948644,34.66822064126415],[135.5454588325156,34.665140906285764]],[[135.54048546014548,34.68128142928885],[135.54046563274733,34.68136859159956]],[[135.54046563274733,34.68136859159956],[135.54012526241235,34.683675487422995],[135.5416486675038,34.682278953511414],[135.54473843704938,34.68187413300167]],[[135.54473843704938,34.68187413300167],[135.54457981786413,34.68073714908198]],[[135.54099436336475,34.67429294891022],[135.53936851671617,34.673913308623575]],[[135.53936851671617,34.673913308623575],[135.5384101924721,34.67729714321933]],[[135.5384101924721,34.67729714321933],[135.540425977951,34.6792999394254]],[[135.55510486171718,34.668207082682486],[135.55479423247945,34.66819352410082]],[[135.55479423247945,34.66819352410082],[135.55467526809053,34.669971635239285]],[[135.55467526809053,34.669971635239285],[135.55521060784068,34.673481370950505]],[[135.55744119013292,34.67331866797051],[135.5568794138519,34.668292308052955]],[[135.5568794138519,34.668292308052955],[135.55510486171718,34.668207082682486]],[[135.54612965948644,34.66822064126415],[135.54751096822446,34.66789523530417]],[[135.54751096822446,34.66789523530417],[135.54867748014917,34.66762018979038]],[[135.54867748014917,34.66762018979038],[135.54910707377582,34.66488329323411]],[[135.54910707377582,34.66488329323411],[135.5454588325156,34.665140906285764]],[[135.53626222433883,34.6741999757788],[135.53936851671617,34.673913308623575]],[[135.53936851671617,34.673913308623575],[135.53917685186735,34.672104206441304]],[[135.55521060784068,34.673481370950505],[135.55241494470107,34.67385713735667]],[[135.55241494470107,34.67385713735667],[135.55287427942494,34.67660178167389]],[[135.55287427942494,34.67660178167389],[135.5555608918747,34.676224078327486]],[[135.54239219493456,34.665394645456935],[135.53929251168992,34.66562126746478]],[[135.55339640090963,34.67960210210252],[135.55354841096215,34.6807739509465]],[[135.55354841096215,34.6807739509465],[135.55618545491654,34.67986358903465]],[[135.55350875616585,34.664573382796036],[135.55084858024694,34.6647554551784]],[[135.55084858024694,34.6647554551784],[135.5514136610943,34.668013388658686]],[[135.5514136610943,34.668013388658686],[135.5532642182553,34.668112172610826]],[[135.5532642182553,34.668112172610826],[135.55350875616585,34.664573382796036]],[[135.54940118018175,34.68011345432535],[135.54960275872963,34.68124462742433]],[[135.54960275872963,34.68124462742433],[135.55354841096215,34.6807739509465]],[[135.5514136610943,34.668013388658686],[135.55179368622558,34.670289293438316]],[[135.55179368622558,34.670289293438316],[135.55467526809053,34.669971635239285]],[[135.55479423247945,34.66819352410082],[135.5532642182553,34.668112172610826]],[[135.56222289765424,34.673008757532436],[135.55982047791133,34.673163712751474]],[[135.55982047791133,34.673163712751474],[135.56015754367994,34.67885250623043]],[[135.56015754367994,34.67885250623043],[135.56333323195082,34.67827529803951],[135.56327044519,34.67584443804084],[135.56222289765424,34.673008757532436]],[[135.55982047791133,34.673163712751474],[135.55744119013292,34.67331866797051]],[[135.55799305271486,34.67927863308278],[135.56015754367994,34.67885250623043]],[[135.55472153201956,34.664464914142705],[135.55510486171718,34.668207082682486]],[[135.5568794138519,34.668292308052955],[135.55762955041538,34.66820514574225]],[[135.55762955041538,34.66820514574225],[135.55710081979797,34.66430802198343],[135.55472153201956,34.664464914142705]],[[135.547709242206,34.670748348274714],[135.5433042552496,34.671418529597055]],[[135.5433042552496,34.671418529597055],[135.54368758494724,34.67439948062331]],[[135.54368758494724,34.67439948062331],[135.54833050068146,34.67436267875878]],[[135.54833050068146,34.67436267875878],[135.54891871349335,34.67430069667117]],[[135.5594602801782,34.668197397981295],[135.55982047791133,34.673163712751474]],[[135.56222289765424,34.673008757532436],[135.5620081008409,34.66813928977415],[135.5594602801782,34.668197397981295]],[[135.54751096822446,34.66789523530417],[135.547709242206,34.670742537454004]],[[135.5514136610943,34.668013388658686],[135.54867748014917,34.66762018979038]],[[135.54457981786413,34.68073714908198],[135.54940118018175,34.680107643504634]],[[135.54890219066155,34.677423044334795],[135.54889227696248,34.67739592717146]],[[135.54889227696248,34.67739592717146],[135.5441469196711,34.677661287984066]],[[135.55084858024694,34.6647554551784],[135.54910707377582,34.66488329323411]],[[135.5384101924721,34.67729714321933],[135.5366653814346,34.6776477294024]],[[135.5375906600151,34.681498366595505],[135.54046563274733,34.68136859159956]],[[135.5433042552496,34.671418529597055],[135.5429341438174,34.66898573265815]],[[135.55472153201956,34.664464914142705],[135.55350875616585,34.664573382796036]],[[135.54833050068146,34.67436267875878],[135.54889227696248,34.67739592717146]],[[135.54473843704938,34.68187413300167],[135.54960275872963,34.68124462742433]],[[135.5594602801782,34.668197397981295],[135.55762955041538,34.66820514574225]]]}