{"type":"Topology","bbox":[135.49698631484233,34.66237514410602,135.53548901553162,34.69536019910751],"objects":{"town":{"type":"GeometryCollection","geometries":[{"type":"MultiPolygon","arcs":[[[11,12,13,14,15,3,4,5,6,0,1,16]]],"properties":{"name":"安堂寺町"}},{"type":"MultiPolygon","arcs":[[[-26,-37,27,-21,28,33,34,7,-1,8,9,35,30,39,32]]],"properties":{"name":"上本町西"}},{"type":"MultiPolygon","arcs":[[[37,18,19,20,21,-24,38]]],"properties":{"name":"上汐"}},{"type":"MultiPolygon","arcs":[[[25,22,23,-22,-28,36]]],"properties":{"name":"東平"}},{"type":"MultiPolygon","arcs":[[[85,65,42,40,62,63,86,-79]],[[-193,-85]]],"properties":{"name":"伏見町"}},{"type":"MultiPolygon","arcs":[[[58,59,60,44,45,-203,-365,90,91,92,93,94,-117,47,61]]],"properties":{"name":"淡路町"}},{"type":"MultiPolygon","arcs":[[[194,195,51,48,49,-77,196,197]]],"properties":{"name":"中寺"}},{"type":"MultiPolygon","arcs":[[[56,57,52,53,54,132,133,134,135]]],"properties":{"name":"島之内"}},{"type":"MultiPolygon","arcs":[[[-289,-191,-190,149,150,69,70,66,67,147,387,445,-129]]],"properties":{"name":"北浜"}},{"type":"MultiPolygon","arcs":[[[166,167,174,175,176,74,75,76,-50,71,169]]],"properties":{"name":"高津"}},{"type":"MultiPolygon","arcs":[[[359,-67,-88,363,-188,80,81,82,83,84,77,78,-87,-64,-63,-41,-322]]],"properties":{"name":"高麗橋"}},{"type":"MultiPolygon","arcs":[[[-128,-81,187,-364,87,-71,-70,-151,-150,189,190,288]]],"properties":{"name":"今橋"}},{"type":"MultiPolygon","arcs":[[[198,199,96,97,98,200,201]]],"properties":{"name":"千日前"}},{"type":"MultiPolygon","arcs":[[[-55,99,100,-249,-187,250,251,-133]]],"properties":{"name":"東心斎橋"}},{"type":"Polygon","arcs":[[102,103,-83,104,105,106,107,108,109]],"properties":{"name":"東高麗橋"}},{"type":"MultiPolygon","arcs":[[[245,111,112,113,246,-214]]],"properties":{"name":"西心斎橋"}},{"type":"MultiPolygon","arcs":[[[505,-62,-48,116,-95,297,298,299,114,327,-505]]],"properties":{"name":"瓦町"}},{"type":"MultiPolygon","arcs":[[[151,121,118,119,152,153]]],"properties":{"name":"徳井町"}},{"type":"MultiPolygon","arcs":[[[-298,-94,-284,206,207,124,125,126,122,-165,452]]],"properties":{"name":"大手通"}},{"type":"Polygon","arcs":[[-105,-82,127,128,129,130,131]],"properties":{"name":"北浜東"}},{"type":"MultiPolygon","arcs":[[[320,321,-43,-66,-86,-78,192,-84,-104,193,136,-212,-245]]],"properties":{"name":"道修町"}},{"type":"MultiPolygon","arcs":[[[141,142,139,-179,238,-107,239,-223]]],"properties":{"name":"島町"}},{"type":"MultiPolygon","arcs":[[[265,-216,-260,-97,-200,-199,-227,143,144,374]]],"properties":{"name":"難波"}},{"type":"MultiPolygon","arcs":[[[301,302,303,304,217,156,157,-238,415,416,-346,159,154,218,-280]]],"properties":{"name":"本町"}},{"type":"MultiPolygon","arcs":[[[-242,160,161,162,163,164,-123,-127,294]]],"properties":{"name":"糸屋町"}},{"type":"MultiPolygon","arcs":[[[285,286,172,267,268,-316,-418,-377,-253,-185,170,-184,287]]],"properties":{"name":"博労町"}},{"type":"MultiPolygon","arcs":[[[-108,-239,178,-140,179,180,386]]],"properties":{"name":"釣鐘町"}},{"type":"MultiPolygon","arcs":[[[183,-171,184,252,376,377,-323,-134,-252,-251,186,181,-248,-113,403,-288]]],"properties":{"name":"南船場"}},{"type":"MultiPolygon","arcs":[[[243,244,211,-137,-194,-103,-283,-91,364,202,-46,-45,-61,-60]]],"properties":{"name":"平野町"}},{"type":"MultiPolygon","arcs":[[[271,-153,-120,208,-163,-162,-241,272]]],"properties":{"name":"南新町"}},{"type":"MultiPolygon","arcs":[[[259,215,212,213,260,261,-53,262,-176,263,-98]]],"properties":{"name":"道頓堀"}},{"type":"MultiPolygon","arcs":[[[-152,221,219,-489,494,-122]]],"properties":{"name":"内本町"}},{"type":"MultiPolygon","arcs":[[[-313,224,225,-142,222,-240,-106,-132]]],"properties":{"name":"石町"}},{"type":"Polygon","arcs":[[-144,226,-202,227,228]],"properties":{"name":"難波千日前"}},{"type":"MultiPolygon","arcs":[[[289,-334,230,231,232,-353,-422,291,292,434,435,-318]]],"properties":{"name":"北久宝寺町"}},{"type":"MultiPolygon","arcs":[[[444,234,235,236,237,-158,-157,-218,-305,424,425]]],"properties":{"name":"安土町"}},{"type":"Polygon","arcs":[[240,-161,241,242]],"properties":{"name":"北新町"}},{"type":"MultiPolygon","arcs":[[[-261,-247,-114,247,-182,248,-101,-362]]],"properties":{"name":"心斎橋筋"}},{"type":"MultiPolygon","arcs":[[[255,256,-348,433,-385,432,258,281,-92,282,-110]]],"properties":{"name":"内平野町"}},{"type":"MultiPolygon","arcs":[[[-370,453,-330,274,-355,436,-278,-296,276,-345,454]]],"properties":{"name":"船場中央"}},{"type":"MultiPolygon","arcs":[[[-371,-455,344,-277,295,277,278,279,-219,-155,-160,345,-417,486]]],"properties":{"name":"南本町"}},{"type":"MultiPolygon","arcs":[[[-125,-208,-207,283,-93,-282,-259,-433,384,385]]],"properties":{"name":"内淡路町"}},{"type":"Polygon","arcs":[[305,306,307,308,309,310]],"properties":{"name":"粉川町"}},{"type":"Polygon","arcs":[[311,-225,312,-131,313,314]],"properties":{"name":"天満橋京町"}},{"type":"MultiPolygon","arcs":[[[331,-231,333,-290,317,318,319,315,-269,-268,-173,-287]]],"properties":{"name":"南久宝寺町"}},{"type":"Polygon","arcs":[[-135,322,323,-12,324,325]],"properties":{"name":"松屋町"}},{"type":"MultiPolygon","arcs":[[[-275,329,-454,-369,-485,-435,-293,-292,421,352,-233,353,354]]],"properties":{"name":"久太郎町"}},{"type":"MultiPolygon","arcs":[[[-58,-57,-136,-326,422,423,337,-197,-76,-75,-177,-263]]],"properties":{"name":"瓦屋町"}},{"type":"MultiPolygon","arcs":[[[-456,-406,341,342,343,338,339,-496,-493,-481]]],"properties":{"name":"法円坂"}},{"type":"MultiPolygon","arcs":[[[-109,-387,-181,349,350,347,-257,-256]]],"properties":{"name":"船越町"}},{"type":"MultiPolygon","arcs":[[[357,358,355,439,440,-366,441,442,443]]],"properties":{"name":"常盤町"}},{"type":"Polygon","arcs":[[361,-100,-54,-262]],"properties":{"name":"宗右衛門町"}},{"type":"MultiPolygon","arcs":[[[-413,-470,461,462,367,368,369,370,371,365,-441,-440,-356,-498,-479]]],"properties":{"name":"農人橋"}},{"type":"MultiPolygon","arcs":[[[-167,372,-228,-201,-99,-264,-175,-168]]],"properties":{"name":"日本橋"}},{"type":"MultiPolygon","arcs":[[[380,381,-460,-477,465,-315,466,-401,-400,378,-399,-407,455,456,457]]],"properties":{"name":"大手前"}},{"type":"MultiPolygon","arcs":[[[390,391,392,393,-310,-309,-420,483,-468]],[[-473,-411,-478,492,493,-475,-474]]],"properties":{"name":"内久宝寺町"}},{"type":"Polygon","arcs":[[394,395,396,397,398,-379,399,400,401,402]],"properties":{"name":"大阪城"}},{"type":"Polygon","arcs":[[404,-342,405,406,-398]],"properties":{"name":"馬場町"}},{"type":"MultiPolygon","arcs":[[[459,-382,-381,-458,-457,480,477,410,407,-4,-16,408,-311,-394,-393,-414,478,497,-359,-483,-222,-154,-272,-273,-243,-295,-126,-386,-434,-351,-350,-180,-143,-226,-312,-466,476]],[[-34,-29,-20,-19,-38,446,-52,-196,-195,-198,-338,-424,-423,-325,-17,-2,-8,-35]]],"properties":{"name":"谷町"}},{"type":"MultiPolygon","arcs":[[[412,413,-392,-391,467,468,-462,469]]],"properties":{"name":"和泉町"}},{"type":"Polygon","arcs":[[-15,414,-306,-409]],"properties":{"name":"十二軒町"}},{"type":"Polygon","arcs":[[-13,-324,-378,417,-320,418,419,-308,420]],"properties":{"name":"松屋町住吉"}},{"type":"MultiPolygon","arcs":[[[427,428,-344,429,430,437,438]]],"properties":{"name":"玉造"}},{"type":"MultiPolygon","arcs":[[[451,-403,449,501]]],"properties":{"name":"城見"}},{"type":"MultiPolygon","arcs":[[[503,504,-328,-115,-300,-500,-236,-235,-445,-426,-425,-304,-303]]],"properties":{"name":"備後町"}},{"type":"Polygon","arcs":[[-408,472,473,474,475,-5]],"properties":{"name":"龍造寺町"}},{"type":"MultiPolygon","arcs":[[[-220,482,-358,-444,-443,487,488]]],"properties":{"name":"鎗屋町"}},{"type":"Polygon","arcs":[[-484,-419,-319,-436,484,-368,-463,-469]],"properties":{"name":"材木町"}},{"type":"MultiPolygon","arcs":[[[-431,-430,-343,-405,-397,-396,500,-438]]],"properties":{"name":"森ノ宮中央"}},{"type":"MultiPolygon","arcs":[[[502,-9,-7,-6,-476,-494,495,-340,-339,-429]]],"properties":{"name":"上町"}},{"type":"Polygon","arcs":[[-442,-372,-487,-416,-237,499,-299,-453,-164,-209,-119,-495,-488]],"properties":{"name":"本町橋"}},{"type":"Polygon","arcs":[[-14,-421,-307,-415]],"properties":{"name":"神崎町"}}]}},"arcs":[[[135.52067169457428,34.67591356452068],[135.51814951546123,34.67603562142987]],[[135.51814951546123,34.67603562142987],[135.5171059879198,34.67609500046678]],[[135.5171059879198,34.67609500046678],[135.51715604643655,34.676764664049664]],[[135.51715604643655,34.676764664049664],[135.51821112594337,34.676734974531215]],[[135.51821112594337,34.676734974531215],[135.52044835657648,34.676626112963554]],[[135.52044835657648,34.676626112963554],[135.52074485702184,34.676504056054355]],[[135.52074485702184,34.676504056054355],[135.52067169457428,34.67591356452068]],[[135.51801859318667,34.67484144302097],[135.51814951546123,34.67603562142987]],[[135.52067169457428,34.67591356452068],[135.52077181160777,34.67583769130685]],[[135.52077181160777,34.67583769130685],[135.5205946814716,34.6742905375119]],[[135.5205946814716,34.6742905375119],[135.51801859318667,34.67484144302097]],[[135.51255066289576,34.67550780776848],[135.51189220086775,34.67670528501276]],[[135.51189220086775,34.67670528501276],[135.51191145414344,34.67702527204498]],[[135.51191145414344,34.67702527204498],[135.51406782101873,34.67693290465424]],[[135.51406782101873,34.67693290465424],[135.5165938507869,34.67679105473274]],[[135.5165938507869,34.67679105473274],[135.51715604643655,34.676764664049664]],[[135.5171059879198,34.67609500046678],[135.51255066289576,34.67550780776848]],[[135.51818802201257,34.669365376284055],[135.51722535822896,34.669470939016335]],[[135.51722535822896,34.669470939016335],[135.5177105407759,34.67170754940647]],[[135.5177105407759,34.67170754940647],[135.51810715825474,34.67169435406494]],[[135.51810715825474,34.67169435406494],[135.51854998359522,34.67167785988802]],[[135.51854998359522,34.67167785988802],[135.51818802201257,34.669365376284055]],[[135.51854228228495,34.666188597809565],[135.51756036522565,34.666323850060294]],[[135.51756036522565,34.666323850060294],[135.51818802201257,34.669365376284055]],[[135.51818802201257,34.669365376284055],[135.51864239931842,34.66930929608253]],[[135.51864239931842,34.66930929608253],[135.51854228228495,34.666188597809565]],[[135.52026737578518,34.67161518201573],[135.51957040720583,34.671638273863415]],[[135.51957040720583,34.671638273863415],[135.51854998359522,34.67167785988802]],[[135.51810715825474,34.67169435406494],[135.51826118446013,34.67335366826293]],[[135.51826118446013,34.67335366826293],[135.52044450592135,34.673112853279925]],[[135.52044450592135,34.673112853279925],[135.52026737578518,34.67161518201573]],[[135.51864239931842,34.66930929608253],[135.51983995306526,34.66917734266718]],[[135.51983995306526,34.66917734266718],[135.51922769889887,34.666089632748054],[135.51854228228495,34.666188597809565]],[[135.51826118446013,34.67335366826293],[135.51788767091207,34.67339325428754]],[[135.51788767091207,34.67339325428754],[135.51801859318667,34.67484144302097]],[[135.5205946814716,34.6742905375119],[135.52044450592135,34.673112853279925]],[[135.51957040720583,34.671638273863415],[135.51864239931842,34.66930929608253]],[[135.51662080537287,34.66644260813411],[135.51722535822896,34.669470939016335]],[[135.51756036522565,34.666323850060294],[135.51662080537287,34.66644260813411]],[[135.52026737578518,34.67161518201573],[135.51983995306526,34.66917734266718]],[[135.49876531751445,34.68918148043387],[135.50078691146004,34.689544352326074]],[[135.50078691146004,34.689544352326074],[135.50077150883948,34.6888911829201]],[[135.50077150883948,34.6888911829201],[135.49876531751445,34.68918148043387]],[[135.50067139180598,34.68644674590079],[135.50072530097788,34.68732753494823]],[[135.50072530097788,34.68732753494823],[135.50363254560438,34.68730114426516]],[[135.50363254560438,34.68730114426516],[135.50363254560438,34.687294546594394]],[[135.50363254560438,34.687294546594394],[135.50363254560438,34.68647313658386]],[[135.50363254560438,34.68647313658386],[135.50067139180598,34.68644674590079]],[[135.51498812759584,34.66657786038484],[135.5144105293257,34.66660754990329]],[[135.5144105293257,34.66660754990329],[135.51445288653215,34.66967546681012]],[[135.51445288653215,34.66967546681012],[135.5156619922444,34.6696193866086]],[[135.5156619922444,34.6696193866086],[135.51498812759584,34.66657786038484]],[[135.51046360781288,34.668896941659575],[135.5061508740623,34.669032193910304]],[[135.5061508740623,34.669032193910304],[135.50619708192391,34.67028245252072]],[[135.50619708192391,34.67028245252072],[135.50625484175094,34.67192197370641]],[[135.50625484175094,34.67192197370641],[135.5107678095685,34.67189228418796]],[[135.5107678095685,34.67189228418796],[135.51065228991447,34.66985690275622]],[[135.51065228991447,34.66985690275622],[135.51046360781288,34.668896941659575]],[[135.4979682319016,34.68663477951766],[135.49795282928108,34.687053731611385]],[[135.49795282928108,34.687053731611385],[135.50072530097788,34.68744299418666]],[[135.50072530097788,34.68744299418666],[135.50072530097788,34.68732753494823]],[[135.50067139180598,34.68644674590079],[135.4979682319016,34.68663477951766]],[[135.50078691146004,34.689544352326074],[135.5007946127703,34.68994021257211]],[[135.5007946127703,34.68994021257211],[135.50365564953518,34.689428893087644]],[[135.50365564953518,34.689428893087644],[135.5036595001903,34.68892087243855]],[[135.5036595001903,34.68892087243855],[135.50077150883948,34.6888911829201]],[[135.4978796668335,34.69074842724112],[135.49757546507792,34.690771519088806]],[[135.49757546507792,34.690771519088806],[135.49740988690712,34.69281019935592],[135.50088317783838,34.69299163530202]],[[135.50088317783838,34.69299163530202],[135.50084852194217,34.69153355006244]],[[135.50084852194217,34.69153355006244],[135.5008408206319,34.691121195639475]],[[135.5008408206319,34.691121195639475],[135.4978796668335,34.69074842724112]],[[135.5144105293257,34.66660754990329],[135.51134155718353,34.66672630797711]],[[135.51134155718353,34.66672630797711],[135.51136466111433,34.66692423810013]],[[135.51136466111433,34.66692423810013],[135.5115032846992,34.668441702376626]],[[135.5115032846992,34.668441702376626],[135.51332079392265,34.66828665711359],[135.51359033978204,34.66959299592553]],[[135.51359033978204,34.66959299592553],[135.5141640873971,34.66966886913936]],[[135.5141640873971,34.66966886913936],[135.51445288653215,34.66967546681012]],[[135.50755251253125,34.688874688743184],[135.50653979023087,34.68889778059087]],[[135.50653979023087,34.68889778059087],[135.50654749154114,34.689217767623084]],[[135.50654749154114,34.689217767623084],[135.50658214743737,34.69000948811517]],[[135.50658214743737,34.69000948811517],[135.50963571695897,34.689765374296776]],[[135.50963571695897,34.689765374296776],[135.50963186630383,34.689636719716816]],[[135.50963186630383,34.689636719716816],[135.50964726892437,34.688874688743184]],[[135.50964726892437,34.688874688743184],[135.5085074750046,34.68885489573088]],[[135.5085074750046,34.68885489573088],[135.50755251253125,34.688874688743184]],[[135.50653979023087,34.68889778059087],[135.5036595001903,34.68892087243855]],[[135.50365564953518,34.689428893087644],[135.50654749154114,34.689217767623084]],[[135.50081001539084,34.690326176312006],[135.4978796668335,34.69074842724112]],[[135.5008408206319,34.691121195639475],[135.50081001539084,34.690326176312006]],[[135.5065628941617,34.6864236540531],[135.50657829678224,34.68725166173441]],[[135.50657829678224,34.68725166173441],[135.50972428202707,34.687179087355965]],[[135.50972428202707,34.687179087355965],[135.5097281326822,34.68712630598983]],[[135.5097281326822,34.68712630598983],[135.50974353530273,34.6867073538961]],[[135.50974353530273,34.6867073538961],[135.50975893792327,34.686400562205414]],[[135.50975893792327,34.686400562205414],[135.5065628941617,34.6864236540531]],[[135.50560408103323,34.66690114625244],[135.5031319604369,34.66693743344166]],[[135.5031319604369,34.66693743344166],[135.50315506436772,34.66818109438131]],[[135.50315506436772,34.66818109438131],[135.50567339282563,34.668336139644346]],[[135.50567339282563,34.668336139644346],[135.50560408103323,34.66690114625244]],[[135.50619708192391,34.67028245252072],[135.5023271735138,34.67035832573455]],[[135.5023271735138,34.67035832573455],[135.50232332285867,34.671958260895636]],[[135.50232332285867,34.671958260895636],[135.50625484175094,34.67192197370641]],[[135.5097281326822,34.68752876390664],[135.50967422351033,34.6880004973665]],[[135.50967422351033,34.6880004973665],[135.50964726892437,34.688874688743184]],[[135.50963186630383,34.689636719716816],[135.51170736942132,34.6894981686307]],[[135.51170736942132,34.6894981686307],[135.51171122007645,34.689303537343065]],[[135.51171122007645,34.689303537343065],[135.51169196680075,34.68867675862016]],[[135.51169196680075,34.68867675862016],[135.51168041483535,34.6881225542757]],[[135.51168041483535,34.6881225542757],[135.51166886286995,34.687604637120465]],[[135.51166886286995,34.687604637120465],[135.5097281326822,34.68752876390664]],[[135.50029787825795,34.67193187021257],[135.49733672445956,34.67244648853242]],[[135.49733672445956,34.67244648853242],[135.49761012097412,34.67500638479016]],[[135.49761012097412,34.67500638479016],[135.5002786249823,34.67494370691787]],[[135.5002786249823,34.67494370691787],[135.50029787825795,34.67193187021257]],[[135.506543640886,34.68559894520718],[135.5036248442941,34.68565172657332]],[[135.5036248442941,34.68565172657332],[135.50363254560438,34.68647313658386]],[[135.50363254560438,34.68647313658386],[135.5065628941617,34.6864236540531]],[[135.5065628941617,34.6864236540531],[135.506543640886,34.68559894520718]],[[135.51170736942132,34.683876953136895],[135.51169581745592,34.68441136446906]],[[135.51169581745592,34.68441136446906],[135.51450294504892,34.68435528426753]],[[135.51450294504892,34.68435528426753],[135.51450679570405,34.68383076944153]],[[135.51450679570405,34.68383076944153],[135.51170736942132,34.683876953136895]],[[135.51451064635918,34.68576718581175],[135.51451064635918,34.68578697882405]],[[135.51451064635918,34.68578697882405],[135.51451834766945,34.68627850529622]],[[135.51451834766945,34.68627850529622],[135.51686724730146,34.68622572393008]],[[135.51686724730146,34.68622572393008],[135.51672092240636,34.68562203705487]],[[135.51672092240636,34.68562203705487],[135.51451064635918,34.68576718581175]],[[135.50963571695897,34.689765374296776],[135.5096395676141,34.69017113104897]],[[135.5096395676141,34.69017113104897],[135.51050211436421,34.69081770278417]],[[135.51050211436421,34.69081770278417],[135.51517680969744,34.69127953973789]],[[135.51517680969744,34.69127953973789],[135.5147031791159,34.689663110399884]],[[135.5147031791159,34.689663110399884],[135.51170736942132,34.6894981686307]],[[135.50625484175094,34.67192197370641],[135.50632800419848,34.67495030458864]],[[135.50632800419848,34.67495030458864],[135.51089873184307,34.67518782073626]],[[135.51089873184307,34.67518782073626],[135.51086407594687,34.673558196056725]],[[135.51086407594687,34.673558196056725],[135.5107678095685,34.67189228418796]],[[135.5065320889206,34.688082968251095],[135.50364409756978,34.68811595660493]],[[135.50364409756978,34.68811595660493],[135.5036595001903,34.68892087243855]],[[135.50653979023087,34.68889778059087],[135.5065320889206,34.688082968251095]],[[135.51670937044094,34.68835347275256],[135.51462231535808,34.68834357624641]],[[135.51462231535808,34.68834357624641],[135.51465697125428,34.68880871203551]],[[135.51465697125428,34.68880871203551],[135.51684414337066,34.688871389907796]],[[135.51684414337066,34.688871389907796],[135.51670937044094,34.68835347275256]],[[135.50176882851932,34.665159361169856],[135.50268143378617,34.66371777010718]],[[135.50268143378617,34.66371777010718],[135.50105645731944,34.66307449720736],[135.49975878653913,34.66491194851608]],[[135.49975878653913,34.66491194851608],[135.50035948874012,34.66557171559282]],[[135.50035948874012,34.66557171559282],[135.50176882851932,34.665159361169856]],[[135.50088317783838,34.69299163530202],[135.50375576656867,34.692595775055985]],[[135.50375576656867,34.692595775055985],[135.503678753466,34.69138840130555]],[[135.503678753466,34.69138840130555],[135.50366720150058,34.691015632907195]],[[135.50366720150058,34.691015632907195],[135.50084852194217,34.69153355006244]],[[135.5169173058182,34.68380107992307],[135.51450679570405,34.68383076944153]],[[135.51450294504892,34.68435528426753],[135.51677483157823,34.68427281338294]],[[135.51677483157823,34.68427281338294],[135.5169173058182,34.68380107992307]],[[135.50357093512224,34.68305884196174],[135.50357093512224,34.68316110585864]],[[135.50357093512224,34.68316110585864],[135.50358633774277,34.683972619363026]],[[135.50358633774277,34.683972619363026],[135.50359403905304,34.68439157145675]],[[135.50359403905304,34.68439157145675],[135.50451049497502,34.683553667269294],[135.50651668630007,34.68395612518611]],[[135.50651668630007,34.68395612518611],[135.5064974330244,34.683108324492494]],[[135.5064974330244,34.683108324492494],[135.50357093512224,34.68305884196174]],[[135.51451834766945,34.68529545235188],[135.51450679570405,34.684899592105836]],[[135.51450679570405,34.684899592105836],[135.51450294504892,34.684662075958215]],[[135.51450294504892,34.684662075958215],[135.51168041483535,34.68490948861199]],[[135.51168041483535,34.68490948861199],[135.51166501221482,34.68579357649482]],[[135.51166501221482,34.68579357649482],[135.51451064635918,34.68578697882405]],[[135.51451064635918,34.68576718581175],[135.51451834766945,34.68529545235188]],[[135.50982054840543,34.66251369519214],[135.50868075448562,34.66350004697186],[135.50897340427585,34.66509998213295]],[[135.50897340427585,34.66509998213295],[135.50907352130935,34.666967122960116]],[[135.50907352130935,34.666967122960116],[135.51136466111433,34.66692423810013]],[[135.51134155718353,34.66672630797711],[135.51091798511874,34.66237514410602],[135.50982054840543,34.66251369519214]],[[135.50341690891685,34.677991830812395],[135.50044035249792,34.67804131334315]],[[135.50044035249792,34.67804131334315],[135.50046730708388,34.6788198384937]],[[135.50046730708388,34.6788198384937],[135.50344001284765,34.678780252469096]],[[135.50344001284765,34.678780252469096],[135.50341690891685,34.677991830812395]],[[135.50907352130935,34.666967122960116],[135.50896570296558,34.66805573863673]],[[135.50896570296558,34.66805573863673],[135.51097574494577,34.66849448374276]],[[135.51097574494577,34.66849448374276],[135.5115032846992,34.668441702376626]],[[135.51457995815161,34.687838854432705],[135.51461846470295,34.688303990221804]],[[135.51461846470295,34.688303990221804],[135.51462231535808,34.68834357624641]],[[135.51670937044094,34.68835347275256],[135.51688650057713,34.687644223145064]],[[135.51688650057713,34.687644223145064],[135.51457995815161,34.687838854432705]],[[135.50236182941,34.67494370691787],[135.50029402760282,34.67494370691787]],[[135.50029402760282,34.67494370691787],[135.50038259267092,34.67804131334315]],[[135.50038259267092,34.67804131334315],[135.50044035249792,34.67804131334315]],[[135.50341690891685,34.677991830812395],[135.50341690891685,34.677981934306246]],[[135.50341690891685,34.677981934306246],[135.50335144777958,34.67494370691787]],[[135.50335144777958,34.67494370691787],[135.50236182941,34.67494370691787]],[[135.50658214743737,34.69000948811517],[135.5036595001903,34.690220613579726]],[[135.5036595001903,34.690220613579726],[135.50366720150058,34.691015632907195]],[[135.503678753466,34.69138840130555],[135.50662835529897,34.690774817924186]],[[135.50662835529897,34.690774817924186],[135.50662450464384,34.69076822025342]],[[135.50662450464384,34.69076822025342],[135.50658214743737,34.69000948811517]],[[135.50755251253125,34.688874688743184],[135.5085074750046,34.68885489573088]],[[135.50967422351033,34.6880004973665],[135.5065320889206,34.688082968251095]],[[135.51613947348105,34.671753733101845],[135.5157428560022,34.669616087773214]],[[135.5157428560022,34.669616087773214],[135.5156619922444,34.6696193866086]],[[135.5141640873971,34.66966886913936],[135.5141640873971,34.67179331912645]],[[135.5141640873971,34.67179331912645],[135.51613947348105,34.671753733101845]],[[135.5027738495094,34.66535069362211],[135.5020614783095,34.66695392761858]],[[135.5020614783095,34.66695392761858],[135.5031319604369,34.66693743344166]],[[135.50560408103323,34.66690114625244],[135.50553091858566,34.66538698081133]],[[135.50553091858566,34.66538698081133],[135.5027738495094,34.66535069362211]],[[135.50652438761034,34.687254960569796],[135.50363254560438,34.687294546594394]],[[135.50363254560438,34.68730114426516],[135.50364409756978,34.68811595660493]],[[135.5065320889206,34.688082968251095],[135.50652438761034,34.687254960569796]],[[135.51166501221482,34.68579357649482],[135.51163420697375,34.686489630760775]],[[135.51163420697375,34.686489630760775],[135.51451834766945,34.68630159714391]],[[135.51451834766945,34.68630159714391],[135.51451834766945,34.68627850529622]],[[135.51169581745592,34.68441136446906],[135.51168041483535,34.68490948861199]],[[135.51450294504892,34.684662075958215],[135.51450294504892,34.68435528426753]],[[135.50072530097788,34.68744299418666],[135.50074455425354,34.68812585311109]],[[135.50074455425354,34.68812585311109],[135.50364409756978,34.68811595660493]],[[135.49760627031898,34.66805243980135],[135.4973405751147,34.66897941254416]],[[135.4973405751147,34.66897941254416],[135.50029787825795,34.669022297404155]],[[135.50029787825795,34.669022297404155],[135.50034023546442,34.66813491068594]],[[135.50034023546442,34.66813491068594],[135.49760627031898,34.66805243980135]],[[135.50052506691088,34.683194094212475],[135.5005712747725,34.684444352822894]],[[135.5005712747725,34.684444352822894],[135.50358633774277,34.683972619363026]],[[135.50357093512224,34.68316110585864],[135.50052506691088,34.683194094212475]],[[135.5168171887847,34.682992865254064],[135.51450679570405,34.68302255477252]],[[135.51450679570405,34.68302255477252],[135.51450679570405,34.68383076944153]],[[135.5169173058182,34.68380107992307],[135.5168171887847,34.682992865254064]],[[135.51465697125428,34.68880871203551],[135.51465697125428,34.68902643517083]],[[135.51465697125428,34.68902643517083],[135.5146916271505,34.68947507678301]],[[135.5146916271505,34.68947507678301],[135.51682874075013,34.689451984935324]],[[135.51682874075013,34.689451984935324],[135.51684414337066,34.688871389907796]],[[135.50176882851932,34.665159361169856],[135.5027738495094,34.66535069362211]],[[135.50553091858566,34.66538698081133],[135.50517280765817,34.66309758905505]],[[135.50517280765817,34.66309758905505],[135.50268143378617,34.66371777010718]],[[135.50051736560061,34.680010718067216],[135.50050196298008,34.6796082601504]],[[135.50050196298008,34.6796082601504],[135.4979104720746,34.679895258828786]],[[135.4979104720746,34.679895258828786],[135.4979451279708,34.68056162357629]],[[135.4979451279708,34.68056162357629],[135.50051736560061,34.680010718067216]],[[135.50651668630007,34.68395612518611],[135.50652438761034,34.68436847960906]],[[135.50652438761034,34.68436847960906],[135.5065320889206,34.6848468107397]],[[135.5065320889206,34.6848468107397],[135.5097396846476,34.68474784567819]],[[135.5097396846476,34.68474784567819],[135.50973198333733,34.68387035546613]],[[135.50973198333733,34.68387035546613],[135.50651668630007,34.68395612518611]],[[135.51461846470295,34.688303990221804],[135.51169196680075,34.68867675862016]],[[135.51171122007645,34.689303537343065],[135.51465697125428,34.68902643517083]],[[135.51671322109607,34.6847049608182],[135.51450679570405,34.684899592105836]],[[135.51451834766945,34.68529545235188],[135.51680948747443,34.68516679777192]],[[135.51680948747443,34.68516679777192],[135.51671322109607,34.6847049608182]],[[135.49795282928108,34.687053731611385],[135.4978565629027,34.68814564612339]],[[135.4978565629027,34.68814564612339],[135.50074455425354,34.68812585311109]],[[135.4973405751147,34.66897941254416],[135.49733672445956,34.67244648853242]],[[135.50029787825795,34.67193187021257],[135.50029787825795,34.669022297404155]],[[135.5002786249823,34.67494370691787],[135.50029402760282,34.67494370691787]],[[135.50236182941,34.67494370691787],[135.50232332285867,34.671958260895636]],[[135.50232332285867,34.671958260895636],[135.50029787825795,34.67193187021257]],[[135.50335144777958,34.67494370691787],[135.50630490026768,34.67495030458864]],[[135.50630490026768,34.67495030458864],[135.50632800419848,34.67495030458864]],[[135.50341690891685,34.677981934306246],[135.50636651074984,34.677962141293946]],[[135.50636651074984,34.677962141293946],[135.50630490026768,34.67495030458864]],[[135.51164190828402,34.687060329282154],[135.51166886286995,34.687604637120465]],[[135.51166886286995,34.687604637120465],[135.51457610749645,34.68737041980822]],[[135.51457610749645,34.68737041980822],[135.51457610749645,34.68731763844208]],[[135.51457610749645,34.68731763844208],[135.51451834766945,34.686819514299145]],[[135.51451834766945,34.686819514299145],[135.51164190828402,34.687060329282154]],[[135.50315506436772,34.66818109438131],[135.50034023546442,34.66813491068594]],[[135.50029787825795,34.669022297404155],[135.50127209400696,34.66904868808722]],[[135.50127209400696,34.66904868808722],[135.5061508740623,34.669032193910304]],[[135.51046360781288,34.668896941659575],[135.51097574494577,34.66849448374276]],[[135.50896570296558,34.66805573863673],[135.50567339282563,34.668336139644346]],[[135.50036333939525,34.66698031830165],[135.49829553758804,34.66706278918624]],[[135.49829553758804,34.66706278918624],[135.49760627031898,34.66805243980135]],[[135.50034023546442,34.66813491068594],[135.50036333939525,34.66698031830165]],[[135.50344001284765,34.678780252469096],[135.50344001284765,34.678786850139865]],[[135.50344001284765,34.678786850139865],[135.5064088679563,34.678757160621416]],[[135.5064088679563,34.678757160621416],[135.50636651074984,34.677962141293946]],[[135.50074455425354,34.68812585311109],[135.50077150883948,34.6888911829201]],[[135.5169057538528,34.68453342137825],[135.51677483157823,34.68427281338294]],[[135.51671322109607,34.6847049608182],[135.5169057538528,34.68453342137825]],[[135.503536279226,34.682184650585064],[135.50353242857088,34.681613952063685]],[[135.50353242857088,34.681613952063685],[135.5005828267379,34.68164034274675]],[[135.5005828267379,34.68164034274675],[135.5006059306687,34.682204443597364]],[[135.5006059306687,34.682204443597364],[135.503536279226,34.682184650585064]],[[135.50049811232495,34.682204443597364],[135.49801829041837,34.68221104126813]],[[135.49801829041837,34.68221104126813],[135.49801829041837,34.682854314167955]],[[135.49801829041837,34.682854314167955],[135.50052506691088,34.683194094212475]],[[135.50052506691088,34.683194094212475],[135.50049811232495,34.682204443597364]],[[135.51164190828402,34.687060329282154],[135.5097281326822,34.68712630598983]],[[135.50972428202707,34.687179087355965],[135.5097281326822,34.68752876390664]],[[135.51163420697375,34.686489630760775],[135.50974353530273,34.6867073538961]],[[135.51164190828402,34.687060329282154],[135.51163420697375,34.686489630760775]],[[135.49781420569624,34.67808089936776],[135.49785271224758,34.67879014897525]],[[135.49785271224758,34.67879014897525],[135.50046730708388,34.6788198384937]],[[135.50038259267092,34.67804131334315],[135.49781420569624,34.67808089936776]],[[135.50662450464384,34.69076822025342],[135.5096395676141,34.69017113104897]],[[135.50642427057684,34.67953898460735],[135.5034669674336,34.679575271796566]],[[135.5034669674336,34.679575271796566],[135.50349392201954,34.680363693453266]],[[135.50349392201954,34.680363693453266],[135.50349392201954,34.680376888794804]],[[135.50349392201954,34.680376888794804],[135.50644737450764,34.68034390044097]],[[135.50644737450764,34.68034390044097],[135.50642427057684,34.67953898460735]],[[135.51672092240636,34.68562203705487],[135.51680948747443,34.68516679777192]],[[135.5006059306687,34.682204443597364],[135.50049811232495,34.682204443597364]],[[135.50357093512224,34.68305884196174],[135.503536279226,34.682184650585064]],[[135.50975893792327,34.686400562205414],[135.50975893792327,34.68585955320249]],[[135.50975893792327,34.68585955320249],[135.50975893792327,34.685556060347196]],[[135.50975893792327,34.685556060347196],[135.506543640886,34.68559894520718]],[[135.50365564953518,34.689428893087644],[135.5036595001903,34.690220613579726]],[[135.49801829041837,34.682854314167955],[135.49799518648754,34.68530534885803]],[[135.49799518648754,34.68530534885803],[135.5006174826341,34.68526576283343]],[[135.5006174826341,34.68526576283343],[135.50059052804818,34.68486330491662]],[[135.50059052804818,34.68486330491662],[135.5005712747725,34.684444352822894]],[[135.51666701323447,34.677962141293946],[135.51416793805222,34.678113887721594]],[[135.51416793805222,34.678113887721594],[135.5123542794839,34.678113887721594]],[[135.5123542794839,34.678113887721594],[135.5124004873455,34.67867468973682]],[[135.5124004873455,34.67867468973682],[135.5142102952587,34.67869448274912]],[[135.5142102952587,34.67869448274912],[135.51664005864853,34.678549333992244]],[[135.51664005864853,34.678549333992244],[135.51666701323447,34.677962141293946]],[[135.51742559229595,34.68947177794763],[135.51682874075013,34.689451984935324]],[[135.5146916271505,34.68947507678301],[135.5147031791159,34.689663110399884]],[[135.51517680969744,34.69127953973789],[135.51749105343325,34.69118387351176]],[[135.51749105343325,34.69118387351176],[135.51742559229595,34.68947177794763]],[[135.51084867332634,34.67872087343219],[135.5064088679563,34.678757160621416]],[[135.5064088679563,34.678757160621416],[135.50642427057684,34.67953898460735]],[[135.50642427057684,34.67953898460735],[135.51083327070577,34.67955877761965]],[[135.51083327070577,34.67955877761965],[135.5108448226712,34.67915961853822]],[[135.5108448226712,34.67915961853822],[135.51084867332634,34.67872087343219]],[[135.4978565629027,34.68814564612339],[135.4977448939038,34.68913859557388]],[[135.4977448939038,34.68913859557388],[135.49876531751445,34.68918148043387]],[[135.51089873184307,34.67518782073626],[135.51091028380847,34.67675146870813]],[[135.51091028380847,34.67675146870813],[135.51189220086775,34.67670528501276]],[[135.51255066289576,34.67550780776848],[135.51246209782767,34.67376932152128]],[[135.51246209782767,34.67376932152128],[135.51086407594687,34.673558196056725]],[[135.50063288525465,34.68554946267643],[135.50067139180598,34.68644674590079]],[[135.5036248442941,34.68565172657332],[135.50063288525465,34.68554946267643]],[[135.50349392201954,34.680376888794804],[135.50353242857088,34.681613952063685]],[[135.50353242857088,34.681613952063685],[135.50647047843847,34.68157436603908]],[[135.50647047843847,34.68157436603908],[135.50644737450764,34.68034390044097]],[[135.49785271224758,34.67879014897525],[135.4979104720746,34.679895258828786]],[[135.50050196298008,34.6796082601504],[135.50046730708388,34.6788198384937]],[[135.50050196298008,34.6796082601504],[135.5034669674336,34.679575271796566]],[[135.5034669674336,34.679575271796566],[135.50344001284765,34.678786850139865]],[[135.51359033978204,34.66959299592553],[135.51065228991447,34.66985690275622]],[[135.5107678095685,34.67189228418796],[135.5141640873971,34.67181641097414]],[[135.5141640873971,34.67181641097414],[135.5141640873971,34.67179331912645]],[[135.52652469037864,34.6781732667585],[135.52150343608332,34.67857902351069]],[[135.52150343608332,34.67857902351069],[135.5209643443645,34.67860541419376]],[[135.5209643443645,34.67860541419376],[135.5212184876034,34.6812675743484]],[[135.5212184876034,34.6812675743484],[135.52705993144232,34.68147210214219]],[[135.52705993144232,34.68147210214219],[135.52674802837643,34.67974681123652]],[[135.52674802837643,34.67974681123652],[135.52652469037864,34.6781732667585]],[[135.506485881059,34.682158259901996],[135.503536279226,34.682184650585064]],[[135.5064974330244,34.683108324492494],[135.5064974330244,34.68310172682173]],[[135.5064974330244,34.68310172682173],[135.506485881059,34.682158259901996]],[[135.51674017568203,34.687169190849815],[135.51457610749645,34.68731763844208]],[[135.51457610749645,34.68737041980822],[135.51457995815161,34.687838854432705]],[[135.51688650057713,34.687644223145064],[135.5168710979566,34.68740670699744]],[[135.5168710979566,34.68740670699744],[135.51674017568203,34.687169190849815]],[[135.5005828267379,34.68164034274675],[135.50053276822115,34.68040327947787]],[[135.50053276822115,34.68040327947787],[135.50051736560061,34.680010718067216]],[[135.4979451279708,34.68056162357629],[135.49799518648754,34.68167003226521]],[[135.49799518648754,34.68167003226521],[135.5005828267379,34.68164034274675]],[[135.5162703957556,34.68174260664365],[135.51441437998082,34.68181518102209]],[[135.51441437998082,34.68181518102209],[135.51449524373865,34.68255082131265]],[[135.51449524373865,34.68255082131265],[135.51680948747443,34.682504637617285]],[[135.51680948747443,34.682504637617285],[135.5162703957556,34.68174260664365]],[[135.4977448939038,34.68913859557388],[135.49757546507792,34.690771519088806]],[[135.50081001539084,34.690326176312006],[135.5007946127703,34.68994021257211]],[[135.50127209400696,34.66904868808722],[135.5023271735138,34.67035832573455]],[[135.5020614783095,34.66695392761858],[135.50036333939525,34.66698031830165]],[[135.50081001539084,34.690326176312006],[135.5036595001903,34.690220613579726]],[[135.50657829678224,34.68725166173441],[135.50652438761034,34.687254960569796]],[[135.51178053186885,34.681960329778974],[135.51179978514455,34.68176569849134]],[[135.51179978514455,34.68176569849134],[135.51190375283315,34.68062760028396]],[[135.51190375283315,34.68062760028396],[135.51079476415444,34.68067048514395]],[[135.51079476415444,34.68067048514395],[135.51072160170688,34.68152818234371]],[[135.51072160170688,34.68152818234371],[135.51065999122474,34.682062593675866]],[[135.51065999122474,34.682062593675866],[135.510667692535,34.682059294840485]],[[135.510667692535,34.682059294840485],[135.51178053186885,34.681960329778974]],[[135.50982054840543,34.66251369519214],[135.50517280765817,34.66309758905505]],[[135.50553091858566,34.66538698081133],[135.50897340427585,34.66509998213295]],[[135.49975878653913,34.66491194851608],[135.49829553758804,34.66706278918624]],[[135.50036333939525,34.66698031830165],[135.50035948874012,34.66557171559282]],[[135.50636651074984,34.677962141293946],[135.5108794785674,34.67793904944626]],[[135.5108794785674,34.67793904944626],[135.51091028380847,34.67675146870813]],[[135.5207833635732,34.68565172657332],[135.52148033215252,34.683223783730924]],[[135.52148033215252,34.683223783730924],[135.51879642552382,34.683306254615516]],[[135.51879642552382,34.683306254615516],[135.51784916436074,34.68450043302441]],[[135.51784916436074,34.68450043302441],[135.51833049625256,34.685819967177885]],[[135.51833049625256,34.685819967177885],[135.5207833635732,34.68565172657332]],[[135.51451834766945,34.68630159714391],[135.51451834766945,34.686799721286846]],[[135.51451834766945,34.686799721286846],[135.51687494861173,34.68673704341455]],[[135.51687494861173,34.68673704341455],[135.51686724730146,34.68622572393008]],[[135.51457995815161,34.687838854432705],[135.51168041483535,34.6881225542757]],[[135.50375576656867,34.692595775055985],[135.50684784264163,34.69224279966993]],[[135.50684784264163,34.69224279966993],[135.50662835529897,34.690774817924186]],[[135.5142102952587,34.67869448274912],[135.51425265246516,34.679341054484325]],[[135.51425265246516,34.679341054484325],[135.5142565031203,34.67937734167354]],[[135.5142565031203,34.67937734167354],[135.5167055197858,34.67923879058743]],[[135.5167055197858,34.67923879058743],[135.5167363250269,34.67885612568293]],[[135.5167363250269,34.67885612568293],[135.51664005864853,34.678549333992244]],[[135.53469578057394,34.689765374296776],[135.53394875347786,34.68146220563604]],[[135.53394875347786,34.68146220563604],[135.53151513943288,34.681485297483725]],[[135.53151513943288,34.681485297483725],[135.52902761621604,34.68158756138062]],[[135.52902761621604,34.68158756138062],[135.52317076975655,34.682280316811195],[135.52147263084225,34.68315450818787]],[[135.52147263084225,34.68315450818787],[135.52148033215252,34.683223783730924]],[[135.5207833635732,34.68565172657332],[135.52017110940682,34.68828089837412]],[[135.52017110940682,34.68828089837412],[135.52257006755556,34.68934972103843],[135.5222928203859,34.69100243756566]],[[135.5222928203859,34.69100243756566],[135.5255235200437,34.6918436405885]],[[135.5255235200437,34.6918436405885],[135.53469578057394,34.689765374296776]],[[135.49761012097412,34.67500638479016],[135.49781420569624,34.67808089936776]],[[135.52902761621604,34.68158756138062],[135.52705993144232,34.68147210214219]],[[135.5212184876034,34.6812675743484],[135.52123389022393,34.68145230912989]],[[135.52123389022393,34.68145230912989],[135.52147263084225,34.68315450818787]],[[135.51827273642553,34.677543189200215],[135.51821112594337,34.676734974531215]],[[135.5165938507869,34.67679105473274],[135.51666701323447,34.677962141293946]],[[135.5167363250269,34.67885612568293],[135.51759502112188,34.67880334431678]],[[135.51759502112188,34.67880334431678],[135.51827273642553,34.677543189200215]],[[135.5142565031203,34.67937734167354],[135.51428345770626,34.67972701822422]],[[135.51428345770626,34.67972701822422],[135.51681333812957,34.67963135199809]],[[135.51681333812957,34.67963135199809],[135.5167055197858,34.67923879058743]],[[135.51406782101873,34.67693290465424],[135.51416793805222,34.678113887721594]],[[135.50973198333733,34.68387035546613],[135.5098166977503,34.68310502565711]],[[135.5098166977503,34.68310502565711],[135.5064974330244,34.68310172682173]],[[135.5108794785674,34.67793904944626],[135.51084867332634,34.67872087343219]],[[135.5108448226712,34.67915961853822],[135.5120308244526,34.679110136007466]],[[135.5120308244526,34.679110136007466],[135.5124004873455,34.67867468973682]],[[135.5123542794839,34.678113887721594],[135.51191145414344,34.67702527204498]],[[135.50349392201954,34.680363693453266],[135.50053276822115,34.68040327947787]],[[135.51246209782767,34.67376932152128],[135.5143219642576,34.67328109388449]],[[135.5143219642576,34.67328109388449],[135.5141640873971,34.67181641097414]],[[135.50059052804818,34.68486330491662],[135.50360559101844,34.68481382238586]],[[135.50360559101844,34.68481382238586],[135.50360559101844,34.684807224715094]],[[135.50360559101844,34.684807224715094],[135.50359403905304,34.68439157145675]],[[135.53030218306554,34.67454454783645],[135.52617043010628,34.67507566033322]],[[135.52617043010628,34.67507566033322],[135.52652469037864,34.6781732667585]],[[135.52674802837643,34.67974681123652],[135.53084897609463,34.678902309378294]],[[135.53084897609463,34.678902309378294],[135.53071805382004,34.67778400418322]],[[135.53071805382004,34.67778400418322],[135.53030218306554,34.67454454783645]],[[135.51451834766945,34.686799721286846],[135.51451834766945,34.686819514299145]],[[135.51674017568203,34.687169190849815],[135.51687494861173,34.68673704341455]],[[135.50644737450764,34.68034390044097],[135.51080631611984,34.68029441791021]],[[135.51080631611984,34.68029441791021],[135.51083327070577,34.67955877761965]],[[135.49799518648754,34.68167003226521],[135.49801829041837,34.68221104126813]],[[135.53071805382004,34.67778400418322],[135.53421829933725,34.67795554362318]],[[135.53421829933725,34.67795554362318],[135.53318247310608,34.67437960606726],[135.53030218306554,34.67454454783645]],[[135.51441437998082,34.68181518102209],[135.51440282801542,34.68165683692367]],[[135.51440282801542,34.68165683692367],[135.51179978514455,34.68176569849134]],[[135.51178053186885,34.681960329778974],[135.51176512924832,34.682639889868014]],[[135.51176512924832,34.682639889868014],[135.51449524373865,34.68255741898342]],[[135.51449524373865,34.68255741898342],[135.51449524373865,34.68255082131265]],[[135.50360559101844,34.684807224715094],[135.50652438761034,34.68436847960906]],[[135.50684784264163,34.69224279966993],[135.51050211436421,34.69081770278417]],[[135.51662080537287,34.66644260813411],[135.51498812759584,34.66657786038484]],[[135.5157428560022,34.669616087773214],[135.51722535822896,34.669470939016335]],[[135.506485881059,34.682158259901996],[135.50647047843847,34.68157436603908]],[[135.5255235200437,34.6918436405885],[135.52866950528852,34.69324234679119]],[[135.52866950528852,34.69324234679119],[135.52952435072837,34.692150432279185],[135.53544665832516,34.692519901842154]],[[135.53544665832516,34.692519901842154],[135.53469578057394,34.689765374296776]],[[135.51166501221482,34.68579357649482],[135.50975893792327,34.68585955320249]],[[135.51072160170688,34.68152818234371],[135.50647047843847,34.68157436603908]],[[135.506485881059,34.682158259901996],[135.51065999122474,34.682062593675866]],[[135.52123389022393,34.68145230912989],[135.5186693539044,34.681600756722155]],[[135.5186693539044,34.681600756722155],[135.51761427439754,34.68166013575906]],[[135.51761427439754,34.68166013575906],[135.51879642552382,34.683306254615516]],[[135.5168710979566,34.68740670699744],[135.51827273642553,34.6876772114989]],[[135.51827273642553,34.6876772114989],[135.51833049625256,34.685819967177885]],[[135.51784916436074,34.68450043302441],[135.5169057538528,34.68453342137825]],[[135.51430271098192,34.68010638429334],[135.51193840872938,34.680231740037925]],[[135.51193840872938,34.680231740037925],[135.51190375283315,34.68062760028396]],[[135.51440282801542,34.68165683692367],[135.51430271098192,34.68010638429334]],[[135.52017110940682,34.68828089837412],[135.51826118446013,34.68847552966176]],[[135.51826118446013,34.68847552966176],[135.51742559229595,34.68947177794763]],[[135.51749105343325,34.69118387351176],[135.52036749281868,34.69176116970391],[135.5222928203859,34.69100243756566]],[[135.51425265246516,34.679341054484325],[135.51200772052178,34.679476306735054]],[[135.51200772052178,34.679476306735054],[135.51193840872938,34.680231740037925]],[[135.51430271098192,34.68010638429334],[135.51428345770626,34.67972701822422]],[[135.50360559101844,34.68481382238586],[135.5036248442941,34.68565172657332]],[[135.506543640886,34.68559894520718],[135.5065320889206,34.6848468107397]],[[135.51827273642553,34.677543189200215],[135.51827273642553,34.67757947638944]],[[135.51827273642553,34.67757947638944],[135.520090245649,34.677856578561666]],[[135.520090245649,34.677856578561666],[135.52060238278187,34.678209553947724]],[[135.52060238278187,34.678209553947724],[135.52044835657648,34.676626112963554]],[[135.51826118446013,34.68847552966176],[135.51827273642553,34.6876772114989]],[[135.5184691198374,34.679449916051986],[135.51759502112188,34.67880334431678]],[[135.51681333812957,34.67963135199809],[135.5168171887847,34.68170302061905]],[[135.5168171887847,34.68170302061905],[135.51761427439754,34.68166013575906]],[[135.5186693539044,34.681600756722155],[135.5184691198374,34.679449916051986]],[[135.51449524373865,34.68255741898342],[135.51450679570405,34.68302255477252]],[[135.5168171887847,34.682992865254064],[135.51680948747443,34.682504637617285]],[[135.5120308244526,34.679110136007466],[135.51200772052178,34.679476306735054]],[[135.51080631611984,34.68029441791021],[135.51079476415444,34.68067048514395]],[[135.51788767091207,34.67339325428754],[135.5143219642576,34.67328109388449]],[[135.5098166977503,34.68310502565711],[135.510667692535,34.682059294840485]],[[135.51176512924832,34.682639889868014],[135.51174202531752,34.683078634974045]],[[135.51174202531752,34.683078634974045],[135.51450679570405,34.68302255477252]],[[135.53151513943288,34.681485297483725],[135.53084897609463,34.678902309378294]],[[135.5006174826341,34.68526576283343],[135.50063288525465,34.68554946267643]],[[135.520090245649,34.677856578561666],[135.51827273642553,34.67757947638944]],[[135.5184691198374,34.679449916051986],[135.52064473998834,34.67862850604145]],[[135.52064473998834,34.67862850604145],[135.52060238278187,34.678209553947724]],[[135.51174202531752,34.683078634974045],[135.51170736942132,34.683876953136895]],[[135.52064473998834,34.67862850604145],[135.5209643443645,34.67860541419376]],[[135.52150343608332,34.67857902351069],[135.52074485702184,34.676504056054355]],[[135.5168171887847,34.68170302061905],[135.5162703957556,34.68174260664365]],[[135.51613947348105,34.671753733101845],[135.5177105407759,34.67170754940647]],[[135.5097396846476,34.68474784567819],[135.50975893792327,34.685556060347196]],[[135.53394875347786,34.68146220563604],[135.53421829933725,34.67795554362318]],[[135.52866950528852,34.69324234679119],[135.5346495727123,34.69536019910751],[135.53544665832516,34.692519901842154]],[[135.52617043010628,34.67507566033322],[135.52077181160777,34.67583769130685]],[[135.49799518648754,34.68530534885803],[135.4979913358324,34.685450497614916]],[[135.4979913358324,34.685450497614916],[135.50063288525465,34.68554946267643]],[[135.4979913358324,34.685450497614916],[135.4979682319016,34.68663477951766]]]}