{"type":"Topology","bbox":[135.4871449964427,34.58615878346612,135.5237807291666,34.62478563368432],"objects":{"town":{"type":"GeometryCollection","geometries":[{"type":"MultiPolygon","arcs":[[[18,19,2,3,6,13,14,15,16,17,8,9,5,0,20,21]]],"properties":{"name":"南住吉"}},{"type":"MultiPolygon","arcs":[[[26,27,28,29,12,-4,10,-26]]],"properties":{"name":"殿辻"}},{"type":"MultiPolygon","arcs":[[[57,58,23,24,25,-11,-3,-20]]],"properties":{"name":"沢之町"}},{"type":"MultiPolygon","arcs":[[[-13,-30,-29,30,31,32,-62,-14,-7]]],"properties":{"name":"千躰"}},{"type":"Polygon","arcs":[[34,35,36,37]],"properties":{"name":"長峡町"}},{"type":"MultiPolygon","arcs":[[[-276,170,171,41,42,43,44,45,38,39,-115,-114,51,52,53,54,55,56]]],"properties":{"name":"帝塚山西"}},{"type":"MultiPolygon","arcs":[[[-17,-210,47,67,68,-101,-89,108,207,-156,70,49,-155,-147]]],"properties":{"name":"大領"}},{"type":"MultiPolygon","arcs":[[[-37,97,112,59,-53,-52,113,114,-40,-39,99]]],"properties":{"name":"東粉浜"}},{"type":"MultiPolygon","arcs":[[[64,65,66,-15,61,-33,62,-143,-153,-130]]],"properties":{"name":"上住吉"}},{"type":"MultiPolygon","arcs":[[[140,-35,141,142,-63,-32,-31,-28,-27,-25,75,71,72,80,81]]],"properties":{"name":"墨江"}},{"type":"MultiPolygon","arcs":[[[295,-192,78,137,133,134,135,136,76,-159,-158,293]]],"properties":{"name":"長居"}},{"type":"MultiPolygon","arcs":[[[-16,-67,208,150,151,102,103,85,86,87,88,100,-69,-68,-48,209]]],"properties":{"name":"万代東"}},{"type":"MultiPolygon","arcs":[[[-133,-132,-44,-123,-122,174,175,105,91,92,93,94,95,89,106,-111,176,-211,-203,139,-65]]],"properties":{"name":"帝塚山東"}},{"type":"MultiPolygon","arcs":[[[-140,202,210,-177,110,-107,-90,-96,153,-87,-86,-104,-103,-152,-151,-209,-66]]],"properties":{"name":"万代"}},{"type":"MultiPolygon","arcs":[[[162,239,-198,-212,205,-180,206,118,230,189,-145,186,184,-196,238,237,-227,180,181,-219,-218]]],"properties":{"name":"苅田"}},{"type":"MultiPolygon","arcs":[[[-93,-92,-106,-176,-175,121,122,-43,-42,-172,-171,275,-57,-56,-55,292,-94]]],"properties":{"name":"帝塚山中"}},{"type":"MultiPolygon","arcs":[[[286,-245,165,125,126,-284,-22,-270,-234,-273,128,123,166,167,240,-254]]],"properties":{"name":"山之内"}},{"type":"MultiPolygon","arcs":[[[-38,-100,-46,-45,131,132,129,152,-142]]],"properties":{"name":"住吉"}},{"type":"MultiPolygon","arcs":[[[195,-185,-187,144,145,196]]],"properties":{"name":"庭井"}},{"type":"MultiPolygon","arcs":[[[-77,-137,-136,172,-10,-9,-18,146,154,-50,-71,155,156,157,158]]],"properties":{"name":"長居西"}},{"type":"MultiPolygon","arcs":[[[190,-138,-79,191,192,199,212,178,179,-206,211,197,198,194]]],"properties":{"name":"長居東"}},{"type":"MultiPolygon","arcs":[[[224,225,214,215,-223,243,-195,-199,-240,-163,217,218,-182,-181,226,227]]],"properties":{"name":"我孫子東"}},{"type":"MultiPolygon","arcs":[[[222,-216,-215,-226,276,277,231,232,233,234,-272,219,220,268,-134,-191,-244]]],"properties":{"name":"我孫子"}},{"type":"MultiPolygon","arcs":[[[290,-268,-267,-290,257,-76,-24,-59,-58,-19,283,-127,-126,-166,244,245,260]]],"properties":{"name":"遠里小野"}},{"type":"MultiPolygon","arcs":[[[-257,249,250,-228,-238,251,285]]],"properties":{"name":"浅香"}},{"type":"MultiPolygon","arcs":[[[-277,-225,-251,-250,256,252,253,-241,-168,-167,-124,-274,-232,-278]]],"properties":{"name":"杉本"}},{"type":"MultiPolygon","arcs":[[[-72,-258,289,266,267,264,288,280,-81,-73]]],"properties":{"name":"清水丘"}},{"type":"MultiPolygon","arcs":[[[-220,271,-235,269,-21,-1,-6,-173,-135,-269,-221]]],"properties":{"name":"我孫子西"}},{"type":"Polygon","arcs":[[-129,272,-233,273]],"properties":{"name":"山之内元町"}}]}},"arcs":[[[135.50526317809283,34.60410274978911],[135.5048748004882,34.60318720188414]],[[135.5048748004882,34.60318720188414],[135.49995412951628,34.603361040093944]],[[135.49995412951628,34.603361040093944],[135.49994313769727,34.60511101140596]],[[135.49994313769727,34.60511101140596],[135.50133177083083,34.60512646369128],[135.50132077901185,34.60688416114595]],[[135.50132077901185,34.60688416114595],[135.50639533544972,34.60671804907881]],[[135.50639533544972,34.60671804907881],[135.50526317809283,34.60410274978911]],[[135.50132077901185,34.60688416114595],[135.50132077901185,34.60930244379787]],[[135.50132077901185,34.60930244379787],[135.50750184522897,34.60934880065382]],[[135.50750184522897,34.60934880065382],[135.50746886977197,34.609267676155916]],[[135.50746886977197,34.609267676155916],[135.50639533544972,34.60671804907881]],[[135.49994313769727,34.60511101140596],[135.4981258236228,34.60538915254165]],[[135.4981258236228,34.60538915254165],[135.4989831855047,34.60708890392638]],[[135.4989831855047,34.60708890392638],[135.50132077901185,34.60688416114595]],[[135.50132077901185,34.60930244379787],[135.50008236740462,34.60929085458389]],[[135.50008236740462,34.60929085458389],[135.50130978719284,34.61179798787638]],[[135.50130978719284,34.61179798787638],[135.50277536305938,34.61189070158827]],[[135.50277536305938,34.61189070158827],[135.50499937443686,34.61190229080226],[135.5076300831173,34.6106931494763]],[[135.5076300831173,34.6106931494763],[135.50750184522897,34.60934880065382]],[[135.49999076891294,34.601155226365115],[135.49995412951628,34.601155226365115]],[[135.49995412951628,34.601155226365115],[135.49995412951628,34.603361040093944]],[[135.5048748004882,34.60318720188414],[135.5041017092186,34.60142564135814]],[[135.5041017092186,34.60142564135814],[135.49999076891294,34.601155226365115]],[[135.49995412951628,34.603361040093944],[135.4968910759552,34.603357177022616]],[[135.4968910759552,34.603357177022616],[135.49688741201555,34.603813019439436]],[[135.49688741201555,34.603813019439436],[135.49689840383454,34.60557844303676]],[[135.49689840383454,34.60557844303676],[135.4981258236228,34.60538915254165]],[[135.49689840383454,34.60557844303676],[135.49695336292953,34.60696528564386]],[[135.49695336292953,34.60696528564386],[135.49695336292953,34.60731296206347]],[[135.49695336292953,34.60731296206347],[135.49898684944438,34.60709276699772]],[[135.49898684944438,34.60709276699772],[135.4989831855047,34.60708890392638]],[[135.49695336292953,34.60731296206347],[135.49703030566252,34.609198140871996]],[[135.49703030566252,34.609198140871996],[135.49705961717987,34.609259950013254]],[[135.49705961717987,34.609259950013254],[135.50003473618895,34.60919041472933]],[[135.50003473618895,34.60919041472933],[135.49898684944438,34.60709276699772]],[[135.491292576145,34.610129141062274],[135.49127059250702,34.6101330041336]],[[135.49127059250702,34.6101330041336],[135.48958151632084,34.61068928640497],[135.49040590274578,34.61381837418142]],[[135.49040590274578,34.61381837418142],[135.49167728980999,34.61412355681641]],[[135.49167728980999,34.61412355681641],[135.491292576145,34.610129141062274]],[[135.4937803911785,34.616093723194176],[135.4940515227138,34.61772007622366]],[[135.4940515227138,34.61772007622366],[135.4945314988101,34.618836503837734]],[[135.4945314988101,34.618836503837734],[135.4960337140733,34.61820296013978],[135.49790965118245,34.61923053711328]],[[135.49790965118245,34.61923053711328],[135.49775942965613,34.61840383984889]],[[135.49775942965613,34.61840383984889],[135.49741868326717,34.61593920034102]],[[135.49741868326717,34.61593920034102],[135.4973710520515,34.6159237480557]],[[135.4973710520515,34.6159237480557],[135.49548412312333,34.61590829577038]],[[135.49548412312333,34.61590829577038],[135.4937803911785,34.616093723194176]],[[135.50835554317123,34.61213021201067],[135.50387820889895,34.61381451111009]],[[135.50387820889895,34.61381451111009],[135.50487846442786,34.615487220995526]],[[135.50487846442786,34.615487220995526],[135.50819799376558,34.61412355681641]],[[135.50819799376558,34.61412355681641],[135.50835554317123,34.61213021201067]],[[135.49827604514908,34.62122774499035],[135.49527527856236,34.62192696090089]],[[135.49527527856236,34.62192696090089],[135.49528627038134,34.62196945468551]],[[135.49528627038134,34.62196945468551],[135.49554641009766,34.62308201922825]],[[135.49554641009766,34.62308201922825],[135.49853252092575,34.62445340955003]],[[135.49853252092575,34.62445340955003],[135.49858381608107,34.623224952867425]],[[135.49858381608107,34.623224952867425],[135.4984812257704,34.622425297102325]],[[135.4984812257704,34.622425297102325],[135.49827604514908,34.62122774499035]],[[135.49995412951628,34.601155226365115],[135.49690206777422,34.6011397740798]],[[135.49690206777422,34.6011397740798],[135.4968910759552,34.603357177022616]],[[135.4924723647176,34.62150588612604],[135.49295234081387,34.62326358358071],[135.49554641009766,34.62308201922825]],[[135.49528627038134,34.62196945468551],[135.4947586630694,34.620984371496625],[135.4924723647176,34.62150588612604]],[[135.50008236740462,34.60929085458389],[135.50003473618895,34.60919041472933]],[[135.49705961717987,34.609259950013254],[135.49703030566252,34.60937197908179]],[[135.49703030566252,34.60937197908179],[135.49760554419015,34.611886838516945]],[[135.49760554419015,34.611886838516945],[135.499408202506,34.61177094637708]],[[135.499408202506,34.61177094637708],[135.50128047567551,34.61179412480505]],[[135.50128047567551,34.61179412480505],[135.50130978719284,34.61179798787638]],[[135.50487846442786,34.615487220995526],[135.50610222027643,34.6173105906628]],[[135.50610222027643,34.6173105906628],[135.50614618755242,34.61764281479709]],[[135.50614618755242,34.61764281479709],[135.50863766652554,34.61622120454803]],[[135.50863766652554,34.61622120454803],[135.50819799376558,34.61412355681641]],[[135.49528627038134,34.60260387811347],[135.4947989664057,34.60303267903098]],[[135.4947989664057,34.60303267903098],[135.49496017975105,34.60508396990666],[135.49388298148912,34.60626220666199]],[[135.49388298148912,34.60626220666199],[135.4939086290668,34.606915065716585]],[[135.4939086290668,34.606915065716585],[135.49695336292953,34.60696528564386]],[[135.49688741201555,34.603813019439436],[135.49528627038134,34.60260387811347]],[[135.51063084970403,34.6092522238706],[135.50994202904675,34.61197568915751]],[[135.50994202904675,34.61197568915751],[135.51320293534982,34.611720726449796]],[[135.51320293534982,34.611720726449796],[135.51168240038828,34.60929085458389]],[[135.51168240038828,34.60929085458389],[135.51063084970403,34.6092522238706]],[[135.49388298148912,34.60626220666199],[135.49032896001276,34.606459223299765]],[[135.49032896001276,34.606459223299765],[135.49101411673038,34.609186551658006]],[[135.49101411673038,34.609186551658006],[135.49332239872018,34.60919041472933]],[[135.49332239872018,34.60919041472933],[135.4939086290668,34.606915065716585]],[[135.50720873005568,34.61947004753568],[135.50585673631878,34.6200070144504]],[[135.50585673631878,34.6200070144504],[135.5062011466474,34.620555570579114]],[[135.5062011466474,34.620555570579114],[135.50720140217632,34.62225918503518]],[[135.50720140217632,34.62225918503518],[135.50859369924956,34.62110412670783]],[[135.50859369924956,34.62110412670783],[135.50720873005568,34.61947004753568]],[[135.50355211826866,34.62162950440857],[135.50329930643167,34.62116207277776]],[[135.50329930643167,34.62116207277776],[135.5014123775035,34.6215947367666]],[[135.5014123775035,34.6215947367666],[135.50142703326216,34.62161791519458]],[[135.50142703326216,34.62161791519458],[135.50222210816975,34.62272275359466]],[[135.50222210816975,34.62272275359466],[135.50286696155104,34.623653753784936]],[[135.50286696155104,34.623653753784936],[135.50447909500423,34.62315928065483]],[[135.50447909500423,34.62315928065483],[135.50355211826866,34.62162950440857]],[[135.49332239872018,34.60919041472933],[135.49703030566252,34.609198140871996]],[[135.49040590274578,34.61381837418142],[135.49163698647365,34.61835361992161]],[[135.49163698647365,34.61835361992161],[135.4940515227138,34.61772007622366]],[[135.4937803911785,34.616093723194176],[135.49315019355586,34.61431671038286],[135.49167728980999,34.61412355681641]],[[135.50720873005568,34.61947004753568],[135.50614618755242,34.61764281479709]],[[135.50610222027643,34.6173105906628],[135.5044277998489,34.61770848700968]],[[135.5044277998489,34.61770848700968],[135.50471358714287,34.6182184124251]],[[135.50471358714287,34.6182184124251],[135.50585673631878,34.6200070144504]],[[135.50048906470758,34.61964388574548],[135.50025090862925,34.619736599457376]],[[135.50025090862925,34.619736599457376],[135.5014123775035,34.6215947367666]],[[135.50329930643167,34.62116207277776],[135.5026874285074,34.62010745430496],[135.50048906470758,34.61964388574548]],[[135.50833355953324,34.61902193126152],[135.50720873005568,34.61947004753568]],[[135.50859369924956,34.62110412670783],[135.50833355953324,34.61902193126152]],[[135.50471358714287,34.6182184124251],[135.50160290236613,34.618631761057294]],[[135.50160290236613,34.618631761057294],[135.50048906470758,34.61964388574548]],[[135.50355211826866,34.62162950440857],[135.5062011466474,34.620555570579114]],[[135.49163698647365,34.61835361992161],[135.4924723647176,34.62150588612604]],[[135.49527527856236,34.62192696090089],[135.49499315520805,34.61992202688117]],[[135.49499315520805,34.61992202688117],[135.4945314988101,34.618836503837734]],[[135.5186512136337,34.599482516479675],[135.51864754969404,34.60137155835953]],[[135.51864754969404,34.60137155835953],[135.5186622054527,34.602321873906455]],[[135.5186622054527,34.602321873906455],[135.52261926029234,34.602306421621144]],[[135.52261926029234,34.602306421621144],[135.52285741637067,34.59947092726569]],[[135.52285741637067,34.59947092726569],[135.5186512136337,34.599482516479675]],[[135.49775942965613,34.61840383984889],[135.49912974309134,34.61786300986284]],[[135.49912974309134,34.61786300986284],[135.4991260791517,34.617855283720175]],[[135.4991260791517,34.617855283720175],[135.49741868326717,34.61593920034102]],[[135.50325533915566,34.595495826868195],[135.50321503581935,34.59519837037587]],[[135.50321503581935,34.59519837037587],[135.49966834222232,34.59538766087098]],[[135.49966834222232,34.59538766087098],[135.49963903070497,34.59538766087098]],[[135.49963903070497,34.59538766087098],[135.49991382617995,34.59847811793415]],[[135.49991382617995,34.59847811793415],[135.5041236928566,34.598319732009664]],[[135.5041236928566,34.598319732009664],[135.50325533915566,34.595495826868195]],[[135.49760554419015,34.611886838516945],[135.49484293368172,34.61243539464566]],[[135.49484293368172,34.61243539464566],[135.49548412312333,34.61590829577038]],[[135.4973710520515,34.6159237480557],[135.49740036356883,34.615749909845896]],[[135.49740036356883,34.615749909845896],[135.49760554419015,34.611886838516945]],[[135.51011057027142,34.60670259679349],[135.5095792990198,34.60583340574448]],[[135.5095792990198,34.60583340574448],[135.50799647708394,34.606277658947306]],[[135.50799647708394,34.606277658947306],[135.5087292650172,34.60927540229857]],[[135.5087292650172,34.60927540229857],[135.51063084970403,34.6092522238706]],[[135.51168240038828,34.60929085458389],[135.51011057027142,34.60670259679349]],[[135.49740036356883,34.615749909845896],[135.49975994071397,34.615460179496225]],[[135.49975994071397,34.615460179496225],[135.4986131275984,34.61309597984291],[135.499408202506,34.61177094637708]],[[135.49101411673038,34.609186551658006],[135.49127059250702,34.6101330041336]],[[135.491292576145,34.610129141062274],[135.4943116624301,34.610527037409156]],[[135.4943116624301,34.610527037409156],[135.49703030566252,34.60937197908179]],[[135.52045020800986,34.59361837420233],[135.52000320737056,34.59568125429199],[135.5181492538994,34.597156947539645]],[[135.5181492538994,34.597156947539645],[135.52260460453368,34.59663929598157]],[[135.52260460453368,34.59663929598157],[135.52289405576732,34.59464595117583],[135.52045020800986,34.59361837420233]],[[135.5076300831173,34.6106931494763],[135.5087952159312,34.61206453979808]],[[135.5087952159312,34.61206453979808],[135.50994202904675,34.61197568915751]],[[135.5087292650172,34.60927540229857],[135.50746886977197,34.609267676155916]],[[135.50387820889895,34.61381451111009],[135.50251522334307,34.61436693031013]],[[135.50251522334307,34.61436693031013],[135.50342388038032,34.61602032483892]],[[135.50342388038032,34.61602032483892],[135.5044277998489,34.61770848700968]],[[135.49484293368172,34.61243539464566],[135.4943116624301,34.610527037409156]],[[135.50447909500423,34.62315928065483],[135.50720140217632,34.62225918503518]],[[135.5087952159312,34.61206453979808],[135.50835554317123,34.61213021201067]],[[135.50863766652554,34.61622120454803],[135.50922756081184,34.61687792667395]],[[135.50922756081184,34.61687792667395],[135.51059787424705,34.61671567767814]],[[135.51059787424705,34.61671567767814],[135.5102644557374,34.61389949867933]],[[135.5102644557374,34.61389949867933],[135.50994202904675,34.61197568915751]],[[135.50142703326216,34.62161791519458],[135.4984812257704,34.622425297102325]],[[135.49858381608107,34.623224952867425],[135.50222210816975,34.62272275359466]],[[135.51864754969404,34.60137155835953],[135.51293546775418,34.601518355070034]],[[135.51293546775418,34.601518355070034],[135.5131296565565,34.603430575377864]],[[135.5131296565565,34.603430575377864],[135.51865854151302,34.60324128488275]],[[135.51865854151302,34.60324128488275],[135.5186622054527,34.602321873906455]],[[135.50009702316328,34.59225857309453],[135.49966834222232,34.59538766087098]],[[135.50321503581935,34.59519837037587],[135.50315641278468,34.59430213782755]],[[135.50315641278468,34.59430213782755],[135.5028926091287,34.5920808718134]],[[135.5028926091287,34.5920808718134],[135.50009702316328,34.59225857309453]],[[135.49499315520805,34.61992202688117],[135.4980891842261,34.62021175723084]],[[135.4980891842261,34.62021175723084],[135.49796827421713,34.619558898176244]],[[135.49796827421713,34.619558898176244],[135.49790965118245,34.61923053711328]],[[135.50799647708394,34.606277658947306],[135.50639533544972,34.60671804907881]],[[135.5007162289669,34.61711357402502],[135.4991260791517,34.617855283720175]],[[135.49912974309134,34.61786300986284],[135.50018862165493,34.61963615960283]],[[135.50018862165493,34.61963615960283],[135.50025090862925,34.619736599457376]],[[135.50160290236613,34.618631761057294],[135.5007162289669,34.61711357402502]],[[135.51995191221525,34.60511101140596],[135.52001419918957,34.60926381308459]],[[135.52001419918957,34.60926381308459],[135.52376607340793,34.60927540229857],[135.52274017030135,34.60846029424816],[135.52267788332702,34.605462550896895]],[[135.52267788332702,34.605462550896895],[135.51995191221525,34.60511101140596]],[[135.51234190952823,34.5949086400262],[135.5126606722792,34.59810340001524]],[[135.5126606722792,34.59810340001524],[135.51270097561553,34.59810340001524]],[[135.51270097561553,34.59810340001524],[135.51713434261183,34.59803386473132]],[[135.51713434261183,34.59803386473132],[135.51651880074786,34.59697152011586]],[[135.51651880074786,34.59697152011586],[135.51526939732165,34.594800474028986]],[[135.51526939732165,34.594800474028986],[135.51234190952823,34.5949086400262]],[[135.5181492538994,34.597156947539645],[135.51651880074786,34.59697152011586]],[[135.51713434261183,34.59803386473132],[135.51733952323315,34.59803772780265]],[[135.51733952323315,34.59803772780265],[135.52255330937837,34.59791024644879]],[[135.52255330937837,34.59791024644879],[135.52260460453368,34.59663929598157]],[[135.51128669490433,34.60648626479907],[135.51011057027142,34.60670259679349]],[[135.51320293534982,34.611720726449796],[135.51410060056807,34.613204145840115]],[[135.51410060056807,34.613204145840115],[135.5137268787221,34.60930244379787]],[[135.5137268787221,34.60930244379787],[135.51340445203147,34.606351057302554]],[[135.51340445203147,34.606351057302554],[135.51128669490433,34.60648626479907]],[[135.51665436651552,34.59174864767911],[135.51526939732165,34.594800474028986]],[[135.52045020800986,34.59361837420233],[135.51665436651552,34.59174864767911]],[[135.51738349050913,34.605103285263304],[135.51329086990182,34.605130326762605]],[[135.51329086990182,34.605130326762605],[135.51340445203147,34.606351057302554]],[[135.5137268787221,34.60930244379787],[135.51739448232814,34.60926381308459]],[[135.51739448232814,34.60926381308459],[135.51738349050913,34.605103285263304]],[[135.50251522334307,34.61436693031013],[135.49975994071397,34.615460179496225]],[[135.49975994071397,34.615460179496225],[135.50070157320823,34.61708653252572]],[[135.50070157320823,34.61708653252572],[135.50342388038032,34.61602032483892]],[[135.51865854151302,34.60324128488275],[135.51868785303034,34.605091696049314]],[[135.51868785303034,34.605091696049314],[135.51995191221525,34.60511101140596]],[[135.52267788332702,34.605462550896895],[135.52261926029234,34.602306421621144]],[[135.50833355953324,34.61902193126152],[135.50922756081184,34.61687792667395]],[[135.50128047567551,34.61179412480505],[135.50251522334307,34.61436693031013]],[[135.50387820889895,34.61381451111009],[135.50277536305938,34.61189070158827]],[[135.50070157320823,34.61708653252572],[135.5007162289669,34.61711357402502]],[[135.51868785303034,34.605091696049314],[135.51738349050913,34.605103285263304]],[[135.51739448232814,34.60926381308459],[135.52001419918957,34.60926381308459]],[[135.5126606722792,34.59810340001524],[135.51053925121238,34.59814589379986]],[[135.51053925121238,34.59814589379986],[135.51071878425603,34.60017786931889]],[[135.51071878425603,34.60017786931889],[135.51086900578235,34.601641973352564]],[[135.51086900578235,34.601641973352564],[135.51293546775418,34.601518355070034]],[[135.51293546775418,34.601518355070034],[135.51281089380552,34.59956750404891]],[[135.51281089380552,34.59956750404891],[135.51270097561553,34.59810340001524]],[[135.50705118065002,34.60242617683234],[135.5077912964626,34.603260600239395]],[[135.5077912964626,34.603260600239395],[135.5084691253009,34.60411820207442]],[[135.5084691253009,34.60411820207442],[135.511015563369,34.60355419366039]],[[135.511015563369,34.60355419366039],[135.51086900578235,34.601641973352564]],[[135.51086900578235,34.601641973352564],[135.50705118065002,34.60242617683234]],[[135.5101765211854,34.59386947383871],[135.51041467726373,34.59668178976619]],[[135.51041467726373,34.59668178976619],[135.51053925121238,34.59814589379986]],[[135.51234190952823,34.5949086400262],[135.5124774752959,34.593583606560365]],[[135.5124774752959,34.593583606560365],[135.5101765211854,34.59386947383871]],[[135.51733952323315,34.59803772780265],[135.5173651708108,34.599664080832135]],[[135.5173651708108,34.599664080832135],[135.5186512136337,34.599482516479675]],[[135.52285741637067,34.59947092726569],[135.52255330937837,34.59791024644879]],[[135.50765939463463,34.59725352432287],[135.50556362114548,34.597458267103306]],[[135.50556362114548,34.597458267103306],[135.50417132407225,34.59842017186421]],[[135.50417132407225,34.59842017186421],[135.50575048206846,34.600811413016835]],[[135.50575048206846,34.600811413016835],[135.50576513782713,34.60083072837348]],[[135.50576513782713,34.60083072837348],[135.50747253371165,34.600448284311916]],[[135.50747253371165,34.600448284311916],[135.50765939463463,34.59725352432287]],[[135.5146978227337,34.59072879684827],[135.5124774752959,34.593583606560365]],[[135.51665436651552,34.59174864767911],[135.5146978227337,34.59072879684827]],[[135.5131296565565,34.603430575377864],[135.51329086990182,34.605130326762605]],[[135.5028926091287,34.5920808718134],[135.50261414971405,34.58813281291521]],[[135.50261414971405,34.58813281291521],[135.5012475002185,34.587908754778134],[135.50009702316328,34.59225857309453]],[[135.5173651708108,34.599664080832135],[135.51281089380552,34.59956750404891]],[[135.511015563369,34.60355419366039],[135.51128669490433,34.60648626479907]],[[135.50009702316328,34.59225857309453],[135.4977521017768,34.59172160617981]],[[135.4977521017768,34.59172160617981],[135.49586150890897,34.59397377676459],[135.49431899030944,34.59464595117583]],[[135.49431899030944,34.59464595117583],[135.49487957307838,34.595658075864016]],[[135.49487957307838,34.595658075864016],[135.49963903070497,34.59538766087098]],[[135.50989439783112,34.58848048933482],[135.50774366524695,34.59183749831968]],[[135.50774366524695,34.59183749831968],[135.50915061807885,34.59176796303576],[135.5093154953638,34.593915830694655]],[[135.5093154953638,34.593915830694655],[135.5101765211854,34.59386947383871]],[[135.5146978227337,34.59072879684827],[135.50989439783112,34.58848048933482]],[[135.50658219637273,34.58700479608716],[135.5024785839464,34.58615878346612]],[[135.5024785839464,34.58615878346612],[135.50261414971405,34.58813281291521]],[[135.50315641278468,34.59430213782755],[135.50775465706596,34.59400854440655]],[[135.50775465706596,34.59400854440655],[135.5093154953638,34.593915830694655]],[[135.50774366524695,34.59183749831968],[135.50640632726873,34.591891581318286],[135.5059739823881,34.58831437726767],[135.50658219637273,34.58700479608716]],[[135.49346895630683,34.60114750022245],[135.49528627038134,34.60260387811347]],[[135.49690206777422,34.6011397740798],[135.49685077261887,34.6007264254476]],[[135.49685077261887,34.6007264254476],[135.49346895630683,34.60114750022245]],[[135.49431899030944,34.59464595117583],[135.49241374168292,34.595024532166065]],[[135.49241374168292,34.595024532166065],[135.4934726202465,34.59875625906983]],[[135.4934726202465,34.59875625906983],[135.49668955927356,34.598609462359335]],[[135.49668955927356,34.598609462359335],[135.49487957307838,34.595658075864016]],[[135.4904681897201,34.5954301546556],[135.4871449964427,34.59612550749482],[135.4887241544389,34.600174006247556]],[[135.4887241544389,34.600174006247556],[135.49214261014762,34.59981860368529]],[[135.49214261014762,34.59981860368529],[135.491776216181,34.59884897278173]],[[135.491776216181,34.59884897278173],[135.4904681897201,34.5954301546556]],[[135.5084691253009,34.60411820207442],[135.5095792990198,34.60583340574448]],[[135.50575048206846,34.600811413016835],[135.5041017092186,34.60142564135814]],[[135.50526317809283,34.60410274978911],[135.5077912964626,34.603260600239395]],[[135.50705118065002,34.60242617683234],[135.50576513782713,34.60083072837348]],[[135.5041236928566,34.598319732009664],[135.50417132407225,34.59842017186421]],[[135.50556362114548,34.597458267103306],[135.5050616614112,34.596102329066845],[135.50325533915566,34.595495826868195]],[[135.50018862165493,34.61963615960283],[135.49796827421713,34.619558898176244]],[[135.4980891842261,34.62021175723084],[135.49827604514908,34.62122774499035]],[[135.51041467726373,34.59668178976619],[135.5076520667553,34.59688266947529]],[[135.5076520667553,34.59688266947529],[135.50765939463463,34.59725352432287]],[[135.50747253371165,34.600448284311916],[135.51071878425603,34.60017786931889]],[[135.4947989664057,34.60303267903098],[135.48958151632084,34.60350397373312]],[[135.48958151632084,34.60350397373312],[135.49032896001276,34.606459223299765]],[[135.49991382617995,34.59847811793415],[135.49674818230824,34.59861332543066]],[[135.49674818230824,34.59861332543066],[135.49685077261887,34.6007264254476]],[[135.49999076891294,34.601155226365115],[135.49991382617995,34.59847811793415]],[[135.5076520667553,34.59688266947529],[135.50775465706596,34.59400854440655]],[[135.50989439783112,34.58848048933482],[135.50658219637273,34.58700479608716]],[[135.5024785839464,34.58615878346612],[135.49994313769727,34.587244306509554],[135.4977521017768,34.59172160617981]],[[135.49668955927356,34.598609462359335],[135.49674818230824,34.59861332543066]],[[135.4887241544389,34.600174006247556],[135.48958151632084,34.60350397373312]],[[135.49346895630683,34.60114750022245],[135.49214261014762,34.59981860368529]],[[135.49241374168292,34.595024532166065],[135.4904681897201,34.5954301546556]],[[135.491776216181,34.59884897278173],[135.4934726202465,34.59875625906983]],[[135.49853252092575,34.62445340955003],[135.50286696155104,34.623653753784936]],[[135.51059787424705,34.61671567767814],[135.5159802016169,34.61628301368929],[135.51432410088773,34.61356341147371]],[[135.51432410088773,34.61356341147371],[135.5102644557374,34.61389949867933]],[[135.51432410088773,34.61356341147371],[135.51410060056807,34.613204145840115]]]}