{"type":"Topology","bbox":[135.47361931634654,34.6217658785927,135.50868465146485,34.657369293194],"objects":{"town":{"type":"GeometryCollection","geometries":[{"type":"MultiPolygon","arcs":[[[7,8,12,13,0,1,14,10,11]]],"properties":{"name":"山王"}},{"type":"MultiPolygon","arcs":[[[61,-60,-34,4,-69,74,-44,-23,6,-22,62,63]]],"properties":{"name":"萩之茶屋"}},{"type":"MultiPolygon","arcs":[[[54,55,16,17,18,-12,19,56]]],"properties":{"name":"天下茶屋東"}},{"type":"MultiPolygon","arcs":[[[-14,-13,-9,20,21,-7,22,43,44,-1]]],"properties":{"name":"太子"}},{"type":"MultiPolygon","arcs":[[[26,41,42,39,40,-35,24,-39,-61,-62,-70,-17,-56]]],"properties":{"name":"天下茶屋"}},{"type":"MultiPolygon","arcs":[[[-5,33,28,29,30,31,64,65,66,67,68]]],"properties":{"name":"花園北"}},{"type":"MultiPolygon","arcs":[[[38,-25,34,35,36,57,58,-29,59,60]]],"properties":{"name":"花園南"}},{"type":"MultiPolygon","arcs":[[[46,47,-151,-174,178,179,-202,-166,52,-165,215,-115,80,78,214,151]]],"properties":{"name":"南津守"}},{"type":"MultiPolygon","arcs":[[[-19,-18,69,-64,-63,-21,-8]]],"properties":{"name":"天下茶屋北"}},{"type":"MultiPolygon","arcs":[[[172,173,-150,174,-100,73,-37,71,191,176,177]]],"properties":{"name":"橘"}},{"type":"MultiPolygon","arcs":[[[94,77,-32,75,-83,-140,157,-107]]],"properties":{"name":"鶴見橋"}},{"type":"MultiPolygon","arcs":[[[82,-76,-31,-96,84,-88,-113,138,139]]],"properties":{"name":"旭"}},{"type":"MultiPolygon","arcs":[[[110,111,112,87,-85,95,-30,-59,96,85,113]]],"properties":{"name":"梅南"}},{"type":"MultiPolygon","arcs":[[[137,-123,131,91,92,-66,89,-102,-110]]],"properties":{"name":"出城"}},{"type":"MultiPolygon","arcs":[[[-86,-97,-58,-74,99,-175,-149,-157,-114]]],"properties":{"name":"松"}},{"type":"MultiPolygon","arcs":[[[101,-90,-65,-78,-95,106,107,108,109]]],"properties":{"name":"長橋"}},{"type":"MultiPolygon","arcs":[[[104,105,160,161,162]]],"properties":{"name":"北開"}},{"type":"MultiPolygon","arcs":[[[116,117,-81,114,-216,-164,-171,-135,-213]]],"properties":{"name":"玉出西"}},{"type":"MultiPolygon","arcs":[[[-132,122,118,119,120,-184,-169,-92]]],"properties":{"name":"南開"}},{"type":"MultiPolygon","arcs":[[[203,-133,124,125,126,127,128,129,204]]],"properties":{"name":"玉出東"}},{"type":"MultiPolygon","arcs":[[[-117,212,134,135,136,-125,132,-204,213]]],"properties":{"name":"玉出中"}},{"type":"MultiPolygon","arcs":[[[-41,-40,209,-185,-127,-126,-137,140,141,-197,-212,-36]]],"properties":{"name":"岸里"}},{"type":"MultiPolygon","arcs":[[[145,-129,143,-217,220,221]]],"properties":{"name":"天神ノ森"}},{"type":"MultiPolygon","arcs":[[[-111,156,148,149,150,-48,146,154,199,200,-108,-158,-139,-112]]],"properties":{"name":"津守"}},{"type":"MultiPolygon","arcs":[[[159,-67,-93,168,-161,-106,169]],[[181,182,-162,183,-121]]],"properties":{"name":"中開"}},{"type":"MultiPolygon","arcs":[[[-136,170,163,164,-53,165,166,171,-141]]],"properties":{"name":"千本南"}},{"type":"MultiPolygon","arcs":[[[-144,-128,184,-210,-43,216]]],"properties":{"name":"岸里東"}},{"type":"MultiPolygon","arcs":[[[-179,-173,-178,187,188,-194,-203]]],"properties":{"name":"千本北"}},{"type":"MultiPolygon","arcs":[[[-42,-27,-55,190,223,-221]]],"properties":{"name":"聖天下"}},{"type":"MultiPolygon","arcs":[[[201,-180,202,193,-189,194,195,196,-142,-172,-167]]],"properties":{"name":"千本中"}},{"type":"MultiPolygon","arcs":[[[222,217,206,198,207,218,-182,-120,-119,-138,-109,-201]]],"properties":{"name":"北津守"}},{"type":"MultiPolygon","arcs":[[[-72,211,-196,-195,-188,-177,-192]]],"properties":{"name":"潮路"}}]}},"arcs":[[[135.50456756941375,34.64654121200562],[135.50568275858944,34.64885922609758]],[[135.50568275858944,34.64885922609758],[135.50849177283382,34.648175572171844],[135.5079587264354,34.64575073715399]],[[135.5079587264354,34.64575073715399],[135.50456756941375,34.64654121200562]],[[135.50229160156778,34.64533057484547],[135.49887238947255,34.64561899134539]],[[135.49887238947255,34.64561899134539],[135.49923710542936,34.64728183709184]],[[135.49923710542936,34.64728183709184],[135.50259319360902,34.6468830389685]],[[135.50259319360902,34.6468830389685],[135.50229160156778,34.64533057484547]],[[135.5024388907042,34.64248201682156],[135.50361720379547,34.64497094439495]],[[135.50361720379547,34.64497094439495],[135.5037609860477,34.64515253996897]],[[135.5037609860477,34.64515253996897],[135.50704342965912,34.644201833728495]],[[135.50704342965912,34.644201833728495],[135.50624035317728,34.64204049032785]],[[135.50624035317728,34.64204049032785],[135.5024388907042,34.64248201682156]],[[135.5037609860477,34.64515253996897],[135.50443430781414,34.64627415969088]],[[135.50443430781414,34.64627415969088],[135.50456756941375,34.64654121200562]],[[135.5079587264354,34.64575073715399],[135.50704342965912,34.644201833728495]],[[135.5052970013274,34.64005006040865],[135.50114485043432,34.64090818851335]],[[135.50114485043432,34.64090818851335],[135.50153411458052,34.642603080537576]],[[135.50153411458052,34.642603080537576],[135.50163581422234,34.642585277049925]],[[135.50163581422234,34.642585277049925],[135.5024388907042,34.64248201682156]],[[135.50624035317728,34.64204049032785],[135.5052970013274,34.64005006040865]],[[135.50361720379547,34.64497094439495],[135.5025090283882,34.64530564996276]],[[135.5025090283882,34.64530564996276],[135.50229160156778,34.64533057484547]],[[135.50259319360902,34.6468830389685],[135.50260371426162,34.646932888733915]],[[135.50260371426162,34.646932888733915],[135.50443430781414,34.64627415969088]],[[135.49708738541463,34.63762166469327],[135.49758185608687,34.63955156275446]],[[135.49758185608687,34.63955156275446],[135.50075558628808,34.639167007421236]],[[135.50075558628808,34.639167007421236],[135.50026111561584,34.636731490310794]],[[135.50026111561584,34.636731490310794],[135.49708738541463,34.63762166469327]],[[135.4982236158955,34.643204838420125],[135.49641055676398,34.64352886189535]],[[135.49641055676398,34.64352886189535],[135.49642107741658,34.64358583305582]],[[135.49642107741658,34.64358583305582],[135.49667707996318,34.64509556880849]],[[135.49667707996318,34.64509556880849],[135.49710842671982,34.64738865801774]],[[135.49710842671982,34.64738865801774],[135.49923710542936,34.64728183709184]],[[135.49887238947255,34.64561899134539],[135.4982236158955,34.643204838420125]],[[135.49708738541463,34.63762166469327],[135.4970663441094,34.63747211539701]],[[135.4970663441094,34.63747211539701],[135.49486051394746,34.63787803491542]],[[135.49486051394746,34.63787803491542],[135.4954601911457,34.63991119320498]],[[135.4954601911457,34.63991119320498],[135.49729779846663,34.639815054371674]],[[135.49729779846663,34.639815054371674],[135.49758185608687,34.63955156275446]],[[135.49602129261774,34.63407164925597],[135.49603882703875,34.63413218111398]],[[135.49603882703875,34.63413218111398],[135.4970663441094,34.63747211539701]],[[135.50026111561584,34.636731490310794],[135.49976313805942,34.6344562045892]],[[135.49976313805942,34.6344562045892],[135.49602129261774,34.63407164925597]],[[135.50260371426162,34.646932888733915],[135.50330158421747,34.64942893770236]],[[135.50330158421747,34.64942893770236],[135.50568275858944,34.64885922609758]],[[135.48305634172942,34.631372640528326],[135.47627052080193,34.63235183234904]],[[135.47627052080193,34.63235183234904],[135.47775393281864,34.63580570895303]],[[135.47775393281864,34.63580570895303],[135.48204285219555,34.635837755230796],[135.4829160663614,34.637991977236375]],[[135.4829160663614,34.637991977236375],[135.48304582107681,34.63334170626235]],[[135.48304582107681,34.63334170626235],[135.48305634172942,34.631372640528326]],[[135.48101182824067,34.628427943671106],[135.48304932796103,34.63134415494808]],[[135.48304932796103,34.63134415494808],[135.48623708569903,34.630578604979156]],[[135.48623708569903,34.630578604979156],[135.48630020961465,34.628890834349995]],[[135.48630020961465,34.628890834349995],[135.48101182824067,34.628427943671106]],[[135.5039187958367,34.6380062200265],[135.50075558628808,34.639167007421236]],[[135.50075558628808,34.639167007421236],[135.50114485043432,34.64090818851335]],[[135.5052970013274,34.64005006040865],[135.5039187958367,34.6380062200265]],[[135.4954601911457,34.63991119320498],[135.49602479950195,34.641965715679724]],[[135.49602479950195,34.641965715679724],[135.49641055676398,34.64352886189535]],[[135.4982236158955,34.643204838420125],[135.4982446572007,34.643226202605305]],[[135.4982446572007,34.643226202605305],[135.49729779846663,34.639815054371674]],[[135.49914592644018,34.64305172842634],[135.4982446572007,34.643226202605305]],[[135.5025090283882,34.64530564996276],[135.50229160156778,34.64517746485168]],[[135.50229160156778,34.64517746485168],[135.49914592644018,34.64305172842634]],[[135.49710842671982,34.64738865801774],[135.49746612890826,34.649393330727065]],[[135.49746612890826,34.649393330727065],[135.49760289739206,34.65044373649838]],[[135.49760289739206,34.65044373649838],[135.49759237673945,34.65084609531925]],[[135.49759237673945,34.65084609531925],[135.50004719567963,34.6502443374367]],[[135.50004719567963,34.6502443374367],[135.49923710542936,34.64728183709184]],[[135.50153411458052,34.642603080537576],[135.49914592644018,34.64305172842634]],[[135.50229160156778,34.64517746485168],[135.50163581422234,34.642585277049925]],[[135.49486051394746,34.63787803491542],[135.4925389566069,34.63788515631048]],[[135.4925389566069,34.63788515631048],[135.4925775323331,34.63993255739016]],[[135.4925775323331,34.63993255739016],[135.4954601911457,34.63991119320498]],[[135.50004719567963,34.6502443374367],[135.50330158421747,34.64942893770236]],[[135.49667707996318,34.64509556880849],[135.4929562758267,34.645134736481324]],[[135.4929562758267,34.645134736481324],[135.49310707184733,34.64741714359798]],[[135.49310707184733,34.64741714359798],[135.49710842671982,34.64738865801774]],[[135.48659829477168,34.62252786786409],[135.48245315764697,34.6217658785927],[135.48179035653314,34.62445064453023],[135.48021576552722,34.62535506170282]],[[135.48021576552722,34.62535506170282],[135.48644048498267,34.62608144399891]],[[135.48644048498267,34.62608144399891],[135.48659829477168,34.62252786786409]],[[135.49017531665592,34.64358583305582],[135.49020687861372,34.64515966136403]],[[135.49020687861372,34.64515966136403],[135.4929562758267,34.645134736481324]],[[135.4929562758267,34.645134736481324],[135.4926371493645,34.643560908173114]],[[135.4926371493645,34.643560908173114],[135.49017531665592,34.64358583305582]],[[135.4926090942909,34.64201556544514],[135.4901402478139,34.642051172420445]],[[135.4901402478139,34.642051172420445],[135.49016830288753,34.64358583305582]],[[135.49016830288753,34.64358583305582],[135.49017531665592,34.64358583305582]],[[135.4926371493645,34.643560908173114],[135.4926090942909,34.64201556544514]],[[135.49746612890826,34.649393330727065],[135.49317720953135,34.64951439444308]],[[135.49317720953135,34.64951439444308],[135.49327189540475,34.6501838055787]],[[135.49327189540475,34.6501838055787],[135.49339112946757,34.6515190671524]],[[135.49339112946757,34.6515190671524],[135.49760289739206,34.65044373649838]],[[135.49020687861372,34.64515966136403],[135.49025246810834,34.647246230116544]],[[135.49025246810834,34.647246230116544],[135.49310707184733,34.64741714359798]],[[135.4926371493645,34.643560908173114],[135.49642107741658,34.64358583305582]],[[135.49602479950195,34.641965715679724],[135.4926090942909,34.64201556544514]],[[135.49010517897193,34.63995748227287],[135.4901402478139,34.642051172420445]],[[135.4926090942909,34.64201556544514],[135.4925775323331,34.63993255739016]],[[135.4925775323331,34.63993255739016],[135.49010517897193,34.63995748227287]],[[135.49025246810834,34.647246230116544],[135.49031208513975,34.64956780490603]],[[135.49031208513975,34.64956780490603],[135.49317720953135,34.64951439444308]],[[135.49317720953135,34.64951439444308],[135.49310707184733,34.64741714359798]],[[135.49036468840274,34.65282228244834],[135.49040677101314,34.653876248917186]],[[135.49040677101314,34.653876248917186],[135.4926546837855,34.65313562383097]],[[135.4926546837855,34.65313562383097],[135.49036468840274,34.65282228244834]],[[135.49025246810834,34.647246230116544],[135.48583730090022,34.64783018451144]],[[135.48583730090022,34.64783018451144],[135.4855777914694,34.64854588471495]],[[135.4855777914694,34.64854588471495],[135.48541647479618,34.64937908793694]],[[135.48541647479618,34.64937908793694],[135.49031208513975,34.64956780490603]],[[135.4853217889228,34.64210814358092],[135.485518174438,34.64399887396929]],[[135.485518174438,34.64399887396929],[135.4855251882064,34.64399175257423]],[[135.4855251882064,34.64399175257423],[135.49016830288753,34.64358583305582]],[[135.4901402478139,34.642051172420445],[135.4853217889228,34.64210814358092]],[[135.48644048498267,34.62608144399891],[135.48643347121427,34.62621675050505]],[[135.48643347121427,34.62621675050505],[135.4910485308218,34.62626660027047]],[[135.4910485308218,34.62626660027047],[135.49032611267654,34.62315455062935]],[[135.49032611267654,34.62315455062935],[135.48659829477168,34.62252786786409]],[[135.4854936262486,34.650326233479895],[135.4855322019748,34.65078912415878]],[[135.4855322019748,34.65078912415878],[135.4855848052378,34.651348153670966]],[[135.4855848052378,34.651348153670966],[135.49035767463434,34.651789680164676]],[[135.49035767463434,34.651789680164676],[135.49032961956073,34.650771320671126]],[[135.49032961956073,34.650771320671126],[135.4854936262486,34.650326233479895]],[[135.496445625606,34.62614909725198],[135.49379792803478,34.626451756542025]],[[135.49379792803478,34.626451756542025],[135.49479739003186,34.629243343405456]],[[135.49479739003186,34.629243343405456],[135.49507443388367,34.63020473173852]],[[135.49507443388367,34.63020473173852],[135.49521470925168,34.63049314823844]],[[135.49521470925168,34.63049314823844],[135.4966981212684,34.62808255601071]],[[135.4966981212684,34.62808255601071],[135.49729429158242,34.6271995030233]],[[135.49729429158242,34.6271995030233],[135.496445625606,34.62614909725198]],[[135.49031208513975,34.64956780490603],[135.49032961956073,34.650771320671126]],[[135.49032961956073,34.650771320671126],[135.49327189540475,34.6501838055787]],[[135.49379792803478,34.626451756542025],[135.4937944211506,34.62644463514697]],[[135.4937944211506,34.62644463514697],[135.4910485308218,34.626270160968]],[[135.4910485308218,34.626270160968],[135.49184459353523,34.62865938901055]],[[135.49184459353523,34.62865938901055],[135.49201993774525,34.629136522479556]],[[135.49201993774525,34.629136522479556],[135.49479739003186,34.629243343405456]],[[135.48541647479618,34.64937908793694],[135.4854936262486,34.650326233479895]],[[135.4855251882064,34.64399175257423],[135.48597056249983,34.6454302743763]],[[135.48597056249983,34.6454302743763],[135.49020687861372,34.64515966136403]],[[135.49201993774525,34.629136522479556],[135.49323331967855,34.632554792108245]],[[135.49323331967855,34.632554792108245],[135.49328592294154,34.632732826984736]],[[135.49328592294154,34.632732826984736],[135.49507443388367,34.63020473173852]],[[135.4966981212684,34.62808255601071],[135.49874263475715,34.63059996916434]],[[135.49874263475715,34.63059996916434],[135.4996544246492,34.63038988801007]],[[135.4996544246492,34.63038988801007],[135.49729429158242,34.6271995030233]],[[135.47775393281864,34.63580570895303],[135.47907953504634,34.64118948361821]],[[135.47907953504634,34.64118948361821],[135.4853884197226,34.640851217352875]],[[135.4853884197226,34.640851217352875],[135.48543050233297,34.640032256920996]],[[135.48543050233297,34.640032256920996],[135.48547959871178,34.63816289071781]],[[135.48547959871178,34.63816289071781],[135.4829160663614,34.637991977236375]],[[135.47914967273033,34.62588560563477],[135.47361931634654,34.62912584038697],[135.47627052080193,34.63235183234904]],[[135.48305634172942,34.631372640528326],[135.48304932796103,34.63134415494808]],[[135.48101182824067,34.628427943671106],[135.47914967273033,34.62588560563477]],[[135.47907953504634,34.64118948361821],[135.47916370026715,34.642563912864745]],[[135.47916370026715,34.642563912864745],[135.48026486190602,34.64416978745072],[135.48258992613077,34.644180469543315],[135.48412243452628,34.643204838420125],[135.485518174438,34.64399887396929]],[[135.4853217889228,34.64210814358092],[135.4853884197226,34.640851217352875]],[[135.48597056249983,34.6454302743763],[135.48583730090022,34.64783018451144]],[[135.49339112946757,34.6515190671524],[135.49365414578259,34.65250894106571]],[[135.49365414578259,34.65250894106571],[135.49759237673945,34.65084609531925]],[[135.49036468840274,34.65282228244834],[135.49037871593953,34.65226325293615]],[[135.49037871593953,34.65226325293615],[135.48765036003175,34.653010999417425]],[[135.48765036003175,34.653010999417425],[135.49040677101314,34.653876248917186]],[[135.4896913666363,34.62853120389948],[135.48633878534085,34.62839945809087]],[[135.48633878534085,34.62839945809087],[135.48630020961465,34.628890834349995]],[[135.48623708569903,34.630578604979156],[135.48622305816224,34.63076732194824]],[[135.48622305816224,34.63076732194824],[135.48918988219566,34.63144385447892]],[[135.48918988219566,34.63144385447892],[135.4896913666363,34.62853120389948]],[[135.49339112946757,34.6515190671524],[135.49037871593953,34.65226325293615]],[[135.4926546837855,34.65313562383097],[135.49365414578259,34.65250894106571]],[[135.49184459353523,34.62865938901055],[135.4896913666363,34.62853120389948]],[[135.48918988219566,34.63144385447892],[135.49323331967855,34.632554792108245]],[[135.48909168943806,34.63793856677343],[135.485500640017,34.63816289071781]],[[135.485500640017,34.63816289071781],[135.48547959871178,34.63816289071781]],[[135.48543050233297,34.640032256920996],[135.49010517897193,34.63995748227287]],[[135.49010517897193,34.63995748227287],[135.4900841376667,34.637924323983306]],[[135.4900841376667,34.637924323983306],[135.4896036945313,34.63793144537837]],[[135.4896036945313,34.63793144537837],[135.48909168943806,34.63793856677343]],[[135.485500640017,34.63816289071781],[135.48597056249983,34.63394702484243]],[[135.48597056249983,34.63394702484243],[135.48599511068923,34.63372270089805]],[[135.48599511068923,34.63372270089805],[135.48304582107681,34.63334170626235]],[[135.4855848052378,34.651348153670966],[135.48567598422702,34.65173270900419]],[[135.48567598422702,34.65173270900419],[135.48765036003175,34.653010999417425]],[[135.49037871593953,34.65226325293615],[135.49035767463434,34.651789680164676]],[[135.49521470925168,34.63049314823844],[135.49529536758828,34.63140468680609]],[[135.49529536758828,34.63140468680609],[135.49874263475715,34.63059996916434]],[[135.48889530392285,34.63427460901518],[135.48909168943806,34.63793856677343]],[[135.4896036945313,34.63793144537837],[135.49206903412406,34.634459765286735]],[[135.49206903412406,34.634459765286735],[135.48889530392285,34.63427460901518]],[[135.50264228998782,34.635901847786336],[135.50026111561584,34.636731490310794]],[[135.5039187958367,34.6380062200265],[135.50264228998782,34.635901847786336]],[[135.4925389566069,34.63788515631048],[135.4900841376667,34.637924323983306]],[[135.48918988219566,34.63144385447892],[135.48888127638602,34.63427104831765]],[[135.48888127638602,34.63427104831765],[135.48889530392285,34.63427460901518]],[[135.49206903412406,34.634459765286735],[135.4926055874067,34.634459765286735]],[[135.4926055874067,34.634459765286735],[135.49380494180318,34.63434226226825]],[[135.49380494180318,34.63434226226825],[135.49328592294154,34.632732826984736]],[[135.485518174438,34.653377751263],[135.48080842895706,34.65448512819479]],[[135.48080842895706,34.65448512819479],[135.4852972407334,34.657369293194],[135.485518174438,34.653377751263]],[[135.47916370026715,34.642563912864745],[135.47903394555172,34.64690440315368]],[[135.47903394555172,34.64690440315368],[135.48062256409443,34.647837305906506],[135.4855777914694,34.64854588471495]],[[135.48622305816224,34.63076732194824],[135.48599511068923,34.63372270089805]],[[135.48597056249983,34.63394702484243],[135.48888127638602,34.63427104831765]],[[135.49298783778454,34.62326137155525],[135.4937944211506,34.62644463514697]],[[135.496445625606,34.62614909725198],[135.49562150781892,34.623079775981225],[135.49298783778454,34.62326137155525]],[[135.4855953258904,34.65257659431878],[135.47939515462434,34.65142648901663]],[[135.47939515462434,34.65142648901663],[135.48080842895706,34.65448512819479]],[[135.485518174438,34.653377751263],[135.4855953258904,34.65257659431878]],[[135.49380494180318,34.63434226226825],[135.49603882703875,34.63413218111398]],[[135.49602129261774,34.63407164925597],[135.49529536758828,34.63140468680609]],[[135.4926055874067,34.634459765286735],[135.4925389566069,34.63788515631048]],[[135.49486051394746,34.63787803491542],[135.49380494180318,34.63434226226825]],[[135.4910485308218,34.62626660027047],[135.4910485308218,34.626270160968]],[[135.49298783778454,34.62326137155525],[135.49032611267654,34.62315455062935]],[[135.48021576552722,34.62535506170282],[135.47914967273033,34.62588560563477]],[[135.48633878534085,34.62839945809087],[135.48643347121427,34.62621675050505]],[[135.49976313805942,34.6344562045892],[135.49874263475715,34.63059996916434]],[[135.47884808068912,34.64971735420228],[135.47939515462434,34.65142648901663]],[[135.4855953258904,34.65257659431878],[135.48567598422702,34.65173270900419]],[[135.4855322019748,34.65078912415878],[135.47884808068912,34.64971735420228]],[[135.49976313805942,34.6344562045892],[135.5023897943254,34.634840759922426]],[[135.5023897943254,34.634840759922426],[135.4996544246492,34.63038988801007]],[[135.47903394555172,34.64690440315368],[135.47884808068912,34.64971735420228]],[[135.50264228998782,34.635901847786336],[135.5023897943254,34.634840759922426]]]}