{"type":"Topology","bbox":[135.5590789220566,34.686999646004494,135.59917573984043,34.72338601502171],"objects":{"town":{"type":"GeometryCollection","geometries":[{"type":"MultiPolygon","arcs":[[[7,1,8,9,53,-19,-18,30]]],"properties":{"name":"緑"}},{"type":"MultiPolygon","arcs":[[[56,82,4,137,106,107,-27,-85,104,136,2,81,55,16,17,18,19]]],"properties":{"name":"鶴見"}},{"type":"MultiPolygon","arcs":[[[13,14,86,85,11,83,84,-26]]],"properties":{"name":"放出東"}},{"type":"MultiPolygon","arcs":[[[-14,25,26,27,23,80,-75,67,68,50,51,52,-42,-41,65,79,21,28,29]]],"properties":{"name":"今津北"}},{"type":"MultiPolygon","arcs":[[[156,-72,37,32,33,34,162]]],"properties":{"name":"焼野"}},{"type":"MultiPolygon","arcs":[[[-15,-30,-29,-22,-80,-66,40,41,42,38,143,-116,-112,-120]]],"properties":{"name":"今津中"}},{"type":"MultiPolygon","arcs":[[[45,91,-149,-143,-145,-130,-98,-97,-109,78,-68,74,75,76,43,120,121,122]]],"properties":{"name":"諸口"}},{"type":"MultiPolygon","arcs":[[[87,131,-99,129,144,-142,145,59,60,61,90]]],"properties":{"name":"安田"}},{"type":"MultiPolygon","arcs":[[[149,63,64,-34,-33,-38,71,72,73,141,142,148,-92,-46,-123,135]]],"properties":{"name":"浜"}},{"type":"MultiPolygon","arcs":[[[100,94,95,96,97,98,-132,-88,157]]],"properties":{"name":"中茶屋"}},{"type":"MultiPolygon","arcs":[[[-83,-57,-20,-54,-10,102,161,-152,-121,-44,-77,-76,-81,-24,-28,-108,-107,-138,-5]]],"properties":{"name":"横堤"}},{"type":"MultiPolygon","arcs":[[[-51,-69,-79,108,-96,-95,117,-52]]],"properties":{"name":"徳庵"}},{"type":"MultiPolygon","arcs":[[[111,115,-144,-39,154,114,113,118,-87,119]]],"properties":{"name":"今津南"}},{"type":"MultiPolygon","arcs":[[[-146,-74,160,126,146,150,124,-61,-60]]],"properties":{"name":"茨田大宮"}},{"type":"Polygon","arcs":[[-150,-136,-122,151,152,-64]],"properties":{"name":"緑地公園"}}]}},"arcs":[[[135.56733568251434,34.71720699166025],[135.56322534765803,34.71518370721445]],[[135.56322534765803,34.71518370721445],[135.56270002681296,34.717505389726],[135.56733568251434,34.71720699166025]],[[135.55993707977296,34.69992537685249],[135.56001728142869,34.701879520283065]],[[135.56001728142869,34.701879520283065],[135.56274814780642,34.70265826645465],[135.56745598499793,34.702942108517185]],[[135.56745598499793,34.702942108517185],[135.56648554496357,34.70116263712511]],[[135.56648554496357,34.70116263712511],[135.55993707977296,34.69992537685249]],[[135.56268398648183,34.71050759118413],[135.5632293577408,34.715121844200816]],[[135.5632293577408,34.715121844200816],[135.56322534765803,34.71518370721445]],[[135.56733568251434,34.71720699166025],[135.56842241494954,34.71536565725454],[135.5693607743216,34.710594927203374]],[[135.5693607743216,34.710594927203374],[135.5683702838733,34.710631317211394]],[[135.5683702838733,34.710631317211394],[135.56268398648183,34.71050759118413]],[[135.55936764801726,34.690751455831155],[135.55951602108036,34.69303310933388]],[[135.55951602108036,34.69303310933388],[135.56401132388422,34.69284024229139],[135.56604844593983,34.693262366384396]],[[135.56604844593983,34.693262366384396],[135.56604844593983,34.69324781038119]],[[135.56604844593983,34.69324781038119],[135.56610859718162,34.690438501762195]],[[135.56610859718162,34.690438501762195],[135.56267596631625,34.691384641970664],[135.56253160333594,34.69053675478384],[135.55936764801726,34.690751455831155]],[[135.56018570490573,34.70806218264532],[135.56021377548524,34.708997405851385]],[[135.56021377548524,34.708997405851385],[135.56246744201135,34.708961015843364]],[[135.56246744201135,34.708961015843364],[135.56829810238315,34.70879726080729]],[[135.56829810238315,34.70879726080729],[135.56827003180365,34.70750905452345]],[[135.56827003180365,34.70750905452345],[135.56240328068677,34.70731982648176],[135.56018570490573,34.70806218264532]],[[135.57307812106484,34.693327868398825],[135.56956127846095,34.69373907548943]],[[135.56956127846095,34.69373907548943],[135.5693968650667,34.6962936540523]],[[135.5693968650667,34.6962936540523],[135.573094161396,34.69646832609078]],[[135.573094161396,34.69646832609078],[135.57307812106484,34.693327868398825]],[[135.56604844593983,34.693262366384396],[135.56612864759558,34.696184484028244]],[[135.56612864759558,34.696184484028244],[135.56835023345937,34.69625726404428]],[[135.56835023345937,34.69625726404428],[135.5693968650667,34.6962936540523]],[[135.56956127846095,34.69373907548943],[135.56956528854374,34.693295117391614]],[[135.56956528854374,34.693295117391614],[135.56604844593983,34.69324781038119]],[[135.56021377548524,34.708997405851385],[135.5604022493762,34.71511456619921],[135.5632293577408,34.715121844200816]],[[135.56268398648183,34.71050759118413],[135.56246744201135,34.708961015843364]],[[135.5825900374348,34.71215969754815],[135.5825900374348,34.712163336548954]],[[135.5825900374348,34.712163336548954],[135.58248577528235,34.716977734609735]],[[135.58248577528235,34.716977734609735],[135.58347626573067,34.718717176992996]],[[135.58347626573067,34.718717176992996],[135.5840697579831,34.71861892397135]],[[135.5840697579831,34.71861892397135],[135.58505222826582,34.717199713658644],[135.58459507882813,34.713094920754216]],[[135.58459507882813,34.713094920754216],[135.5825900374348,34.71215969754815]],[[135.57986318113987,34.69046033576701],[135.5785318336547,34.6910498538969]],[[135.5785318336547,34.6910498538969],[135.57849173282685,34.69338973141246]],[[135.57849173282685,34.69338973141246],[135.5797909996497,34.69352801344293]],[[135.5797909996497,34.69352801344293],[135.58101407489966,34.69275290627214]],[[135.58101407489966,34.69275290627214],[135.57986318113987,34.69046033576701]],[[135.57463804326886,34.70133730916359],[135.5745297710336,34.70380819070802]],[[135.5745297710336,34.70380819070802],[135.5782591480252,34.70422303679942]],[[135.5782591480252,34.70422303679942],[135.57831528918422,34.70423031480102]],[[135.57831528918422,34.70423031480102],[135.57836742026046,34.70173759925179]],[[135.57836742026046,34.70173759925179],[135.57836742026046,34.70172668224939]],[[135.57836742026046,34.70172668224939],[135.57463804326886,34.70133730916359]],[[135.5797909996497,34.69352801344293],[135.57987521138824,34.69676308515573]],[[135.57987521138824,34.69676308515573],[135.58082560100868,34.69679947516374]],[[135.58082560100868,34.69679947516374],[135.58267023909053,34.69698506420464]],[[135.58267023909053,34.69698506420464],[135.58101407489966,34.69275290627214]],[[135.5683702838733,34.710631317211394],[135.56829810238315,34.70879726080729]],[[135.5681898301479,34.70570411012576],[135.56237120002447,34.70573686113297],[135.56014961416065,34.7062026532356]],[[135.56014961416065,34.7062026532356],[135.56018570490573,34.70806218264532]],[[135.56827003180365,34.70750905452345],[135.5681898301479,34.70570411012576]],[[135.59211799413592,34.70598431318749],[135.5891104320459,34.705642247112124]],[[135.5891104320459,34.705642247112124],[135.588657292691,34.709241218905106]],[[135.588657292691,34.709241218905106],[135.59223428653672,34.70790570561085]],[[135.59223428653672,34.70790570561085],[135.59223027645393,34.70715243244487]],[[135.59223027645393,34.70715243244487],[135.59211799413592,34.70598431318749]],[[135.5825900374348,34.712163336548954],[135.58173187971846,34.711748490457545]],[[135.58173187971846,34.711748490457545],[135.58150330499961,34.7171050996378]],[[135.58150330499961,34.7171050996378],[135.58248577528235,34.716977734609735]],[[135.57849173282685,34.69338973141246],[135.5766390745794,34.69336789740765]],[[135.5766390745794,34.69336789740765],[135.57670323590398,34.69662480312526]],[[135.57670323590398,34.69662480312526],[135.5784756924957,34.6967085001437]],[[135.5784756924957,34.6967085001437],[135.57987521138824,34.69676308515573]],[[135.58678057394687,34.7098380150366],[135.58308728770035,34.7102455831264],[135.58258602735202,34.710856935261106]],[[135.58258602735202,34.710856935261106],[135.5825900374348,34.71215969754815]],[[135.58459507882813,34.713094920754216],[135.58675250336736,34.71410292397631]],[[135.58675250336736,34.71410292397631],[135.58557353902808,34.711475565397414],[135.58671641262228,34.71095518828275]],[[135.58671641262228,34.71095518828275],[135.58678057394687,34.7098380150366]],[[135.57670323590398,34.69662480312526],[135.57475834575246,34.69654110610682]],[[135.57475834575246,34.69654110610682],[135.57472225500737,34.69802217943315]],[[135.57472225500737,34.69802217943315],[135.57463804326886,34.70133730916359]],[[135.57836742026046,34.70172668224939],[135.57849173282685,34.69793484341391]],[[135.57849173282685,34.69793484341391],[135.5784756924957,34.6967085001437]],[[135.5766390745794,34.69336789740765],[135.57307812106484,34.693327868398825]],[[135.573094161396,34.69646832609078],[135.57475834575246,34.69654110610682]],[[135.56001728142869,34.701879520283065],[135.56014961416065,34.7062026532356]],[[135.5681898301479,34.70570411012576],[135.56745598499793,34.702942108517185]],[[135.55951602108036,34.69303310933388],[135.5596884546402,34.695926114971314]],[[135.5596884546402,34.695926114971314],[135.56612864759558,34.696184484028244]],[[135.56532262095544,34.68774928016967],[135.56397924322192,34.6870105630069],[135.5590789220566,34.68761463714],[135.55936764801726,34.690751455831155]],[[135.56610859718162,34.690438501762195],[135.56532262095544,34.68774928016967]],[[135.59026934597125,34.70205783132235],[135.5896838738844,34.70250906742177]],[[135.5896838738844,34.70250906742177],[135.58910241188033,34.70563860811132]],[[135.58910241188033,34.70563860811132],[135.5891104320459,34.705642247112124]],[[135.59211799413592,34.70598431318749],[135.5948849512587,34.703739049692786],[135.59026934597125,34.70205783132235]],[[135.57831528918422,34.70423031480102],[135.58203263592745,34.704750691915685]],[[135.58203263592745,34.704750691915685],[135.5823494324676,34.70179582326462]],[[135.5823494324676,34.70179582326462],[135.57836742026046,34.70173759925179]],[[135.58440259485437,34.69845158152776],[135.5834963161446,34.70030019393508],[135.58252988619302,34.699645173790756]],[[135.58252988619302,34.699645173790756],[135.58323165068066,34.70096249208101]],[[135.58323165068066,34.70096249208101],[135.58370885053228,34.701686653240564]],[[135.58370885053228,34.701686653240564],[135.58500009718958,34.703098585551665]],[[135.58500009718958,34.703098585551665],[135.58599860780348,34.701788545263014]],[[135.58599860780348,34.701788545263014],[135.58787532654762,34.69939044373463]],[[135.58787532654762,34.69939044373463],[135.58650788831739,34.698418830520545],[135.58440259485437,34.69845158152776]],[[135.57145403753626,34.70341517862142],[135.56745598499793,34.702942108517185]],[[135.5693607743216,34.710594927203374],[135.5700545186437,34.70884092881691],[135.57199539871246,34.7086298667704]],[[135.57199539871246,34.7086298667704],[135.57145403753626,34.70341517862142]],[[135.5596884546402,34.695926114971314],[135.5598087571238,34.698815481607944]],[[135.5598087571238,34.698815481607944],[135.56340981146622,34.69809859844999],[135.5668063515865,34.69900107064883]],[[135.5668063515865,34.69900107064883],[135.56907204836097,34.69789845340589]],[[135.56907204836097,34.69789845340589],[135.56835023345937,34.69625726404428]],[[135.57849173282685,34.69793484341391],[135.58083763125703,34.69817865646763],[135.58323165068066,34.70096249208101]],[[135.58252988619302,34.699645173790756],[135.58082560100868,34.69679947516374]],[[135.56966153053062,34.687654666148816],[135.56962142970275,34.690474891770215]],[[135.56962142970275,34.690474891770215],[135.5731222319755,34.69052219878064]],[[135.5731222319755,34.69052219878064],[135.57313827230664,34.68837882730838]],[[135.57313827230664,34.68837882730838],[135.56966153053062,34.687654666148816]],[[135.57420094424512,34.68807679024183],[135.57313827230664,34.68837882730838]],[[135.5731222319755,34.69052219878064],[135.57666313507613,34.69056222778946]],[[135.57666313507613,34.69056222778946],[135.57420094424512,34.68807679024183]],[[135.58440259485437,34.69845158152776],[135.58267023909053,34.69698506420464]],[[135.56966153053062,34.687654666148816],[135.56532262095544,34.68774928016967]],[[135.56610859718162,34.690438501762195],[135.56962142970275,34.690474891770215]],[[135.5745297710336,34.70380819070802],[135.57458591219262,34.70889187482813]],[[135.57458591219262,34.70889187482813],[135.57848772274406,34.70888459682653]],[[135.57848772274406,34.70888459682653],[135.5788967511883,34.70661386032621],[135.5782591480252,34.70422303679942]],[[135.56956528854374,34.693295117391614],[135.56962142970275,34.690474891770215]],[[135.59309645433586,34.70702506741681],[135.59223027645393,34.70715243244487]],[[135.59223428653672,34.70790570561085],[135.59172099594002,34.71171210044953],[135.59066233408436,34.713782691905756]],[[135.59066233408436,34.713782691905756],[135.59529397970294,34.71383363791698]],[[135.59529397970294,34.71383363791698],[135.59405085403907,34.71016188610796]],[[135.59405085403907,34.71016188610796],[135.59309645433586,34.70702506741681]],[[135.58500009718958,34.703098585551665],[135.58618307161166,34.705263791028734]],[[135.58618307161166,34.705263791028734],[135.58910241188033,34.70563860811132]],[[135.5896838738844,34.70250906742177],[135.58599860780348,34.701788545263014]],[[135.5731222319755,34.69052219878064],[135.57307812106484,34.693327868398825]],[[135.5766390745794,34.69336789740765],[135.57666313507613,34.69056222778946]],[[135.58152736549633,34.708859123820915],[135.58203263592745,34.704750691915685]],[[135.57848772274406,34.70888459682653],[135.58152736549633,34.708859123820915]],[[135.5598087571238,34.698815481607944],[135.55993707977296,34.69992537685249]],[[135.56648554496357,34.70116263712511],[135.5668063515865,34.69900107064883]],[[135.57472225500737,34.69802217943315],[135.57232823558374,34.699077489665676],[135.57230016500424,34.703527987646275]],[[135.57230016500424,34.703527987646275],[135.5745297710336,34.70380819070802]],[[135.58386123367816,34.704994504969406],[135.58258602735202,34.710856935261106]],[[135.58678057394687,34.7098380150366],[135.5861991119428,34.70532201504157]],[[135.5861991119428,34.70532201504157],[135.58386123367816,34.704994504969406]],[[135.5785318336547,34.6910498538969],[135.57666313507613,34.69056222778946]],[[135.58618307161166,34.705263791028734],[135.5861991119428,34.70532201504157]],[[135.58678057394687,34.7098380150366],[135.588657292691,34.709241218905106]],[[135.59529397970294,34.71383363791698],[135.59917573984043,34.71443771205008],[135.59786043268642,34.70988532204703]],[[135.59786043268642,34.70988532204703],[135.59405085403907,34.71016188610796]],[[135.58386123367816,34.704994504969406],[135.58203263592745,34.704750691915685]],[[135.58152736549633,34.708859123820915],[135.58173187971846,34.711748490457545]],[[135.59786043268642,34.70988532204703],[135.59707445646023,34.70678853236469],[135.59309645433586,34.70702506741681]],[[135.57458591219262,34.70889187482813],[135.5743292668943,34.70892098683455]],[[135.5743292668943,34.70892098683455],[135.57471022475903,34.71292752671733],[135.57716840550725,34.71296755572615],[135.57506712212702,34.71725793767148],[135.58150330499961,34.7171050996378]],[[135.58370885053228,34.701686653240564],[135.5823494324676,34.70179582326462]],[[135.57986318113987,34.69046033576701],[135.57678343755973,34.68818596026588],[135.57420094424512,34.68807679024183]],[[135.5840697579831,34.71861892397135],[135.58643169674443,34.720089080295274]],[[135.58643169674443,34.720089080295274],[135.58709336040422,34.72001993928004],[135.58675250336736,34.71410292397631]],[[135.59026934597125,34.70205783132235],[135.59033751737863,34.70050397797998],[135.58787532654762,34.69939044373463]],[[135.56907204836097,34.69789845340589],[135.57145403753626,34.70341517862142]],[[135.57145403753626,34.70341517862142],[135.57230016500424,34.703527987646275]],[[135.58671641262228,34.71095518828275],[135.58955956131803,34.71380452591057],[135.59066233408436,34.713782691905756]],[[135.57199539871246,34.7086298667704],[135.5743292668943,34.70892098683455]],[[135.58347626573067,34.718717176992996],[135.58251785594464,34.71849519794409],[135.58228126106025,34.72221425676353],[135.5835524573036,34.72259271284692],[135.58660814038703,34.7213372575703],[135.58643169674443,34.720089080295274]]]}