{"type":"Topology","bbox":[135.39843288945255,34.596124219122224,135.49295090858956,34.64494423176477],"objects":{"town":{"type":"GeometryCollection","geometries":[{"type":"MultiPolygon","arcs":[[[8,1,2,5,6,7,4,9,10]]],"properties":{"name":"粉浜"}},{"type":"MultiPolygon","arcs":[[[-117,-186,-275,-274,277,12,-20,-96,-204,267,14,-23,-264]]],"properties":{"name":"中加賀屋"}},{"type":"MultiPolygon","arcs":[[[-185,-244,-243,-220,-219,16,17,18,19,-13,-278,273,274]]],"properties":{"name":"西加賀屋"}},{"type":"MultiPolygon","arcs":[[[-98,263,22,-15,-268,-203,279,-79,-55,-54,-78,24,20,-69]]],"properties":{"name":"東加賀屋"}},{"type":"MultiPolygon","arcs":[[[-132,42,-35,-82,25,26,27,28,29,134,44,194]]],"properties":{"name":"安立"}},{"type":"MultiPolygon","arcs":[[[34,-43,131,129,-111,130,31,32,80,-26,81]]],"properties":{"name":"住之江"}},{"type":"MultiPolygon","arcs":[[[99,201,202,203,95,-19,-18,40,36,82,83]]],"properties":{"name":"北加賀屋"}},{"type":"MultiPolygon","arcs":[[[142,251,118,119,120,121,122,73,74,75,76,250,141,101,45,91]],[[56,57,58,59,60]]],"properties":{"name":"南港南"}},{"type":"MultiPolygon","arcs":[[[111,112,135,50,51,-11,48,136,-29,-28,114]]],"properties":{"name":"浜口東"}},{"type":"MultiPolygon","arcs":[[[-70,-25,77,53,54,78,79,-7,-6,-3,-2,-9]]],"properties":{"name":"粉浜西"}},{"type":"MultiPolygon","arcs":[[[103,104,115,116,97,-68,98,64,65,139,89,85,86,179,180,257]]],"properties":{"name":"御崎"}},{"type":"MultiPolygon","arcs":[[[-158,-145,178,-90,-140,-66,-65,-99,67,68,-21,69,-52,-51,-136,-113,-112,-133]]],"properties":{"name":"浜口西"}},{"type":"MultiPolygon","arcs":[[[-33,-32,-131,110,107,108,143,144,157,132,-115,-27,-81]]],"properties":{"name":"西住之江"}},{"type":"MultiPolygon","arcs":[[[-75,-74,-123,-122,-121,147,124,125,126,-162,204,215,150,172,173,-60,-59,-156,183]]],"properties":{"name":"南港東"}},{"type":"MultiPolygon","arcs":[[[255,-76,-184,155,-58,156,151,152,153,-248,256]]],"properties":{"name":"平林南"}},{"type":"MultiPolygon","arcs":[[[164,160,161,162,163,158,165,166,281]]],"properties":{"name":"南港北"}},{"type":"MultiPolygon","arcs":[[[-163,-127,-126,-125,-148,-120,230,278,168,-166,-159,-164]]],"properties":{"name":"南港中"}},{"type":"MultiPolygon","arcs":[[[275,-262,235,-240,259,187,188,184,185,-116,-105,-104,-258,-181,-266,-271]]],"properties":{"name":"南加賀屋"}},{"type":"MultiPolygon","arcs":[[[-157,-57,-61,-174,193,189,190,191,262]]],"properties":{"name":"平林北"}},{"type":"MultiPolygon","arcs":[[[207,238,239,-236,261,260,244,252,258,-257,247,-154,-224,-223,266]]],"properties":{"name":"新北島"}},{"type":"MultiPolygon","arcs":[[[-189,241,-232,217,-41,-17,218,219,242,243]]],"properties":{"name":"緑木"}},{"type":"MultiPolygon","arcs":[[[-267,222,223,-153,224,220,-233,-242,-188,-260,-239,-208]]],"properties":{"name":"泉"}},{"type":"MultiPolygon","arcs":[[[265,-180,-87,-86,-179,-144,-109,225,269,270]]],"properties":{"name":"北島"}},{"type":"MultiPolygon","arcs":[[[-218,231,232,-221,233,-191,-190,271,-83,-37]]],"properties":{"name":"柴谷"}}]}},"arcs":[[[135.49100364266874,34.61601059890951],[135.4880260273044,34.616703912420384]],[[135.4880260273044,34.616703912420384],[135.4880260273044,34.61671367739941]],[[135.4880260273044,34.61671367739941],[135.48901856575918,34.61940392912119]],[[135.48901856575918,34.61940392912119],[135.49163697673038,34.61835419387585]],[[135.49163697673038,34.61835419387585],[135.49100364266874,34.61601059890951]],[[135.48901856575918,34.61940392912119],[135.48912254597826,34.61971152596052]],[[135.48912254597826,34.61971152596052],[135.49028523388242,34.623114621151224]],[[135.49028523388242,34.623114621151224],[135.49295090858956,34.62326109583662],[135.49163697673038,34.61835419387585]],[[135.48727926027652,34.61387206850273],[135.4880260273044,34.616703912420384]],[[135.49100364266874,34.61601059890951],[135.49042702509024,34.61387206850273]],[[135.49042702509024,34.61387206850273],[135.48727926027652,34.61387206850273]],[[135.48177776141284,34.61679667972113],[135.47848820539127,34.617299576141]],[[135.47848820539127,34.617299576141],[135.47885686253164,34.619408811610704]],[[135.47885686253164,34.619408811610704],[135.482136965806,34.61888638523279]],[[135.482136965806,34.61888638523279],[135.48177776141284,34.61679667972113]],[[135.47885686253164,34.619408811610704],[135.47547277903817,34.62000935782083]],[[135.47547277903817,34.62000935782083],[135.4758414361785,34.620775908674396]],[[135.4758414361785,34.620775908674396],[135.47589815266164,34.62078079116391]],[[135.47589815266164,34.62078079116391],[135.47894193725634,34.62121045024107]],[[135.47894193725634,34.62121045024107],[135.47885686253164,34.619408811610704]],[[135.48415985370434,34.614252902684754],[135.48415040095713,34.614223607747675]],[[135.48415040095713,34.614223607747675],[135.48130512405342,34.614755799104614]],[[135.48130512405342,34.614755799104614],[135.48177776141284,34.61679667972113]],[[135.48177776141284,34.61679667972113],[135.48476482952438,34.616332843217386]],[[135.48476482952438,34.616332843217386],[135.48415985370434,34.614252902684754]],[[135.48903747125357,34.60673386883442],[135.4880354800516,34.606904755967385]],[[135.4880354800516,34.606904755967385],[135.48830015697285,34.60738812242919]],[[135.48830015697285,34.60738812242919],[135.48930214817483,34.60923858595469]],[[135.48930214817483,34.60923858595469],[135.489812596523,34.61055197563375]],[[135.489812596523,34.61055197563375],[135.49126831959003,34.61013208153561],[135.49033249761837,34.60646044942168]],[[135.49033249761837,34.60646044942168],[135.48903747125357,34.60673386883442]],[[135.48559667127697,34.60138754281746],[135.48559667127697,34.601402190286]],[[135.48559667127697,34.601402190286],[135.48674045368676,34.60421938673512]],[[135.48674045368676,34.60421938673512],[135.4881867240066,34.6038434350426]],[[135.4881867240066,34.6038434350426],[135.48719418555183,34.60105553353056]],[[135.48719418555183,34.60105553353056],[135.48559667127697,34.60138754281746]],[[135.4698294889667,34.62048295930361],[135.46937575710163,34.62364681250816]],[[135.46937575710163,34.62364681250816],[135.4740737724543,34.62533127139022]],[[135.4740737724543,34.62533127139022],[135.47723099001522,34.622943734018264]],[[135.47723099001522,34.622943734018264],[135.47589815266164,34.62078079116391]],[[135.4758414361785,34.620775908674396],[135.4698294889667,34.62048295930361]],[[135.48886732180418,34.60072352424366],[135.48725090203496,34.601045768551536]],[[135.48725090203496,34.601045768551536],[135.48719418555183,34.60105553353056]],[[135.4881867240066,34.6038434350426],[135.48958573059048,34.60350166077668]],[[135.48958573059048,34.60350166077668],[135.48886732180418,34.60072352424366]],[[135.41123190914567,34.61208507734089],[135.4027244366761,34.612133902236025],[135.40172244547412,34.61481927146829]],[[135.40172244547412,34.61481927146829],[135.40864185641604,34.61461420690873],[135.4112697201344,34.615419817678415]],[[135.4112697201344,34.615419817678415],[135.41123190914567,34.61208507734089]],[[135.49042702509024,34.61387206850273],[135.4895762778433,34.610688685340115]],[[135.4895762778433,34.610688685340115],[135.48668373720363,34.61125017163413]],[[135.48668373720363,34.61125017163413],[135.48659866247894,34.61121599420754]],[[135.48659866247894,34.61121599420754],[135.48727926027652,34.61387206850273]],[[135.4880260273044,34.61671367739941],[135.48519020314788,34.61759252551179]],[[135.48519020314788,34.61759252551179],[135.48527527787257,34.6183346639178]],[[135.48527527787257,34.6183346639178],[135.48620164709703,34.62015095001671]],[[135.48620164709703,34.62015095001671],[135.48912254597826,34.61971152596052]],[[135.44807871768614,34.621830526409255],[135.44771006054577,34.61884244282717],[135.46063196595236,34.616171721063445],[135.46061306045797,34.61586412422412]],[[135.46061306045797,34.61586412422412],[135.4605941549636,34.61561511725894],[135.44755881659077,34.61805147952603],[135.4471239902201,34.61478509404169]],[[135.4471239902201,34.61478509404169],[135.44617871550125,34.614770446573154],[135.44342796606944,34.61693338942751]],[[135.44342796606944,34.61693338942751],[135.44650956165285,34.61694803689605],[135.44643393967536,34.618056362015544],[135.44284189574375,34.61808565695262],[135.4423787111315,34.62015583250622]],[[135.4423787111315,34.62015583250622],[135.44660408912475,34.62176705404558],[135.44807871768614,34.621830526409255]],[[135.48006681417175,34.60896516654196],[135.48003845593018,34.60897493152098]],[[135.48003845593018,34.60897493152098],[135.48036930208178,34.61079121761989]],[[135.48036930208178,34.61079121761989],[135.4832996537102,34.610425030906406]],[[135.4832996537102,34.610425030906406],[135.48324293722706,34.609116523716864]],[[135.48324293722706,34.609116523716864],[135.48324293722706,34.60908234629027]],[[135.48324293722706,34.60908234629027],[135.48006681417175,34.60896516654196]],[[135.48335637019332,34.61192883767647],[135.48362104711458,34.61275886089371]],[[135.48362104711458,34.61275886089371],[135.48415040095713,34.614223607747675]],[[135.48415985370434,34.614252902684754],[135.48727926027652,34.61387206850273]],[[135.48659866247894,34.61121599420754],[135.48335637019332,34.61192883767647]],[[135.4233597837884,34.61135758640343],[135.43303939690935,34.61170424315886]],[[135.43303939690935,34.61170424315886],[135.43876776170555,34.61202160497722]],[[135.43876776170555,34.61202160497722],[135.44394786716478,34.61198742755063]],[[135.44394786716478,34.61198742755063],[135.4466419001135,34.61096698724237]],[[135.4466419001135,34.61096698724237],[135.44659463637754,34.610639860444984]],[[135.44659463637754,34.610639860444984],[135.42331252005246,34.610717980277194],[135.4233597837884,34.61135758640343]],[[135.48476482952438,34.616332843217386],[135.48519020314788,34.61759252551179]],[[135.48620164709703,34.62015095001671],[135.4866459262149,34.62253848738867]],[[135.4866459262149,34.62253848738867],[135.49028523388242,34.623114621151224]],[[135.48674045368676,34.60421938673512],[135.4880354800516,34.606904755967385]],[[135.48903747125357,34.60673386883442],[135.4881867240066,34.6038434350426]],[[135.46937575710163,34.62364681250816],[135.4689976472141,34.62592693511083]],[[135.4689976472141,34.62592693511083],[135.47212650653347,34.62651771634193],[135.4744707878362,34.62859277438504],[135.47639914826263,34.62725008976891]],[[135.47639914826263,34.62725008976891],[135.4740737724543,34.62533127139022]],[[135.48241109547448,34.60215409367103],[135.47913099220008,34.602945056972175]],[[135.47913099220008,34.602945056972175],[135.4793578581326,34.604424451294676]],[[135.4793578581326,34.604424451294676],[135.47964144054828,34.60623585490407]],[[135.47964144054828,34.60623585490407],[135.4830349767889,34.60593802304377]],[[135.4830349767889,34.60593802304377],[135.48241109547448,34.60215409367103]],[[135.41127917288162,34.615497937510625],[135.4112697201344,34.615419817678415]],[[135.40172244547412,34.61481927146829],[135.39951050263204,34.62078567365343],[135.4019965751426,34.62075149622683],[135.40401001029372,34.6198140582403],[135.4122811640836,34.61975546836614]],[[135.4122811640836,34.61975546836614],[135.41127917288162,34.615497937510625]],[[135.47723099001522,34.622943734018264],[135.4784598471497,34.62465260534788]],[[135.4784598471497,34.62465260534788],[135.47940512186855,34.62417412137559],[135.47998173944706,34.62140086733209]],[[135.47998173944706,34.62140086733209],[135.47894193725634,34.62121045024107]],[[135.48036930208178,34.61079121761989],[135.48094591966026,34.61321293241844]],[[135.48094591966026,34.61321293241844],[135.48362104711458,34.61275886089371]],[[135.48335637019332,34.61192883767647],[135.4832996537102,34.610425030906406]],[[135.47639914826263,34.62725008976891],[135.47930114164947,34.62579510789398]],[[135.47930114164947,34.62579510789398],[135.4784598471497,34.62465260534788]],[[135.4192005750255,34.61137711636148],[135.41755579701473,34.61078633513038],[135.417016990425,34.61209484231992],[135.41123190914567,34.61208507734089]],[[135.41127917288162,34.615497937510625],[135.417319478335,34.615497937510625],[135.4183876387673,34.61201672248771],[135.4192005750255,34.61137711636148]],[[135.47639914826263,34.60884310430413],[135.47638024276827,34.60884310430413]],[[135.47638024276827,34.60884310430413],[135.4769852185883,34.6112745840817]],[[135.4769852185883,34.6112745840817],[135.48036930208178,34.61079121761989]],[[135.48003845593018,34.60897493152098],[135.47639914826263,34.60884310430413]],[[135.483942440519,34.596768707737965],[135.48035984933458,34.59773055817207]],[[135.48035984933458,34.59773055817207],[135.4810782581209,34.59927342485824]],[[135.4810782581209,34.59927342485824],[135.48479318776594,34.599126950172845]],[[135.48479318776594,34.599126950172845],[135.483942440519,34.596768707737965]],[[135.48501060095128,34.60752483213556],[135.48577627347356,34.60918976105956]],[[135.48577627347356,34.60918976105956],[135.48580463171513,34.609228820975666]],[[135.48580463171513,34.609228820975666],[135.48930214817483,34.60923858595469]],[[135.48830015697285,34.60738812242919],[135.48501060095128,34.60752483213556]],[[135.4769852185883,34.6112745840817],[135.477571288914,34.61375977124392]],[[135.477571288914,34.61375977124392],[135.48094591966026,34.61321293241844]],[[135.43303939690935,34.61170424315886],[135.43289760570153,34.61305181026451]],[[135.43289760570153,34.61305181026451],[135.4329259639431,34.61490715627953],[135.43009959253376,34.61594712654584],[135.43018466725846,34.61765599787546],[135.43158367384234,34.61733375356759],[135.43117720571323,34.62102491563957],[135.43026028923597,34.621547342017486],[135.43306775515092,34.622235773038845],[135.4325951177915,34.62368587242427]],[[135.4325951177915,34.62368587242427],[135.43293541669027,34.62381281715162]],[[135.43293541669027,34.62381281715162],[135.43550656392554,34.61751440567958]],[[135.43550656392554,34.61751440567958],[135.4362533309534,34.6154881725316]],[[135.4362533309534,34.6154881725316],[135.43743492435198,34.61256356131319],[135.43876776170555,34.61202160497722]],[[135.43538367821208,34.629164025658085],[135.43174437054455,34.62723544230037]],[[135.43174437054455,34.62723544230037],[135.43157422109516,34.62782622353147]],[[135.43157422109516,34.62782622353147],[135.42968367165747,34.63258176831733]],[[135.42968367165747,34.63258176831733],[135.42781202771417,34.63719572090731]],[[135.42781202771417,34.63719572090731],[135.43353093976316,34.638211278726054]],[[135.43353093976316,34.638211278726054],[135.43538367821208,34.629164025658085]],[[135.48538871083883,34.596470875877664],[135.483942440519,34.596768707737965]],[[135.48479318776594,34.599126950172845],[135.48559667127697,34.60138754281746]],[[135.48725090203496,34.601045768551536],[135.48538871083883,34.596470875877664]],[[135.48388572403587,34.60513241227409],[135.48501060095128,34.60752483213556]],[[135.48674045368676,34.60421938673512],[135.48388572403587,34.60513241227409]],[[135.49033249761837,34.60646044942168],[135.48958573059048,34.60350166077668]],[[135.48580463171513,34.609228820975666],[135.48668373720363,34.61125017163413]],[[135.4895762778433,34.610688685340115],[135.489812596523,34.61055197563375]],[[135.47964144054828,34.60623585490407],[135.4796225350539,34.60623585490407]],[[135.4796225350539,34.60623585490407],[135.48006681417175,34.60896516654196]],[[135.48324293722706,34.60908234629027],[135.4830349767889,34.60593802304377]],[[135.4212612739126,34.61196789759258],[135.4212612739126,34.611367351382455]],[[135.4212612739126,34.611367351382455],[135.4192005750255,34.61137711636148]],[[135.4122811640836,34.61975546836614],[135.41834982777854,34.61958458123318],[135.42040107391844,34.61296392545327],[135.41914385854238,34.611933720165986],[135.4212612739126,34.61196789759258]],[[135.4810782581209,34.59927342485824],[135.48241109547448,34.60209062130736]],[[135.48241109547448,34.60209062130736],[135.4825528866823,34.6021785061186]],[[135.4825528866823,34.6021785061186],[135.48559667127697,34.601402190286]],[[135.43336079031377,34.623964174326524],[135.43293541669027,34.62381281715162]],[[135.43293541669027,34.62381281715162],[135.43174437054455,34.62723544230037]],[[135.43538367821208,34.629164025658085],[135.4378130342395,34.63018934845586]],[[135.4378130342395,34.63018934845586],[135.43839910456518,34.62779692859439],[135.44062995290165,34.62824123514009]],[[135.44062995290165,34.62824123514009],[135.44062050015447,34.62779204610488],[135.43359710899347,34.6250285570404],[135.43336079031377,34.623964174326524]],[[135.4606886824355,34.61585435924509],[135.46128420550835,34.615497937510625]],[[135.46128420550835,34.615497937510625],[135.46053743848046,34.610439678374945]],[[135.46053743848046,34.610439678374945],[135.45989465167165,34.610503150738616]],[[135.45989465167165,34.610503150738616],[135.45674688685793,34.61090839736821],[135.44759662757951,34.61366700394317]],[[135.44759662757951,34.61366700394317],[135.4471239902201,34.61478509404169]],[[135.46061306045797,34.61586412422412],[135.4606886824355,34.61585435924509]],[[135.4825528866823,34.6021785061186],[135.48388572403587,34.60513241227409]],[[135.41669559702058,34.634822831003895],[135.41580703878486,34.635511262025254]],[[135.41580703878486,34.635511262025254],[135.41033389816278,34.64050116630775],[135.40928464322485,34.64249810451865]],[[135.40928464322485,34.64249810451865],[135.4164403728465,34.64494423176477],[135.4240214760916,34.642595754308914],[135.42464535740604,34.64270316907821]],[[135.42464535740604,34.64270316907821],[135.42381351565345,34.6417754960707],[135.4272070518941,34.63948072599949],[135.42781202771417,34.63719572090731]],[[135.42781202771417,34.63719572090731],[135.42283988269304,34.636438935032764]],[[135.42283988269304,34.636438935032764],[135.41786773767194,34.63563332426308],[135.41669559702058,34.634822831003895]],[[135.39843288945255,34.63821616121557],[135.39850851143007,34.63864093780322],[135.40928464322485,34.64249810451865]],[[135.41580703878486,34.635511262025254],[135.41473887835258,34.63485700843049]],[[135.41473887835258,34.63485700843049],[135.41231897507234,34.63705901120094],[135.4085851399329,34.634398054416245]],[[135.4085851399329,34.634398054416245],[135.4069592674165,34.63588721371777],[135.40487021028787,34.63437364196868],[135.40300801909174,34.63615086815148],[135.40298911359736,34.63847005067026],[135.39843288945255,34.63821616121557]],[[135.4129239508924,34.62584881527862],[135.41028663442683,34.62583416781008],[135.40750752675342,34.629466740007906],[135.41473887835258,34.63485700843049]],[[135.41669559702058,34.634822831003895],[135.4167712189981,34.634744711171685]],[[135.4167712189981,34.634744711171685],[135.41107121244346,34.63065318495961],[135.41277270693737,34.62895896109853]],[[135.41277270693737,34.62895896109853],[135.4129239508924,34.62584881527862]],[[135.43336079031377,34.623964174326524],[135.43410755734166,34.623339215668835],[135.44118766498576,34.626146647138924],[135.44235035288995,34.62032671963919]],[[135.44235035288995,34.62032671963919],[135.4423787111315,34.62015583250622]],[[135.4423787111315,34.62015583250622],[135.43550656392554,34.61751440567958]],[[135.48577627347356,34.60918976105956],[135.48324293722706,34.609116523716864]],[[135.4362533309534,34.6154881725316],[135.44317274189535,34.615419817678415]],[[135.44317274189535,34.615419817678415],[135.44394786716478,34.61198742755063]],[[135.48241109547448,34.60209062130736],[135.48241109547448,34.60215409367103]],[[135.4793578581326,34.604424451294676],[135.47582253068416,34.60483458041378]],[[135.47582253068416,34.60483458041378],[135.47606830211103,34.606572746680484]],[[135.47606830211103,34.606572746680484],[135.4796225350539,34.60623585490407]],[[135.44342796606944,34.61693338942751],[135.44317274189535,34.615419817678415]],[[135.44759662757951,34.61366700394317],[135.4466419001135,34.61096698724237]],[[135.4734971548758,34.61426266766378],[135.47694740759957,34.6138623035237]],[[135.47694740759957,34.6138623035237],[135.477571288914,34.61375977124392]],[[135.47638024276827,34.60884310430413],[135.47303397026357,34.609087228779785]],[[135.47303397026357,34.609087228779785],[135.47337426916235,34.61427731513232]],[[135.47337426916235,34.61427731513232],[135.4734971548758,34.61426266766378]],[[135.46234291319345,34.62028765972308],[135.46234291319345,34.620253482296484]],[[135.46234291319345,34.620253482296484],[135.46233346044627,34.62023395233843]],[[135.46233346044627,34.62023395233843],[135.46180410660372,34.62026324727551]],[[135.46180410660372,34.62026324727551],[135.45443096379674,34.62092726584931],[135.44807871768614,34.621830526409255]],[[135.44235035288995,34.62032671963919],[135.44615035725968,34.62184029138828],[135.44814488691645,34.622094180842964],[135.44847573306805,34.62468190028496],[135.45388270445983,34.623402688032506],[135.46222002748002,34.62464772285837],[135.4618135593509,34.62032671963919],[135.46234291319345,34.62028765972308]],[[135.48886732180418,34.60072352424366],[135.48714692181588,34.596124219122224],[135.48538871083883,34.596470875877664]],[[135.4262239661865,34.63166874277836],[135.4227831662099,34.631551563030044]],[[135.4227831662099,34.631551563030044],[135.42283988269304,34.636438935032764]],[[135.42968367165747,34.63258176831733],[135.4262239661865,34.63166874277836]],[[135.42079808930035,34.6289833735461],[135.41277270693737,34.62895896109853]],[[135.4167712189981,34.634744711171685],[135.4199378893062,34.63110725648434]],[[135.4199378893062,34.63110725648434],[135.42079808930035,34.6289833735461]],[[135.47930114164947,34.62579510789398],[135.48178721416005,34.624452423277845],[135.48243945371604,34.62182564391974]],[[135.48243945371604,34.62182564391974],[135.48242054822165,34.62182564391974]],[[135.48242054822165,34.62182564391974],[135.47998173944706,34.62140086733209]],[[135.42464535740604,34.64270316907821],[135.4324344210893,34.64402144124677],[135.43824786061018,34.641453251762826]],[[135.43824786061018,34.641453251762826],[135.43529860348738,34.64098453276956],[135.43353093976316,34.638211278726054]],[[135.46505585163655,34.606558099211945],[135.46619018129914,34.60981471971725]],[[135.46619018129914,34.60981471971725],[135.47045337028112,34.60934600072399]],[[135.47045337028112,34.60934600072399],[135.4698105834723,34.605205649616785]],[[135.4698105834723,34.605205649616785],[135.46505585163655,34.606558099211945]],[[135.4223010761033,34.62527756400558],[135.42079808930035,34.6289833735461]],[[135.4199378893062,34.63110725648434],[135.4227831662099,34.631551563030044]],[[135.4262239661865,34.63166874277836],[135.42668715079873,34.62649818638388]],[[135.42668715079873,34.62649818638388],[135.4223010761033,34.62527756400558]],[[135.4378130342395,34.63018934845586],[135.43614935073435,34.63867511522981],[135.43353093976316,34.638211278726054]],[[135.43824786061018,34.641453251762826],[135.43919313532902,34.64123842222425],[135.44164139685083,34.6292079680637],[135.44062995290165,34.62824123514009]],[[135.47355387135892,34.616108248699774],[135.4700658076464,34.61654279026645]],[[135.4700658076464,34.61654279026645],[135.46927177688258,34.61664044005671],[135.4698294889667,34.62048295930361]],[[135.47547277903817,34.62000935782083],[135.4745558625609,34.61808077446311]],[[135.4745558625609,34.61808077446311],[135.47355387135892,34.616108248699774]],[[135.46170012638464,34.615683472112124],[135.46684242085516,34.615058513454436]],[[135.46684242085516,34.615058513454436],[135.46602948459693,34.60983424967531]],[[135.46602948459693,34.60983424967531],[135.46343943186733,34.61014184651464]],[[135.46343943186733,34.61014184651464],[135.46053743848046,34.610439678374945]],[[135.46128420550835,34.615497937510625],[135.46170012638464,34.615683472112124]],[[135.48035984933458,34.59773055817207],[135.4797737790089,34.597935622731626]],[[135.4797737790089,34.597935622731626],[135.47983049549202,34.602158976160545],[135.47893248450913,34.60214921118152]],[[135.47893248450913,34.60214921118152],[135.47913099220008,34.602945056972175]],[[135.42089261677225,34.62494555471868],[135.4223010761033,34.62527756400558]],[[135.42668715079873,34.62649818638388],[135.43157422109516,34.62782622353147]],[[135.4325951177915,34.62368587242427],[135.43175382329173,34.624374303445634],[135.42204585192923,34.62188911628341],[135.42089261677225,34.62494555471868]],[[135.4700658076464,34.61654279026645],[135.46978222523074,34.61471673918851]],[[135.46978222523074,34.61471673918851],[135.46684242085516,34.615058513454436]],[[135.46170012638464,34.615683472112124],[135.46233346044627,34.62023395233843]],[[135.46234291319345,34.620253482296484],[135.4698294889667,34.62048295930361]],[[135.47276929334228,34.60446351121078],[135.47290163180293,34.6068364011142]],[[135.47290163180293,34.6068364011142],[135.47606830211103,34.606572746680484]],[[135.47582253068416,34.60483458041378],[135.47276929334228,34.60446351121078]],[[135.47045337028112,34.60934600072399],[135.47303397026357,34.609038403884654]],[[135.47303397026357,34.609038403884654],[135.47290163180293,34.6068364011142]],[[135.47276929334228,34.60446351121078],[135.4698105834723,34.605205649616785]],[[135.47337426916235,34.61427731513232],[135.46978222523074,34.61471673918851]],[[135.47355387135892,34.616108248699774],[135.47362004058925,34.61609848372075]],[[135.47362004058925,34.61609848372075],[135.4734971548758,34.61426266766378]],[[135.46880859227034,34.60209062130736],[135.46365684505264,34.60357001562986]],[[135.46365684505264,34.60357001562986],[135.46505585163655,34.606558099211945]],[[135.4698105834723,34.605205649616785],[135.46880859227034,34.60209062130736]],[[135.45911952640222,34.60841832771648],[135.45989465167165,34.610503150738616]],[[135.46343943186733,34.61014184651464],[135.4625603263788,34.607324650065515]],[[135.4625603263788,34.607324650065515],[135.45911952640222,34.60841832771648]],[[135.4233597837884,34.61135758640343],[135.4212612739126,34.611367351382455]],[[135.4212612739126,34.61196789759258],[135.42332197279967,34.61200695750868],[135.42340704752436,34.61893521012792],[135.42616724970338,34.61790500484064],[135.42674386728186,34.61311528262818],[135.43289760570153,34.61305181026451]],[[135.46365684505264,34.60357001562986],[135.46111405605896,34.60430238905684]],[[135.46111405605896,34.60430238905684],[135.4625603263788,34.607324650065515]],[[135.4625603263788,34.607324650065515],[135.46505585163655,34.606558099211945]],[[135.45768270882957,34.605444891602936],[135.4463110539619,34.6084622701221],[135.44659463637754,34.610639860444984]],[[135.45911952640222,34.60841832771648],[135.45768270882957,34.605444891602936]],[[135.47606830211103,34.606572746680484],[135.47639914826263,34.60884310430413]],[[135.46111405605896,34.60430238905684],[135.45768270882957,34.605444891602936]],[[135.47303397026357,34.609038403884654],[135.47303397026357,34.609087228779785]],[[135.47167277466843,34.601060416020076],[135.46880859227034,34.60209062130736]],[[135.47276929334228,34.60446351121078],[135.47167277466843,34.601060416020076]],[[135.46180410660372,34.62026324727551],[135.4606886824355,34.61585435924509]],[[135.48094591966026,34.61321293241844],[135.48130512405342,34.614755799104614]],[[135.47893248450913,34.60214921118152],[135.4756996449707,34.60206132637028]],[[135.4756996449707,34.60206132637028],[135.47582253068416,34.60483458041378]],[[135.46602948459693,34.60983424967531],[135.46619018129914,34.60981471971725]],[[135.48242054822165,34.62182564391974],[135.482136965806,34.61888638523279]],[[135.47848820539127,34.617299576141],[135.4745558625609,34.61808077446311]],[[135.4797737790089,34.597935622731626],[135.47586979442008,34.59948337190731]],[[135.47586979442008,34.59948337190731],[135.4756996449707,34.60206132637028]],[[135.46234291319345,34.62028765972308],[135.462872267036,34.62477955007523],[135.4689976472141,34.62592693511083]],[[135.47362004058925,34.61609848372075],[135.47794939880154,34.61531728539864]],[[135.47794939880154,34.61531728539864],[135.47892303176195,34.6151561632447]],[[135.47892303176195,34.6151561632447],[135.47694740759957,34.6138623035237]],[[135.47586979442008,34.59948337190731],[135.47167277466843,34.601060416020076]],[[135.47892303176195,34.6151561632447],[135.48130512405342,34.614755799104614]],[[135.47794939880154,34.61531728539864],[135.47848820539127,34.617299576141]],[[135.42089261677225,34.62494555471868],[135.4205334123791,34.625882992705215],[135.4129239508924,34.62584881527862]],[[135.48243945371604,34.62182564391974],[135.4866459262149,34.62253848738867]],[[135.48527527787257,34.6183346639178],[135.482136965806,34.61888638523279]],[[135.4085851399329,34.634398054416245],[135.40464334435535,34.63154179805102],[135.3984801531885,34.63135626344952],[135.39843288945255,34.63821616121557]]]}