{"type":"Topology","bbox":[135.51372816698182,34.589138779837825,135.54760414952972,34.644546168405455],"objects":{"town":{"type":"GeometryCollection","geometries":[{"type":"MultiPolygon","arcs":[[[-11,1,2,21,15,16,17,18,19,-12]]],"properties":{"name":"今林"}},{"type":"MultiPolygon","arcs":[[[8,9,-2,10,11,-20,-19,-18,31,29,-70,25,22,129,-129,3,-105]]],"properties":{"name":"杭全"}},{"type":"MultiPolygon","arcs":[[[233,-213,-146,-42,-221,-120,274,155,-83,156,35,32,186,187]]],"properties":{"name":"南田辺"}},{"type":"MultiPolygon","arcs":[[[-255,45,46,41,145,146,147,36,37,-166,-261,-250,-256]]],"properties":{"name":"田辺"}},{"type":"MultiPolygon","arcs":[[[-126,273,163,164,165,-38,168,169,223,47,180,-73,-127]]],"properties":{"name":"北田辺"}},{"type":"MultiPolygon","arcs":[[[52,116,117,-195,236,237,115,50,86,87,88]]],"properties":{"name":"公園南矢田"}},{"type":"MultiPolygon","arcs":[[[59,167,-160,228,227,111,112,178,-26,69,-30,139]]],"properties":{"name":"今川"}},{"type":"MultiPolygon","arcs":[[[159,160,276,-264,-241,61,62,63,-137,235,-229]]],"properties":{"name":"中野"}},{"type":"MultiPolygon","arcs":[[[123,124,125,126,72,73,278,-9,104,-4,128]]],"properties":{"name":"桑津"}},{"type":"MultiPolygon","arcs":[[[-203,81,82,83,246,-246,-226,-175,78,79,80,-198,-219]]],"properties":{"name":"鷹合"}},{"type":"MultiPolygon","arcs":[[[172,173,-79,174,225,226,-210,191,-242,263,264,93,89,-184]]],"properties":{"name":"湯里"}},{"type":"MultiPolygon","arcs":[[[-134,-133,-186,-185,-90,230,272,268,271,277,258,232,-154,96,97,107,108]]],"properties":{"name":"住道矢田"}},{"type":"MultiPolygon","arcs":[[[121,-244,-247,-84,-156,-275,119,220,-47,221,222]]],"properties":{"name":"東田辺"}},{"type":"MultiPolygon","arcs":[[[181,-80,-174,-173,183,184,185,132,133,-109,-108,-98,140,141,142]]],"properties":{"name":"照ケ丘矢田"}},{"type":"MultiPolygon","arcs":[[[-113,-112,-228,-236,136,-64,137,138,134,-257,248,249,250,-263,265,-124,-130,-23,-179]]],"properties":{"name":"西今川"}},{"type":"MultiPolygon","arcs":[[[-237,194,-118,-117,-53,-89,218,197,-81,-182,-143,-142,-141,-97,153,148,238]]],"properties":{"name":"矢田"}},{"type":"MultiPolygon","arcs":[[[-147,212,-234,-188,-187,-33,-205,247,199,279,210,257,-169,-37,-148]]],"properties":{"name":"山坂"}},{"type":"Polygon","arcs":[[-36,-157,-82,202,-88,203,204]],"properties":{"name":"長居公園"}},{"type":"MultiPolygon","arcs":[[[-138,-63,-62,240,241,-192,209,205,214,215,216,-139]]],"properties":{"name":"針中野"}},{"type":"MultiPolygon","arcs":[[[-216,-215,-206,-227,245,243,-122,-223,-222,-46,254,255,-249,256,-135,-217]],[[262,-251,260,-165,-164,-274,-125,-266]]],"properties":{"name":"駒川"}}]}},"arcs":[[[135.54480571352767,34.63937614204946],[135.5385346420509,34.640107592723616]],[[135.5385346420509,34.640107592723616],[135.53755214030684,34.64160928312284]],[[135.53755214030684,34.64160928312284],[135.54430768678154,34.64083350210479],[135.54480571352767,34.63937614204946]],[[135.5342590654957,34.63547507178727],[135.5343573156701,34.636311807028164]],[[135.5343573156701,34.636311807028164],[135.5381145378569,34.63648358711074]],[[135.5381145378569,34.63648358711074],[135.53839912456897,34.63442776741291]],[[135.53839912456897,34.63442776741291],[135.5373691917062,34.635242337481856],[135.5342590654957,34.63547507178727]],[[135.53815180516443,34.63691026667066],[135.53486889416442,34.63910461869314]],[[135.53486889416442,34.63910461869314],[135.53508233419848,34.63953129825307]],[[135.53508233419848,34.63953129825307],[135.53755214030684,34.64160928312284]],[[135.5385346420509,34.640107592723616],[135.53848043505812,34.63913786645106]],[[135.53848043505812,34.63913786645106],[135.5384499436247,34.63754197407107]],[[135.5384499436247,34.63754197407107],[135.53815180516443,34.63691026667066]],[[135.54525969709215,34.63417286793555],[135.54353184919742,34.63649466969671]],[[135.54353184919742,34.63649466969671],[135.5452630850292,34.6382069292294]],[[135.5452630850292,34.6382069292294],[135.54760414952972,34.63652791745462],[135.54525969709215,34.63417286793555]],[[135.54525969709215,34.63417286793555],[135.54444659220053,34.63328071976479]],[[135.54444659220053,34.63328071976479],[135.54198017402922,34.6349874380045]],[[135.54198017402922,34.6349874380045],[135.54103155165564,34.63567455833477]],[[135.54103155165564,34.63567455833477],[135.5384499436247,34.63754197407107]],[[135.53848043505812,34.63913786645106],[135.53968992858444,34.6391212425721],[135.54353184919742,34.63649466969671]],[[135.54480571352767,34.63937614204946],[135.5452630850292,34.6382069292294]],[[135.53455381601893,34.631701451263766],[135.53443185028516,34.63353561924215]],[[135.53443185028516,34.63353561924215],[135.53838557282077,34.63347466501931]],[[135.53838557282077,34.63347466501931],[135.53835169345027,34.63162941445495]],[[135.53835169345027,34.63162941445495],[135.53455381601893,34.631701451263766]],[[135.53838557282077,34.63347466501931],[135.53839912456897,34.63442776741291]],[[135.5381145378569,34.63648358711074],[135.53815180516443,34.63691026667066]],[[135.54103155165564,34.63567455833477],[135.53838557282077,34.63347466501931]],[[135.54358266825315,34.63155183635314],[135.54070969763603,34.631601707990015]],[[135.54070969763603,34.631601707990015],[135.54085199099208,34.63381822518444],[135.54198017402922,34.6349874380045]],[[135.54444659220053,34.63328071976479],[135.54358266825315,34.63155183635314]],[[135.52107321450296,34.61506648971961],[135.5207073173017,34.618164072498814]],[[135.5207073173017,34.618164072498814],[135.52267909666395,34.618308146116455]],[[135.52267909666395,34.618308146116455],[135.52305176973928,34.61523272850919]],[[135.52305176973928,34.61523272850919],[135.52107321450296,34.61506648971961]],[[135.52357351204475,34.62589417621437],[135.5243527375659,34.629623466393994]],[[135.5243527375659,34.629623466393994],[135.52575195556693,34.62824368444046]],[[135.52575195556693,34.62824368444046],[135.52580955049675,34.62815502375268]],[[135.52580955049675,34.62815502375268],[135.525687584763,34.625872011042425]],[[135.525687584763,34.625872011042425],[135.52357351204475,34.62589417621437]],[[135.52602637846786,34.62285200636502],[135.5259789473492,34.62285200636502]],[[135.5259789473492,34.62285200636502],[135.52573840381874,34.62465292658549]],[[135.52573840381874,34.62465292658549],[135.52928896184557,34.624453440037996]],[[135.52928896184557,34.624453440037996],[135.5298987905143,34.62383281522356]],[[135.5298987905143,34.62383281522356],[135.52989540257724,34.62289079541593]],[[135.52989540257724,34.62289079541593],[135.52602637846786,34.62285200636502]],[[135.52363110697456,34.63494310766061],[135.5236954777785,34.63794648845906],[135.525687584763,34.63743668950434]],[[135.525687584763,34.63743668950434],[135.52562321395908,34.63497081412554]],[[135.52562321395908,34.63497081412554],[135.52363110697456,34.63494310766061]],[[135.52261811379708,34.60231043326569],[135.52268587253803,34.60546897026775]],[[135.52268587253803,34.60546897026775],[135.52694112147094,34.60554100707657]],[[135.52694112147094,34.60554100707657],[135.52700888021192,34.60238247007451]],[[135.52700888021192,34.60238247007451],[135.52261811379708,34.60231043326569]],[[135.52573840381874,34.62465292658549],[135.525687584763,34.625872011042425]],[[135.52580955049675,34.62815502375268],[135.5268327074854,34.62704676515547]],[[135.5268327074854,34.62704676515547],[135.52928896184557,34.624453440037996]],[[135.54061144746163,34.626387351290134],[135.54067920620258,34.62935748433066]],[[135.54067920620258,34.62935748433066],[135.54353862507153,34.629230034591984]],[[135.54353862507153,34.629230034591984],[135.54355556475676,34.62640397516909]],[[135.54355556475676,34.62640397516909],[135.54061144746163,34.626387351290134]],[[135.538402512506,34.61712230941744],[135.53701345831612,34.61877361472728]],[[135.53701345831612,34.61877361472728],[135.5364747763254,34.6213503159658]],[[135.5364747763254,34.6213503159658],[135.5365018798218,34.621355857258784]],[[135.5365018798218,34.621355857258784],[135.538331365828,34.621588591564205]],[[135.538331365828,34.621588591564205],[135.538402512506,34.61712230941744]],[[135.54067920620258,34.62935748433066],[135.5382974864575,34.62952372312024]],[[135.5382974864575,34.62952372312024],[135.5383110382057,34.63000027431704]],[[135.5383110382057,34.63000027431704],[135.53835169345027,34.63162941445495]],[[135.53835169345027,34.63162941445495],[135.54070969763603,34.631601707990015]],[[135.54070969763603,34.631601707990015],[135.54067920620258,34.62935748433066]],[[135.52790329559272,34.63689918408469],[135.52723248405712,34.63706542287427]],[[135.52723248405712,34.63706542287427],[135.526456646473,34.639004875419396]],[[135.526456646473,34.639004875419396],[135.52761193300654,34.6416646960527]],[[135.52761193300654,34.6416646960527],[135.52966502285793,34.64081133693285]],[[135.52966502285793,34.64081133693285],[135.52790329559272,34.63689918408469]],[[135.53047812774957,34.60927029725619],[135.5304171448827,34.612872137697124]],[[135.5304171448827,34.612872137697124],[135.5336797282604,34.61291092674803]],[[135.5336797282604,34.61291092674803],[135.5333849777372,34.60927029725619]],[[135.5333849777372,34.60927029725619],[135.5333782018631,34.60927029725619]],[[135.5333782018631,34.60927029725619],[135.53047812774957,34.60927029725619]],[[135.52677511255558,34.61283334864623],[135.526734457311,34.615520875744465]],[[135.526734457311,34.615520875744465],[135.52677172461853,34.61605838116411]],[[135.52677172461853,34.61605838116411],[135.5303595499529,34.616307739348485]],[[135.5303595499529,34.616307739348485],[135.5304171448827,34.612872137697124]],[[135.5304171448827,34.612872137697124],[135.52677511255558,34.61283334864623]],[[135.52268587253803,34.60546897026775],[135.52274007953082,34.60846126848022],[135.5237666244565,34.60927583854917]],[[135.5237666244565,34.60927583854917],[135.52685303510768,34.60928137984216]],[[135.52685303510768,34.60928137984216],[135.52694112147094,34.60554100707657]],[[135.54069275795078,34.60919271915438],[135.53849059886926,34.60918717786139]],[[135.53849059886926,34.60918717786139],[135.53845333156173,34.61270035761456]],[[135.53845333156173,34.61270035761456],[135.53843977981353,34.61362021225025]],[[135.53843977981353,34.61362021225025],[135.54077406843996,34.61362575354323]],[[135.54077406843996,34.61362575354323],[135.54069275795078,34.60919271915438]],[[135.54061144746163,34.626387351290134],[135.53831442614273,34.626398433876105]],[[135.53831442614273,34.626398433876105],[135.5382974864575,34.62952372312024]],[[135.53235504487444,34.600858614503345],[135.53270400239043,34.603612637117415]],[[135.53270400239043,34.603612637117415],[135.53677291478567,34.60367913263325]],[[135.53677291478567,34.60367913263325],[135.53674581128928,34.60193362534264]],[[135.53674581128928,34.60193362534264],[135.53671870779291,34.6007976602805]],[[135.53671870779291,34.6007976602805],[135.53235504487444,34.600858614503345]],[[135.5343573156701,34.636311807028164],[135.53192816480635,34.636378302544]],[[135.53192816480635,34.636378302544],[135.53236859662263,34.63981944548834]],[[135.53236859662263,34.63981944548834],[135.53486889416442,34.63910461869314]],[[135.53486889416442,34.63910461869314],[135.5343573156701,34.636311807028164]],[[135.53983222194046,34.60215527706208],[135.53989659274438,34.60181725818993]],[[135.53989659274438,34.60181725818993],[135.53674581128928,34.60193362534264]],[[135.53677291478567,34.60367913263325],[135.53677291478567,34.603701297805195]],[[135.53677291478567,34.603701297805195],[135.5394426091799,34.60429975744769]],[[135.5394426091799,34.60429975744769],[135.53949004029857,34.60403377538436]],[[135.53949004029857,34.60403377538436],[135.53983222194046,34.60215527706208]],[[135.53409305658033,34.626376268704156],[135.5338321854276,34.62730720592582]],[[135.5338321854276,34.62730720592582],[135.5339372114761,34.630415871291]],[[135.5339372114761,34.630415871291],[135.5383110382057,34.63000027431704]],[[135.53831442614273,34.626398433876105],[135.53409305658033,34.626376268704156]],[[135.5228586573275,34.59950099772176],[135.52261811379708,34.60231043326569]],[[135.52700888021192,34.60238247007451],[135.5270292078342,34.60236030490257]],[[135.5270292078342,34.60236030490257],[135.5270698630788,34.599229474365444]],[[135.5270698630788,34.599229474365444],[135.5228586573275,34.59950099772176]],[[135.5265379569622,34.61864062369562],[135.52622287881667,34.621206242348165]],[[135.52622287881667,34.621206242348165],[135.53024097215618,34.621488848290454]],[[135.53024097215618,34.621488848290454],[135.53051878299416,34.618962018688805]],[[135.53051878299416,34.618962018688805],[135.5265379569622,34.61864062369562]],[[135.5342319619993,34.634848905679846],[135.53151144854937,34.634893236023736]],[[135.53151144854937,34.634893236023736],[135.5280354251376,34.634893236023736]],[[135.5280354251376,34.634893236023736],[135.5280218733894,34.63493202507464]],[[135.5280218733894,34.63493202507464],[135.52723248405712,34.63706542287427]],[[135.52790329559272,34.63689918408469],[135.53192816480635,34.636378302544]],[[135.5342590654957,34.63547507178727],[135.5342319619993,34.634848905679846]],[[135.53443185028516,34.63353561924215],[135.5342319619993,34.634848905679846]],[[135.53677291478567,34.603701297805195],[135.53674919922634,34.60579590655393]],[[135.53674919922634,34.60579590655393],[135.53915802246783,34.605757117503025]],[[135.53915802246783,34.605757117503025],[135.53916141040486,34.60575157621004]],[[135.53916141040486,34.60575157621004],[135.5394426091799,34.60429975744769]],[[135.53251088997868,34.62167725225198],[135.53205351847714,34.62415421021675]],[[135.53205351847714,34.62415421021675],[135.53472998874543,34.62440356840112],[135.5351534808765,34.62358345703918]],[[135.5351534808765,34.62358345703918],[135.5365018798218,34.621355857258784]],[[135.5364747763254,34.6213503159658],[135.53483501479394,34.621195159762195]],[[135.53483501479394,34.621195159762195],[135.53251088997868,34.62167725225198]],[[135.54358266825315,34.63155183635314],[135.54353862507153,34.629230034591984]],[[135.53270400239043,34.603612637117415],[135.5327006144534,34.60368467392624]],[[135.5327006144534,34.60368467392624],[135.53286662336876,34.60509770363768]],[[135.53286662336876,34.60509770363768],[135.53304618403234,34.605723869745106]],[[135.53304618403234,34.605723869745106],[135.53563118000034,34.605812530432885]],[[135.53563118000034,34.605812530432885],[135.53674919922634,34.60579590655393]],[[135.5259789473492,34.62285200636502],[135.5228451055793,34.62321219040912]],[[135.5228451055793,34.62321219040912],[135.52244871694464,34.625872011042425]],[[135.52244871694464,34.625872011042425],[135.52357351204475,34.62589417621437]],[[135.5323719845597,34.59858668437906],[135.53148434505297,34.59776103172414]],[[135.53148434505297,34.59776103172414],[135.530647524602,34.597589251641566]],[[135.530647524602,34.597589251641566],[135.5298445835215,34.602376928781524]],[[135.5298445835215,34.602376928781524],[135.52988862670313,34.602376928781524]],[[135.52988862670313,34.602376928781524],[135.5327006144534,34.60368467392624]],[[135.53235504487444,34.600858614503345],[135.5323719845597,34.59858668437906]],[[135.52267909666395,34.618308146116455],[135.52654134489921,34.618601834644714]],[[135.52654134489921,34.618601834644714],[135.52677172461853,34.61605838116411]],[[135.526734457311,34.615520875744465],[135.52305176973928,34.61523272850919]],[[135.54062499920983,34.62187673879948],[135.538331365828,34.621588591564205]],[[135.538331365828,34.621588591564205],[135.5383245899539,34.624015677892096]],[[135.5383245899539,34.624015677892096],[135.54062499920983,34.62402676047807]],[[135.54062499920983,34.62402676047807],[135.54062499920983,34.62187673879948]],[[135.52575195556693,34.62824368444046],[135.52576211937807,34.63115840455113],[135.52648713790646,34.631407762735506]],[[135.52648713790646,34.631407762735506],[135.52947191044618,34.631064202570364]],[[135.52947191044618,34.631064202570364],[135.52952611743896,34.630925670245716]],[[135.52952611743896,34.630925670245716],[135.53052555886825,34.62821597797553]],[[135.53052555886825,34.62821597797553],[135.52575195556693,34.62824368444046]],[[135.5383245899539,34.624015677892096],[135.53831442614273,34.626398433876105]],[[135.54355556475676,34.62640397516909],[135.54356234063087,34.62545641406847],[135.54062499920983,34.62545641406847],[135.54062499920983,34.62402676047807]],[[135.5243527375659,34.629623466393994],[135.5231093646691,34.63089796378078]],[[135.5231093646691,34.63089796378078],[135.5234447704369,34.63183444229543]],[[135.5234447704369,34.63183444229543],[135.52542332567322,34.631568460232096]],[[135.52542332567322,34.631568460232096],[135.52648713790646,34.631407762735506]],[[135.53579380097867,34.609242590791254],[135.5357192663636,34.609242590791254]],[[135.5357192663636,34.609242590791254],[135.5333849777372,34.60927029725619]],[[135.5336797282604,34.61291092674803],[135.53368989207155,34.612922009334]],[[135.53368989207155,34.612922009334],[135.53588188734193,34.61283334864623]],[[135.53588188734193,34.61283334864623],[135.53590560290127,34.61283334864623]],[[135.53590560290127,34.61283334864623],[135.53579380097867,34.609242590791254]],[[135.5339372114761,34.630415871291],[135.53455381601893,34.631701451263766]],[[135.5280218733894,34.63493202507464],[135.52562321395908,34.63497081412554]],[[135.525687584763,34.63743668950434],[135.526456646473,34.639004875419396]],[[135.53304618403234,34.605723869745106],[135.5333782018631,34.60927029725619]],[[135.5357192663636,34.609242590791254],[135.53563118000034,34.605812530432885]],[[135.53579380097867,34.609242590791254],[135.53849059886926,34.60918717786139]],[[135.53849059886926,34.60918717786139],[135.53880567701478,34.60752478996558]],[[135.53880567701478,34.60752478996558],[135.53915802246783,34.605757117503025]],[[135.5207073173017,34.618164072498814],[135.52087671415416,34.62102892097261]],[[135.52087671415416,34.62102892097261],[135.5223674064555,34.6209125538199]],[[135.5223674064555,34.6209125538199],[135.52267909666395,34.618308146116455]],[[135.53845333156173,34.61270035761456],[135.53590560290127,34.61283334864623]],[[135.53588188734193,34.61283334864623],[135.53560407650394,34.61658480399779]],[[135.53560407650394,34.61658480399779],[135.5383889607578,34.616634675634664]],[[135.5383889607578,34.616634675634664],[135.53843977981353,34.61362021225025]],[[135.530647524602,34.597589251641566],[135.527293466924,34.596735892521714]],[[135.527293466924,34.596735892521714],[135.5270698630788,34.599229474365444]],[[135.5270292078342,34.60236030490257],[135.5298445835215,34.602376928781524]],[[135.5300241441851,34.6056075025924],[135.5299563854441,34.60927029725619]],[[135.5299563854441,34.60927029725619],[135.53047812774957,34.60927029725619]],[[135.53286662336876,34.60509770363768],[135.5300241441851,34.6056075025924]],[[135.5173871389942,34.61881794507117],[135.51869488269492,34.62124503139906]],[[135.51869488269492,34.62124503139906],[135.52087671415416,34.62102892097261]],[[135.5207073173017,34.618164072498814],[135.5173871389942,34.61881794507117]],[[135.52677511255558,34.61283334864623],[135.52685303510768,34.60928137984216]],[[135.5237666244565,34.60927583854917],[135.51372816698182,34.6093035450141],[135.5140974521201,34.61320461527629],[135.51599469686727,34.61636869357133]],[[135.51599469686727,34.61636869357133],[135.51868471888378,34.616108252800984],[135.52107321450296,34.61506648971961]],[[135.5333307707444,34.6165404736539],[135.53295470973202,34.618308146116455]],[[135.53295470973202,34.618308146116455],[135.53536014503646,34.61871820179742]],[[135.53536014503646,34.61871820179742],[135.53538724853286,34.618668330160546]],[[135.53538724853286,34.618668330160546],[135.53560407650394,34.61658480399779]],[[135.53560407650394,34.61658480399779],[135.5333307707444,34.6165404736539]],[[135.51944700471967,34.622735639212316],[135.52100884369904,34.62619340603562]],[[135.52100884369904,34.62619340603562],[135.52244871694464,34.625872011042425]],[[135.5228451055793,34.62321219040912],[135.52250631187448,34.62287417153697]],[[135.52250631187448,34.62287417153697],[135.51944700471967,34.622735639212316]],[[135.53295470973202,34.618308146116455],[135.53284290780942,34.619139340064365]],[[135.53284290780942,34.619139340064365],[135.5325549331603,34.62123394881309]],[[135.5325549331603,34.62123394881309],[135.53251088997868,34.62167725225198]],[[135.53483501479394,34.621195159762195],[135.53536014503646,34.61871820179742]],[[135.52685303510768,34.60928137984216],[135.5299563854441,34.60927029725619]],[[135.5300241441851,34.6056075025924],[135.52694112147094,34.60554100707657]],[[135.52622287881667,34.621206242348165],[135.52602637846786,34.62285200636502]],[[135.52989540257724,34.62289079541593],[135.53027485152666,34.621488848290454]],[[135.53027485152666,34.621488848290454],[135.53024097215618,34.621488848290454]],[[135.5234447704369,34.63183444229543],[135.52363110697456,34.63494310766061]],[[135.52562321395908,34.63497081412554],[135.52542332567322,34.631568460232096]],[[135.53368989207155,34.612922009334],[135.5332189688218,34.6164628955521]],[[135.5332189688218,34.6164628955521],[135.5333307707444,34.6165404736539]],[[135.53524156723975,34.62398243013418],[135.53409305658033,34.626376268704156]],[[135.5383245899539,34.624015677892096],[135.53524156723975,34.62398243013418]],[[135.54426703153695,34.607486000914676],[135.53880567701478,34.60752478996558]],[[135.54069275795078,34.60919271915438],[135.54433140234087,34.60918717786139],[135.54426703153695,34.607486000914676]],[[135.53671870779291,34.6007976602805],[135.53699990656793,34.59911864850572]],[[135.53699990656793,34.59911864850572],[135.5323719845597,34.59858668437906]],[[135.5223674064555,34.6209125538199],[135.52250631187448,34.62287417153697]],[[135.52622287881667,34.621206242348165],[135.5223674064555,34.6209125538199]],[[135.5351534808765,34.62358345703918],[135.53524156723975,34.62398243013418]],[[135.527293466924,34.596735892521714],[135.52545720504372,34.59588807469485]],[[135.52545720504372,34.59588807469485],[135.522892536698,34.59464682506597],[135.52236401851843,34.59706837010088],[135.5228586573275,34.59950099772176]],[[135.53148434505297,34.59776103172414],[135.5309321113141,34.59464128377299],[135.52617883563505,34.59479643997659],[135.52545720504372,34.59588807469485]],[[135.5300241441851,34.6056075025924],[135.52988862670313,34.602376928781524]],[[135.538402512506,34.61712230941744],[135.53859223698072,34.61664021692765]],[[135.53859223698072,34.61664021692765],[135.5383889607578,34.616634675634664]],[[135.53538724853286,34.618668330160546],[135.53701345831612,34.61877361472728]],[[135.5304171448827,34.61631328064147],[135.53051878299416,34.618962018688805]],[[135.53051878299416,34.618962018688805],[135.53284290780942,34.619139340064365]],[[135.5332189688218,34.6164628955521],[135.5304171448827,34.61631328064147]],[[135.5303595499529,34.616307739348485],[135.5304171448827,34.61631328064147]],[[135.51599469686727,34.61636869357133],[135.5173871389942,34.61881794507117]],[[135.53097276655865,34.627030141276514],[135.5307085074689,34.62776159195067]],[[135.5307085074689,34.62776159195067],[135.53070173159477,34.62778929841561]],[[135.53070173159477,34.62778929841561],[135.53135560344515,34.630715101112244]],[[135.53135560344515,34.630715101112244],[135.5339372114761,34.630415871291]],[[135.5338321854276,34.62730720592582],[135.53097276655865,34.627030141276514]],[[135.53027485152666,34.621488848290454],[135.5325549331603,34.62123394881309]],[[135.5298987905143,34.62383281522356],[135.53011561848538,34.62697472834665]],[[135.53011561848538,34.62697472834665],[135.5307085074689,34.62776159195067]],[[135.53097276655865,34.627030141276514],[135.53205351847714,34.62415421021675]],[[135.52100884369904,34.62619340603562],[135.5231093646691,34.63089796378078]],[[135.54038445567937,34.599229474365444],[135.53699990656793,34.59911864850572]],[[135.53989659274438,34.60181725818993],[135.54038445567937,34.599229474365444]],[[135.53070173159477,34.62778929841561],[135.53052555886825,34.62821597797553]],[[135.52952611743896,34.630925670245716],[135.5313386637599,34.63072064240523]],[[135.5313386637599,34.63072064240523],[135.53135560344515,34.630715101112244]],[[135.53859223698072,34.61664021692765],[135.54063516302097,34.61494458127391]],[[135.54063516302097,34.61494458127391],[135.54077406843996,34.61362575354323]],[[135.5313386637599,34.63072064240523],[135.53151144854937,34.634893236023736]],[[135.5440468156288,34.603789958492975],[135.53949004029857,34.60403377538436]],[[135.53916141040486,34.60575157621004],[135.54416878136254,34.60574049362407]],[[135.54416878136254,34.60574049362407],[135.5440468156288,34.603789958492975]],[[135.5268327074854,34.62704676515547],[135.53011561848538,34.62697472834665]],[[135.5440061603842,34.602138653183125],[135.53983222194046,34.60215527706208]],[[135.5440468156288,34.603789958492975],[135.5440061603842,34.602138653183125]],[[135.54426703153695,34.607486000914676],[135.54416878136254,34.60574049362407]],[[135.5280354251376,34.634893236023736],[135.52947191044618,34.631064202570364]],[[135.5265379569622,34.61864062369562],[135.52654134489921,34.618601834644714]],[[135.52966502285793,34.64081133693285],[135.53236859662263,34.63981944548834]],[[135.54062499920983,34.62187673879948],[135.54063516302097,34.61494458127391]],[[135.5440061603842,34.602138653183125],[135.543782556539,34.599196226607525],[135.54038445567937,34.599229474365444]],[[135.52761193300654,34.6416646960527],[135.52891967670726,34.644546168405455],[135.53508233419848,34.63953129825307]],[[135.51869488269492,34.62124503139906],[135.51944700471967,34.622735639212316]]]}