{"type":"Topology","bbox":[135.47404217974582,34.68464083053951,135.52291643995324,34.720699944934445],"objects":{"town":{"type":"GeometryCollection","geometries":[{"type":"Polygon","arcs":[[0,1,2,3,4]],"properties":{"name":"池田町"}},{"type":"MultiPolygon","arcs":[[[32,5,6,7,8,9,10,33,34]]],"properties":{"name":"浮田"}},{"type":"MultiPolygon","arcs":[[[17,12,13,14,15,39,40,41,42,43]]],"properties":{"name":"扇町"}},{"type":"MultiPolygon","arcs":[[[28,27,24,25,18,19,20,21,29,30,31]]],"properties":{"name":"梅田"}},{"type":"MultiPolygon","arcs":[[[59,36,-45,62,63,-55,-54,-51,162,38,60,138,139,-115]]],"properties":{"name":"大淀中"}},{"type":"MultiPolygon","arcs":[[[113,46,47,48,44,-37,-60,114]]],"properties":{"name":"大淀北"}},{"type":"MultiPolygon","arcs":[[[-139,-61,-39,-163,50,53,54,55,56,57,52,175]]],"properties":{"name":"大淀南"}},{"type":"Polygon","arcs":[[64,65,-35,66]],"properties":{"name":"黒崎町"}},{"type":"MultiPolygon","arcs":[[[352,-255,-240,110,78,79,80,72,73,-149,222,223,221,67,292,293,294]]],"properties":{"name":"豊崎"}},{"type":"MultiPolygon","arcs":[[[130,131,132,-100,133,82,117,115,116,84,85,134,-107]]],"properties":{"name":"天満橋"}},{"type":"MultiPolygon","arcs":[[[118,122,87,88,89,-25,90,123,120,121]]],"properties":{"name":"堂島"}},{"type":"MultiPolygon","arcs":[[[101,111,91,92,93,94,95,112,103,105,106,107]]],"properties":{"name":"天満"}},{"type":"MultiPolygon","arcs":[[[99,100,97,135,136,137,-118,-83,-134]]],"properties":{"name":"同心"}},{"type":"MultiPolygon","arcs":[[[203,280,-231,126,127,128,-194,-3,-2,188,-138,-137,144,145,218,219,220,-95,-94,152,153,154,216,217,141,142,-13,-18,-44,185,186,215,124,-10,-9,-209,-192,-165,-169,205,206]]],"properties":{"name":"天神橋"}},{"type":"Polygon","arcs":[[146,147,148,-74,149,150,151]],"properties":{"name":"鶴野町"}},{"type":"Polygon","arcs":[[156,157,158,159,160,161]],"properties":{"name":"兎我野町"}},{"type":"Polygon","arcs":[[163,-145,-136,-98]],"properties":{"name":"与力町"}},{"type":"MultiPolygon","arcs":[[[207,189,190,166,167,168,164,191,208,-8]]],"properties":{"name":"本庄東"}},{"type":"MultiPolygon","arcs":[[[-258,169,-31,170,171,172,173,-157,-162,-302]]],"properties":{"name":"曽根崎"}},{"type":"MultiPolygon","arcs":[[[-88,-123,-119,176,177,237,238]]],"properties":{"name":"堂島浜"}},{"type":"Polygon","arcs":[[-173,179,180,181,182,183,184]],"properties":{"name":"堂山町"}},{"type":"Polygon","arcs":[[193,-129,194,195,-4]],"properties":{"name":"菅栄町"}},{"type":"Polygon","arcs":[[-158,-174,-185,196,197]],"properties":{"name":"太融寺町"}},{"type":"Polygon","arcs":[[198,-57,199,200,201,202,-20]],"properties":{"name":"大深町"}},{"type":"MultiPolygon","arcs":[[[-91,-28,-29,-32,210,211,-121,-124]]],"properties":{"name":"曽根崎新地"}},{"type":"Polygon","arcs":[[212,213,214,-154]],"properties":{"name":"菅原町"}},{"type":"Polygon","arcs":[[-171,-30,-22,224,225,-147,226,-181,227]],"properties":{"name":"角田町"}},{"type":"Polygon","arcs":[[-189,-1,228,-116]],"properties":{"name":"錦町"}},{"type":"MultiPolygon","arcs":[[[288,289,-195,-128,-127,230,231,232,290,291]]],"properties":{"name":"国分寺"}},{"type":"MultiPolygon","arcs":[[[-264,308,309,234,235,236,-142,-218,-217]]],"properties":{"name":"南森町"}},{"type":"MultiPolygon","arcs":[[[-191,-190,-208,-7,253,251,252,-80,-79,-111,239,254,255,-167]]],"properties":{"name":"本庄西"}},{"type":"Polygon","arcs":[[-197,-184,242,-40,-16,243,244]],"properties":{"name":"神山町"}},{"type":"MultiPolygon","arcs":[[[-333,-232,-281,-204,-207,246,247,-320,-272]]],"properties":{"name":"長柄西"}},{"type":"Polygon","arcs":[[248,249,250,-41,-243,-183]],"properties":{"name":"万歳町"}},{"type":"MultiPolygon","arcs":[[[-211,-170,257,301,-161,-160,312,-265,-235,-310,-309,-263,-262,-214,340,-347,-177,-122,-212]]],"properties":{"name":"西天満"}},{"type":"Polygon","arcs":[[-228,-180,-172]],"properties":{"name":"小松原町"}},{"type":"Polygon","arcs":[[261,262,263,-155,-215]],"properties":{"name":"天神西町"}},{"type":"Polygon","arcs":[[-236,264,265,-244,-15,266]],"properties":{"name":"南扇町"}},{"type":"MultiPolygon","arcs":[[[-341,-213,-153,-93,345,315,330,343,328,268,326,344,329,-89,-239,-238,-178,346]]],"properties":{"name":"中之島"}},{"type":"MultiPolygon","arcs":[[[-233,332,271,319,-248,320,-275,273,269,-304,-291]]],"properties":{"name":"長柄中"}},{"type":"MultiPolygon","arcs":[[[303,-270,-274,274,275,316,305,-292]]],"properties":{"name":"長柄東"}},{"type":"MultiPolygon","arcs":[[[298,350,-294,-293,-68,-222,-322,-282,-201,-200,-56,-64,-63,-49,-48,277,347]]],"properties":{"name":"中津"}},{"type":"MultiPolygon","arcs":[[[-225,-21,-203,-202,281,321,-224,322]]],"properties":{"name":"芝田"}},{"type":"Polygon","arcs":[[283,-219,-146,-164,284]],"properties":{"name":"紅梅町"}},{"type":"MultiPolygon","arcs":[[[-254,-6,-33,-66,-339,-42,-251,-350,-349,-337,-252]]],"properties":{"name":"中崎"}},{"type":"Polygon","arcs":[[-117,-229,-5,-196,-290,310,-85]],"properties":{"name":"樋之口町"}},{"type":"MultiPolygon","arcs":[[[-221,-220,-284,317,-132,-131,-106,-104,-113,-96]]],"properties":{"name":"東天満"}},{"type":"Polygon","arcs":[[-187,323,-67,-34,-11,-125,-216]],"properties":{"name":"浪花町"}},{"type":"MultiPolygon","arcs":[[[-227,-152,-151,-150,-73,-81,-253,336,348,349,-250,-249,-182]]],"properties":{"name":"中崎西"}},{"type":"Polygon","arcs":[[338,-65,-324,-186,-43]],"properties":{"name":"山崎町"}},{"type":"Polygon","arcs":[[-285,-101,-133,-318]],"properties":{"name":"松ケ枝町"}},{"type":"Polygon","arcs":[[-226,-323,-223,-148]],"properties":{"name":"茶屋町"}},{"type":"Polygon","arcs":[[-159,-198,-245,-266,-313]],"properties":{"name":"野崎町"}},{"type":"Polygon","arcs":[[-237,-267,-14,-143]],"properties":{"name":"末広町"}}]}},"arcs":[[[135.5158973942829,34.70606929915984],[135.51208970864417,34.706415501278244]],[[135.51208970864417,34.706415501278244],[135.51209459655897,34.70646598908718]],[[135.51209459655897,34.70646598908718],[135.5124171989366,34.7085864770624]],[[135.5124171989366,34.7085864770624],[135.51556501607564,34.70819339340713]],[[135.51556501607564,34.70819339340713],[135.5158973942829,34.70606929915984]],[[135.5072213454912,34.708341250561865],[135.50691340685802,34.71025618102928]],[[135.50691340685802,34.71025618102928],[135.5069476222617,34.71026699984548]],[[135.5069476222617,34.71026699984548],[135.5106331100301,34.71091252254542]],[[135.5106331100301,34.71091252254542],[135.51063799794494,34.71088006609682]],[[135.51063799794494,34.71088006609682],[135.51064288585974,34.710840397104086]],[[135.51064288585974,34.710840397104086],[135.50938180383818,34.709982104352214]],[[135.50938180383818,34.709982104352214],[135.5072213454912,34.708341250561865]],[[135.51076019581524,34.70270464732161],[135.51073086832636,34.70252433371827]],[[135.51073086832636,34.70252433371827],[135.509152071842,34.70243778318867]],[[135.509152071842,34.70243778318867],[135.50764170616503,34.702387295379744]],[[135.50764170616503,34.702387295379744],[135.50751950829473,34.704107487155554]],[[135.50751950829473,34.704107487155554],[135.51076508373006,34.704215675317556]],[[135.51076508373006,34.704215675317556],[135.51076019581524,34.70270464732161]],[[135.48994256663,34.69762340997963],[135.4899865578633,34.70010452516152]],[[135.4899865578633,34.70010452516152],[135.49712291348914,34.70395602372876]],[[135.49712291348914,34.70395602372876],[135.49725488718906,34.703757678765086]],[[135.49725488718906,34.703757678765086],[135.4981444876849,34.701651615878134]],[[135.4981444876849,34.701651615878134],[135.49557833240848,34.700414664559254]],[[135.49557833240848,34.700414664559254],[135.48994256663,34.69762340997963]],[[135.49151647519952,34.69721950750816],[135.4902749448372,34.69676872349982]],[[135.4902749448372,34.69676872349982],[135.48994256663,34.69762340997963]],[[135.49557833240848,34.700414664559254],[135.49545124662336,34.6983194204885]],[[135.49545124662336,34.6983194204885],[135.49151647519952,34.69721950750816]],[[135.49552945326036,34.69831220794437],[135.49545124662336,34.6983194204885]],[[135.4981444876849,34.701651615878134],[135.49817381517377,34.7016552221502]],[[135.49817381517377,34.7016552221502],[135.4992687080917,34.70103133708266],[135.5005004626244,34.69811025670863]],[[135.5005004626244,34.69811025670863],[135.49552945326036,34.69831220794437]],[[135.5072360092356,34.70811405542166],[135.5072213454912,34.708341250561865]],[[135.50938180383818,34.709982104352214],[135.5095479929418,34.7082727313926]],[[135.5095479929418,34.7082727313926],[135.5072360092356,34.70811405542166]],[[135.48405262928125,34.7020663371658],[135.4825862548376,34.70554999598224]],[[135.4825862548376,34.70554999598224],[135.4869511627649,34.70701774871338]],[[135.4869511627649,34.70701774871338],[135.48475648901422,34.70230074485014]],[[135.48475648901422,34.70230074485014],[135.48405262928125,34.7020663371658]],[[135.50751950829473,34.704107487155554],[135.50540304118104,34.704504177082896]],[[135.50540304118104,34.704504177082896],[135.50527595539592,34.70549590190124]],[[135.50527595539592,34.70549590190124],[135.50744130165774,34.70563654651184]],[[135.50744130165774,34.70563654651184],[135.5107797474745,34.705632940239774]],[[135.5107797474745,34.705632940239774],[135.51076508373006,34.704215675317556]],[[135.48748883339425,34.70720166858879],[135.4869511627649,34.70701774871338]],[[135.4825862548376,34.70554999598224],[135.4790669561728,34.70994243535948]],[[135.4790669561728,34.70994243535948],[135.48260091858202,34.7121170174157]],[[135.48260091858202,34.7121170174157],[135.48522572883618,34.70868024013613],[135.4880313919384,34.70910938651207]],[[135.4880313919384,34.70910938651207],[135.48748883339425,34.70720166858879]],[[135.4846294032291,34.70033172030172],[135.48476626484384,34.70230435112221]],[[135.48476626484384,34.70230435112221],[135.487312868461,34.703357382565684]],[[135.487312868461,34.703357382565684],[135.48716623101663,34.701125100156396]],[[135.48716623101663,34.701125100156396],[135.4846294032291,34.70033172030172]],[[135.487312868461,34.703357382565684],[135.48733242012025,34.703660309419284]],[[135.48733242012025,34.703660309419284],[135.49084683087025,34.704060605618686]],[[135.49084683087025,34.704060605618686],[135.49133073443664,34.70414715614829]],[[135.49133073443664,34.70414715614829],[135.49084194295543,34.702664978328876]],[[135.49084194295543,34.702664978328876],[135.48793363364217,34.702307957394275],[135.48716623101663,34.701125100156396]],[[135.48188239510463,34.70196896782],[135.48186284344538,34.7052939506655]],[[135.48186284344538,34.7052939506655],[135.4825862548376,34.70554999598224]],[[135.48405262928125,34.7020663371658],[135.48188239510463,34.70196896782]],[[135.48733242012025,34.703660309419284],[135.48748883339425,34.70720166858879]],[[135.48748883339425,34.70720166858879],[135.4907539604888,34.708287156480864]],[[135.4907539604888,34.708287156480864],[135.49084683087025,34.704060605618686]],[[135.50965063915285,34.70636140719724],[135.50736798293556,34.70658860233745]],[[135.50736798293556,34.70658860233745],[135.5072360092356,34.70811405542166]],[[135.5095479929418,34.7082727313926],[135.50965063915285,34.70636140719724]],[[135.49688829357814,34.71111086750909],[135.49833022844777,34.71303661679271]],[[135.49833022844777,34.71303661679271],[135.50020718773564,34.713552313698244]],[[135.50020718773564,34.713552313698244],[135.50021696356526,34.71355591997031]],[[135.50021696356526,34.71355591997031],[135.50035871309484,34.71144625081129]],[[135.50035871309484,34.71144625081129],[135.49688829357814,34.71111086750909]],[[135.5020352678754,34.70947722626288],[135.5020254920458,34.709466407446676]],[[135.5020254920458,34.709466407446676],[135.50068131547243,34.70932576283607]],[[135.50068131547243,34.70932576283607],[135.5003929284985,34.71144985708336]],[[135.5003929284985,34.71144985708336],[135.50248006812333,34.711677052223564]],[[135.50248006812333,34.711677052223564],[135.5020352678754,34.70947722626288]],[[135.50248006812333,34.711677052223564],[135.50279778258613,34.71325659938878]],[[135.50279778258613,34.71325659938878],[135.5039806579707,34.71183933446656]],[[135.5039806579707,34.71183933446656],[135.50444989779265,34.70982342838128]],[[135.50444989779265,34.70982342838128],[135.5020352678754,34.70947722626288]],[[135.51914785763302,34.70310494352101],[135.5176668194449,34.70251351490207]],[[135.5176668194449,34.70251351490207],[135.51709004549707,34.70377210385335]],[[135.51709004549707,34.70377210385335],[135.5160293679828,34.70599356744644]],[[135.5160293679828,34.70599356744644],[135.51799919765213,34.707551476979255]],[[135.51799919765213,34.707551476979255],[135.51781834480408,34.7057375221297],[135.51914785763302,34.70310494352101]],[[135.4918293017475,34.69666414160989],[135.49233275697316,34.69515311361394]],[[135.49233275697316,34.69515311361394],[135.4926651351804,34.69401713791293]],[[135.4926651351804,34.69401713791293],[135.49120364865155,34.69377191141239]],[[135.49120364865155,34.69377191141239],[135.4902749448372,34.69676872349982]],[[135.49151647519952,34.69721950750816],[135.4918293017475,34.69666414160989]],[[135.51464120017613,34.69131604013497],[135.51427949448004,34.691334071495305]],[[135.51427949448004,34.691334071495305],[135.5133850060694,34.69149996001037]],[[135.5133850060694,34.69149996001037],[135.51349742811007,34.69547767809994]],[[135.51349742811007,34.69547767809994],[135.51370760844702,34.696162869792616]],[[135.51370760844702,34.696162869792616],[135.51506156085,34.69604746908648]],[[135.51506156085,34.69604746908648],[135.51464120017613,34.69131604013497]],[[135.51471940681313,34.69975471677105],[135.51496380255375,34.702077155982]],[[135.51496380255375,34.702077155982],[135.51818005050018,34.701352295296594]],[[135.51818005050018,34.701352295296594],[135.5181409471817,34.69958522198392]],[[135.5181409471817,34.69958522198392],[135.51471940681313,34.69975471677105]],[[135.517378432471,34.69118621434057],[135.5156969897756,34.69126194605397]],[[135.5156969897756,34.69126194605397],[135.5161124625346,34.69595009974068]],[[135.5161124625346,34.69595009974068],[135.51791610310033,34.695816667674215]],[[135.51791610310033,34.695816667674215],[135.517378432471,34.69118621434057]],[[135.51791610310033,34.695816667674215],[135.51799919765213,34.69696346219142]],[[135.51799919765213,34.69696346219142],[135.5228528970607,34.69749719045729]],[[135.5228528970607,34.69749719045729],[135.52256451008677,34.694536441090534],[135.52044804297307,34.69181009940811],[135.517378432471,34.69118621434057]],[[135.5003929284985,34.71144985708336],[135.50035871309484,34.71144625081129]],[[135.50021696356526,34.71355591997031],[135.50295419586013,34.714010310250714]],[[135.50295419586013,34.714010310250714],[135.50279778258613,34.71325659938878]],[[135.5156969897756,34.69126194605397],[135.51464120017613,34.69131604013497]],[[135.51506156085,34.69604746908648],[135.5161124625346,34.69595009974068]],[[135.47741972888107,34.70311576233721],[135.47404217974582,34.706783341029045],[135.4790669561728,34.70994243535948]],[[135.48186284344538,34.7052939506655],[135.47741972888107,34.70311576233721]],[[135.51381025465807,34.704013724081825],[135.51592672177176,34.70590701691684]],[[135.51592672177176,34.70590701691684],[135.5160293679828,34.70599356744644]],[[135.51709004549707,34.70377210385335],[135.51381025465807,34.704013724081825]],[[135.50115544320923,34.69571208578428],[135.49553922908999,34.69571208578428]],[[135.49553922908999,34.69571208578428],[135.49544635870853,34.69742867128803]],[[135.49544635870853,34.69742867128803],[135.50119454652773,34.69620253878535]],[[135.50119454652773,34.69620253878535],[135.50115544320923,34.69571208578428]],[[135.49553922908999,34.69571208578428],[135.49233275697316,34.69515311361394]],[[135.4918293017475,34.69666414160989],[135.49544635870853,34.69742867128803]],[[135.51073086832636,34.7088244910188],[135.51064288585974,34.710840397104086]],[[135.51063799794494,34.71088006609682],[135.51177688209617,34.71055910788289]],[[135.51177688209617,34.71055910788289],[135.51309661909548,34.710162417955544]],[[135.51309661909548,34.710162417955544],[135.51312105866955,34.71015520541141]],[[135.51312105866955,34.71015520541141],[135.5125393968069,34.7087703969378]],[[135.5125393968069,34.7087703969378],[135.51073086832636,34.7088244910188]],[[135.51799919765213,34.69696346219142],[135.51800897348176,34.69708246916962]],[[135.51800897348176,34.69708246916962],[135.51801386139658,34.6981355006131]],[[135.51801386139658,34.6981355006131],[135.5181409471817,34.69958522198392]],[[135.51818005050018,34.701352295296594],[135.5176668194449,34.70251351490207]],[[135.51914785763302,34.70310494352101],[135.521230109343,34.70055530916986],[135.5228528970607,34.69749719045729]],[[135.51496380255375,34.702077155982],[135.51299886079923,34.702196162960206]],[[135.51299886079923,34.702196162960206],[135.5128717750141,34.70307248707241]],[[135.5128717750141,34.70307248707241],[135.51381025465807,34.704013724081825]],[[135.48188239510463,34.70196896782],[135.47878834502848,34.70184635456974]],[[135.47878834502848,34.70184635456974],[135.47741972888107,34.70311576233721]],[[135.5125051814032,34.69850694663597],[135.51089216951516,34.698629559886236]],[[135.51089216951516,34.698629559886236],[135.51082373870778,34.69994224291852]],[[135.51082373870778,34.69994224291852],[135.51073086832636,34.70252433371827]],[[135.51076019581524,34.70270464732161],[135.5128717750141,34.70307248707241]],[[135.51299886079923,34.702196162960206],[135.51262249135868,34.69988093629338]],[[135.51262249135868,34.69988093629338],[135.5125051814032,34.69850694663597]],[[135.50097947827598,34.70559327124704],[135.50093548704268,34.705521145805704]],[[135.50093548704268,34.705521145805704],[135.5004222559874,34.709300518931606]],[[135.5004222559874,34.709300518931606],[135.50068131547243,34.70932576283607]],[[135.5020254920458,34.709466407446676],[135.5018201996237,34.708467470084194]],[[135.5018201996237,34.708467470084194],[135.5015464763942,34.70702496125752]],[[135.5015464763942,34.70702496125752],[135.50097947827598,34.70559327124704]],[[135.5133850060694,34.69149996001037],[135.51177199418137,34.691856980944976]],[[135.51177199418137,34.691856980944976],[135.51101436738549,34.694100082170465]],[[135.51101436738549,34.694100082170465],[135.51097037615216,34.69554259099714]],[[135.51097037615216,34.69554259099714],[135.51349742811007,34.69547767809994]],[[135.50184952711257,34.69958161571185],[135.5017810963052,34.70091954264859]],[[135.5017810963052,34.70091954264859],[135.5049044738702,34.7015470339882],[135.50592116015113,34.70093396773686]],[[135.50592116015113,34.70093396773686],[135.5060677975955,34.699823235940315]],[[135.5060677975955,34.699823235940315],[135.50599936678813,34.69981962966825]],[[135.50599936678813,34.69981962966825],[135.50412240750023,34.699689803873845]],[[135.50412240750023,34.699689803873845],[135.50184952711257,34.69958161571185]],[[135.48476626484384,34.70230435112221],[135.48475648901422,34.70230074485014]],[[135.51471940681313,34.69975471677105],[135.51262249135868,34.69988093629338]],[[135.51055001547832,34.71494794098806],[135.51055001547832,34.714864996730526]],[[135.51055001547832,34.714864996730526],[135.50651259784343,34.714789265017124]],[[135.50651259784343,34.714789265017124],[135.5063903999731,34.72002917833004]],[[135.5063903999731,34.72002917833004],[135.5103007318229,34.720130153947906]],[[135.5103007318229,34.720130153947906],[135.51097037615216,34.71798081579615],[135.51055001547832,34.71494794098806]],[[135.50183975128294,34.69803091872316],[135.5005004626244,34.69811025670863]],[[135.49817381517377,34.7016552221502],[135.49953265549155,34.70186799220213]],[[135.49953265549155,34.70186799220213],[135.50176154464594,34.702023061901]],[[135.50176154464594,34.702023061901],[135.50176643256074,34.702008636812735]],[[135.50176643256074,34.702008636812735],[135.5017810963052,34.70091954264859]],[[135.50184952711257,34.69958161571185],[135.50183975128294,34.69803091872316]],[[135.4846294032291,34.70033172030172],[135.483954870985,34.69941212092471],[135.47878834502848,34.70184635456974]],[[135.50115544320923,34.69571208578428],[135.5010332453389,34.6947672425028]],[[135.5010332453389,34.6947672425028],[135.49577384900095,34.6944751344654]],[[135.49577384900095,34.6944751344654],[135.49553922908999,34.69571208578428]],[[135.50176154464594,34.702023061901],[135.50157091596827,34.70390914219189]],[[135.50157091596827,34.70390914219189],[135.5013118564832,34.70518215623143]],[[135.5013118564832,34.70518215623143],[135.50253383518626,34.70475661612756]],[[135.50253383518626,34.70475661612756],[135.5046307506407,34.70434189483989]],[[135.5046307506407,34.70434189483989],[135.50483115514803,34.70226828840154]],[[135.50483115514803,34.70226828840154],[135.50176643256074,34.702008636812735]],[[135.5107797474745,34.705632940239774],[135.51076019581524,34.705910623188906]],[[135.51076019581524,34.705910623188906],[135.51076019581524,34.70650565807991]],[[135.51076019581524,34.70650565807991],[135.51209459655897,34.70646598908718]],[[135.51208970864417,34.706415501278244],[135.51175733043692,34.705063149253235],[135.51381025465807,34.704013724081825]],[[135.50676676941364,34.71217471776877],[135.50676676941364,34.7121927491291]],[[135.50676676941364,34.7121927491291],[135.50651259784343,34.714789265017124]],[[135.51055001547832,34.714864996730526],[135.51060378254124,34.71267598958604]],[[135.51060378254124,34.71267598958604],[135.50676676941364,34.71217471776877]],[[135.5124171989366,34.7085864770624],[135.5125393968069,34.7087703969378]],[[135.51312105866955,34.71015520541141],[135.51553568858677,34.70938706946121]],[[135.51553568858677,34.70938706946121],[135.51556501607564,34.70819339340713]],[[135.50483115514803,34.70226828840154],[135.50574030730309,34.70231156366634]],[[135.50574030730309,34.70231156366634],[135.50592116015113,34.70093396773686]],[[135.4899865578633,34.70010452516152],[135.49084194295543,34.702664978328876]],[[135.49133073443664,34.70414715614829],[135.49353518401696,34.709257243666805]],[[135.49353518401696,34.709257243666805],[135.4952215146272,34.7088244910188]],[[135.4952215146272,34.7088244910188],[135.49453720655347,34.7087163028568],[135.49531927292344,34.70497659872363],[135.49697138812996,34.7052506754007]],[[135.49697138812996,34.7052506754007],[135.49712291348914,34.70395602372876]],[[135.51212392404784,34.71519316748859],[135.51196262285904,34.71516431731206]],[[135.51196262285904,34.71516431731206],[135.51055001547832,34.71494794098806]],[[135.5103007318229,34.720130153947906],[135.51151782261113,34.72015900412444]],[[135.51151782261113,34.72015900412444],[135.51232921646996,34.717028759970546],[135.51212392404784,34.71519316748859]],[[135.5069476222617,34.71026699984548],[135.50676676941364,34.71217471776877]],[[135.51060378254124,34.71267598958604],[135.5106331100301,34.71091252254542]],[[135.49544635870853,34.69742867128803],[135.49552945326036,34.69831220794437]],[[135.5005004626244,34.69811025670863],[135.50092571121306,34.697024768816554]],[[135.50092571121306,34.697024768816554],[135.50119454652773,34.69620253878535]],[[135.51177199418137,34.691856980944976],[135.50877570240146,34.69274412387338]],[[135.50877570240146,34.69274412387338],[135.50948933796406,34.69408205081013]],[[135.50948933796406,34.69408205081013],[135.51101436738549,34.694100082170465]],[[135.51076019581524,34.70650565807991],[135.51073086832636,34.7088244910188]],[[135.51097037615216,34.69554259099714],[135.51092638491886,34.69753325317796]],[[135.51092638491886,34.69753325317796],[135.51089216951516,34.698629559886236]],[[135.5125051814032,34.69850694663597],[135.5125491726365,34.69850334036391]],[[135.5125491726365,34.69850334036391],[135.51381514257287,34.69735293957463]],[[135.51381514257287,34.69735293957463],[135.51370760844702,34.696162869792616]],[[135.49627730422662,34.70884973492327],[135.49688829357814,34.71111086750909]],[[135.5004222559874,34.709300518931606],[135.49784632488135,34.70903365479867]],[[135.49784632488135,34.70903365479867],[135.49627730422662,34.70884973492327]],[[135.49725488718906,34.703757678765086],[135.49922471685838,34.70417961259689]],[[135.49922471685838,34.70417961259689],[135.50093548704268,34.705521145805704]],[[135.50097947827598,34.70559327124704],[135.5013118564832,34.70518215623143]],[[135.50157091596827,34.70390914219189],[135.49953265549155,34.70186799220213]],[[135.5158973942829,34.70606929915984],[135.51592672177176,34.70590701691684]],[[135.51328724777315,34.710609595691814],[135.51309661909548,34.710162417955544]],[[135.51177688209617,34.71055910788289],[135.51205549324047,34.71263992686537]],[[135.51205549324047,34.71263992686537],[135.51377603925437,34.712135048776034]],[[135.51377603925437,34.712135048776034],[135.51328724777315,34.710609595691814]],[[135.51092638491886,34.69753325317796],[135.5092253905642,34.697659472700295]],[[135.5092253905642,34.697659472700295],[135.5091471839272,34.69995306173472]],[[135.5091471839272,34.69995306173472],[135.5091471839272,34.69997469936712]],[[135.5091471839272,34.69997469936712],[135.51082373870778,34.69994224291852]],[[135.49577384900095,34.6944751344654],[135.49574452151208,34.694453496833]],[[135.49574452151208,34.694453496833],[135.4926651351804,34.69401713791293]],[[135.50295419586013,34.714010310250714],[135.50324258283405,34.71411128586858]],[[135.50324258283405,34.71411128586858],[135.50651259784343,34.714789265017124]],[[135.50676676941364,34.7121927491291],[135.5039806579707,34.71183933446656]],[[135.5046307506407,34.70434189483989],[135.50540304118104,34.704504177082896]],[[135.50764170616503,34.702387295379744],[135.50629752959168,34.702340413842876]],[[135.50629752959168,34.702340413842876],[135.50574030730309,34.70231156366634]],[[135.51392267669874,34.7154744567098],[135.51212392404784,34.71519316748859]],[[135.51151782261113,34.72015900412444],[135.51393245252837,34.720433080801506]],[[135.51393245252837,34.720433080801506],[135.51392267669874,34.7154744567098]],[[135.50253383518626,34.70475661612756],[135.50377047763376,34.70561490887944]],[[135.50377047763376,34.70561490887944],[135.50473339685178,34.70641910755031]],[[135.50473339685178,34.70641910755031],[135.50527595539592,34.70549590190124]],[[135.50524662790704,34.70996767926395],[135.50445967362228,34.709827034653344]],[[135.50445967362228,34.709827034653344],[135.50444989779265,34.70982342838128]],[[135.50691340685802,34.71025618102928],[135.50524662790704,34.70996767926395]],[[135.50324258283405,34.71411128586858],[135.50386823593,34.717198254757676],[135.5036678314227,34.71998229679317]],[[135.5036678314227,34.71998229679317],[135.5063903999731,34.72002917833004]],[[135.5057012039846,34.69573732968875],[135.50092571121306,34.697024768816554]],[[135.50183975128294,34.69803091872316],[135.50412240750023,34.697926336833234]],[[135.50412240750023,34.697926336833234],[135.50610201299918,34.697792904766764]],[[135.50610201299918,34.697792904766764],[135.50624376252875,34.69778569222263]],[[135.50624376252875,34.69778569222263],[135.5057012039846,34.69573732968875]],[[135.50948933796406,34.69408205081013],[135.5093475884345,34.69419023897213]],[[135.5093475884345,34.69419023897213],[135.50932803677526,34.695560622357476]],[[135.50932803677526,34.695560622357476],[135.51097037615216,34.69554259099714]],[[135.5091471839272,34.69995306173472],[135.5077052490576,34.69994224291852]],[[135.5077052490576,34.69994224291852],[135.50827224717582,34.70174537895187],[135.50629752959168,34.702340413842876]],[[135.509152071842,34.70243778318867],[135.5091471839272,34.69997469936712]],[[135.4849080143734,34.689649942440155],[135.4873519717795,34.6878468064068]],[[135.4873519717795,34.6878468064068],[135.48238096241548,34.68491490721657],[135.48097813086437,34.68464083053951],[135.4849080143734,34.689649942440155]],[[135.5159120580273,34.712145867592234],[135.51581429973106,34.71189342854756]],[[135.51581429973106,34.71189342854756],[135.5138200304877,34.71215308013637]],[[135.5138200304877,34.71215308013637],[135.51492958715005,34.7157341082986]],[[135.51492958715005,34.7157341082986],[135.51556501607564,34.715936059534336]],[[135.51556501607564,34.715936059534336],[135.5159120580273,34.712145867592234]],[[135.51556501607564,34.715936059534336],[135.51540860280167,34.72009048495517]],[[135.51540860280167,34.72009048495517],[135.5188594706591,34.71876337683463],[135.51980283821786,34.71763461367775]],[[135.51980283821786,34.71763461367775],[135.51556501607564,34.715936059534336]],[[135.48260091858202,34.7121170174157],[135.48636950090224,34.71438896881772]],[[135.48636950090224,34.71438896881772],[135.48952709387095,34.710818759471685]],[[135.48952709387095,34.710818759471685],[135.4880313919384,34.70910938651207]],[[135.51196262285904,34.71516431731206],[135.51205549324047,34.71263992686537]],[[135.4952215146272,34.7088244910188],[135.49617465801558,34.708831703562936]],[[135.49617465801558,34.708831703562936],[135.49697138812996,34.7052506754007]],[[135.51459232102803,34.69836630202537],[135.5125491726365,34.69850334036391]],[[135.51471940681313,34.69975471677105],[135.51459232102803,34.69836630202537]],[[135.48952709387095,34.710818759471685],[135.49089571001838,34.71019126813208]],[[135.49089571001838,34.71019126813208],[135.49327123661712,34.70964672105001]],[[135.49327123661712,34.70964672105001],[135.4907539604888,34.708287156480864]],[[135.52001301855478,34.71017684304381],[135.5185026528778,34.708467470084194]],[[135.5185026528778,34.708467470084194],[135.51553568858677,34.70938706946121]],[[135.51328724777315,34.710609595691814],[135.51557479190527,34.71052304516222]],[[135.51557479190527,34.71052304516222],[135.52001301855478,34.71017684304381]],[[135.49833022844777,34.71303661679271],[135.4983057888737,34.71344773180831]],[[135.4983057888737,34.71344773180831],[135.4985452966995,34.716026216336004],[135.49732820591126,34.719794770645706]],[[135.49732820591126,34.719794770645706],[135.49971839625442,34.719874108631174]],[[135.49971839625442,34.719874108631174],[135.50020718773564,34.713552313698244]],[[135.49370626103538,34.70954213916007],[135.49327123661712,34.70964672105001]],[[135.49089571001838,34.71019126813208],[135.49123786405522,34.71280220910837],[135.48882323413798,34.715780989835466]],[[135.48882323413798,34.715780989835466],[135.49241096361015,34.71769952657495]],[[135.49241096361015,34.71769952657495],[135.49471805940152,34.71481450892159],[135.4953925916456,34.71195834144476]],[[135.4953925916456,34.71195834144476],[135.49370626103538,34.70954213916007]],[[135.50412240750023,34.697926336833234],[135.50412240750023,34.699689803873845]],[[135.50599936678813,34.69981962966825],[135.50610201299918,34.697792904766764]],[[135.51557479190527,34.71052304516222],[135.51581429973106,34.71189342854756]],[[135.5159120580273,34.712145867592234],[135.5188203673406,34.7125389512475],[135.5213816347022,34.71216389895257]],[[135.5213816347022,34.71216389895257],[135.52001301855478,34.71017684304381]],[[135.50591627223633,34.70732067556698],[135.50524662790704,34.70996767926395]],[[135.5072213454912,34.708341250561865],[135.50591627223633,34.70732067556698]],[[135.50932803677526,34.695560622357476],[135.509230278479,34.69758374098689]],[[135.509230278479,34.69758374098689],[135.5092253905642,34.697659472700295]],[[135.5185026528778,34.708467470084194],[135.51799919765213,34.707551476979255]],[[135.509230278479,34.69758374098689],[135.50624376252875,34.69778569222263]],[[135.5060677975955,34.699823235940315],[135.5077052490576,34.69994224291852]],[[135.4960671238897,34.69269002979238],[135.49574452151208,34.694453496833]],[[135.5010332453389,34.6947672425028],[135.50088171997973,34.69299295664599]],[[135.50088171997973,34.69299295664599],[135.4960671238897,34.69269002979238]],[[135.51980283821786,34.71763461367775],[135.52125454891709,34.71560788877626],[135.5213816347022,34.71216389895257]],[[135.51459232102803,34.69836630202537],[135.51801386139658,34.6981355006131]],[[135.51800897348176,34.69708246916962],[135.51381514257287,34.69735293957463]],[[135.51492958715005,34.7157341082986],[135.51392267669874,34.7154744567098]],[[135.51393245252837,34.720433080801506],[135.51540860280167,34.72009048495517]],[[135.49617465801558,34.708831703562936],[135.49627730422662,34.70884973492327]],[[135.49784632488135,34.70903365479867],[135.49922471685838,34.70417961259689]],[[135.51076019581524,34.705910623188906],[135.50965063915285,34.70636140719724]],[[135.49353518401696,34.709257243666805],[135.49370626103538,34.70954213916007]],[[135.4953925916456,34.71195834144476],[135.4983057888737,34.71344773180831]],[[135.4849080143734,34.689649942440155],[135.48852507133444,34.69268281724825]],[[135.48852507133444,34.69268281724825],[135.49066597802218,34.68962469853569]],[[135.49066597802218,34.68962469853569],[135.4873519717795,34.6878468064068]],[[135.49108633869605,34.69373584869172],[135.49120364865155,34.69377191141239]],[[135.4960671238897,34.69269002979238],[135.49281666053957,34.691013113281365]],[[135.49281666053957,34.691013113281365],[135.49108633869605,34.69373584869172]],[[135.51377603925437,34.712135048776034],[135.5138200304877,34.71215308013637]],[[135.50331101364142,34.70716921214019],[135.5015464763942,34.70702496125752]],[[135.5018201996237,34.708467470084194],[135.50339410819322,34.7086405711434]],[[135.50339410819322,34.7086405711434],[135.50331101364142,34.70716921214019]],[[135.50445967362228,34.709827034653344],[135.50468451770365,34.70870909031267]],[[135.50468451770365,34.70870909031267],[135.50339410819322,34.7086405711434]],[[135.50744130165774,34.70563654651184],[135.50736798293556,34.70658860233745]],[[135.50331101364142,34.70716921214019],[135.50377047763376,34.70561490887944]],[[135.50877570240146,34.69274412387338],[135.50486048263687,34.69432006476653]],[[135.50486048263687,34.69432006476653],[135.5057012039846,34.69573732968875]],[[135.5057012039846,34.69573732968875],[135.5093475884345,34.69419023897213]],[[135.49281666053957,34.691013113281365],[135.49066597802218,34.68962469853569]],[[135.48852507133444,34.69268281724825],[135.49108633869605,34.69373584869172]],[[135.51427949448004,34.691334071495305],[135.51068687709306,34.690800343229434],[135.50639528788793,34.69237989039465],[135.50088171997973,34.69299295664599]],[[135.5010332453389,34.6947672425028],[135.50486048263687,34.69432006476653]],[[135.48636950090224,34.71438896881772],[135.48882323413798,34.715780989835466]],[[135.50468451770365,34.70870909031267],[135.5056181094328,34.70708626788265]],[[135.5056181094328,34.70708626788265],[135.50473339685178,34.70641910755031]],[[135.49241096361015,34.71769952657495],[135.49732820591126,34.719794770645706]],[[135.5056181094328,34.70708626788265],[135.50591627223633,34.70732067556698]],[[135.49971839625442,34.719874108631174],[135.5036678314227,34.71998229679317]]]}