{"type":"Topology","bbox":[135.44567718348125,34.70667126239584,135.50653945314147,34.75126778440957],"objects":{"town":{"type":"GeometryCollection","geometries":[{"type":"MultiPolygon","arcs":[[[102,5,6,-71,2,3,0,-33,-122,-121,163,-129]]],"properties":{"name":"十三東"}},{"type":"MultiPolygon","arcs":[[[-61,109,-27,9,-35,-34,-1,122,11,110]]],"properties":{"name":"新北野"}},{"type":"MultiPolygon","arcs":[[[34,-10,-26,35,117,12,13,14,15,-30,-29]]],"properties":{"name":"十三元今里"}},{"type":"MultiPolygon","arcs":[[[-25,149,20,21,17,18,-138,-13,-118,-36]]],"properties":{"name":"田川"}},{"type":"MultiPolygon","arcs":[[[223,-22,-21,-150,24,25,26,-110,60,61,220,51]]],"properties":{"name":"塚本"}},{"type":"MultiPolygon","arcs":[[[119,120,121,32,33,28,29,-16]]],"properties":{"name":"十三本町"}},{"type":"MultiPolygon","arcs":[[[106,107,108,-49,103,203,37,147,148]]],"properties":{"name":"加島"}},{"type":"MultiPolygon","arcs":[[[-73,86,-117,-131,40,41,42,43,44,45,-56,-97,-113,-112,88,89]]],"properties":{"name":"木川東"}},{"type":"MultiPolygon","arcs":[[[137,-19,47,48,49,135,198,-142,-176,-14]]],"properties":{"name":"田川北"}},{"type":"MultiPolygon","arcs":[[[66,67,68,210,127,114,-89,111,112,96,55,-46,-45,62,63]]],"properties":{"name":"西中島"}},{"type":"MultiPolygon","arcs":[[[-41,130,116,-87,72,73,-3,70,-7,-6,-103,128,129,93,94,-42]]],"properties":{"name":"木川西"}},{"type":"MultiPolygon","arcs":[[[212,213,85,82,-210,151,152,153,76,77,184]]],"properties":{"name":"東三国"}},{"type":"MultiPolygon","arcs":[[[-214,230,92,-68,-67,-64,-158,78,-193,-86]]],"properties":{"name":"宮原"}},{"type":"MultiPolygon","arcs":[[[207,208,-152,209,-83,-192,160,161,125,194,195,196,197]]],"properties":{"name":"西三国"}},{"type":"MultiPolygon","arcs":[[[-79,157,-63,-44,156,131,132,190,-161,191,192]]],"properties":{"name":"西宮原"}},{"type":"MultiPolygon","arcs":[[[-50,-109,225,-201,-200,-169,139,140,141,-199,-136]]],"properties":{"name":"三津屋南"}},{"type":"MultiPolygon","arcs":[[[143,204,-196,205,206,180,181,182,-171,-170,-167,214,217,218,234]]],"properties":{"name":"新高"}},{"type":"MultiPolygon","arcs":[[[-108,-222,202,-190,165,166,167,-140,168,199,200,-226]]],"properties":{"name":"三津屋中"}},{"type":"MultiPolygon","arcs":[[[172,-141,-168,169,170,-183,-232,-236,-177]]],"properties":{"name":"野中北"}},{"type":"MultiPolygon","arcs":[[[-198,232,236,174,-77,-154,-153,-209,-208]]],"properties":{"name":"十八条"}},{"type":"MultiPolygon","arcs":[[[-120,-15,175,-173,176,235,-94,-130,-164]]],"properties":{"name":"野中南"}},{"type":"MultiPolygon","arcs":[[[221,-107,-149,222,187,237,-218,-215,-166,189,-203]]],"properties":{"name":"三津屋北"}},{"type":"MultiPolygon","arcs":[[[231,-182,-181,-207,-206,-195,-126,-162,-191,-133,-132,-157,-43,-95]]],"properties":{"name":"三国本町"}}]}},"arcs":[[[135.4863737666344,34.714387232301206],[135.48286774930023,34.71885179061061]],[[135.48286774930023,34.71885179061061],[135.48829720669966,34.72148770865343]],[[135.48829720669966,34.72148770865343],[135.4909815012211,34.71696070896906]],[[135.4909815012211,34.71696070896906],[135.4863737666344,34.714387232301206]],[[135.48278253360112,34.72198723965308],[135.48659289271777,34.72343231147351],[135.48799895175284,34.72309780410767]],[[135.48799895175284,34.72309780410767],[135.48916762419756,34.721924798278124]],[[135.48916762419756,34.721924798278124],[135.48881458772988,34.72174639434967]],[[135.48881458772988,34.72174639434967],[135.48613029320842,34.721452027867734],[135.48554595698604,34.720542167832654],[135.48291035714976,34.72072949195752],[135.48278253360112,34.72198723965308]],[[135.47942868715822,34.71016797939341],[135.4752409442313,34.715060707131094],[135.47563658854853,34.71611775040714]],[[135.47563658854853,34.71611775040714],[135.47897826132015,34.71702761044223]],[[135.47897826132015,34.71702761044223],[135.48311122272622,34.712424789088274]],[[135.48311122272622,34.712424789088274],[135.47942868715822,34.71016797939341]],[[135.4745409581316,34.722156723385105],[135.47379836418233,34.7225938130098]],[[135.47379836418233,34.7225938130098],[135.47802262812317,34.72412808679445],[135.47912434537574,34.725082547811645]],[[135.47912434537574,34.725082547811645],[135.47965390007724,34.724480434553136]],[[135.47965390007724,34.724480434553136],[135.47844261978298,34.724172687776566],[135.47819305952135,34.720622449600455]],[[135.47819305952135,34.720622449600455],[135.4745409581316,34.722156723385105]],[[135.46449159247413,34.71757620252221],[135.46108296451035,34.72150554904627]],[[135.46108296451035,34.72150554904627],[135.46743762092854,34.720693811171834],[135.46883759312794,34.72120226236791]],[[135.46883759312794,34.72120226236791],[135.46926975845906,34.719315640824576]],[[135.46926975845906,34.719315640824576],[135.46772370220407,34.7186510861911]],[[135.46772370220407,34.7186510861911],[135.46449159247413,34.71757620252221]],[[135.47187492411706,34.71508300762215],[135.47117493801738,34.717081131620766]],[[135.47117493801738,34.717081131620766],[135.47122971953823,34.71832103892348]],[[135.47122971953823,34.71832103892348],[135.4735974986059,34.71743347937945]],[[135.4735974986059,34.71743347937945],[135.47563658854853,34.71611775040714]],[[135.47563658854853,34.71611775040714],[135.47421835584217,34.71572526176456]],[[135.47421835584217,34.71572526176456],[135.47187492411706,34.71508300762215]],[[135.47909999803312,34.717067751326134],[135.47803480179445,34.718762588646385]],[[135.47803480179445,34.718762588646385],[135.47819305952135,34.720622449600455]],[[135.47819305952135,34.720622449600455],[135.48130951937392,34.71957878661903],[135.48156516647123,34.721157661385796]],[[135.48156516647123,34.721157661385796],[135.48183298723978,34.72089005549312]],[[135.48183298723978,34.72089005549312],[135.48286774930023,34.71885179061061]],[[135.48286774930023,34.71885179061061],[135.47909999803312,34.717067751326134]],[[135.47909999803312,34.717067751326134],[135.47897826132015,34.71702761044223]],[[135.4735974986059,34.71743347937945],[135.47429139786996,34.719016814244426]],[[135.47429139786996,34.719016814244426],[135.47803480179445,34.718762588646385]],[[135.44677890073382,34.73255767241361],[135.4496092793109,34.73436401218915],[135.45544046786318,34.7345067353319],[135.4587821406348,34.733565654609336]],[[135.4587821406348,34.733565654609336],[135.4574795578058,34.7296853691656]],[[135.4574795578058,34.7296853691656],[135.44677890073382,34.73255767241361]],[[135.48966065788517,34.72703607082815],[135.48951457382958,34.72737949839041]],[[135.48951457382958,34.72737949839041],[135.48825459885012,34.729952975058275]],[[135.48825459885012,34.729952975058275],[135.48995282599634,34.730555088316784]],[[135.48995282599634,34.730555088316784],[135.4930388516707,34.73155415031609]],[[135.4930388516707,34.73155415031609],[135.49401274537462,34.72906541551424]],[[135.49401274537462,34.72906541551424],[135.4942075241154,34.727557902318864]],[[135.4942075241154,34.727557902318864],[135.48966065788517,34.72703607082815]],[[135.46108296451035,34.72150554904627],[135.45987777105174,34.72265179428655]],[[135.45987777105174,34.72265179428655],[135.46411420866386,34.72211212240299]],[[135.46411420866386,34.72211212240299],[135.46895324300527,34.72348137255383]],[[135.46895324300527,34.72348137255383],[135.46883759312794,34.72120226236791]],[[135.46766283384756,34.71394568257829],[135.46642111937504,34.71539075439872]],[[135.46642111937504,34.71539075439872],[135.46878889844274,34.71642995728193]],[[135.46878889844274,34.71642995728193],[135.47117493801738,34.717081131620766]],[[135.47187492411706,34.71508300762215],[135.46766283384756,34.71394568257829]],[[135.49421969778672,34.727464240256424],[135.4942075241154,34.727557902318864]],[[135.49401274537462,34.72906541551424],[135.49825526982238,34.72972104995129]],[[135.49825526982238,34.72972104995129],[135.49822483564412,34.727945930863235]],[[135.49822483564412,34.727945930863235],[135.49421969778672,34.727464240256424]],[[135.46981148683187,34.71133206502653],[135.47269664692976,34.713129484605645]],[[135.47269664692976,34.713129484605645],[135.47697569239142,34.708656006099815]],[[135.47697569239142,34.708656006099815],[135.4738531457032,34.70667126239584],[135.46981148683187,34.71133206502653]],[[135.4930388516707,34.73155415031609],[135.4948588155299,34.732169643869234]],[[135.4948588155299,34.732169643869234],[135.498157880452,34.73324006743992]],[[135.498157880452,34.73324006743992],[135.49825526982238,34.72972104995129]],[[135.4983161381789,34.72795485105966],[135.49822483564412,34.727945930863235]],[[135.498157880452,34.73324006743992],[135.49818831463023,34.733248987636344]],[[135.49818831463023,34.733248987636344],[135.50250996794145,34.73459147719792]],[[135.50250996794145,34.73459147719792],[135.5018769370339,34.73182621630697],[135.5022847550224,34.728097574202415]],[[135.5022847550224,34.728097574202415],[135.4983161381789,34.72795485105966]],[[135.48829720669966,34.72148770865343],[135.48881458772988,34.72174639434967]],[[135.48916762419756,34.721924798278124],[135.49109106426283,34.722865879000686]],[[135.49109106426283,34.722865879000686],[135.49421361095105,34.71858418471794]],[[135.49421361095105,34.71858418471794],[135.4909815012211,34.71696070896906]],[[135.50622902452335,34.74384618098614],[135.50184650285564,34.7451039286817],[135.49785353866952,34.74440369326254]],[[135.49785353866952,34.74440369326254],[135.49763441258614,34.74561237987778]],[[135.49763441258614,34.74561237987778],[135.4966361715396,34.75077271350813]],[[135.4966361715396,34.75077271350813],[135.49988045494084,34.749836092883776],[135.49932655289672,34.74786918957264],[135.50653945314147,34.74471590013733],[135.50622902452335,34.74384618098614]],[[135.49453621324048,34.73408302600184],[135.4939640506894,34.73731213710674]],[[135.4939640506894,34.73731213710674],[135.4982674434937,34.73787410948135]],[[135.4982674434937,34.73787410948135],[135.4981457067807,34.7346271579836]],[[135.4981457067807,34.7346271579836],[135.49453621324048,34.73408302600184]],[[135.49358666687914,34.73938162267674],[135.49318493572628,34.74148678903242]],[[135.49318493572628,34.74148678903242],[135.49829787767192,34.74161167178234]],[[135.49829787767192,34.74161167178234],[135.49826135665802,34.7398454728907]],[[135.49826135665802,34.7398454728907],[135.49358666687914,34.73938162267674]],[[135.49109106426283,34.722865879000686],[135.49165713997823,34.72313348489335]],[[135.49165713997823,34.72313348489335],[135.49459099476132,34.72451611533882]],[[135.49459099476132,34.72451611533882],[135.49474925248822,34.71885625070882]],[[135.49474925248822,34.71885625070882],[135.49421361095105,34.71858418471794]],[[135.49818831463023,34.733248987636344],[135.4981457067807,34.7346271579836]],[[135.4982674434937,34.73787410948135],[135.50373950874265,34.738409321266694]],[[135.50373950874265,34.738409321266694],[135.50250996794145,34.73459147719792]],[[135.48588681978242,34.726090530007376],[135.48511379165492,34.72890039188043]],[[135.48511379165492,34.72890039188043],[135.48825459885012,34.729952975058275]],[[135.48951457382958,34.72737949839041],[135.48588681978242,34.726090530007376]],[[135.49443273703443,34.72569358126658],[135.49421969778672,34.727464240256424]],[[135.4983161381789,34.72795485105966],[135.4983526591928,34.72565344038268]],[[135.4983526591928,34.72565344038268],[135.4983161381789,34.72565344038268]],[[135.4983161381789,34.72565344038268],[135.49443273703443,34.72569358126658]],[[135.48278253360112,34.72198723965308],[135.48261210220295,34.72194709876918]],[[135.48261210220295,34.72194709876918],[135.48362860375642,34.72318254597368],[135.48653811119692,34.72471681975833]],[[135.48653811119692,34.72471681975833],[135.48799895175284,34.72309780410767]],[[135.45987777105174,34.72265179428655],[135.45647522992363,34.72584522460576]],[[135.45647522992363,34.72584522460576],[135.4574795578058,34.72966752877276]],[[135.4574795578058,34.72966752877276],[135.4635542197841,34.728556964318166]],[[135.4635542197841,34.728556964318166],[135.4645768081732,34.72804405302388]],[[135.4645768081732,34.72804405302388],[135.46295770989042,34.72704053092636],[135.4634568304137,34.72436893209785]],[[135.4634568304137,34.72436893209785],[135.46411420866386,34.72211212240299]],[[135.47269664692976,34.713129484605645],[135.47421835584217,34.71572526176456]],[[135.47942868715822,34.71016797939341],[135.47697569239142,34.708656006099815]],[[135.49459099476132,34.72451611533882],[135.4944388238701,34.72560437930236]],[[135.4944388238701,34.72560437930236],[135.49443273703443,34.72569358126658]],[[135.4983161381789,34.72565344038268],[135.49925959770457,34.71985977280634]],[[135.49925959770457,34.71985977280634],[135.49474925248822,34.71885625070882]],[[135.48653811119692,34.72471681975833],[135.4898128287764,34.725635599989836]],[[135.4898128287764,34.725635599989836],[135.49036064398487,34.7231111844023],[135.49165713997823,34.72313348489335]],[[135.47429139786996,34.719016814244426],[135.4745409581316,34.722156723385105]],[[135.48156516647123,34.721157661385796],[135.47965390007724,34.724480434553136]],[[135.47965390007724,34.724480434553136],[135.48318426475402,34.725029026633116]],[[135.48318426475402,34.725029026633116],[135.48240514979085,34.72189803768885]],[[135.48240514979085,34.72189803768885],[135.48183298723978,34.72089005549312]],[[135.4863737666344,34.714387232301206],[135.48311122272622,34.712424789088274]],[[135.48361643008514,34.73849406313271],[135.4866841952525,34.74226730621938]],[[135.4866841952525,34.74226730621938],[135.48734766033832,34.7384494621506]],[[135.48734766033832,34.7384494621506],[135.48361643008514,34.73849406313271]],[[135.4983526591928,34.72565344038268],[135.5031064778351,34.725849684703974]],[[135.5031064778351,34.725849684703974],[135.50367255355053,34.71998019545804],[135.49925959770457,34.71985977280634]],[[135.48653811119692,34.72471681975833],[135.4860815985232,34.72558653890951]],[[135.4860815985232,34.72558653890951],[135.48588681978242,34.726090530007376]],[[135.48966065788517,34.72703607082815],[135.4898128287764,34.725635599989836]],[[135.4896667447208,34.733556734412915],[135.48846763809786,34.736536080018]],[[135.48846763809786,34.736536080018],[135.48964239737822,34.73666096276791]],[[135.48964239737822,34.73666096276791],[135.4939640506894,34.73731213710674]],[[135.49453621324048,34.73408302600184],[135.4896667447208,34.733556734412915]],[[135.46895324300527,34.72348137255383],[135.4709801592766,34.72425296954437]],[[135.4709801592766,34.72425296954437],[135.47379836418233,34.7225938130098]],[[135.47379836418233,34.7225938130098],[135.46883759312794,34.72120226236791]],[[135.47453487129593,34.72541259507928],[135.47323837530257,34.727865649095435]],[[135.47323837530257,34.727865649095435],[135.4759287566597,34.7286907672645]],[[135.4759287566597,34.7286907672645],[135.47782784938238,34.7264963989446]],[[135.47782784938238,34.7264963989446],[135.47453487129593,34.72541259507928]],[[135.47889304562105,34.73255767241361],[135.4797695499546,34.73498842593871],[135.47835740408388,34.73492598456375],[135.4773165551878,34.7366163617858]],[[135.4773165551878,34.7366163617858],[135.48056083858904,34.73786964938314]],[[135.48056083858904,34.73786964938314],[135.4824355839691,34.733503213234385]],[[135.4824355839691,34.733503213234385],[135.47889304562105,34.73255767241361]],[[135.4574795578058,34.72966752877276],[135.4574795578058,34.7296853691656]],[[135.4587821406348,34.733565654609336],[135.46464376336536,34.731786075423074]],[[135.46464376336536,34.731786075423074],[135.4635542197841,34.728556964318166]],[[135.47122971953823,34.71832103892348],[135.46926975845906,34.719315640824576]],[[135.46926975845906,34.719315640824576],[135.47429139786996,34.719016814244426]],[[135.4928562466012,34.74278467761188],[135.49216843417278,34.7453447739851]],[[135.49216843417278,34.7453447739851],[135.49386666131903,34.74570604194021]],[[135.49386666131903,34.74570604194021],[135.49763441258614,34.74561237987778]],[[135.49785353866952,34.74440369326254],[135.4980604910816,34.743137025370565]],[[135.4980604910816,34.743137025370565],[135.4928562466012,34.74278467761188]],[[135.48995282599634,34.730555088316784],[135.4896667447208,34.733556734412915]],[[135.49453621324048,34.73408302600184],[135.4948588155299,34.732169643869234]],[[135.4866841952525,34.74226730621938],[135.48881458772988,34.74334218988828]],[[135.48881458772988,34.74334218988828],[135.49021455992929,34.739042655212685]],[[135.49021455992929,34.739042655212685],[135.48931370825315,34.73868138725758]],[[135.48931370825315,34.73868138725758],[135.48734766033832,34.7384494621506]],[[135.48261210220295,34.72194709876918],[135.48240514979085,34.72189803768885]],[[135.48318426475402,34.725029026633116],[135.4860815985232,34.72558653890951]],[[135.47121754586692,34.72674616444442],[135.4711384170035,34.72852574363069]],[[135.4711384170035,34.72852574363069],[135.4751679022035,34.729640768183486]],[[135.4751679022035,34.729640768183486],[135.47595919083795,34.72871306775556]],[[135.47595919083795,34.72871306775556],[135.4759287566597,34.7286907672645]],[[135.47323837530257,34.727865649095435],[135.47121754586692,34.72674616444442]],[[135.47595919083795,34.72871306775556],[135.4784913144682,34.72958278690674]],[[135.4784913144682,34.72958278690674],[135.47986085248934,34.730037716924286]],[[135.47986085248934,34.730037716924286],[135.48012258642225,34.727245695444076]],[[135.48012258642225,34.727245695444076],[135.47782784938238,34.7264963989446]],[[135.49386666131903,34.74570604194021],[135.49225364987188,34.748591725482854],[135.49210147898066,34.751236563722095]],[[135.49210147898066,34.751236563722095],[135.49404926638852,34.75058984948147],[135.4966361715396,34.75077271350813]],[[135.47912434537574,34.725082547811645],[135.47782784938238,34.7264963989446]],[[135.48012258642225,34.727245695444076],[135.48397555338846,34.728543584023534]],[[135.48397555338846,34.728543584023534],[135.48318426475402,34.725029026633116]],[[135.4784913144682,34.72958278690674],[135.47889304562105,34.73255767241361]],[[135.4824355839691,34.733503213234385],[135.4838720771824,34.73371283785031]],[[135.4838720771824,34.73371283785031],[135.4840546822519,34.73278513742238]],[[135.4840546822519,34.73278513742238],[135.4842129399788,34.73188419758372]],[[135.4842129399788,34.73188419758372],[135.47986085248934,34.730037716924286]],[[135.49829179083628,34.741683033353716],[135.4980604910816,34.743137025370565]],[[135.50622902452335,34.74384618098614],[135.50583338020613,34.742820358397566]],[[135.50583338020613,34.742820358397566],[135.50159085575837,34.7417989959072],[135.49829179083628,34.741683033353716]],[[135.46670720065057,34.728017292434615],[135.46681067685662,34.73067105087028]],[[135.46681067685662,34.73067105087028],[135.4698175736675,34.7308806754862]],[[135.4698175736675,34.7308806754862],[135.47107146181133,34.73105461931644],[135.4711384170035,34.72852574363069]],[[135.4711384170035,34.72852574363069],[135.46670720065057,34.728017292434615]],[[135.48964239737822,34.73666096276791],[135.48931370825315,34.73868138725758]],[[135.49021455992929,34.739042655212685],[135.49358666687914,34.73938162267674]],[[135.49358666687914,34.73938162267674],[135.4939640506894,34.73731213710674]],[[135.4944388238701,34.72560437930236],[135.4898128287764,34.725635599989836]],[[135.48361643008514,34.73849406313271],[135.48289209664281,34.738119414882966]],[[135.48289209664281,34.738119414882966],[135.48217385003616,34.739270120221455]],[[135.48217385003616,34.739270120221455],[135.48115126164706,34.74141096736283],[135.48337295665914,34.74154923040738],[135.48409729010143,34.744894304065774]],[[135.48409729010143,34.744894304065774],[135.48449293441865,34.745701581842],[135.48661115322471,34.74466237895879],[135.48692158184286,34.7454607365386],[135.48881458772988,34.74334218988828]],[[135.4709801592766,34.72425296954437],[135.47453487129593,34.72541259507928]],[[135.47121754586692,34.72674616444442],[135.46816804120647,34.725934426569985]],[[135.46816804120647,34.725934426569985],[135.46816195437083,34.725929966471774]],[[135.46816195437083,34.725929966471774],[135.46559939656234,34.72748208064927]],[[135.46559939656234,34.72748208064927],[135.46670720065057,34.728017292434615]],[[135.45647522992363,34.72584522460576],[135.451465764184,34.72807081361315],[135.44567718348125,34.72912339679099],[135.44677890073382,34.73255767241361]],[[135.48056083858904,34.73786964938314],[135.48217385003616,34.739270120221455]],[[135.48289209664281,34.738119414882966],[135.48347034602955,34.735960727348754]],[[135.48347034602955,34.735960727348754],[135.4838720771824,34.73371283785031]],[[135.48881458772988,34.74334218988828],[135.49068933310994,34.74446167453929]],[[135.49068933310994,34.74446167453929],[135.49216843417278,34.7453447739851]],[[135.4928562466012,34.74278467761188],[135.49318493572628,34.74148678903242]],[[135.5022847550224,34.728097574202415],[135.5031064778351,34.725849684703974]],[[135.49829179083628,34.741683033353716],[135.49829787767192,34.74161167178234]],[[135.50583338020613,34.742820358397566],[135.50482905232394,34.74022458123865]],[[135.50482905232394,34.74022458123865],[135.49826135665802,34.7398454728907]],[[135.4751679022035,34.729640768183486],[135.4744313950899,34.73047034645077]],[[135.4744313950899,34.73047034645077],[135.47617831692133,34.73173255424454]],[[135.47617831692133,34.73173255424454],[135.47889304562105,34.73255767241361]],[[135.4744313950899,34.73047034645077],[135.4718566636101,34.73319992655602]],[[135.4718566636101,34.73319992655602],[135.4745896528168,34.73536307418845]],[[135.4745896528168,34.73536307418845],[135.47617831692133,34.73173255424454]],[[135.46981148683187,34.71133206502653],[135.46766283384756,34.71394568257829]],[[135.46559939656234,34.72748208064927],[135.4645768081732,34.72804405302388]],[[135.46464376336536,34.731786075423074],[135.46681067685662,34.73067105087028]],[[135.46642111937504,34.71539075439872],[135.46449159247413,34.71757620252221]],[[135.46772370220407,34.7186510861911],[135.46878889844274,34.71642995728193]],[[135.4634568304137,34.72436893209785],[135.46816195437083,34.725929966471774]],[[135.46816804120647,34.725934426569985],[135.4709801592766,34.72425296954437]],[[135.4896667447208,34.733556734412915],[135.4840546822519,34.73278513742238]],[[135.48347034602955,34.735960727348754],[135.48846763809786,34.736536080018]],[[135.4982674434937,34.73787410948135],[135.49826135665802,34.7398454728907]],[[135.50482905232394,34.74022458123865],[135.50373950874265,34.738409321266694]],[[135.48511379165492,34.72890039188043],[135.4842129399788,34.73188419758372]],[[135.48409729010143,34.744894304065774],[135.48403642174495,34.74673186452878],[135.48575290939814,34.7488102702952],[135.48698245019935,34.74862294617033]],[[135.48698245019935,34.74862294617033],[135.49045803335525,34.7456614409581],[135.49068933310994,34.74446167453929]],[[135.4745896528168,34.73536307418845],[135.4773165551878,34.7366163617858]],[[135.48397555338846,34.728543584023534],[135.48511379165492,34.72890039188043]],[[135.48698245019935,34.74862294617033],[135.4889789322924,34.75054524849936],[135.49210147898066,34.751236563722095]],[[135.4698175736675,34.7308806754862],[135.4701584364639,34.73250415123508],[135.4718566636101,34.73319992655602]]]}