{"type":"Topology","bbox":[135.54060241097488,34.58701288415319,135.5872836134277,34.644332817955664],"objects":{"town":{"type":"GeometryCollection","geometries":[{"type":"MultiPolygon","arcs":[[[-26,-10,261,-57,0,1,2,262,263,264,265]]],"properties":{"name":"平野北"}},{"type":"MultiPolygon","arcs":[[[-154,-30,-129,169,5,-2,6,-69]]],"properties":{"name":"平野馬場"}},{"type":"MultiPolygon","arcs":[[[233,8,9,25,26,27,23,234]]],"properties":{"name":"平野市町"}},{"type":"MultiPolygon","arcs":[[[118,119,120,131,-114,107,-77,-76,-160,337,-236,-140,50,51,52,351,352,-328,11,129,130]]],"properties":{"name":"瓜破東"}},{"type":"MultiPolygon","arcs":[[[58,18,19,20,273,-156,-187,211,208,-284,60,61,62]]],"properties":{"name":"平野本町"}},{"type":"MultiPolygon","arcs":[[[29,30,-153,206,267,-111,266,127,128]]],"properties":{"name":"西脇"}},{"type":"MultiPolygon","arcs":[[[33,34,-201,-45,-84,207,124,125,-141,235,-338,-159,-158,-255,-221,345,-194,195]]],"properties":{"name":"喜連"}},{"type":"MultiPolygon","arcs":[[[40,41,42,138,-133,137,38,218,-82,219,220,221]]],"properties":{"name":"瓜破西"}},{"type":"MultiPolygon","arcs":[[[-200,-93,252,322,-300,-85,44,45,-72,170]]],"properties":{"name":"平野南"}},{"type":"MultiPolygon","arcs":[[[-248,-188,53,54,55,56,-262,-9,-234]]],"properties":{"name":"平野宮町"}},{"type":"MultiPolygon","arcs":[[[-268,-207,-152,-274,-21,-20,246,244,148,63,64,110]]],"properties":{"name":"背戸口"}},{"type":"Polygon","arcs":[[67,68,-7,-1,-56]],"properties":{"name":"平野元町"}},{"type":"MultiPolygon","arcs":[[[-63,70,71,-46,200,-35,-34,-196,-193,-147,197,-19,-59]]],"properties":{"name":"流町"}},{"type":"MultiPolygon","arcs":[[[157,158,159,75,76,-108,113,-132,-121,181,-135,-134,-139,-43,-42,-41,-222,254]]],"properties":{"name":"瓜破"}},{"type":"MultiPolygon","arcs":[[[272,88,89,90,191,-148,192,193,-346,-220,81,78,334]]],"properties":{"name":"喜連西"}},{"type":"MultiPolygon","arcs":[[[83,84,85,-299,-298,-177,-287,331,-52,-51,139,140,-126,-125,-208]]],"properties":{"name":"喜連東"}},{"type":"MultiPolygon","arcs":[[[-71,-62,-61,283,-209,-212,-186,247,-235,-24,248,249,96,97,92,199,-171]]],"properties":{"name":"平野東"}},{"type":"MultiPolygon","arcs":[[[-175,212,213,214,215,294,295,228,105,102,-239]]],"properties":{"name":"加美南"}},{"type":"MultiPolygon","arcs":[[[136,132,133,134,-182,-120,292,293]]],"properties":{"name":"瓜破南"}},{"type":"MultiPolygon","arcs":[[[-90,202,315,-64,-149,-245,-247,-198,146,147,-192,-91]]],"properties":{"name":"平野西"}},{"type":"MultiPolygon","arcs":[[[185,186,155,151,152,-31,153,-68,-55,-54,187]]],"properties":{"name":"平野上町"}},{"type":"MultiPolygon","arcs":[[[161,241,390,-371,-387,391,-167,-380,-379,-383,362,360,305,183]]],"properties":{"name":"加美北"}},{"type":"MultiPolygon","arcs":[[[-27,-266,-265,-264,381,-363,382,378,379,166,167,168,-358,-347]]],"properties":{"name":"加美正覚寺"}},{"type":"MultiPolygon","arcs":[[[174,238,-103,239,237,172,-310,-349,-357,-213]]],"properties":{"name":"加美鞍作"}},{"type":"MultiPolygon","arcs":[[[178,222,387,-230,366,-280,363,-344,-343,-342,284,285,286,176,297,298,-86,299,300]]],"properties":{"name":"長吉出戸"}},{"type":"MultiPolygon","arcs":[[[325,384,-303,-318,-282,-281,-367,229,230,276]]],"properties":{"name":"長吉六反"}},{"type":"MultiPolygon","arcs":[[[-364,-279,-317,257,258,259,260,255,-330,-356,-355,339,340,-285,341,342,343]]],"properties":{"name":"長吉長原"}},{"type":"MultiPolygon","arcs":[[[-259,-258,316,278,279,280,281,317,302,303,304]]],"properties":{"name":"長吉長原東"}},{"type":"MultiPolygon","arcs":[[[332,312,313,-261,-260,-305,314,288,333]]],"properties":{"name":"長吉川辺"}},{"type":"MultiPolygon","arcs":[[[309,-173,-238,310,-97,-250,-249,-28,346,347,348]]],"properties":{"name":"加美西"}},{"type":"MultiPolygon","arcs":[[[-168,-392,386,370,371,383,350,-295,-216,-215,-214,356,-348,357,-169]]],"properties":{"name":"加美東"}},{"type":"MultiPolygon","arcs":[[[-333,380,-293,-119,-131,-130,-12,327,-353,-352,-53,-332,-286,-341,-340,354,355,329,-256,-314,-313]]],"properties":{"name":"長吉長原西"}}]}},"arcs":[[[135.55341301398823,34.63043707642779],[135.54912725102676,34.63168677595464]],[[135.54912725102676,34.63168677595464],[135.54958010397587,34.6351435136367]],[[135.54958010397587,34.6351435136367],[135.55297883538756,34.633246034079875]],[[135.55297883538756,34.633246034079875],[135.55341301398823,34.63043707642779]],[[135.5489171646071,34.63176129932092],[135.54522898079495,34.6341345819086]],[[135.54522898079495,34.6341345819086],[135.54760529163087,34.63652506219619],[135.54958010397587,34.6351435136367]],[[135.54912725102676,34.63168677595464],[135.5489171646071,34.63176129932092]],[[135.55806292674382,34.626808361746626],[135.55655964169634,34.62724976937767]],[[135.55655964169634,34.62724976937767],[135.5558360106952,34.62973770329809]],[[135.5558360106952,34.62973770329809],[135.55823099587957,34.62913578380121]],[[135.55823099587957,34.62913578380121],[135.55806292674382,34.626808361746626]],[[135.5641134156306,34.60199208077544],[135.56420211878557,34.60194622024234]],[[135.56420211878557,34.60194622024234],[135.56289958298356,34.60046721805002],[135.55974361810127,34.59941815835546]],[[135.55974361810127,34.59941815835546],[135.55665301343842,34.599320704722636]],[[135.55665301343842,34.599320704722636],[135.55742799889768,34.601865964309425]],[[135.55742799889768,34.601865964309425],[135.557577393685,34.60243348840648]],[[135.557577393685,34.60243348840648],[135.55974828668835,34.601929022542436],[135.5641134156306,34.60199208077544]],[[135.55154091055954,34.62230829693665],[135.55144753881746,34.620754771378046]],[[135.55144753881746,34.620754771378046],[135.5486790666648,34.620817829611056]],[[135.5486790666648,34.620817829611056],[135.54866972949057,34.623001937499716]],[[135.54866972949057,34.623001937499716],[135.54899186200075,34.62304206546617]],[[135.54899186200075,34.62304206546617],[135.55193307187628,34.62340894973094]],[[135.55193307187628,34.62340894973094],[135.55154091055954,34.62230829693665]],[[135.55997704745644,34.62470450979088],[135.55986033277884,34.62471597492416]],[[135.55986033277884,34.62471597492416],[135.55806292674382,34.626808361746626]],[[135.55823099587957,34.62913578380121],[135.55930943950057,34.62888355086919]],[[135.55930943950057,34.62888355086919],[135.55959889190103,34.62871730643672]],[[135.55959889190103,34.62871730643672],[135.55997704745644,34.62470450979088]],[[135.54664823127456,34.62827016623904],[135.54663422551323,34.63114791469077]],[[135.54663422551323,34.63114791469077],[135.5489451761297,34.6296001216988]],[[135.5489451761297,34.6296001216988],[135.5486790666648,34.62827016623904]],[[135.5486790666648,34.62827016623904],[135.54664823127456,34.62827016623904]],[[135.55274073744528,34.61277503861947],[135.55269405157424,34.615767438403935],[135.55152223621113,34.61652413720001]],[[135.55152223621113,34.61652413720001],[135.5522085185154,34.61651840463337]],[[135.5522085185154,34.61651840463337],[135.55450546337056,34.61648974180019]],[[135.55450546337056,34.61648974180019],[135.55454748065452,34.61372664468119]],[[135.55454748065452,34.61372664468119],[135.55484627022918,34.6128266317192]],[[135.55484627022918,34.6128266317192],[135.55274073744528,34.61277503861947]],[[135.54400114238658,34.60184303404288],[135.54409451412866,34.604818236127436]],[[135.54409451412866,34.604818236127436],[135.54890782743288,34.604801038427524]],[[135.54890782743288,34.604801038427524],[135.54884246721343,34.60378064156615]],[[135.54884246721343,34.60378064156615],[135.5487957813424,34.60182583634297]],[[135.5487957813424,34.60182583634297],[135.54873508971005,34.60180290607642]],[[135.54873508971005,34.60180290607642],[135.54400114238658,34.60184303404288]],[[135.5587492090481,34.61641521843391],[135.5558406792823,34.616461078967]],[[135.5558406792823,34.616461078967],[135.55589670232757,34.61839295392364]],[[135.55589670232757,34.61839295392364],[135.55879589491914,34.61834709339055]],[[135.55879589491914,34.61834709339055],[135.5587492090481,34.61641521843391]],[[135.56490707543827,34.60623418008675],[135.5582730131635,34.60686476241681]],[[135.5582730131635,34.60686476241681],[135.55837572207977,34.60912912623839]],[[135.55837572207977,34.60912912623839],[135.56310966940322,34.60907753313866]],[[135.56310966940322,34.60907753313866],[135.56523387653556,34.608934218972735]],[[135.56523387653556,34.608934218972735],[135.56490707543827,34.60623418008675]],[[135.55472488696446,34.62600580241746],[135.55233923895432,34.62728416477749]],[[135.55233923895432,34.62728416477749],[135.55146621316587,34.62788035170773]],[[135.55146621316587,34.62788035170773],[135.55165295665003,34.62988101746401],[135.55341301398823,34.63043707642779]],[[135.55341301398823,34.63043707642779],[135.55504235088753,34.62993261056374]],[[135.55504235088753,34.62993261056374],[135.55472488696446,34.62600580241746]],[[135.55269872016132,34.6207318411115],[135.55144753881746,34.620754771378046]],[[135.55154091055954,34.62230829693665],[135.55599474265674,34.621952877805164]],[[135.55599474265674,34.621952877805164],[135.5559340510244,34.62131083034183]],[[135.5559340510244,34.62131083034183],[135.55587802797913,34.62068598057841]],[[135.55587802797913,34.62068598057841],[135.55269872016132,34.6207318411115]],[[135.54359030672143,34.62091528324388],[135.5406117481491,34.620966876343616]],[[135.5406117481491,34.620966876343616],[135.5406257539104,34.62545547602031],[135.54356229519883,34.62545547602031]],[[135.54356229519883,34.62545547602031],[135.54358563813435,34.62233695976984]],[[135.54358563813435,34.62233695976984],[135.54359030672143,34.62091528324388]],[[135.55146621316587,34.62788035170773],[135.54895918189104,34.629594389132166]],[[135.54895918189104,34.629594389132166],[135.5489171646071,34.63176129932092]],[[135.55225987297356,34.618461744723284],[135.55269872016132,34.6207318411115]],[[135.55587802797913,34.62068598057841],[135.55588269656624,34.620680248011766]],[[135.55588269656624,34.620680248011766],[135.55589670232757,34.61839295392364]],[[135.55589670232757,34.61839295392364],[135.55225987297356,34.618461744723284]],[[135.55223653003804,34.60374624616633],[135.55217116981856,34.60549467899059]],[[135.55217116981856,34.60549467899059],[135.55587802797913,34.60672718081753]],[[135.55587802797913,34.60672718081753],[135.55581266775968,34.60585009812208]],[[135.55581266775968,34.60585009812208],[135.55553255253346,34.60368892049996]],[[135.55553255253346,34.60368892049996],[135.55223653003804,34.60374624616633]],[[135.54433261207097,34.60918645190476],[135.54069111412986,34.60919791703804],[135.54067243978145,34.61083169852956]],[[135.54067243978145,34.61083169852956],[135.54662488833904,34.61091195446247]],[[135.54662488833904,34.61091195446247],[135.54663422551323,34.60918645190476]],[[135.54663422551323,34.60918645190476],[135.54433261207097,34.60918645190476]],[[135.56241404992474,34.61378397034756],[135.55845508806055,34.61388715654703]],[[135.55845508806055,34.61388715654703],[135.5587492090481,34.61641521843391]],[[135.5587492090481,34.61641521843391],[135.5616950875107,34.61695981226441]],[[135.5616950875107,34.61695981226441],[135.5624980844926,34.61538335643926]],[[135.5624980844926,34.61538335643926],[135.56241404992474,34.61378397034756]],[[135.54667157421008,34.61455786684355],[135.54078448587194,34.61455786684355]],[[135.54078448587194,34.61455786684355],[135.5406397596717,34.61663305596611]],[[135.5406397596717,34.61663305596611],[135.54359030672143,34.6166158582662]],[[135.54359030672143,34.6166158582662],[135.54668557997138,34.616592927999655]],[[135.54668557997138,34.616592927999655],[135.54667157421008,34.61455786684355]],[[135.56197987132407,34.62059425951222],[135.5600424076759,34.6206229223454]],[[135.5600424076759,34.6206229223454],[135.56010776789537,34.62176370310615]],[[135.56010776789537,34.62176370310615],[135.56020113963746,34.62347774053058]],[[135.56020113963746,34.62347774053058],[135.5608360674836,34.623735706029244]],[[135.5608360674836,34.623735706029244],[135.5622553179632,34.623064995732726]],[[135.5622553179632,34.623064995732726],[135.56197987132407,34.62059425951222]],[[135.54884246721343,34.60378064156615],[135.55223653003804,34.603740513599696]],[[135.55223653003804,34.603740513599696],[135.55223653003804,34.601779975809876]],[[135.55223653003804,34.601779975809876],[135.55223186145093,34.601779975809876]],[[135.55223186145093,34.601779975809876],[135.5487957813424,34.60182583634297]],[[135.56852056185676,34.62090955067725],[135.56916949546422,34.62111019050954]],[[135.56916949546422,34.62111019050954],[135.5722040770818,34.62069171314504]],[[135.5722040770818,34.62069171314504],[135.57492586336343,34.62041654994647]],[[135.57492586336343,34.62041654994647],[135.57550476816434,34.6185878611893],[135.5691554897029,34.61995794461552],[135.56852056185676,34.62090955067725]],[[135.55742799889768,34.601865964309425],[135.55510304251987,34.60208380184163]],[[135.55510304251987,34.60208380184163],[135.55553255253346,34.60368892049996]],[[135.55581266775968,34.60585009812208],[135.55774546282075,34.60590169122181]],[[135.55774546282075,34.60590169122181],[135.557577393685,34.60243348840648]],[[135.54356229519883,34.62545547602031],[135.5465922082293,34.62545547602031]],[[135.5465922082293,34.62545547602031],[135.54661555116482,34.62272677430115]],[[135.54661555116482,34.62272677430115],[135.54358563813435,34.62233695976984]],[[135.55510304251987,34.60208380184163],[135.55494431055834,34.60172838271014]],[[135.55494431055834,34.60172838271014],[135.55223653003804,34.601779975809876]],[[135.55223653003804,34.603740513599696],[135.55223653003804,34.60374624616633]],[[135.55431871988642,34.599378030389005],[135.55665301343842,34.599320704722636]],[[135.55974361810127,34.59941815835546],[135.55963157201074,34.59816845882862],[135.5629462688546,34.59726271329998]],[[135.5629462688546,34.59726271329998],[135.56265214786703,34.59622511873871]],[[135.56265214786703,34.59622511873871],[135.5541599879249,34.59831750556118]],[[135.5541599879249,34.59831750556118],[135.55431871988642,34.599378030389005]],[[135.55761007379473,34.61213299115614],[135.55521975719748,34.61276930605283]],[[135.55521975719748,34.61276930605283],[135.55484627022918,34.6128266317192]],[[135.55454748065452,34.61372664468119],[135.55843641371214,34.61388715654703]],[[135.55843641371214,34.61388715654703],[135.55812361837616,34.61205846778986]],[[135.55812361837616,34.61205846778986],[135.55761007379473,34.61213299115614]],[[135.54664823127456,34.62827016623904],[135.54352961508908,34.62825296853913]],[[135.54352961508908,34.62825296853913],[135.54406650260606,34.632902080081664]],[[135.54406650260606,34.632902080081664],[135.54663422551323,34.63114791469077]],[[135.56420211878557,34.60194622024234],[135.56467364608307,34.59994555448606]],[[135.56467364608307,34.59994555448606],[135.5630723207064,34.598913692491415],[135.5629462688546,34.59726271329998]],[[135.55431871988642,34.599378030389005],[135.55494431055834,34.60172838271014]],[[135.54384707901215,34.59822005192835],[135.54922529135595,34.5983977614941]],[[135.54922529135595,34.5983977614941],[135.5522972216704,34.598374831227545]],[[135.5522972216704,34.598374831227545],[135.5523065588446,34.598374831227545]],[[135.5523065588446,34.598374831227545],[135.55233923895432,34.5949811517785]],[[135.55233923895432,34.5949811517785],[135.5443559550065,34.59506140771141],[135.54384707901215,34.59822005192835]],[[135.54384707901215,34.59822005192835],[135.54400114238658,34.60184303404288]],[[135.54873508971005,34.60180290607642],[135.54922529135595,34.5983977614941]],[[135.55837572207977,34.60912912623839],[135.55754938216236,34.60911192853848]],[[135.55754938216236,34.60911192853848],[135.55761007379473,34.61213299115614]],[[135.55812361837616,34.61205846778986],[135.5620032142596,34.611737444058186]],[[135.5620032142596,34.611737444058186],[135.56310966940322,34.60907753313866]],[[135.54668557997138,34.61659866056629],[135.5466902485585,34.61855919835611]],[[135.5466902485585,34.61855919835611],[135.5466902485585,34.618570663489386]],[[135.5466902485585,34.618570663489386],[135.5486930724261,34.61851907038965]],[[135.5486930724261,34.61851907038965],[135.5487817755811,34.616592927999655]],[[135.5487817755811,34.616592927999655],[135.54668557997138,34.61659866056629]],[[135.54665289986167,34.62086369014415],[135.54359030672143,34.62091528324388]],[[135.54661555116482,34.62272677430115],[135.54667157421008,34.62272677430115]],[[135.54667157421008,34.62272677430115],[135.54665289986167,34.62086369014415]],[[135.54896385047815,34.625472673720225],[135.5487164153616,34.625472673720225]],[[135.5487164153616,34.625472673720225],[135.5486790666648,34.62827016623904]],[[135.5489451761297,34.6296001216988],[135.54895918189104,34.629594389132166]],[[135.55233923895432,34.62728416477749],[135.55211981536044,34.625237638488116]],[[135.55211981536044,34.625237638488116],[135.54896385047815,34.625472673720225]],[[135.55217116981856,34.60549467899059],[135.55024771193172,34.60914059137167]],[[135.55024771193172,34.60914059137167],[135.55268938298713,34.60912912623839]],[[135.55268938298713,34.60912912623839],[135.55623284059905,34.60910619597185]],[[135.55623284059905,34.60910619597185],[135.55587802797913,34.60672718081753]],[[135.55725992976193,34.64025123051018],[135.55708252345198,34.64331242109429]],[[135.55708252345198,34.64331242109429],[135.56094344498698,34.64343853756031],[135.561078834013,34.64082448717387]],[[135.561078834013,34.64082448717387],[135.5610648282517,34.64041174237602]],[[135.5610648282517,34.64041174237602],[135.55725992976193,34.64025123051018]],[[135.56384730616566,34.6300816572963],[135.56158304142022,34.63007019216303]],[[135.56158304142022,34.63007019216303],[135.5614289780458,34.63351546471181]],[[135.5614289780458,34.63351546471181],[135.56570540383305,34.63364731374446]],[[135.56570540383305,34.63364731374446],[135.5642441360695,34.63008738986294]],[[135.5642441360695,34.63008738986294],[135.56384730616566,34.6300816572963]],[[135.54406650260606,34.632902080081664],[135.54522898079495,34.6341345819086]],[[135.55588269656624,34.620680248011766],[135.55885658655149,34.620634387478674]],[[135.55885658655149,34.620634387478674],[135.55879589491914,34.61834709339055]],[[135.5644542224892,34.623632519829776],[135.56438419368263,34.62464145155788]],[[135.56438419368263,34.62464145155788],[135.56899675774136,34.6247389051907]],[[135.56899675774136,34.6247389051907],[135.56912747818026,34.62269811146796]],[[135.56912747818026,34.62269811146796],[135.56550465458758,34.622612122968405],[135.5644542224892,34.623632519829776]],[[135.5660975651498,34.61163999042536],[135.56560736350386,34.6123450961217]],[[135.56560736350386,34.6123450961217],[135.56604154210453,34.61626617170135]],[[135.56604154210453,34.61626617170135],[135.5678622910751,34.615887822303314],[135.56931889025154,34.613743842381105]],[[135.56931889025154,34.613743842381105],[135.5691741640513,34.611794769724554]],[[135.5691741640513,34.611794769724554],[135.5660975651498,34.61163999042536]],[[135.5541599879249,34.59831750556118],[135.5523065588446,34.598374831227545]],[[135.5522972216704,34.598374831227545],[135.55223186145093,34.601779975809876]],[[135.55376782660815,34.64013084661081],[135.55389387845995,34.64421816662293],[135.5570218318196,34.644332817955664],[135.55708252345198,34.64331242109429]],[[135.55725992976193,34.64025123051018],[135.55376782660815,34.64013084661081]],[[135.5562935322314,34.62492807988972],[135.5562841950572,34.62492807988972]],[[135.5562841950572,34.62492807988972],[135.55211981536044,34.625237638488116]],[[135.55472488696446,34.62600580241746],[135.5562935322314,34.62492807988972]],[[135.54885180438762,34.612786503752744],[135.54663422551323,34.6127807711861]],[[135.54663422551323,34.6127807711861],[135.54663422551323,34.612797968886014]],[[135.54663422551323,34.612797968886014],[135.54667157421008,34.61455786684355]],[[135.54668557997138,34.616592927999655],[135.54668557997138,34.61659866056629]],[[135.5487817755811,34.616592927999655],[135.5488051185166,34.616592927999655]],[[135.5488051185166,34.616592927999655],[135.54885180438762,34.612786503752744]],[[135.55274073744528,34.61277503861947],[135.54885180438762,34.612786503752744]],[[135.5488051185166,34.616592927999655],[135.55152223621113,34.61652413720001]],[[135.55225987297356,34.618461744723284],[135.5486930724261,34.61851907038965]],[[135.5486930724261,34.61851907038965],[135.5486790666648,34.620817829611056]],[[135.5559340510244,34.62131083034183],[135.56010776789537,34.62176370310615]],[[135.5600424076759,34.6206229223454],[135.55885658655149,34.620634387478674]],[[135.5558406792823,34.616461078967],[135.55450546337056,34.61648974180019]],[[135.5522085185154,34.61651840463337],[135.55225987297356,34.618461744723284]],[[135.5406397596717,34.61663305596611],[135.5406117481491,34.61866238455558]],[[135.5406117481491,34.61866238455558],[135.54357630096013,34.61861079145584]],[[135.54357630096013,34.61861079145584],[135.54359030672143,34.6166158582662]],[[135.54666223703586,34.62545547602031],[135.54664823127456,34.62827016623904]],[[135.5487164153616,34.625472673720225],[135.54666223703586,34.62545547602031]],[[135.55845508806055,34.61388715654703],[135.55843641371214,34.61388715654703]],[[135.55615814320538,34.623615322129865],[135.55615814320538,34.62360958956323]],[[135.55615814320538,34.62360958956323],[135.55199843209573,34.623913415594984]],[[135.55199843209573,34.623913415594984],[135.55211981536044,34.625237638488116]],[[135.5562841950572,34.62492807988972],[135.55615814320538,34.623615322129865]],[[135.56899675774136,34.6247389051907],[135.56897808339295,34.626309628449214]],[[135.56897808339295,34.626309628449214],[135.5691554897029,34.626269500482756]],[[135.5691554897029,34.626269500482756],[135.56944027351625,34.62618351198321]],[[135.56944027351625,34.62618351198321],[135.57199865924923,34.62539241778731]],[[135.57199865924923,34.62539241778731],[135.57213404827525,34.62276690226761]],[[135.57213404827525,34.62276690226761],[135.56912747818026,34.62269811146796]],[[135.54409451412866,34.604818236127436],[135.54433261207097,34.60918645190476]],[[135.54663422551323,34.60918645190476],[135.54887047873606,34.60915205650494]],[[135.54887047873606,34.60915205650494],[135.5489311703684,34.60915205650494]],[[135.5489311703684,34.60915205650494],[135.54890782743288,34.604801038427524]],[[135.56931889025154,34.613743842381105],[135.57416955225258,34.61376677264765]],[[135.57416955225258,34.61376677264765],[135.57386609409082,34.611811967424465]],[[135.57386609409082,34.611811967424465],[135.57138707433862,34.61174317662483]],[[135.57138707433862,34.61174317662483],[135.5691741640513,34.611794769724554]],[[135.5722040770818,34.62069171314504],[135.57213404827525,34.62276690226761]],[[135.57213404827525,34.62276690226761],[135.57527133880913,34.62281849536733]],[[135.57527133880913,34.62281849536733],[135.57492586336343,34.62041654994647]],[[135.57798378791654,34.608767974540264],[135.57777837008396,34.61180623485783]],[[135.57777837008396,34.61180623485783],[135.58233024251035,34.611783304591285]],[[135.58233024251035,34.611783304591285],[135.58243762001376,34.60786222901164]],[[135.58243762001376,34.60786222901164],[135.58011733222307,34.60783929874509],[135.58012200081018,34.60882530020664],[135.57798378791654,34.608767974540264]],[[135.5563028694056,34.62492807988972],[135.55655964169634,34.62724976937767]],[[135.55986033277884,34.62471597492416],[135.5563028694056,34.62492807988972]],[[135.55754938216236,34.60911192853848],[135.55626085212168,34.60911192853848]],[[135.55626085212168,34.60911192853848],[135.55521975719748,34.61276930605283]],[[135.56497243565772,34.62140828397466],[135.5644542224892,34.623632519829776]],[[135.56912747818026,34.62269811146796],[135.56916949546422,34.62111019050954]],[[135.56852056185676,34.62090955067725],[135.56497243565772,34.62140828397466]],[[135.56127958325845,34.636662643795475],[135.5610648282517,34.64041174237602]],[[135.561078834013,34.64082448717387],[135.5655093231747,34.64093913850661],[135.5656447122007,34.638204704220804],[135.56702194539636,34.6382505647539]],[[135.56702194539636,34.6382505647539],[135.56661577831832,34.636857551061134]],[[135.56661577831832,34.636857551061134],[135.56127958325845,34.636662643795475]],[[135.54666223703586,34.62086369014415],[135.54665289986167,34.62086369014415]],[[135.54667157421008,34.62272677430115],[135.54866972949057,34.623001937499716]],[[135.5486790666648,34.620817829611056],[135.54666223703586,34.62086369014415]],[[135.5562935322314,34.62492807988972],[135.5563028694056,34.62492807988972]],[[135.55997704745644,34.62470450979088],[135.56107416542588,34.6245841258915]],[[135.56107416542588,34.6245841258915],[135.5608360674836,34.623735706029244]],[[135.56020113963746,34.62347774053058],[135.55615814320538,34.623615322129865]],[[135.5619191796917,34.61773944132703],[135.55879589491914,34.61834709339055]],[[135.56197987132407,34.62059425951222],[135.5619191796917,34.61773944132703]],[[135.5466902485585,34.618570663489386],[135.54666223703586,34.62086369014415]],[[135.5489311703684,34.60915205650494],[135.55024771193172,34.60914059137167]],[[135.56823110945632,34.59925191392299],[135.5678669596622,34.60189462714261]],[[135.5678669596622,34.60189462714261],[135.57323116624468,34.60189462714261]],[[135.57323116624468,34.60189462714261],[135.57324517200598,34.60182583634297]],[[135.57324517200598,34.60182583634297],[135.57393612289738,34.59886209939169]],[[135.57393612289738,34.59886209939169],[135.57013589299473,34.598988215857695]],[[135.57013589299473,34.598988215857695],[135.56823110945632,34.59925191392299]],[[135.5558360106952,34.62973770329809],[135.55504235088753,34.62993261056374]],[[135.55297883538756,34.633246034079875],[135.553851861176,34.633188708413506]],[[135.553851861176,34.633188708413506],[135.5558033305855,34.63062625112681],[135.55927209080374,34.63015044809595]],[[135.55927209080374,34.63015044809595],[135.55930010232638,34.63014471552931]],[[135.55930010232638,34.63014471552931],[135.55930943950057,34.62888355086919]],[[135.54356229519883,34.62545547602031],[135.54352961508908,34.62825296853913]],[[135.54666223703586,34.62545547602031],[135.5465922082293,34.62545547602031]],[[135.56241404992474,34.61378397034756],[135.56245139862156,34.61176610689137]],[[135.56245139862156,34.61176610689137],[135.5620032142596,34.611737444058186]],[[135.54357630096013,34.61861079145584],[135.5466902485585,34.61855919835611]],[[135.54663422551323,34.612797968886014],[135.5407331314138,34.612723445519734]],[[135.5407331314138,34.612723445519734],[135.54078448587194,34.61455786684355]],[[135.54899186200075,34.62304206546617],[135.54896385047815,34.625472673720225]],[[135.55199843209573,34.623913415594984],[135.55193307187628,34.62340894973094]],[[135.58316591960198,34.606704250550976],[135.58243762001376,34.60786222901164]],[[135.58233024251035,34.611783304591285],[135.58452914703633,34.60942148713688],[135.58700349820145,34.60939282430369],[135.5871528929888,34.60687622755009]],[[135.5871528929888,34.60687622755009],[135.58316591960198,34.606704250550976]],[[135.57288569079898,34.60385516493243],[135.57282966775375,34.60637176168604]],[[135.57282966775375,34.60637176168604],[135.57775969573555,34.6063660291194]],[[135.57775969573555,34.6063660291194],[135.5776990041032,34.6058844935219]],[[135.5776990041032,34.6058844935219],[135.57765698681928,34.60409020016455]],[[135.57765698681928,34.60409020016455],[135.57288569079898,34.60385516493243]],[[135.55599474265674,34.621952877805164],[135.55615814320538,34.62360958956323]],[[135.56828713250155,34.60856733470798],[135.56664378984095,34.608802369940086]],[[135.56664378984095,34.608802369940086],[135.56663445266673,34.60880810250673]],[[135.56663445266673,34.60880810250673],[135.5660975651498,34.61163999042536]],[[135.5691741640513,34.611794769724554],[135.5692722043805,34.609862894767915],[135.56828713250155,34.60856733470798]],[[135.57525733304783,34.59330724232052],[135.57166718956483,34.59390342925076]],[[135.57166718956483,34.59390342925076],[135.57100891878318,34.594121266782956]],[[135.57100891878318,34.594121266782956],[135.57144309738385,34.59643722370427],[135.57013589299473,34.598988215857695]],[[135.57393612289738,34.59886209939169],[135.57525733304783,34.59330724232052]],[[135.56265214786703,34.59622511873871],[135.56418811302424,34.59552001304237]],[[135.56418811302424,34.59552001304237],[135.5625027530797,34.59505567514478],[135.55437007434455,34.59478624451284],[135.55233923895432,34.5949811517785]],[[135.57199865924923,34.62539241778731],[135.5757241917582,34.624308962692936]],[[135.5757241917582,34.624308962692936],[135.57527133880913,34.62281849536733]],[[135.54357630096013,34.61861079145584],[135.54359030672143,34.62091528324388]],[[135.56560736350386,34.6123450961217],[135.56536459697446,34.61264318958682]],[[135.56536459697446,34.61264318958682],[135.5624980844926,34.61538335643926]],[[135.5616950875107,34.61695981226441],[135.56207324306615,34.61687382376486]],[[135.56207324306615,34.61687382376486],[135.56604154210453,34.61626617170135]],[[135.57324517200598,34.60182583634297],[135.57983721699682,34.602135394941364]],[[135.57983721699682,34.602135394941364],[135.58110707268912,34.60218698804109]],[[135.58110707268912,34.60218698804109],[135.5797998683,34.60088569541451],[135.57993992591312,34.59909140205716]],[[135.57993992591312,34.59909140205716],[135.57393612289738,34.59886209939169]],[[135.5523205646059,34.636335887497175],[135.55376782660815,34.64013084661081]],[[135.55725992976193,34.64025123051018],[135.5574700161816,34.636513597062915]],[[135.5574700161816,34.636513597062915],[135.5523205646059,34.636335887497175]],[[135.56107416542588,34.6245841258915],[135.56415076432742,34.62606886065046]],[[135.56415076432742,34.62606886065046],[135.56438419368263,34.62464145155788]],[[135.56497243565772,34.62140828397466],[135.5622553179632,34.623064995732726]],[[135.57100891878318,34.594121266782956],[135.56850188750835,34.594958221511945]],[[135.56850188750835,34.594958221511945],[135.56829180108866,34.598420691760644]],[[135.56829180108866,34.598420691760644],[135.56823110945632,34.59925191392299]],[[135.57993992591312,34.59909140205716],[135.57999594895836,34.59393209208394],[135.57762430670954,34.59387476641757],[135.57719479669598,34.59284290442293],[135.57525733304783,34.59330724232052]],[[135.5406117481491,34.61866238455558],[135.5406117481491,34.620966876343616]],[[135.57323116624468,34.60189462714261],[135.57288569079898,34.60385516493243]],[[135.57765698681928,34.60409020016455],[135.57970649655792,34.6038035718327],[135.57983721699682,34.602135394941364]],[[135.5691554897029,34.626269500482756],[135.5689173917606,34.630224971462226]],[[135.5689173917606,34.630224971462226],[135.57178390424244,34.63036255306151]],[[135.57178390424244,34.63036255306151],[135.57200799642345,34.626298163315944]],[[135.57200799642345,34.626298163315944],[135.56944027351625,34.62618351198321]],[[135.5619191796917,34.61773944132703],[135.56207324306615,34.61687382376486]],[[135.5832219426472,34.60284623320434],[135.58315191384068,34.60559213262342]],[[135.58315191384068,34.60559213262342],[135.58316591960198,34.606704250550976]],[[135.5871528929888,34.60687622755009],[135.58727427625348,34.60477810816098],[135.5858643629481,34.60483543382735],[135.5832219426472,34.60284623320434]],[[135.56829180108866,34.598420691760644],[135.56530390534212,34.597715586064304],[135.56467364608307,34.59994555448606]],[[135.5641134156306,34.60199208077544],[135.56442621096656,34.602765977271424]],[[135.56442621096656,34.602765977271424],[135.5677269020491,34.602869163470885]],[[135.5677269020491,34.602869163470885],[135.5678669596622,34.60189462714261]],[[135.56245139862156,34.61176610689137],[135.56480903510908,34.6115998624589],[135.56536459697446,34.61264318958682]],[[135.56663445266673,34.60880810250673],[135.56523387653556,34.608934218972735]],[[135.56679318462827,34.595571606142094],[135.56850188750835,34.594958221511945]],[[135.57166718956483,34.59390342925076],[135.57017324169158,34.59112886699849],[135.57108828476396,34.589867702338374],[135.57104626748003,34.58701288415319],[135.56933756459995,34.587081674952834],[135.56945427927755,34.58961546940635],[135.56710131137714,34.59318112585451],[135.56679318462827,34.595571606142094]],[[135.54067243978145,34.61083169852956],[135.5407331314138,34.612723445519734]],[[135.54663422551323,34.6127807711861],[135.54662488833904,34.61091195446247]],[[135.5582730131635,34.60686476241681],[135.55774546282075,34.60590169122181]],[[135.55623284059905,34.60910619597185],[135.55626085212168,34.60911192853848]],[[135.55268938298713,34.60912912623839],[135.55274073744528,34.61277503861947]],[[135.56720868888053,34.60617112185375],[135.56720402029342,34.60617685442038]],[[135.56720402029342,34.60617685442038],[135.56664378984095,34.608802369940086]],[[135.56828713250155,34.60856733470798],[135.57062142605355,34.60802847344411]],[[135.57062142605355,34.60802847344411],[135.57296505677976,34.60756986811315]],[[135.57296505677976,34.60756986811315],[135.57282966775375,34.6064118896525]],[[135.57282966775375,34.6064118896525],[135.56720868888053,34.60617112185375]],[[135.54887047873606,34.60915205650494],[135.54885180438762,34.612786503752744]],[[135.55959889190103,34.62871730643672],[135.5641274213919,34.62763958390898]],[[135.5641274213919,34.62763958390898],[135.564132089979,34.62754786284279]],[[135.564132089979,34.62754786284279],[135.56415076432742,34.62606886065046]],[[135.57200799642345,34.626298163315944],[135.5763124337333,34.626344023849036]],[[135.5763124337333,34.626344023849036],[135.5757241917582,34.624308962692936]],[[135.56490707543827,34.60623418008675],[135.56490707543827,34.60622271495348]],[[135.56490707543827,34.60622271495348],[135.56442621096656,34.602765977271424]],[[135.56490707543827,34.60622271495348],[135.56720402029342,34.60617685442038]],[[135.56720868888053,34.60617112185375],[135.56757750726175,34.60382076953261]],[[135.56757750726175,34.60382076953261],[135.5677269020491,34.602869163470885]],[[135.56897808339295,34.626309628449214],[135.564132089979,34.62754786284279]],[[135.5641274213919,34.62763958390898],[135.56384730616566,34.6300816572963]],[[135.5642441360695,34.63008738986294],[135.5689080545864,34.630224971462226]],[[135.5689080545864,34.630224971462226],[135.5689173917606,34.630224971462226]],[[135.55416465651197,34.633234568946605],[135.55408995911833,34.6348339550383],[135.5523205646059,34.636335887497175]],[[135.5574700161816,34.636513597062915],[135.55760540520762,34.633412278512345]],[[135.55760540520762,34.633412278512345],[135.55416465651197,34.633234568946605]],[[135.57282966775375,34.60637176168604],[135.57282966775375,34.6064118896525]],[[135.57296505677976,34.60756986811315],[135.57352995581934,34.61022977903268]],[[135.57352995581934,34.61022977903268],[135.57798378791654,34.608767974540264]],[[135.57798378791654,34.608767974540264],[135.57775969573555,34.6063660291194]],[[135.56127958325845,34.636662643795475],[135.56127491467137,34.636633980962294]],[[135.56127491467137,34.636633980962294],[135.5574700161816,34.636513597062915]],[[135.57178390424244,34.63036255306151],[135.5716158351067,34.633876616409935]],[[135.5716158351067,34.633876616409935],[135.5716205036938,34.63391101180976]],[[135.5716205036938,34.63391101180976],[135.5745523763951,34.633997000309314],[135.57473911987927,34.630402681027974]],[[135.57473911987927,34.630402681027974],[135.57178390424244,34.63036255306151]],[[135.57138707433862,34.61174317662483],[135.57062142605355,34.60802847344411]],[[135.57386609409082,34.611811967424465],[135.57352995581934,34.61022977903268]],[[135.55930010232638,34.63014471552931],[135.56158304142022,34.63007019216303]],[[135.58315191384068,34.60559213262342],[135.5776990041032,34.6058844935219]],[[135.55927209080374,34.63015044809595],[135.55948217722343,34.633486801878625]],[[135.55948217722343,34.633486801878625],[135.5614243094587,34.63355559267827]],[[135.5614243094587,34.63355559267827],[135.5614289780458,34.63351546471181]],[[135.56679318462827,34.595571606142094],[135.56418811302424,34.59552001304237]],[[135.553851861176,34.633188708413506],[135.55416465651197,34.633234568946605]],[[135.55760540520762,34.633412278512345],[135.55948217722343,34.633486801878625]],[[135.57473911987927,34.630402681027974],[135.5758269006745,34.63031669252842],[135.5763124337333,34.626344023849036]],[[135.5832219426472,34.60284623320434],[135.58110707268912,34.60218698804109]],[[135.5689080545864,34.630224971462226],[135.56873998545063,34.6337619650772]],[[135.56873998545063,34.6337619650772],[135.5716158351067,34.633876616409935]],[[135.57416955225258,34.61376677264765],[135.57471577694375,34.6147527741092],[135.57704073332155,34.614901820841766],[135.5764011368883,34.61181769999111],[135.57777837008396,34.61180623485783]],[[135.5614243094587,34.63355559267827],[135.56127491467137,34.636633980962294]],[[135.56661577831832,34.636857551061134],[135.56570540383305,34.63364731374446]],[[135.56702194539636,34.6382505647539],[135.56849721892124,34.63829069272036],[135.56872597968933,34.634340954307525],[135.5716205036938,34.63391101180976]],[[135.56873998545063,34.6337619650772],[135.56570540383305,34.63364731374446]],[[135.57288569079898,34.60385516493243],[135.56757750726175,34.60382076953261]]]}