{"type":"Topology","bbox":[135.46526055798557,34.429945295951775,135.54552136429703,34.514302436018745],"objects":{"town":{"type":"GeometryCollection","geometries":[{"type":"MultiPolygon","arcs":[[[32,47,44,45,148,-20,149,57,58,2,3,4,5]]],"properties":{"name":"赤坂台"}},{"type":"Polygon","arcs":[[9,10,11,12,13,14,15,16,17]],"properties":{"name":"泉田中"}},{"type":"MultiPolygon","arcs":[[[110,111,112,28,18,19,20,21,29,113,-96]]],"properties":{"name":"稲葉"}},{"type":"MultiPolygon","arcs":[[[-68,-72,-86,121,26,193,192,155]]],"properties":{"name":"城山台"}},{"type":"MultiPolygon","arcs":[[[196,223,-48,-33,-6,-5,36,37,-94,119]]],"properties":{"name":"新檜尾台"}},{"type":"Polygon","arcs":[[-16,38,39,40,41,42,43]],"properties":{"name":"釜室"}},{"type":"Polygon","arcs":[[-15,48,49,50,51,52,-39]],"properties":{"name":"片蔵"}},{"type":"MultiPolygon","arcs":[[[241,55,-21,53,-163,-162,187]]],"properties":{"name":"高尾"}},{"type":"Polygon","arcs":[[59,-43,60,61,62]],"properties":{"name":"畑"}},{"type":"MultiPolygon","arcs":[[[64,-49,-14,65,76,77,150,151,152,79,80,-110,263]]],"properties":{"name":"庭代台"}},{"type":"MultiPolygon","arcs":[[[-38,83,84,85,71,67,68,92,93]]],"properties":{"name":"鴨谷台"}},{"type":"Polygon","arcs":[[72,73,-3,-59,74,75]],"properties":{"name":"大森"}},{"type":"MultiPolygon","arcs":[[[-241,-240,-235,-101,252,-211,-145,253,-222,91,86,87,88,249,-115]]],"properties":{"name":"竹城台"}},{"type":"Polygon","arcs":[[94,95,96,97]],"properties":{"name":"大庭寺"}},{"type":"Polygon","arcs":[[98,99,100]],"properties":{"name":"土佐屋台"}},{"type":"MultiPolygon","arcs":[[[-176,102,-180,-223,-254,-144,-249,104,233,-213,-191]]],"properties":{"name":"茶山台"}},{"type":"MultiPolygon","arcs":[[[-263,-266,165,166,-184,-173,-256,-255,-50,-65,-264,109,-81,-80,-153]]],"properties":{"name":"原山台"}},{"type":"MultiPolygon","arcs":[[[200,201,198,-237,-220,-236,239,240,114,115,184,185]]],"properties":{"name":"宮山台"}},{"type":"Polygon","arcs":[[122,-98,123,124]],"properties":{"name":"三木閉"}},{"type":"Polygon","arcs":[[125,126,-61,-42,127]],"properties":{"name":"逆瀬川"}},{"type":"MultiPolygon","arcs":[[[-142,-148,129,130,131,164,-217,-216,-234,-105,248,-143]]],"properties":{"name":"高倉台"}},{"type":"MultiPolygon","arcs":[[[133,214,-208,-130,147,141,142,143,144,210,211]]],"properties":{"name":"三原台"}},{"type":"MultiPolygon","arcs":[[[-12,-11,242,243,244,231,-151,-78,-77,-66,-13]]],"properties":{"name":"御池台"}},{"type":"Polygon","arcs":[[139,140]],"properties":{"name":"小代"}},{"type":"MultiPolygon","arcs":[[[212,213,-203,158,226,227,-225,-126,-128,-41,-170,190]]],"properties":{"name":"槇塚台"}},{"type":"MultiPolygon","arcs":[[[160,161,162,-54,-149,-46]],[[265,-262,-84,-37,-4,-74,-196,-166]]],"properties":{"name":"檜尾"}},{"type":"MultiPolygon","arcs":[[[179,-103,175,169,-40,-53,170,171,172,-87,-92,221,222]]],"properties":{"name":"若松台"}},{"type":"MultiPolygon","arcs":[[[-111,-95,-123,-125,182,-88,183,-167,195,-73,-76,-221,-112]]],"properties":{"name":"桃山台"}},{"type":"MultiPolygon","arcs":[[[-131,207,208,238,-227,-159,202,-214,215,216,-165,-132]]],"properties":{"name":"晴美台"}},{"type":"Polygon","arcs":[[218,219]],"properties":{"name":"和田東"}},{"type":"Polygon","arcs":[[-75,-58,-150,-19,-29,-113,220]],"properties":{"name":"野々井"}},{"type":"Polygon","arcs":[[-62,-127,224,225]],"properties":{"name":"岩室"}},{"type":"Polygon","arcs":[[234,235,-219,236,-199,237,-99]],"properties":{"name":"深阪南"}},{"type":"Polygon","arcs":[[246,-140,247,-201,-186]],"properties":{"name":"和田"}},{"type":"Polygon","arcs":[[254,255,-172,256,-51]],"properties":{"name":"栂"}},{"type":"Polygon","arcs":[[-18,257,258]],"properties":{"name":"鉢ケ峯寺"}},{"type":"Polygon","arcs":[[-245,259,260,-194,-27,-122,-85,261,262,-152,-232]],"properties":{"name":"美木多上"}},{"type":"Polygon","arcs":[[-260,-244,266]],"properties":{"name":"別所"}},{"type":"Polygon","arcs":[[-60,267,-258,-17,-44]],"properties":{"name":"富蔵"}},{"type":"Polygon","arcs":[[-52,-257,-171]],"properties":{"name":"豊田"}}]}},"arcs":[[[135.47811159818005,34.483601802685044],[135.47811159818005,34.48625088179106],[135.47612895800015,34.488360021206674]],[[135.47612895800015,34.488360021206674],[135.47844070039616,34.490291992911374]],[[135.47844070039616,34.490291992911374],[135.48086481915863,34.48748261920977]],[[135.48086481915863,34.48748261920977],[135.48084073850868,34.483475254320105]],[[135.48084073850868,34.483475254320105],[135.47811159818005,34.483601802685044]],[[135.47811159818005,34.483601802685044],[135.47624936124993,34.483728351049976]],[[135.47624936124993,34.483728351049976],[135.47604066228362,34.4850950733913],[135.47416237158689,34.48755854822873],[135.47274964012266,34.48811536103446]],[[135.47274964012266,34.48811536103446],[135.47273358635601,34.48925429631889]],[[135.47273358635601,34.48925429631889],[135.47612895800015,34.488360021206674]],[[135.51074087887375,34.457026646048284],[135.50735353411292,34.457026646048284],[135.50832478699456,34.45510311090124],[135.50769869009565,34.45252996081419],[135.50687192111374,34.45564305059164]],[[135.50687192111374,34.45564305059164],[135.5077629051622,34.45926233382883]],[[135.5077629051622,34.45926233382883],[135.50802779231174,34.4648895177897]],[[135.50802779231174,34.4648895177897],[135.5085896741441,34.466416534726605],[135.50765855567906,34.47034797059731],[135.50473677015077,34.47474341713946]],[[135.50473677015077,34.47474341713946],[135.50482506586727,34.47760341018703]],[[135.50482506586727,34.47760341018703],[135.5057080230324,34.481323932116176],[135.50853348596087,34.4820157298445],[135.51128670693947,34.4798812807559],[135.51328540088602,34.47976316894862]],[[135.51328540088602,34.47976316894862],[135.51174423928867,34.47864954333718],[135.51255495450394,34.47743467903378]],[[135.51255495450394,34.47743467903378],[135.51495499261645,34.47315734429891]],[[135.51495499261645,34.47315734429891],[135.5116639704555,34.471588144573694],[135.50980976040867,34.471495342439404],[135.50790738906196,34.469563370734704],[135.50987397547524,34.46506668550061],[135.50885456129365,34.461692062435624],[135.5107649595237,34.45904298332961],[135.51074087887375,34.457026646048284]],[[135.4739616995039,34.49527799848989],[135.47399380703717,34.494873043722095]],[[135.47399380703717,34.494873043722095],[135.47220381205693,34.49421499222442]],[[135.47220381205693,34.49421499222442],[135.47150547320814,34.49527799848989],[135.4730546616888,34.49630725852471],[135.47220381205693,34.50271904234818]],[[135.47220381205693,34.50271904234818],[135.47399380703717,34.50263467677156]],[[135.47399380703717,34.50263467677156],[135.47577577513408,34.500390552433345],[135.4763537107331,34.498163301210454],[135.4739616995039,34.49527799848989]],[[135.4857852986335,34.4642145931767],[135.48450902418568,34.466526209976216]],[[135.48450902418568,34.466526209976216],[135.48561673408378,34.467951988221174],[135.4873264602308,34.467682018375974]],[[135.4873264602308,34.467682018375974],[135.48902815949455,34.46772420116429],[135.49097869214117,34.46939463958145]],[[135.49097869214117,34.46939463958145],[135.49274460647146,34.46622249390037],[135.4923914236054,34.46564037142166]],[[135.4923914236054,34.46564037142166],[135.4857852986335,34.4642145931767]],[[135.47813567883003,34.49839108826734],[135.47489281796894,34.49647598967796],[135.4739616995039,34.49527799848989]],[[135.47399380703717,34.50263467677156],[135.47608079670022,34.50346145942248],[135.47785473791384,34.50246594561831]],[[135.47785473791384,34.50246594561831],[135.47813567883003,34.49839108826734]],[[135.47217170452365,34.4827581469188],[135.4716981184078,34.48364398547336],[135.47274964012266,34.48811536103446]],[[135.47624936124993,34.483728351049976],[135.47217170452365,34.4827581469188]],[[135.4800300232934,34.47758653707171],[135.47862531871252,34.480235616177715]],[[135.47862531871252,34.480235616177715],[135.47851294234604,34.48107927194396]],[[135.47851294234604,34.48107927194396],[135.47811159818005,34.483601802685044]],[[135.48084073850868,34.483475254320105],[135.483361179871,34.479822224852256]],[[135.483361179871,34.479822224852256],[135.4800300232934,34.47758653707171]],[[135.51328540088602,34.47976316894862],[135.51432889571754,34.48080930209876],[135.51296432555324,34.482825639380096],[135.5155489819821,34.484580443373886]],[[135.5155489819821,34.484580443373886],[135.5155489819821,34.48457200681622]],[[135.5155489819821,34.48457200681622],[135.5161670519977,34.48330652316685],[135.52147282187187,34.48084304832942],[135.5270434788956,34.47968723992966],[135.5270434788956,34.47899544220134]],[[135.5270434788956,34.47899544220134],[135.5249805698825,34.47550270732908]],[[135.5249805698825,34.47550270732908],[135.52359994595153,34.474920584850366]],[[135.52359994595153,34.474920584850366],[135.51994771404117,34.476422292114286],[135.5179409932113,34.47939196041147],[135.51603059498126,34.47941727008446],[135.51255495450394,34.47743467903378]],[[135.4702532794103,34.48254723297723],[135.4697716664111,34.48328121349387]],[[135.4697716664111,34.48328121349387],[135.46894489742922,34.484327346644015],[135.4695629674448,34.487904447092895]],[[135.4695629674448,34.487904447092895],[135.47274964012266,34.48811536103446]],[[135.47217170452365,34.4827581469188],[135.4702532794103,34.48254723297723]],[[135.50482506586727,34.47760341018703],[135.50408659260188,34.4790713712203]],[[135.50408659260188,34.4790713712203],[135.5038859205189,34.481087708501626],[135.50213605995526,34.48352587366608]],[[135.50213605995526,34.48352587366608],[135.50072332849103,34.48574468833131],[135.50105243070712,34.48765135036302]],[[135.50105243070712,34.48765135036302],[135.5013735060399,34.488739666301484]],[[135.5013735060399,34.488739666301484],[135.5075140717793,34.48645335917495],[135.5100746475582,34.487094537557304],[135.51127065317283,34.486242445233394],[135.51459378286708,34.4862171355604],[135.5155489819821,34.484580443373886]],[[135.47220381205693,34.49421499222442],[135.47053422032647,34.494164372878444]],[[135.47053422032647,34.494164372878444],[135.4708793763092,34.498526073189936],[135.46991615031087,34.50233939725337]],[[135.46991615031087,34.50233939725337],[135.47127269359186,34.50378204861365],[135.47220381205693,34.50271904234818]],[[135.47273358635601,34.48925429631889],[135.47309479610539,34.49267953872985],[135.47451555445292,34.4934557020348]],[[135.47451555445292,34.4934557020348],[135.47654635593275,34.49249393446128],[135.47852899611266,34.490384795045664]],[[135.47852899611266,34.490384795045664],[135.47844070039616,34.490291992911374]],[[135.5307599258725,34.46354810512137],[135.52822343074357,34.46494013713567],[135.52642540888,34.4680363537978],[135.5243705267502,34.46860160316118],[135.5229658221693,34.472043718687466],[135.52359994595153,34.474920584850366]],[[135.5249805698825,34.47550270732908],[135.52673043044612,34.47321640020255],[135.5300535601404,34.47129286505551],[135.53284691553557,34.47174843916928],[135.534339915833,34.47045764584692]],[[135.534339915833,34.47045764584692],[135.53749448097756,34.47246554657059]],[[135.53749448097756,34.47246554657059],[135.53880286295862,34.468947502025344],[135.54117882042118,34.46769045493364],[135.54239890668575,34.46510043173126],[135.5455053105304,34.46267913968213],[135.54340226710067,34.45978540040391],[135.53765501864393,34.46082309699639],[135.53337668983465,34.46219825589537],[135.5307599258725,34.46354810512137]],[[135.50069924784106,34.47069386946147],[135.5013735060399,34.47161345424668],[135.50094005434065,34.47434689892932],[135.50160628565618,34.47702972426598],[135.50028987679178,34.478607360548864]],[[135.50028987679178,34.478607360548864],[135.50408659260188,34.4790713712203]],[[135.50473677015077,34.47474341713946],[135.50369327531922,34.47126755538252],[135.5018230115058,34.468677532180145]],[[135.5018230115058,34.468677532180145],[135.50069924784106,34.47069386946147]],[[135.48100930305839,34.4681038462591],[135.47736509803136,34.4697658481186]],[[135.47736509803136,34.4697658481186],[135.47752563569773,34.471571271458366]],[[135.47752563569773,34.471571271458366],[135.47938787262785,34.474397518275296],[135.4803029373263,34.474051619411135]],[[135.4803029373263,34.474051619411135],[135.48370633585373,34.47132661128616]],[[135.48370633585373,34.47132661128616],[135.48100930305839,34.4681038462591]],[[135.48358593260394,34.489245859761226],[135.48495852965158,34.48777789872796]],[[135.48495852965158,34.48777789872796],[135.48260665283897,34.48677394836613],[135.48086481915863,34.48748261920977]],[[135.47852899611266,34.490384795045664],[135.4803510986262,34.491000663755024]],[[135.4803510986262,34.491000663755024],[135.4811858944914,34.4899039112589],[135.48358593260394,34.489245859761226]],[[135.5018230115058,34.468677532180145],[135.49998485522562,34.46747110443441]],[[135.49998485522562,34.46747110443441],[135.4996075917096,34.467302373281164]],[[135.4996075917096,34.467302373281164],[135.49793799997917,34.471141007017586],[135.4934509722036,34.4746421784475],[135.49309778933753,34.47568831159765]],[[135.49309778933753,34.47568831159765],[135.49470316600141,34.47605108357714]],[[135.49470316600141,34.47605108357714],[135.49616405876557,34.47691161245871]],[[135.49616405876557,34.47691161245871],[135.49858015064473,34.474988077311664],[135.49921427442698,34.47246554657059],[135.50069924784106,34.47069386946147]],[[135.4803029373263,34.474051619411135],[135.4800300232934,34.47758653707171]],[[135.483361179871,34.479822224852256],[135.48470969626868,34.477923999378206]],[[135.48470969626868,34.477923999378206],[135.48679668593172,34.47447344729426]],[[135.48679668593172,34.47447344729426],[135.48500669095148,34.473612918412684],[135.48370633585373,34.47132661128616]],[[135.50241700087145,34.49192024854023],[135.49739217191345,34.48954113927942]],[[135.49739217191345,34.48954113927942],[135.4964289459151,34.49062945521787]],[[135.4964289459151,34.49062945521787],[135.50085978550746,34.492342076423355],[135.500924000574,34.49404626107117],[135.49933467767676,34.49569982637301]],[[135.49933467767676,34.49569982637301],[135.50159825877284,34.4972099701946],[135.50300296335377,34.49654348213926],[135.50433542598478,34.497530559385766]],[[135.50433542598478,34.497530559385766],[135.5050498186002,34.49793551415357],[135.50850940531092,34.49507552110599]],[[135.50850940531092,34.49507552110599],[135.50241700087145,34.49192024854023]],[[135.47752563569773,34.471571271458366],[135.4754065385014,34.473342948567485],[135.47420250600348,34.473233273317874]],[[135.47420250600348,34.473233273317874],[135.4800300232934,34.47758653707171]],[[135.48824955181254,34.494476525511956],[135.48613848149952,34.494636820107544],[135.484894314585,34.4994794042058],[135.48165145372394,34.49828141301773]],[[135.48165145372394,34.49828141301773],[135.47933971132792,34.50212848331181],[135.47994975446022,34.50289621005909]],[[135.47994975446022,34.50289621005909],[135.48197252905672,34.50346145942248],[135.4831203733714,34.505815259010305],[135.48466956185206,34.50487036455211],[135.486652202032,34.50527531931991],[135.4888034067616,34.50212848331181],[135.49104290720774,34.50106547704634],[135.49115528357422,34.50219597577311],[135.49260814945504,34.49788489480759],[135.4916850578733,34.49753899594343]],[[135.4916850578733,34.49753899594343],[135.48857865402866,34.49749681315512],[135.48765556244692,34.49848389040163],[135.48621875033274,34.497547432501094],[135.48824955181254,34.494476525511956]],[[135.5087983731104,34.50174040165934],[135.50721707709647,34.504262932400415],[135.50728129216304,34.506034609509534]],[[135.50728129216304,34.506034609509534],[135.5096652765089,34.506178030989794]],[[135.5096652765089,34.506178030989794],[135.51041980354094,34.50551154293446],[135.50989002924186,34.50216222954246],[135.5087983731104,34.50174040165934]],[[135.51973901507486,34.49186119263659],[135.51761991787853,34.491397181965155],[135.51738713826225,34.49023293700774],[135.51582189601496,34.49129594327321],[135.51631153589744,34.488410640552644],[135.51372687946858,34.48792132020822]],[[135.51372687946858,34.48792132020822],[135.5120412339715,34.492375822654004]],[[135.5120412339715,34.492375822654004],[135.51333356218592,34.492662665614525],[135.51782861684484,34.49555640489275]],[[135.51782861684484,34.49555640489275],[135.51973901507486,34.49186119263659]],[[135.49470316600141,34.47605108357714],[135.4933787302537,34.47918104646991],[135.49349110662018,34.48053933225357]],[[135.49349110662018,34.48053933225357],[135.49254393438846,34.48345838120478]],[[135.49254393438846,34.48345838120478],[135.4938362626029,34.48413330581778],[135.49561823069985,34.48241224805464]],[[135.49561823069985,34.48241224805464],[135.49484764990117,34.48096959669435],[135.49810656452888,34.47834582726133]],[[135.49810656452888,34.47834582726133],[135.49616405876557,34.47691161245871]],[[135.48165145372394,34.49828141301773],[135.48192436775682,34.49784271201928]],[[135.48192436775682,34.49784271201928],[135.48008621147665,34.49710873150264]],[[135.48008621147665,34.49710873150264],[135.47950024899433,34.49886353549644],[135.47813567883003,34.49839108826734]],[[135.47785473791384,34.50246594561831],[135.47776644219732,34.50412794747781],[135.47994975446022,34.50289621005909]],[[135.50187117280572,34.49967344503204],[135.49949521534313,34.500441171779315],[135.49764903217965,34.498163301210454]],[[135.49764903217965,34.498163301210454],[135.49570652641634,34.49888040861176],[135.49467908535146,34.503849541074956]],[[135.49467908535146,34.503849541074956],[135.49906979052722,34.50526688276225]],[[135.49906979052722,34.50526688276225],[135.5012049414902,34.502288777907395],[135.50187117280572,34.49967344503204]],[[135.47192287114075,34.47589078898155],[135.47359246287118,34.475730494385964],[135.47555102240113,34.478624233664185],[135.47862531871252,34.480235616177715]],[[135.47420250600348,34.473233273317874],[135.47192287114075,34.47589078898155]],[[135.4873264602308,34.467682018375974],[135.48370633585373,34.47132661128616]],[[135.48679668593172,34.47447344729426],[135.48951779937704,34.4699683255025],[135.49097869214117,34.46939463958145]],[[135.48872313792842,34.49408844385948],[135.48824955181254,34.494476525511956]],[[135.4916850578733,34.49753899594343],[135.48997533172624,34.49638318754367],[135.49170913852325,34.49423186533974],[135.49084223512475,34.492882016113754]],[[135.49084223512475,34.492882016113754],[135.48872313792842,34.49408844385948]],[[135.5291545492086,34.47864954333718],[135.53189974330388,34.479510072218744]],[[135.53189974330388,34.479510072218744],[135.5337700071173,34.47731656722651],[135.53571251288062,34.47306454216462],[135.534339915833,34.47045764584692]],[[135.5270434788956,34.47899544220134],[135.5291545492086,34.47864954333718]],[[135.5279184091774,34.49127907015788],[135.52740468864496,34.491726207713995],[135.5259277421142,34.498779169919814]],[[135.5259277421142,34.498779169919814],[135.5305110924896,34.49987592241593]],[[135.5305110924896,34.49987592241593],[135.5307599258725,34.496357877870686],[135.52986894182405,34.494544017973254]],[[135.52986894182405,34.494544017973254],[135.5279184091774,34.49127907015788]],[[135.5183503642606,34.50081238031647],[135.51585400354824,34.50354582499911],[135.51680117577993,34.50571402031836]],[[135.51680117577993,34.50571402031836],[135.5195784774085,34.50450759257262],[135.52532572586523,34.50378204861365]],[[135.52532572586523,34.50378204861365],[135.5233029512687,34.500517100798284]],[[135.5233029512687,34.500517100798284],[135.5183503642606,34.50081238031647]],[[135.50538694769963,34.45838493183194],[135.5054912971828,34.461514894724715],[135.50641438876454,34.46494013713567]],[[135.50641438876454,34.46494013713567],[135.50802779231174,34.4648895177897]],[[135.5077629051622,34.45926233382883],[135.50538694769963,34.45838493183194]],[[135.49364361740325,34.509687638977375],[135.4916930847566,34.510919376396096],[135.48782412699663,34.510446929167]],[[135.48782412699663,34.510446929167],[135.48553646525056,34.51335754156055],[135.48873919169503,34.514302436018745],[135.4899111166597,34.51201612889222],[135.49400482715262,34.51067471622389],[135.49364361740325,34.509687638977375]],[[135.5239451019343,34.498239230229416],[135.51943399350873,34.49704967559901]],[[135.51943399350873,34.49704967559901],[135.51778848242824,34.49661941115822]],[[135.51778848242824,34.49661941115822],[135.51296432555324,34.498239230229416]],[[135.51296432555324,34.498239230229416],[135.51342988478575,34.49979999339697]],[[135.51342988478575,34.49979999339697],[135.5154285787323,34.49842483449799],[135.5183503642606,34.50081238031647]],[[135.5233029512687,34.500517100798284],[135.5259277421142,34.498779169919814]],[[135.5259277421142,34.498779169919814],[135.5239451019343,34.498239230229416]],[[135.4695629674448,34.487904447092895],[135.46880844041277,34.48979423600929],[135.46929808029526,34.49255299036491],[135.47220381205693,34.49421499222442]],[[135.47399380703717,34.494873043722095],[135.47451555445292,34.4934557020348]],[[135.4996075917096,34.467302373281164],[135.4964289459151,34.466433407841926]],[[135.4964289459151,34.466433407841926],[135.49503226821753,34.46732768295415],[135.49163689657337,34.4730476690493],[135.49170913852325,34.47554489011739]],[[135.49170913852325,34.47554489011739],[135.49309778933753,34.47568831159765]],[[135.48100930305839,34.4681038462591],[135.48450902418568,34.466526209976216]],[[135.4857852986335,34.4642145931767],[135.48825757869588,34.46040970567093]],[[135.48825757869588,34.46040970567093],[135.48698130424808,34.46128710766783],[135.484717723152,34.461168995860554],[135.47754168946437,34.46544633059542],[135.47559115681773,34.46953806106171],[135.47736509803136,34.4697658481186]],[[135.52845621035982,34.47973785927563],[135.5265939734297,34.47993190010187],[135.52670634979617,34.482445994285285]],[[135.52670634979617,34.482445994285285],[135.52677056486274,34.484706991738825]],[[135.52677056486274,34.484706991738825],[135.5321566035701,34.485466281928446]],[[135.5321566035701,34.485466281928446],[135.5319880390204,34.48128174932786],[135.52845621035982,34.47973785927563]],[[135.4697716664111,34.48328121349387],[135.4665127517834,34.48280876626477],[135.46636826788367,34.49126219704256]],[[135.46636826788367,34.49126219704256],[135.46932216094524,34.49369192564935]],[[135.46932216094524,34.49369192564935],[135.47053422032647,34.494164372878444]],[[135.5254381022317,34.48912774795396],[135.5246594945497,34.49061258210255],[135.5251090000156,34.493244788093236],[135.5239451019343,34.498239230229416]],[[135.5279184091774,34.49127907015788],[135.5254381022317,34.48912774795396]],[[135.49049707914202,34.47891107662471],[135.4883458744124,34.483298086609196]],[[135.4883458744124,34.483298086609196],[135.4910669878577,34.48528067765987]],[[135.4910669878577,34.48528067765987],[135.49254393438846,34.48345838120478]],[[135.49349110662018,34.48053933225357],[135.49158070839013,34.48090210423305],[135.49150043955694,34.47876765514445],[135.49049707914202,34.47891107662471]],[[135.51592624549812,34.484740737969474],[135.5155489819821,34.48457200681622]],[[135.5013735060399,34.488739666301484],[135.50033803809168,34.48995453060488],[135.49817077959543,34.48868904695551]],[[135.49817077959543,34.48868904695551],[135.49815472582878,34.48868061039784]],[[135.49815472582878,34.48868061039784],[135.49739217191345,34.48954113927942]],[[135.50241700087145,34.49192024854023],[135.50317955478678,34.49105971965866],[135.5063662274646,34.49053665308359]],[[135.5063662274646,34.49053665308359],[135.50938433559276,34.48804786857316],[135.511551594089,34.487440436421466],[135.51372687946858,34.48792132020822]],[[135.51372687946858,34.48792132020822],[135.51592624549812,34.484740737969474]],[[135.4867003633319,34.491397181965155],[135.48445283600245,34.493101366612976],[135.48192436775682,34.49784271201928]],[[135.48872313792842,34.49408844385948],[135.4867003633319,34.491397181965155]],[[135.5063662274646,34.49053665308359],[135.51123051875624,34.49435841370468]],[[135.51123051875624,34.49435841370468],[135.5120412339715,34.492375822654004]],[[135.4910669878577,34.48528067765987],[135.4892529122275,34.48697642575003],[135.4894937187271,34.48808161480381],[135.48668430956525,34.491380308849834]],[[135.48668430956525,34.491380308849834],[135.4867003633319,34.491397181965155]],[[135.49084223512475,34.492882016113754],[135.49404496156922,34.49024981012306],[135.49396469273603,34.489169930742264],[135.4964289459151,34.49062945521787]],[[135.49739217191345,34.48954113927942],[135.4910669878577,34.48528067765987]],[[135.49467908535146,34.503849541074956],[135.49470316600141,34.50400139911288]],[[135.49470316600141,34.50400139911288],[135.49586706408274,34.50493785701341],[135.4942937949521,34.50883554665347]],[[135.4942937949521,34.50883554665347],[135.4958510103161,34.50846433811632],[135.49906979052722,34.50526688276225]],[[135.46636826788367,34.49126219704256],[135.46554952578506,34.49608790802549],[135.46615956891736,34.49746306692447],[135.46526055798557,34.49987592241593],[135.4665047249001,34.500331496529704]],[[135.4665047249001,34.500331496529704],[135.4667053969831,34.49373410843766],[135.46932216094524,34.49369192564935]],[[135.52845621035982,34.47973785927563],[135.5291545492086,34.47864954333718]],[[135.51592624549812,34.484740737969474],[135.5195543967585,34.48639430327132]],[[135.5195543967585,34.48639430327132],[135.5217296821381,34.48395613810686],[135.52670634979617,34.482445994285285]],[[135.48914856274433,34.46050250780522],[135.48825757869588,34.46040970567093]],[[135.4923914236054,34.46564037142166],[135.49166900410665,34.462940672969665],[135.48914856274433,34.46050250780522]],[[135.48358593260394,34.489245859761226],[135.48668430956525,34.491380308849834]],[[135.4883458744124,34.483298086609196],[135.48589767499996,34.487870700862246],[135.48495852965158,34.48777789872796]],[[135.47192287114075,34.47589078898155],[135.47109610215884,34.478084293973794]],[[135.47109610215884,34.478084293973794],[135.4759042052672,34.48085992144474],[135.47851294234604,34.48107927194396]],[[135.5026096460711,34.505941807375244],[135.50278623750413,34.505798385894984]],[[135.50278623750413,34.505798385894984],[135.49906979052722,34.50526688276225]],[[135.4942937949521,34.50883554665347],[135.49438209066864,34.509687638977375]],[[135.49438209066864,34.509687638977375],[135.49486370366782,34.51176303216234],[135.49934270456006,34.50874274451918],[135.5026096460711,34.505941807375244]],[[135.52677056486274,34.484706991738825],[135.52443474181678,34.485466281928446]],[[135.52443474181678,34.485466281928446],[135.52558258613143,34.48701017198068],[135.5274929843615,34.48688362361574],[135.529893022474,34.489861728470586],[135.5313699690048,34.49382691057195]],[[135.5313699690048,34.49382691057195],[135.53185158200395,34.49354006761142]],[[135.53185158200395,34.49354006761142],[135.53242149071966,34.49192024854023],[135.53114521627185,34.48835158464901],[135.5321566035701,34.485466281928446]],[[135.5313699690048,34.49382691057195],[135.52986894182405,34.494544017973254]],[[135.5305110924896,34.49987592241593],[135.53642690549606,34.50088830933543]],[[135.53642690549606,34.50088830933543],[135.53719748629473,34.499774683723984],[135.53715735187814,34.49710873150264],[135.53852192204243,34.49523581570158],[135.53511049663166,34.492865142998426]],[[135.53511049663166,34.492865142998426],[135.53352920061772,34.49456089108858],[135.53185158200395,34.49354006761142]],[[135.51342988478575,34.49979999339697],[135.51302051373648,34.5024912552913],[135.5108532552402,34.50623708689343]],[[135.5108532552402,34.50623708689343],[135.51680117577993,34.50571402031836]],[[135.5195543967585,34.48639430327132],[135.52252434358672,34.48773571593965]],[[135.52252434358672,34.48773571593965],[135.52443474181678,34.485466281928446]],[[135.52532572586523,34.50378204861365],[135.52759733384462,34.503410840076505],[135.53012580209028,34.501183588853614],[135.53301548008528,34.501858513466615],[135.53642690549606,34.50088830933543]],[[135.52252434358672,34.48773571593965],[135.5241618277839,34.488503442686934]],[[135.5241618277839,34.488503442686934],[135.5254381022317,34.48912774795396]],[[135.5241618277839,34.488503442686934],[135.52233972527037,34.49089098850541],[135.52275712320298,34.4922408377314],[135.52046946145694,34.49220709150075],[135.51943399350873,34.49704967559901]],[[135.5037976248024,34.504929420455746],[135.5074659104794,34.50160541673674]],[[135.5074659104794,34.50160541673674],[135.50506587236686,34.50086299966244],[135.5017748502059,34.50363019057573],[135.5037976248024,34.504929420455746]],[[135.48008621147665,34.49710873150264],[135.47984540497706,34.493624433188046],[135.4803510986262,34.491000663755024]],[[135.50850940531092,34.49507552110599],[135.51026729275787,34.49573357260366]],[[135.51026729275787,34.49573357260366],[135.51123051875624,34.49435841370468]],[[135.47109610215884,34.478084293973794],[135.47196300555734,34.48090210423305],[135.47044592460995,34.48114676440527],[135.4702532794103,34.48254723297723]],[[135.53189974330388,34.479510072218744],[135.532405436953,34.48026936240837],[135.5355359214476,34.480834611771755]],[[135.5355359214476,34.480834611771755],[135.53678008836212,34.47773839510963],[135.53629847536294,34.47547739765609],[135.53749448097756,34.47246554657059]],[[135.5321566035701,34.485466281928446],[135.53612188392992,34.48539878946715]],[[135.53612188392992,34.48539878946715],[135.5355359214476,34.480834611771755]],[[135.50641438876454,34.46494013713567],[135.50236883957152,34.46438332432995]],[[135.50236883957152,34.46438332432995],[135.50195946852222,34.4660115799588],[135.49998485522562,34.46747110443441]],[[135.50138153292323,34.46122805176419],[135.50098018875724,34.46092433568834]],[[135.50098018875724,34.46092433568834],[135.4969988546308,34.46289849018136],[135.4974162525634,34.464172410388386],[135.4964289459151,34.466433407841926]],[[135.50236883957152,34.46438332432995],[135.50138153292323,34.46122805176419]],[[135.51973901507486,34.49186119263659],[135.52252434358672,34.48773571593965]],[[135.5087983731104,34.50174040165934],[135.50748196424604,34.50157167050609]],[[135.50748196424604,34.50157167050609],[135.5074659104794,34.50160541673674]],[[135.5037976248024,34.504929420455746],[135.50278623750413,34.505798385894984]],[[135.5026096460711,34.505941807375244],[135.50728129216304,34.506034609509534]],[[135.53511049663166,34.492865142998426],[135.5339706792003,34.490966917524375],[135.5345004534994,34.48974361666331],[135.53374592646736,34.48754167511341],[135.53612188392992,34.48539878946715]],[[135.50748196424604,34.50157167050609],[135.50756223307923,34.50098954802738]],[[135.50756223307923,34.50098954802738],[135.50436753351806,34.499411911744495],[135.50187117280572,34.49967344503204]],[[135.4665047249001,34.500331496529704],[135.467532165965,34.50166447264038],[135.46991615031087,34.50233939725337]],[[135.50687192111374,34.45564305059164],[135.50586053381548,34.45486688728669]],[[135.50586053381548,34.45486688728669],[135.50474479703408,34.45398104873213],[135.50358089895275,34.456697620299444],[135.5024009471048,34.45757502229634]],[[135.5024009471048,34.45757502229634],[135.5021601406052,34.459633542365985],[135.50098018875724,34.46092433568834]],[[135.50138153292323,34.46122805176419],[135.5031073128369,34.45872239413844],[135.50538694769963,34.45838493183194]],[[135.49470316600141,34.50400139911288],[135.4936998055865,34.50354582499911],[135.49261617633834,34.506178030989794],[135.49028035329238,34.50466788716821],[135.48782412699663,34.510446929167]],[[135.49364361740325,34.509687638977375],[135.49438209066864,34.509687638977375]],[[135.51782861684484,34.49555640489275],[135.51778848242824,34.49661941115822]],[[135.49933467767676,34.49569982637301],[135.49764903217965,34.498163301210454]],[[135.50187117280572,34.49967344503204],[135.50216816748852,34.49851763663228],[135.50433542598478,34.497530559385766]],[[135.51026729275787,34.49573357260366],[135.50797160412853,34.498981647303715],[135.50756223307923,34.50098954802738]],[[135.5096652765089,34.506178030989794],[135.5108532552402,34.50623708689343]],[[135.51296432555324,34.498239230229416],[135.51026729275787,34.49573357260366]],[[135.50213605995526,34.48352587366608],[135.49752060204656,34.484884159449734]],[[135.49752060204656,34.484884159449734],[135.49602760174912,34.48798881266952],[135.49815472582878,34.48868061039784]],[[135.49817077959543,34.48868904695551],[135.49913400559376,34.48751636544043],[135.50105243070712,34.48765135036302]],[[135.51495499261645,34.47315734429891],[135.51680920266327,34.47055044798121],[135.52007614417428,34.46937776646613],[135.5215691444717,34.46770732804896],[135.52392904816764,34.46646715407258],[135.52702742512895,34.462830997720054]],[[135.52702742512895,34.462830997720054],[135.52517321508216,34.46212232687641],[135.52463541389974,34.46300816543097],[135.5213203110888,34.460789350765744],[135.521777843438,34.459684161711955],[135.51989152585793,34.45757502229634],[135.5199958753411,34.456157680609046],[135.51831825672733,34.45468971957578],[135.51615902511438,34.455381517304104],[135.51271549217032,34.45494281630565],[135.51074087887375,34.457026646048284]],[[135.5024009471048,34.45757502229634],[135.49985642509253,34.45656263537685],[135.49908584429386,34.45404010463577],[135.49647710721501,34.45278305754406]],[[135.49647710721501,34.45278305754406],[135.49491186496772,34.455651487149304],[135.4912355524074,34.458258383467005],[135.48914856274433,34.46050250780522]],[[135.48470969626868,34.477923999378206],[135.48725421828095,34.478717035798475],[135.4882174442793,34.47738405968781],[135.49111514915762,34.47764559297534]],[[135.49111514915762,34.47764559297534],[135.49170913852325,34.47554489011739]],[[135.49810656452888,34.47834582726133],[135.50028987679178,34.478607360548864]],[[135.49561823069985,34.48241224805464],[135.49752060204656,34.484884159449734]],[[135.49049707914202,34.47891107662471],[135.49111514915762,34.47764559297534]],[[135.50586053381548,34.45486688728669],[135.50740169541282,34.451905655547165],[135.50984186794196,34.448741946423745],[135.51738713826225,34.44157087241065],[135.51973901507486,34.439664210378936],[135.51972296130822,34.436871709792655],[135.51859117076017,34.43284747178766],[135.51965874624167,34.43122765271647],[135.51894435362624,34.429945295951775],[135.51556503574875,34.431067358120885],[135.51096563160667,34.43153980534998],[135.50631003928137,34.43392735116846],[135.50368524843591,34.43311744163286],[135.50051462952473,34.433708000669235],[135.498234994662,34.4383902901719],[135.4995995648263,34.44252420342651],[135.49819486024538,34.44455741382316],[135.49752862892987,34.4500327397461],[135.49647710721501,34.45278305754406]],[[135.5307599258725,34.46354810512137],[135.53019001715683,34.46157395062835],[135.52702742512895,34.462830997720054]]]}