{"type":"Topology","bbox":[135.53812756434598,34.51026684647515,135.58745138956058,34.56002666046704],"objects":{"town":{"type":"GeometryCollection","geometries":[{"type":"MultiPolygon","arcs":[[[1,43,44,6,3,94,-58]]],"properties":{"name":"北余部西"}},{"type":"Polygon","arcs":[[7,8,9,10]],"properties":{"name":"今井"}},{"type":"Polygon","arcs":[[11,12,13,14]],"properties":{"name":"丹上"}},{"type":"Polygon","arcs":[[15,16]],"properties":{"name":"石原"}},{"type":"Polygon","arcs":[[17,18,19,-14,20]],"properties":{"name":"真福寺"}},{"type":"Polygon","arcs":[[21,22,23,24,25,26]],"properties":{"name":"阿弥"}},{"type":"MultiPolygon","arcs":[[[37,-31,27,28,34,35,51,52,-39]]],"properties":{"name":"さつき野西"}},{"type":"MultiPolygon","arcs":[[[32,50,49,-28,30,-38,38,39,40,41]]],"properties":{"name":"さつき野東"}},{"type":"MultiPolygon","arcs":[[[-69,96,97,78,47,48,91,92]]],"properties":{"name":"木材通"}},{"type":"Polygon","arcs":[[53,54,55,-23,56]],"properties":{"name":"南余部"}},{"type":"Polygon","arcs":[[-44,-2,57,58,59,60,61,62]],"properties":{"name":"大饗"}},{"type":"Polygon","arcs":[[-36,63,64,65,66,-41,67,-52]],"properties":{"name":"小平尾"}},{"type":"MultiPolygon","arcs":[[[95,70,71,68,-93]]],"properties":{"name":"青南台"}},{"type":"MultiPolygon","arcs":[[[89,73,74,-84,-55,-54]]],"properties":{"name":"南余部西"}},{"type":"Polygon","arcs":[[79,-8,80,-21,-13,81,82]],"properties":{"name":"大保"}},{"type":"Polygon","arcs":[[-56,83,-75,84,-7,-45,-63,85,86,-24]],"properties":{"name":"北余部"}},{"type":"Polygon","arcs":[[-87,87,-83,88,-65,-25]],"properties":{"name":"黒山"}},{"type":"Polygon","arcs":[[98,-27,99,-97,-72]],"properties":{"name":"菅生"}},{"type":"Polygon","arcs":[[100,101,-60]],"properties":{"name":"菩提"}},{"type":"Polygon","arcs":[[-102,102,-17,103,-10,104,-61]],"properties":{"name":"小寺"}},{"type":"Polygon","arcs":[[-19,105]],"properties":{"name":"丹南"}},{"type":"Polygon","arcs":[[-50,106,-48,-79,-98,-100,-26,-64,-35,-29]],"properties":{"name":"平尾"}},{"type":"Polygon","arcs":[[-89,-82,-12,107,-66]],"properties":{"name":"多治井"}},{"type":"Polygon","arcs":[[-62,-105,-9,-80,-88,-86]],"properties":{"name":"太井"}}]}},"arcs":[[[135.54286312512266,34.540752757117644],[135.54197027460123,34.541698288136594]],[[135.54197027460123,34.541698288136594],[135.54286312512266,34.54170824109469]],[[135.54286312512266,34.54170824109469],[135.54286312512266,34.540752757117644]],[[135.5419012143399,34.53748818686275],[135.54170389930755,34.539657931727284]],[[135.54170389930755,34.539657931727284],[135.54295684976304,34.539807226098695]],[[135.54295684976304,34.539807226098695],[135.54406674682008,34.53978234370346]],[[135.54406674682008,34.53978234370346],[135.5439680893039,34.53835409421694],[135.5419012143399,34.53748818686275]],[[135.5537450491574,34.5538408970115],[135.55369078752352,34.551004303954656]],[[135.55369078752352,34.551004303954656],[135.55021804295396,34.550855009583245],[135.5482399597545,34.54983980785764]],[[135.5482399597545,34.54983980785764],[135.54677982851504,34.55167612862601],[135.54679462714248,34.55475159267712]],[[135.54679462714248,34.55475159267712],[135.54662690936496,34.55978778947278],[135.54860499256438,34.559907224969905],[135.54774667217362,34.55853869323196],[135.54835341589813,34.557155232056864],[135.55164364406275,34.55648340738551],[135.5514019331481,34.555368676078956],[135.5537450491574,34.5538408970115]],[[135.56769522194537,34.5488743709225],[135.56498707312622,34.5480184165264],[135.56170177783738,34.54810799314925]],[[135.56170177783738,34.54810799314925],[135.56163271757606,34.54855089978444]],[[135.56163271757606,34.54855089978444],[135.56565301136044,34.54912319487486],[135.565302777178,34.55089482141562],[135.56266862149596,34.55102918634989],[135.56381798155948,34.55295508374112],[135.5613712751582,34.5529948955735],[135.5611098327403,34.55447290985048]],[[135.5611098327403,34.55447290985048],[135.56103090672735,34.55995698976038],[135.56724139737094,34.56002666046704],[135.56843515331673,34.558896999723345],[135.56827730129083,34.553323343190605],[135.56747817540978,34.55285057768113],[135.56769522194537,34.5488743709225]],[[135.54087517617162,34.55329348431632],[135.54091463917808,34.554383333227634]],[[135.54091463917808,34.554383333227634],[135.54087517617162,34.55329348431632]],[[135.55678370065579,34.55398023842482],[135.55883084411653,34.553990191382915]],[[135.55883084411653,34.553990191382915],[135.5600689959446,34.55455750999428]],[[135.5600689959446,34.55455750999428],[135.5611098327403,34.55447290985048]],[[135.56163271757606,34.54855089978444],[135.56147979842598,34.549586007426235],[135.55861873045674,34.54900873585677],[135.5577801415692,34.553457708124874],[135.55678370065579,34.55398023842482]],[[135.55668011026378,34.52873953669796],[135.55476122157407,34.52786367638567],[135.55300018491025,34.52850564218274],[135.5529853862828,34.53050121028063],[135.55158444955305,34.532193213156646],[135.55011445256196,34.53244701358805]],[[135.55011445256196,34.53244701358805],[135.55011938543777,34.53503975917158],[135.55093330994626,34.536025102022904]],[[135.55093330994626,34.536025102022904],[135.55522491190013,34.53610472568766]],[[135.55522491190013,34.53610472568766],[135.56227892430704,34.5363734555562]],[[135.56227892430704,34.5363734555562],[135.56232825306515,34.53353188602031],[135.56040443149962,34.53276053176801]],[[135.56040443149962,34.53276053176801],[135.55840168392115,34.52979455025594],[135.55668011026378,34.52873953669796]],[[135.5807969400942,34.52973980898643],[135.58084133597646,34.528067712026605]],[[135.58084133597646,34.528067712026605],[135.57702329010027,34.528714654302725],[135.575997251932,34.529660185321674],[135.57672731755173,34.531123270161515]],[[135.57672731755173,34.531123270161515],[135.5807969400942,34.52973980898643]],[[135.5807969400942,34.52973980898643],[135.58079200721838,34.531038670017715]],[[135.58079200721838,34.531038670017715],[135.58253331237898,34.53201903639],[135.5854387762305,34.53203396582713],[135.58546837348536,34.530371821825405],[135.58668186093436,34.53038675126255]],[[135.58668186093436,34.53038675126255],[135.58663253217628,34.52975473842357]],[[135.58663253217628,34.52975473842357],[135.5807969400942,34.52973980898643]],[[135.57672731755173,34.531123270161515],[135.5770331558519,34.53280532007943],[135.57466537546355,34.53246194302518],[135.5749662808879,34.53409920463168]],[[135.5749662808879,34.53409920463168],[135.574808428862,34.534497322955445]],[[135.574808428862,34.534497322955445],[135.58073774558449,34.53378070997267]],[[135.58073774558449,34.53378070997267],[135.58079200721838,34.531038670017715]],[[135.58073774558449,34.53378070997267],[135.58075254421192,34.53486558240493]],[[135.58075254421192,34.53486558240493],[135.58084133597646,34.53498004142301]],[[135.58084133597646,34.53498004142301],[135.58147767695584,34.5344823935183]],[[135.58147767695584,34.5344823935183],[135.58373200120056,34.53382549828409],[135.58565582276609,34.532238001468066],[135.5872984704105,34.531934436246196],[135.58668186093436,34.53038675126255]],[[135.54295684976304,34.539807226098695],[135.54286312512266,34.540752757117644]],[[135.54286312512266,34.54170824109469],[135.54400755231035,34.54177791180135]],[[135.54400755231035,34.54177791180135],[135.54406674682008,34.53978234370346]],[[135.58002247859216,34.51126711876361],[135.5788879171561,34.51476558353372],[135.57745738317146,34.514372441689],[135.57668785454527,34.516228668373564]],[[135.57668785454527,34.516228668373564],[135.57937627186118,34.51856263704665]],[[135.57937627186118,34.51856263704665],[135.58119157015892,34.51721401122489]],[[135.58119157015892,34.51721401122489],[135.58226693708528,34.515686232157435],[135.58267143290163,34.51320794559198],[135.58163059610592,34.51027679943324],[135.58002247859216,34.51126711876361]],[[135.58498001878024,34.52691814536672],[135.58084133597646,34.528067712026605]],[[135.58663253217628,34.52975473842357],[135.58498001878024,34.52691814536672]],[[135.574808428862,34.534497322955445],[135.5744779261828,34.536900962335196],[135.5767125189243,34.537508092778936],[135.5794256006193,34.5364580557]],[[135.5794256006193,34.5364580557],[135.57695422983895,34.53490041775826],[135.5796673115339,34.533954886739316],[135.58075254421192,34.53486558240493]],[[135.54220705264007,34.53281029655848],[135.54344520446813,34.53367620391268]],[[135.54344520446813,34.53367620391268],[135.54378557289894,34.5357812545496]],[[135.54378557289894,34.5357812545496],[135.55093330994626,34.536025102022904]],[[135.55011445256196,34.53244701358805],[135.54933012530833,34.53128749397007],[135.5476282831542,34.53146167073672],[135.54356852636334,34.52976469138166],[135.54229584440463,34.53070026944251],[135.54220705264007,34.53281029655848]],[[135.54197027460123,34.541698288136594],[135.5415805774123,34.541698288136594]],[[135.5415805774123,34.541698288136594],[135.54131913499444,34.54574914208093],[135.53824102048958,34.54551027108666],[135.53997245989856,34.54654537872846]],[[135.53997245989856,34.54654537872846],[135.54361292224564,34.54739138016647],[135.54486093982533,34.54697335592651],[135.54469815492362,34.54867033528157]],[[135.54469815492362,34.54867033528157],[135.5475148270106,34.548705170634896]],[[135.5475148270106,34.548705170634896],[135.54803277897054,34.54654040224941]],[[135.54803277897054,34.54654040224941],[135.5475838872719,34.54194711208895],[135.54400755231035,34.54177791180135]],[[135.5749662808879,34.53409920463168],[135.57275635252546,34.53621918470574],[135.5649180128649,34.536557585280946],[135.56227892430704,34.5363734555562]],[[135.56227892430704,34.5363734555562],[135.56232825306515,34.53926976636161]],[[135.56232825306515,34.53926976636161],[135.56653106325444,34.539463849044445],[135.5673301891355,34.540732851201454],[135.5690616285445,34.540513886123385],[135.57107424187456,34.54206157110703],[135.57089665834545,34.54329573791071],[135.5734864181452,34.54495290543339],[135.57421155088912,34.54446023400773]],[[135.57421155088912,34.54446023400773],[135.57479363023458,34.54295236085646],[135.57737845715852,34.54233030097557],[135.58077720859094,34.53822968224077],[135.58147767695584,34.5344823935183]],[[135.58084133597646,34.53498004142301],[135.58024939087937,34.53848348267217],[135.5794256006193,34.5364580557]],[[135.57047243102588,34.51524332552224],[135.57082759808412,34.51460633620421]],[[135.57082759808412,34.51460633620421],[135.56605750717677,34.51500943100703]],[[135.56605750717677,34.51500943100703],[135.56592925240574,34.51610425639739]],[[135.56592925240574,34.51610425639739],[135.56753243704367,34.51706969333252],[135.56943652710598,34.5142032414014],[135.57047243102588,34.51524332552224]],[[135.54260661558058,34.53428831083547],[135.5421231937513,34.53426840491928]],[[135.5421231937513,34.53426840491928],[135.5420048047319,34.53571656032199]],[[135.5420048047319,34.53571656032199],[135.54258688407737,34.53570660736389]],[[135.54258688407737,34.53570660736389],[135.54260661558058,34.53428831083547]],[[135.57668785454527,34.516228668373564],[135.57563221912213,34.51593505610979]],[[135.57563221912213,34.51593505610979],[135.5739895714777,34.519985910054125],[135.57437433579082,34.52066768768357]],[[135.57437433579082,34.52066768768357],[135.5755187629785,34.522225325625314],[135.57937627186118,34.51856263704665]],[[135.55440605451582,34.547869122154985],[135.55369078752352,34.551004303954656]],[[135.5537450491574,34.5538408970115],[135.5563496075846,34.554726710281884],[135.55678370065579,34.55398023842482]],[[135.56170177783738,34.54810799314925],[135.56163765045187,34.54807813427497]],[[135.56163765045187,34.54807813427497],[135.55440605451582,34.547869122154985]],[[135.54378557289894,34.5357812545496],[135.54258688407737,34.53570660736389]],[[135.5420048047319,34.53571656032199],[135.5419012143399,34.53748818686275]],[[135.54803277897054,34.54654040224941],[135.5500848553071,34.544728963876274],[135.5487776432177,34.54256419549078],[135.54887136785808,34.540688062890034],[135.55227998504213,34.54046412133291],[135.5525956890939,34.53805550547412],[135.5545096449078,34.538150058576015]],[[135.5545096449078,34.538150058576015],[135.55522491190013,34.53610472568766]],[[135.5545096449078,34.538150058576015],[135.5547710873257,34.539205072133996],[135.55440605451582,34.547869122154985]],[[135.56163765045187,34.54807813427497],[135.5623085215619,34.542877713670755],[135.56232825306515,34.53926976636161]],[[135.54220705264007,34.53281029655848],[135.5421231937513,34.53426840491928]],[[135.54260661558058,34.53428831083547],[135.54344520446813,34.53367620391268]],[[135.58002247859216,34.51126711876361],[135.5762784258531,34.51052064690655],[135.57428061115044,34.511799602021654],[135.57216934030419,34.511729931314996]],[[135.57216934030419,34.511729931314996],[135.57082759808412,34.51460633620421]],[[135.57082759808412,34.51460633620421],[135.57563221912213,34.51593505610979]],[[135.54170389930755,34.539657931727284],[135.5415805774123,34.541698288136594]],[[135.57216934030419,34.511729931314996],[135.56815397939562,34.51288447445392],[135.56605750717677,34.51500943100703]],[[135.57047243102588,34.51524332552224],[135.57094105422772,34.52018994569505],[135.57331376749187,34.52098120586354]],[[135.57331376749187,34.52098120586354],[135.57437433579082,34.52066768768357]],[[135.56592925240574,34.51610425639739],[135.56365519665778,34.51765194138103],[135.5631767077043,34.52008543963506],[135.5644789869179,34.51988638047318],[135.5626883529992,34.52235969055958],[135.56322110358659,34.52357395144708],[135.56135647653076,34.52525102488595],[135.56188922711814,34.52670913324675],[135.55840661679696,34.52690321592958],[135.55918107829896,34.52900329008745],[135.55668011026378,34.52873953669796]],[[135.56040443149962,34.53276053176801],[135.56195335450366,34.5315860827129],[135.5653126429296,34.53137707059292],[135.56751763841626,34.52972985602833],[135.56850421357805,34.52689326297149],[135.57133075141664,34.52536548390403],[135.57233705808167,34.522090960691045],[135.57331376749187,34.52098120586354]],[[135.53997245989856,34.54654537872846],[135.53898588473675,34.547605368765495],[135.53943477643537,34.54961088982147],[135.54110208845884,34.5496357722167]],[[135.54110208845884,34.5496357722167],[135.54237477041758,34.548680288239666],[135.54469815492362,34.54867033528157]],[[135.54110208845884,34.5496357722167],[135.54213305950293,34.55096449212228],[135.54191108009152,34.553238743046805],[135.54087517617162,34.55329348431632]],[[135.54091463917808,34.554383333227634],[135.540761720028,34.555751864965586],[135.54280393061296,34.55479638098854],[135.54679462714248,34.55475159267712]],[[135.5482399597545,34.54983980785764],[135.5475148270106,34.548705170634896]],[[135.55883084411653,34.553990191382915],[135.5600689959446,34.55455750999428]],[[135.58498001878024,34.52691814536672],[135.58400330937008,34.52342963355471],[135.58559662825638,34.521747583636795],[135.58578901041292,34.51928920298753],[135.58284408355493,34.51911502622088],[135.58119157015892,34.51721401122489]],[[135.56769522194537,34.5488743709225],[135.572613299127,34.54851606443111],[135.5717993746185,34.54721222692077],[135.5756766150044,34.545415717984774],[135.57421155088912,34.54446023400773]]]}