{"type":"Topology","bbox":[135.4675147588692,34.50087618572693,135.53669022393706,34.55024396335788],"objects":{"town":{"type":"GeometryCollection","geometries":[{"type":"Polygon","arcs":[[0,1,2,3,4]],"properties":{"name":"学園町"}},{"type":"Polygon","arcs":[[5,6,7,8]],"properties":{"name":"大野芝町"}},{"type":"Polygon","arcs":[[9,-5,10,-8]],"properties":{"name":"新家町"}},{"type":"Polygon","arcs":[[11,12,13,14,15,16]],"properties":{"name":"堀上町"}},{"type":"MultiPolygon","arcs":[[[29,-3,-2,-49,-48,52,17,18,19,74,75]]],"properties":{"name":"土師町"}},{"type":"Polygon","arcs":[[23,24,25,26,27]],"properties":{"name":"辻之"}},{"type":"Polygon","arcs":[[31,32,33,34]],"properties":{"name":"小阪西町"}},{"type":"MultiPolygon","arcs":[[[-102,107,-67,-66,103,89,90,40,108,-99]]],"properties":{"name":"深阪"}},{"type":"Polygon","arcs":[[41,42,43,44]],"properties":{"name":"八田南之町"}},{"type":"Polygon","arcs":[[45,-15]],"properties":{"name":"八田寺町"}},{"type":"Polygon","arcs":[[46,47,48,-1,-10,-7,49,50,51]],"properties":{"name":"土塔町"}},{"type":"Polygon","arcs":[[54,-44,55,56,57,58,-34]],"properties":{"name":"小阪"}},{"type":"Polygon","arcs":[[59,60]],"properties":{"name":"八田北町"}},{"type":"Polygon","arcs":[[61,-16,-46,-14,62,63,64]],"properties":{"name":"深井清水町"}},{"type":"Polygon","arcs":[[65,66,67,68]],"properties":{"name":"楢葉"}},{"type":"MultiPolygon","arcs":[[[72,-42,-45,-55,-33,-32,69,70,104,-77,105]]],"properties":{"name":"八田西町"}},{"type":"Polygon","arcs":[[76,77]],"properties":{"name":"毛穴町"}},{"type":"Polygon","arcs":[[78,79,-51,80,81,82]],"properties":{"name":"深井畑山町"}},{"type":"Polygon","arcs":[[-58,83,-60,84,85,86,87]],"properties":{"name":"東八田"}},{"type":"Polygon","arcs":[[-79,91,-86,92,-65,93,94]],"properties":{"name":"深井沢町"}},{"type":"Polygon","arcs":[[-94,-64,95,-18,-53,-47,96]],"properties":{"name":"深井水池町"}},{"type":"Polygon","arcs":[[-57,97,-17,-62,-93,-85,-61,-84]],"properties":{"name":"宮園町"}},{"type":"Polygon","arcs":[[98,99,100,101]],"properties":{"name":"伏尾"}},{"type":"Polygon","arcs":[[109,-28,110,111]],"properties":{"name":"上之"}},{"type":"Polygon","arcs":[[112,-112,113]],"properties":{"name":"見野山"}},{"type":"Polygon","arcs":[[-95,-97,-52,-80]],"properties":{"name":"深井東町"}},{"type":"Polygon","arcs":[[-108,-101,114,-70,-35,-59,-88,115,116,-68]],"properties":{"name":"平井"}},{"type":"Polygon","arcs":[[117,-75,-20,118]],"properties":{"name":"深井北町"}},{"type":"Polygon","arcs":[[119,-90,-104,-69,-117,120,-25]],"properties":{"name":"田園"}},{"type":"Polygon","arcs":[[121,-81,-50,-6,122],[123]],"properties":{"name":"福田"}},{"type":"Polygon","arcs":[[-87,-92,-83,124,-26,-121,-116]],"properties":{"name":"東山"}},{"type":"Polygon","arcs":[[-13,125,-119,-19,-96,-63]],"properties":{"name":"深井中町"}},{"type":"Polygon","arcs":[[-114,-111,-27,-125,-82,-122,126]],"properties":{"name":"陶器北"}}]}},"arcs":[[[135.50839462916483,34.540828586625985],[135.50764745942513,34.540216364961196]],[[135.50764745942513,34.540216364961196],[135.50498393766784,34.54273931069271]],[[135.50498393766784,34.54273931069271],[135.5012895983993,34.54625464799376]],[[135.5012895983993,34.54625464799376],[135.50139337197425,34.54676318695726],[135.50609777403906,34.55024396335788],[135.50937010076944,34.54732603590715]],[[135.50937010076944,34.54732603590715],[135.51179148418515,34.54353421140264],[135.50839462916483,34.540828586625985]],[[135.52344871577225,34.52944817584097],[135.521601546138,34.5299912757049],[135.51922859039058,34.531956309758016],[135.51742984842463,34.53193656067206]],[[135.51742984842463,34.53193656067206],[135.51700783588646,34.5341385837567],[135.51581098065526,34.533936155625604],[135.512248087915,34.536518348615004],[135.50892733351628,34.53767367014372],[135.50883047817968,34.53907091797546]],[[135.50883047817968,34.53907091797546],[135.5142820499842,34.53947083696617],[135.51371475444108,34.53761936015732],[135.51511223858387,34.537229315709595],[135.5178311062478,34.538098275491876]],[[135.5178311062478,34.538098275491876],[135.52344871577225,34.52944817584097]],[[135.50883047817968,34.53907091797546],[135.50839462916483,34.540828586625985]],[[135.50937010076944,34.54732603590715],[135.51161160998856,34.54621021255035],[135.5151675844905,34.54108532474348],[135.5178311062478,34.538098275491876]],[[135.4883870839127,34.52779418989174],[135.48561287034212,34.52634263207361],[135.48519085780393,34.527705319004916],[135.48193236755023,34.526367318431056],[135.4806179022674,34.52678204923624],[135.4810952607122,34.530124582035135],[135.4840285937644,34.53161563802519],[135.4842984050593,34.533748539308974]],[[135.4842984050593,34.533748539308974],[135.48451287044753,34.53346711483403]],[[135.48451287044753,34.53346711483403],[135.48613865645524,34.53103303998934]],[[135.48613865645524,34.53103303998934],[135.4861040652636,34.53079605095781]],[[135.4861040652636,34.53079605095781],[135.48876066878253,34.5295864194427],[135.49140343582485,34.53021345292196],[135.49138959934817,34.528786581461276]],[[135.49138959934817,34.528786581461276],[135.4883870839127,34.52779418989174]],[[135.4983977747771,34.536202363239624],[135.49783739747232,34.536607219501825]],[[135.49783739747232,34.536607219501825],[135.49549903291657,34.53934740517891]],[[135.49549903291657,34.53934740517891],[135.49626003913292,34.54091252024132],[135.49531224048164,34.54297136245275]],[[135.49531224048164,34.54297136245275],[135.49754683146242,34.54187035091042],[135.50000972430811,34.54159880097846]],[[135.50000972430811,34.54159880097846],[135.5014279631659,34.53917460067675]],[[135.5014279631659,34.53917460067675],[135.4983977747771,34.536202363239624]],[[135.52216192344275,34.504149596724965],[135.51958142054545,34.50450508027226],[135.51648204977332,34.505798645402706]],[[135.51648204977332,34.505798645402706],[135.51572104355697,34.509891643468116],[135.5146694713307,34.51133826401476],[135.51062922014563,34.51302681086442],[135.51009651579417,34.51545101116613],[135.50807639020164,34.5156188783968]],[[135.50807639020164,34.5156188783968],[135.51076758491223,34.51610766827433],[135.51061538366895,34.51698156532811]],[[135.51061538366895,34.51698156532811],[135.51375626387107,34.51643846546418],[135.51874431370743,34.516937129884695],[135.5189380243807,34.51387602156074],[135.51976821298038,34.5123800282992]],[[135.51976821298038,34.5123800282992],[135.51944305577882,34.508588203794694],[135.52178142033458,34.508459834735945],[135.52063991101002,34.50669722881393],[135.52279148313085,34.50576902177376],[135.52216192344275,34.504149596724965]],[[135.50000972430811,34.54159880097846],[135.50071538461785,34.545361001854026]],[[135.50071538461785,34.545361001854026],[135.5012895983993,34.54625464799376]],[[135.50498393766784,34.54273931069271],[135.5014279631659,34.53917460067675]],[[135.48371727303953,34.51636440639182],[135.4831499774964,34.517894960553804]],[[135.4831499774964,34.517894960553804],[135.48634620360517,34.518768857607576]],[[135.48634620360517,34.518768857607576],[135.4879858260895,34.51721855435964]],[[135.4879858260895,34.51721855435964],[135.48371727303953,34.51636440639182]],[[135.50229966119556,34.507679745840484],[135.50173236565246,34.5110617768113]],[[135.50173236565246,34.5110617768113],[135.5049562647145,34.51027181337287],[135.5057864533142,34.50891900098454]],[[135.5057864533142,34.50891900098454],[135.50229966119556,34.507679745840484]],[[135.50157324617084,34.50683053514417],[135.50229966119556,34.507679745840484]],[[135.5057864533142,34.50891900098454],[135.50613928346905,34.50597144990486]],[[135.50613928346905,34.50597144990486],[135.50261098192044,34.50594182627592],[135.50157324617084,34.50683053514417]],[[135.48247199014,34.521558415999564],[135.4823612983267,34.52180034230258]],[[135.4823612983267,34.52180034230258],[135.48257576371498,34.52340001826542],[135.48817261852443,34.52318771559134]],[[135.48817261852443,34.52318771559134],[135.488414756866,34.52123255608121],[135.4870587821532,34.51992417913629],[135.48514934837397,34.519850120063936]],[[135.48514934837397,34.519850120063936],[135.48247199014,34.521558415999564]],[[135.48613865645524,34.53103303998934],[135.4861040652636,34.53079605095781]],[[135.5061462017074,34.53336343213274],[135.5025625542521,34.53447431821804]],[[135.5025625542521,34.53447431821804],[135.5019468310407,34.53858706536941]],[[135.5019468310407,34.53858706536941],[135.50381475538995,34.53723919025258],[135.50764745942513,34.540216364961196]],[[135.51742984842463,34.53193656067206],[135.5167726157832,34.53181806615629],[135.51662733277826,34.528416286099514]],[[135.51662733277826,34.528416286099514],[135.5133134966179,34.530554124654785],[135.51123802511873,34.53040600651008]],[[135.51123802511873,34.53040600651008],[135.50955689320438,34.52965060397207],[135.50896192470793,34.53099847908891],[135.5061462017074,34.53336343213274]],[[135.5025625542521,34.53447431821804],[135.4983977747771,34.536202363239624]],[[135.5014279631659,34.53917460067675],[135.5019468310407,34.53858706536941]],[[135.48634620360517,34.518768857607576],[135.48514934837397,34.519850120063936]],[[135.48817261852443,34.52318771559134],[135.4891619266057,34.523760439084214],[135.48881601468918,34.52558229226411]],[[135.48881601468918,34.52558229226411],[135.4915348823531,34.525157686915946]],[[135.4915348823531,34.525157686915946],[135.49242733509777,34.52433809984857],[135.4921367690879,34.52231875580906]],[[135.4921367690879,34.52231875580906],[135.49289085706593,34.520536400801085],[135.49416381291874,34.52055121261555],[135.49569966182816,34.51896634846718],[135.4928009199676,34.51748516702011],[135.49185312131632,34.518605927648395],[135.48932104608733,34.516803823554454],[135.4879858260895,34.51721855435964]],[[135.49492481913512,34.52530086778917],[135.49422607706373,34.52559710407858]],[[135.49422607706373,34.52559710407858],[135.49492481913512,34.52530086778917]],[[135.49404620286714,34.52944817584097],[135.49138959934817,34.528786581461276]],[[135.48451287044753,34.53346711483403],[135.48777136070126,34.53284995589775],[135.48768142360296,34.53445456913208],[135.4903726183136,34.53491373538067],[135.4928009199676,34.533975653797526],[135.49606632845968,34.534834739036825]],[[135.49606632845968,34.534834739036825],[135.49846003892208,34.53250434689343]],[[135.49846003892208,34.53250434689343],[135.49877827788526,34.53057881101224],[135.49667513343277,34.53109722451871],[135.49404620286714,34.52944817584097]],[[135.50602167341742,34.51262689187371],[135.50204368637733,34.5131897408236]],[[135.50204368637733,34.5131897408236],[135.49910343508682,34.51362915798623],[135.49778205156568,34.51589536560025]],[[135.49778205156568,34.51589536560025],[135.50037639093964,34.516161978260726],[135.5024864536305,34.51745554339117]],[[135.5024864536305,34.51745554339117],[135.50546129611266,34.51431543872337],[135.50602167341742,34.51262689187371]],[[135.48371727303953,34.51636440639182],[135.48265186433662,34.51626072369053]],[[135.48265186433662,34.51626072369053],[135.48162104682535,34.516532273622495],[135.47735941201367,34.51964275466135]],[[135.47735941201367,34.51964275466135],[135.4800990343926,34.522274320365646],[135.4798084683827,34.52325190012071]],[[135.4798084683827,34.52325190012071],[135.4823612983267,34.52180034230258]],[[135.48247199014,34.521558415999564],[135.4831499774964,34.517894960553804]],[[135.49531224048164,34.54297136245275],[135.4929116117809,34.5430454215251]],[[135.4929116117809,34.5430454215251],[135.4968619258677,34.54504007920716],[135.49693802648932,34.545642426328975],[135.50071538461785,34.545361001854026]],[[135.47239903513062,34.52375056454123],[135.47211538735908,34.52309390743303]],[[135.47211538735908,34.52309390743303],[135.47127828052106,34.522886542030434],[135.4675147588692,34.53324493761697],[135.4694311108868,34.53373866476599],[135.46986695990162,34.53236610329171],[135.47247513575226,34.53324987488846],[135.475671361861,34.53222292241849],[135.47648771398403,34.53104785180381],[135.47607261968417,34.52889026416258],[135.47711035543378,34.52864833785955],[135.47454368901313,34.52709803461162],[135.4752147581312,34.52575509676627],[135.47239903513062,34.52375056454123]],[[135.5044373968397,34.5252317459883],[135.5035518623334,34.52753745177425],[135.50512922067279,34.52825335614033]],[[135.50512922067279,34.52825335614033],[135.5068726167321,34.52886064053363],[135.5111619244971,34.52839159974206],[135.51123802511873,34.53040600651008]],[[135.51662733277826,34.528416286099514],[135.5159977730902,34.522427375781845]],[[135.5159977730902,34.522427375781845],[135.513043685323,34.52342964189437],[135.51123802511873,34.52269398844232]],[[135.51123802511873,34.52269398844232],[135.5044373968397,34.5252317459883]],[[135.4915348823531,34.525157686915946],[135.49422607706373,34.52559710407858]],[[135.49492481913512,34.52530086778917],[135.49811412700552,34.526989414638834]],[[135.49811412700552,34.526989414638834],[135.49859840368867,34.52632782025914]],[[135.49859840368867,34.52632782025914],[135.50021727145804,34.523632070025464]],[[135.50021727145804,34.523632070025464],[135.49879903260026,34.52266436481338],[135.4931122406925,34.52290135384491],[135.4921367690879,34.52231875580906]],[[135.5057864533142,34.50891900098454],[135.50836003797318,34.51022244065796]],[[135.50836003797318,34.51022244065796],[135.51074683019723,34.506233125293846]],[[135.51074683019723,34.506233125293846],[135.50613928346905,34.50597144990486]],[[135.5044373968397,34.5252317459883],[135.50213362347563,34.52732021182867],[135.49859840368867,34.52632782025914]],[[135.49811412700552,34.526989414638834],[135.49578959892645,34.526836359222635],[135.49404620286714,34.52944817584097]],[[135.49846003892208,34.53250434689343],[135.49911035332514,34.53025295109388],[135.50283236554702,34.53018876656451]],[[135.50283236554702,34.53018876656451],[135.50512922067279,34.52825335614033]],[[135.49606632845968,34.534834739036825],[135.49783739747232,34.536607219501825]],[[135.5061462017074,34.53336343213274],[135.5055443149726,34.53041094378157],[135.50327513280018,34.53100835363189],[135.50283236554702,34.53018876656451]],[[135.48881601468918,34.52558229226411],[135.4883870839127,34.52779418989174]],[[135.49901349798853,34.51132345220029],[135.4976782779907,34.50997557708345]],[[135.4976782779907,34.50997557708345],[135.49486255499014,34.51175793209143],[135.4946965172702,34.51053348876185],[135.48990909634543,34.51201467020892],[135.48892670650247,34.514251254194]],[[135.48892670650247,34.514251254194],[135.4908984044267,34.516152103717744],[135.49247576276608,34.51557938022488],[135.49434368711536,34.5161767900752],[135.49640532213786,34.515599129310836]],[[135.49640532213786,34.515599129310836],[135.49747073084077,34.5120739174668],[135.49901349798853,34.51132345220029]],[[135.50173236565246,34.5110617768113],[135.50204368637733,34.5131897408236]],[[135.50602167341742,34.51262689187371],[135.50836003797318,34.51022244065796]],[[135.47735941201367,34.51964275466135],[135.47211538735908,34.52309390743303]],[[135.47239903513062,34.52375056454123],[135.47277262000048,34.52328646102115],[135.4768682170922,34.524229479875785],[135.4798084683827,34.52325190012071]],[[135.50173236565246,34.5110617768113],[135.49901349798853,34.51132345220029]],[[135.49640532213786,34.515599129310836],[135.49778205156568,34.51589536560025]],[[135.50157324617084,34.50683053514417],[135.4976782779907,34.50997557708345]],[[135.5330166393835,34.50186364002498],[135.5301248157613,34.50118723383082],[135.52690091669925,34.50358181050358],[135.52216192344275,34.504149596724965]],[[135.51976821298038,34.5123800282992],[135.52150469080135,34.5114666330735],[135.52475626281674,34.51124939312793],[135.5249984011583,34.51018787975753],[135.52746821224235,34.50970896442298]],[[135.52746821224235,34.50970896442298],[135.52674871545597,34.50713170870507],[135.5319996583489,34.504806253833166],[135.5330166393835,34.50186364002498]],[[135.53549336870586,34.501755020052194],[135.53440720528795,34.5009403702563],[135.5330166393835,34.50186364002498]],[[135.52746821224235,34.50970896442298],[135.5286789039502,34.51020762884349],[135.5319304759656,34.50769455765496],[135.5337361361699,34.50452482935822],[135.5341927398997,34.502406739888904],[135.53549336870586,34.501755020052194]],[[135.48892670650247,34.514251254194],[135.48553676972048,34.513357608054264],[135.48265186433662,34.51626072369053]],[[135.50021727145804,34.523632070025464],[135.50259022720545,34.519790872806055],[135.4998921142565,34.51903053299656],[135.49984368658818,34.51744566884819],[135.50367639062335,34.51733211160391]],[[135.50367639062335,34.51733211160391],[135.5024864536305,34.51745554339117]],[[135.48291475739316,34.53956464512448],[135.48317765044973,34.54109026201497],[135.48651915956341,34.54221595991474],[135.4929116117809,34.5430454215251]],[[135.49549903291657,34.53934740517891],[135.49106444214664,34.53781191374544],[135.48480343645744,34.53786622373184],[135.48291475739316,34.53956464512448]],[[135.51648204977332,34.505798645402706],[135.51074683019723,34.506233125293846]],[[135.50367639062335,34.51733211160391],[135.50538519549102,34.515139963062246],[135.50807639020164,34.5156188783968]],[[135.53370846321656,34.510701355992516],[135.53218645078383,34.51041005697459],[135.52799399835547,34.51377233885945],[135.52798016187882,34.516157040989235],[135.52606380986123,34.51720374254517],[135.52497764644332,34.51958350740347],[135.52213425048944,34.520378408113395],[135.51956758406877,34.520324098127],[135.51606003723515,34.52181515411706],[135.5159977730902,34.522427375781845]],[[135.52344871577225,34.52944817584097],[135.52740594809737,34.52495032151336],[135.529993369233,34.520383345384886],[135.532566953892,34.51458698865534],[135.53370846321656,34.510701355992516]],[[135.5208336216833,34.52195339771878],[135.5208336216833,34.52195339771878]],[[135.51123802511873,34.52269398844232],[135.51347953433785,34.52116343428034],[135.51435815060583,34.51933664382895],[135.5167241881149,34.51924777294213],[135.51371475444108,34.517830776024425],[135.51078833962723,34.517746842409096],[135.51061538366895,34.51698156532811]],[[135.4842984050593,34.533748539308974],[135.48442985158758,34.53433113734482],[135.47995375138765,34.53507172806836],[135.48115060661885,34.537199692080655],[135.4802996633042,34.53905116888949],[135.48291475739316,34.53956464512448]],[[135.53370846321656,34.510701355992516],[135.53397827451147,34.50747731770939],[135.53513362031268,34.50446558210034],[135.5366763874604,34.50338431964398],[135.53549336870586,34.501755020052194]]]}