{"type":"Topology","bbox":[135.4817946744145,34.542095001416214,135.54938854906618,34.59402339351693],"objects":{"town":{"type":"GeometryCollection","geometries":[{"type":"MultiPolygon","arcs":[[[5,0,1,2,3,6,7,8]]],"properties":{"name":"奥本町"}},{"type":"MultiPolygon","arcs":[[[11,113,65,56,98,29,36,37,35,27,97,54,62,63,112,9,70,71,72,73,74]]],"properties":{"name":"北長尾町"}},{"type":"MultiPolygon","arcs":[[[19,104,99,100,101,102,103,13,14,15,16,17,80]]],"properties":{"name":"金岡町"}},{"type":"MultiPolygon","arcs":[[[232,23,252,-83,-124,25,26,21,233,-219]]],"properties":{"name":"常磐町"}},{"type":"MultiPolygon","arcs":[[[-252,-48,-239,-226,246,256,34,-15,31,38,39]]],"properties":{"name":"新金岡町"}},{"type":"MultiPolygon","arcs":[[[238,47,42,-38,43,44,45,237,222,223,224,225]]],"properties":{"name":"蔵前町"}},{"type":"MultiPolygon","arcs":[[[66,67,122,-26,123,82,83,51,52,53,68,69]]],"properties":{"name":"北花田町"}},{"type":"MultiPolygon","arcs":[[[-75,260,59,94,132,133,134,96,61,-213,-114,-12]]],"properties":{"name":"東雲東町"}},{"type":"MultiPolygon","arcs":[[[90,91,76,77,109,180,181,111,106,107,108,93,-87]]],"properties":{"name":"百舌鳥梅北町"}},{"type":"MultiPolygon","arcs":[[[85,86,87,88,199,200,201,198,185,-171,-125]]],"properties":{"name":"百舌鳥梅町"}},{"type":"MultiPolygon","arcs":[[[-126,-170,114,115,116,187,188,-127]]],"properties":{"name":"百舌鳥本町"}},{"type":"Polygon","arcs":[[-8,119,120,-67,121]],"properties":{"name":"宮本町"}},{"type":"MultiPolygon","arcs":[[[-181,-110,-78,-77,-92,-91,-86,124,125,126,-189,230,226,141,189]]],"properties":{"name":"百舌鳥赤畑町"}},{"type":"MultiPolygon","arcs":[[[156,157,151,215,-146,-145,130,131,128,-168,-184,-179,148,149,158,159]]],"properties":{"name":"南長尾町"}},{"type":"Polygon","arcs":[[135,136,137,138,139,140]],"properties":{"name":"黒土町"}},{"type":"MultiPolygon","arcs":[[[-158,255,-73,-72,-71,-10,-113,-64,243,-131,144,145,-216,-152]]],"properties":{"name":"中長尾町"}},{"type":"Polygon","arcs":[[153,154,155,-116]],"properties":{"name":"東上野芝町"}},{"type":"MultiPolygon","arcs":[[[162,163,204,205,160,182,-155,-173]]],"properties":{"name":"百舌鳥陵南町"}},{"type":"MultiPolygon","arcs":[[[-159,-150,-149,178,183,167,-129,168,-139,-138,176,208,231,-160]]],"properties":{"name":"東三国ケ丘町"}},{"type":"MultiPolygon","arcs":[[[-205,-164,-163,172,-154,-115,169,170,-186,-199,207]]],"properties":{"name":"百舌鳥西之町"}},{"type":"Polygon","arcs":[[173,174,175]],"properties":{"name":"八下北"}},{"type":"MultiPolygon","arcs":[[[-88,-94,-109,-108,202,-136,203,193,236,-101,-100,254,-201,-200,-89]]],"properties":{"name":"中百舌鳥町"}},{"type":"Polygon","arcs":[[210,211,-175]],"properties":{"name":"野遠町"}},{"type":"MultiPolygon","arcs":[[[-37,-30,-99,-57,-66,212,-62,-97,213,-230,-242,-44]]],"properties":{"name":"大豆塚町"}},{"type":"MultiPolygon","arcs":[[[-68,-121,-120,-7,-4,-3,-2,228,229,-214,-135,-134,217,218,-234,-22,-27,-123]]],"properties":{"name":"東浅香山町"}},{"type":"MultiPolygon","arcs":[[[-224,-223,239,-69,-54,-53,257,258]]],"properties":{"name":"船堂町"}},{"type":"MultiPolygon","arcs":[[[-238,-46,-45,241,-229,-1,-6,-9,-122,-70,-240]]],"properties":{"name":"新堀町"}},{"type":"Polygon","arcs":[[-174,247,-17,248,249,-211]],"properties":{"name":"中村町"}},{"type":"MultiPolygon","arcs":[[[-104,261,-102,-237,-194,-204,-141,-140,-169,-132,-244,-63,-55,-98,-28,-36,-43,251,-40,-39,-32,-14]]],"properties":{"name":"長曽根町"}},{"type":"Polygon","arcs":[[-16,-35,-257,-247,-225,-259,259,-249]],"properties":{"name":"南花田町"}}]}},"arcs":[[[135.5119580776244,34.579217128302496],[135.50871324715806,34.57982475125237]],[[135.50871324715806,34.57982475125237],[135.50925405223578,34.58135159866487],[135.5084901650635,34.58295634645556]],[[135.5084901650635,34.58295634645556],[135.50876056760237,34.582951153097014]],[[135.50876056760237,34.582951153097014],[135.51223524022672,34.58289921951155]],[[135.51223524022672,34.58289921951155],[135.5119580776244,34.579217128302496]],[[135.51192427730703,34.578630278786804],[135.5119580776244,34.579217128302496]],[[135.51223524022672,34.58289921951155],[135.51406045736402,34.58286286600173]],[[135.51406045736402,34.58286286600173],[135.5139252560946,34.57880165961882]],[[135.5139252560946,34.57880165961882],[135.51192427730703,34.578630278786804]],[[135.50062145118267,34.57492741414356],[135.4993843595674,34.574880673916645]],[[135.4993843595674,34.574880673916645],[135.49927619855183,34.577015144279024]],[[135.49927619855183,34.577015144279024],[135.5005132901671,34.57703072435466]],[[135.5005132901671,34.57703072435466],[135.50062145118267,34.57492741414356]],[[135.5115254335622,34.560001701682566],[135.51350613215936,34.56332545115196],[135.51656844091198,34.56226600600859],[135.51685912364124,34.56453031033461]],[[135.51685912364124,34.56453031033461],[135.52345018552597,34.56068722501063]],[[135.52345018552597,34.56068722501063],[135.52528892279022,34.559949768097106]],[[135.52528892279022,34.559949768097106],[135.52827011078116,34.55933175843014]],[[135.52827011078116,34.55933175843014],[135.52858107370085,34.553188015270315],[135.52371382800135,34.5516715545749]],[[135.52371382800135,34.5516715545749],[135.5229229005752,34.55128205268396]],[[135.5229229005752,34.55128205268396],[135.5193806273161,34.55038879501406]],[[135.5193806273161,34.55038879501406],[135.51837337785886,34.55030050791878],[135.51927922636403,34.55585220820437],[135.51639943932517,34.554823923212275],[135.5160614361516,34.55683375296955],[135.5124786025117,34.557025907235754],[135.51269492454279,34.55961739315017],[135.5115254335622,34.560001701682566]],[[135.5126205638446,34.58798871088656],[135.50957853528243,34.58663843766462]],[[135.50957853528243,34.58663843766462],[135.50887548868138,34.587879650357095]],[[135.50887548868138,34.587879650357095],[135.51467562313994,34.59071522412317]],[[135.51467562313994,34.59071522412317],[135.51579779367623,34.588887161915004]],[[135.51579779367623,34.588887161915004],[135.51547331062957,34.58891312870774]],[[135.51547331062957,34.58891312870774],[135.5126205638446,34.58798871088656]],[[135.50646214602205,34.57462100598935],[135.50541433618397,34.57465216614062]],[[135.50541433618397,34.57465216614062],[135.50548193681868,34.57699437084484]],[[135.50548193681868,34.57699437084484],[135.50709759198838,34.576921663825196]],[[135.50709759198838,34.576921663825196],[135.50646214602205,34.57462100598935]],[[135.51685912364124,34.56453031033461],[135.51417537844304,34.56523660709686]],[[135.51417537844304,34.56523660709686],[135.5145945023783,34.56626489208895]],[[135.5145945023783,34.56626489208895],[135.52351778616068,34.566062351105664]],[[135.52351778616068,34.566062351105664],[135.52345018552597,34.56068722501063]],[[135.50766543732,34.57458984583807],[135.50646214602205,34.57462100598935]],[[135.50709759198838,34.576921663825196],[135.50812512163606,34.57651658185861]],[[135.50812512163606,34.57651658185861],[135.50766543732,34.57458984583807]],[[135.51417537844304,34.56523660709686],[135.51207975876687,34.56539240785324]],[[135.51207975876687,34.56539240785324],[135.5106060649301,34.56643107956242],[135.5099097783925,34.57138035025669]],[[135.5099097783925,34.57138035025669],[135.51232312105185,34.571551731088704],[135.51576399335886,34.57012355748858]],[[135.51576399335886,34.57012355748858],[135.5145945023783,34.56626489208895]],[[135.50953121483812,34.574537912252616],[135.50766543732,34.57458984583807]],[[135.50812512163606,34.57651658185861],[135.50926757236272,34.576189400270216]],[[135.50926757236272,34.576189400270216],[135.51213383927464,34.57683857008846]],[[135.51213383927464,34.57683857008846],[135.5121946798459,34.57686453688119]],[[135.5121946798459,34.57686453688119],[135.51268816447933,34.57467813293335]],[[135.51268816447933,34.57467813293335],[135.50953121483812,34.574537912252616]],[[135.5163723990713,34.57900420060211],[135.5163521188809,34.582753805472265]],[[135.5163521188809,34.582753805472265],[135.51897502350783,34.58261877815007]],[[135.51897502350783,34.58261877815007],[135.52238885556093,34.582572037923164]],[[135.52238885556093,34.582572037923164],[135.52243617600524,34.57980397781818]],[[135.52243617600524,34.57980397781818],[135.52011071417104,34.58003767895275]],[[135.52011071417104,34.58003767895275],[135.5190967046503,34.57895226701665],[135.5163723990713,34.57900420060211]],[[135.50399472285494,34.574688519650444],[135.50309563441323,34.574704099726084]],[[135.50309563441323,34.574704099726084],[135.50318351523836,34.57695282397647]],[[135.50318351523836,34.57695282397647],[135.50432596596505,34.57695282397647]],[[135.50432596596505,34.57695282397647],[135.50399472285494,34.574688519650444]],[[135.5020140242578,34.57808497613948],[135.4989719956956,34.578360224142415]],[[135.4989719956956,34.578360224142415],[135.49989812439122,34.58002209887711]],[[135.49989812439122,34.58002209887711],[135.50217626578112,34.57933657554905]],[[135.50217626578112,34.57933657554905],[135.5020140242578,34.57808497613948]],[[135.50309563441323,34.574704099726084],[135.50200726419433,34.57473006651881]],[[135.50200726419433,34.57473006651881],[135.5020140242578,34.57497934772902]],[[135.5020140242578,34.57497934772902],[135.50197346387696,34.57698398412774]],[[135.50197346387696,34.57698398412774],[135.50318351523836,34.57695282397647]],[[135.5150677068213,34.57885359320428],[135.515020386377,34.582821319133366]],[[135.515020386377,34.582821319133366],[135.5163521188809,34.582753805472265]],[[135.5163723990713,34.57900420060211],[135.51635887894435,34.57883281977009]],[[135.51635887894435,34.57883281977009],[135.5150677068213,34.57885359320428]],[[135.4993843595674,34.574880673916645],[135.4993843595674,34.5748754805581]],[[135.4993843595674,34.5748754805581],[135.49813374782514,34.574813160255545]],[[135.49813374782514,34.574813160255545],[135.49699805716193,34.574792386821365]],[[135.49699805716193,34.574792386821365],[135.49816078807902,34.57689569703246]],[[135.49816078807902,34.57689569703246],[135.49927619855183,34.577015144279024]],[[135.4975456223031,34.55753485637325],[135.49468611545467,34.55852678785553]],[[135.49468611545467,34.55852678785553],[135.4945644343122,34.558963029973384]],[[135.4945644343122,34.558963029973384],[135.49405066948836,34.56065606485935]],[[135.49405066948836,34.56065606485935],[135.49547704288085,34.56094689293793]],[[135.49547704288085,34.56094689293793],[135.49792418585753,34.55972126032108],[135.4975456223031,34.55753485637325]],[[135.52371382800135,34.5516715545749],[135.5229229005752,34.55128205268396]],[[135.51897502350783,34.58261877815007],[135.51930626661795,34.588040644472024]],[[135.51930626661795,34.588040644472024],[135.5212126045169,34.58751092190034]],[[135.5212126045169,34.58751092190034],[135.52259165746509,34.58731357427559],[135.52238885556093,34.582572037923164]],[[135.49767406350907,34.55013432044531],[135.494016869171,34.552829673530645]],[[135.494016869171,34.552829673530645],[135.49610572878368,34.55289199383319],[135.49688313608291,34.55454867520935]],[[135.49688313608291,34.55454867520935],[135.4984514708083,34.555197845027585]],[[135.4984514708083,34.555197845027585],[135.50128393740286,34.55427862056496]],[[135.50128393740286,34.55427862056496],[135.5023925878122,34.55343729648052]],[[135.5023925878122,34.55343729648052],[135.49767406350907,34.55013432044531]],[[135.49688313608291,34.55454867520935],[135.4950849591995,34.55730115523868]],[[135.4950849591995,34.55730115523868],[135.49468611545467,34.55852678785553]],[[135.4975456223031,34.55753485637325],[135.49998600521633,34.55746734271216]],[[135.49998600521633,34.55746734271216],[135.4984514708083,34.555197845027585]],[[135.49989812439122,34.58002209887711],[135.50077017257902,34.58158010644089]],[[135.50077017257902,34.58158010644089],[135.50242638812955,34.581393145533234]],[[135.50242638812955,34.581393145533234],[135.50217626578112,34.57933657554905]],[[135.50541433618397,34.57465216614062],[135.50399472285494,34.574688519650444]],[[135.50432596596505,34.57695282397647],[135.50548193681868,34.57699437084484]],[[135.51249212263863,34.550518628977706],[135.50907829058553,34.552523265376436]],[[135.50907829058553,34.552523265376436],[135.51253944308294,34.5539670190522],[135.50876732766585,34.55541077272797]],[[135.50876732766585,34.55541077272797],[135.5094906544573,34.55617938979277]],[[135.5094906544573,34.55617938979277],[135.51013962055055,34.558443694118786]],[[135.51013962055055,34.558443694118786],[135.5115254335622,34.560001701682566]],[[135.5193806273161,34.55038879501406],[135.5204554774081,34.54884636752592],[135.51861674014384,34.54699753188357],[135.51249212263863,34.550518628977706]],[[135.49547704288085,34.56094689293793],[135.4973833807798,34.56162202954889]],[[135.4973833807798,34.56162202954889],[135.5002564077552,34.55935253186433]],[[135.5002564077552,34.55935253186433],[135.50107437543525,34.558625461667894]],[[135.50107437543525,34.558625461667894],[135.49998600521633,34.55746734271216]],[[135.49405066948836,34.56065606485935],[135.4935098644106,34.56231793959405]],[[135.4935098644106,34.56231793959405],[135.49582856618136,34.5628320820901]],[[135.49582856618136,34.5628320820901],[135.4973833807798,34.56162202954889]],[[135.5020140242578,34.57497934772902],[135.50062145118267,34.57492741414356]],[[135.5005132901671,34.57703072435466],[135.50197346387696,34.57698398412774]],[[135.49030559432512,34.55126647260832],[135.48881838036138,34.54977078534709],[135.4867295207487,34.54999409976457]],[[135.4867295207487,34.54999409976457],[135.48650643865415,34.55259077903753],[135.48433645827978,34.552886800474646],[135.484397298851,34.55417475339404]],[[135.484397298851,34.55417475339404],[135.48610759490933,34.55542115944506]],[[135.48610759490933,34.55542115944506],[135.4883654561088,34.553603483953985]],[[135.4883654561088,34.553603483953985],[135.49030559432512,34.55126647260832]],[[135.51406045736402,34.58286286600173],[135.51418213850653,34.582857672643186]],[[135.51418213850653,34.582857672643186],[135.515020386377,34.582821319133366]],[[135.5150677068213,34.57885359320428],[135.5139252560946,34.57880165961882]],[[135.5163521188809,34.582753805472265],[135.5152029080907,34.585765953428904],[135.51547331062957,34.58891312870774]],[[135.51579779367623,34.588887161915004],[135.51930626661795,34.588040644472024]],[[135.494016869171,34.552829673530645],[135.49328678231606,34.55278293330373]],[[135.49328678231606,34.55278293330373],[135.49104244124354,34.553857958522734]],[[135.49104244124354,34.553857958522734],[135.49208349101812,34.55580546797746],[135.49125200321114,34.55650137802261]],[[135.49125200321114,34.55650137802261],[135.4950849591995,34.55730115523868]],[[135.50188558305183,34.571245322934494],[135.50083101315028,34.57119858270758]],[[135.50083101315028,34.57119858270758],[135.50073637226168,34.57284487736664]],[[135.50073637226168,34.57284487736664],[135.5019396635596,34.57290200431065]],[[135.5019396635596,34.57290200431065],[135.50188558305183,34.571245322934494]],[[135.50077017257902,34.58158010644089],[135.5021357054003,34.58414043220403]],[[135.5021357054003,34.58414043220403],[135.50268327054147,34.58310695385339]],[[135.50268327054147,34.58310695385339],[135.50242638812955,34.581393145533234]],[[135.50318351523836,34.56046391059316],[135.50169630127462,34.56206865838384]],[[135.50169630127462,34.56206865838384],[135.49910043690156,34.564883458715734],[135.4982148685868,34.567334723949415]],[[135.4982148685868,34.567334723949415],[135.499593921535,34.56772422584036]],[[135.499593921535,34.56772422584036],[135.50167602108422,34.56758400515962]],[[135.50167602108422,34.56758400515962],[135.5024128680026,34.56576632966854]],[[135.5024128680026,34.56576632966854],[135.50471128958293,34.56307616994175],[135.50318351523836,34.56046391059316]],[[135.49010955248445,34.560526230895704],[135.49066387768912,34.561741476795454]],[[135.49066387768912,34.561741476795454],[135.4935098644106,34.56231793959405]],[[135.49405066948836,34.56065606485935],[135.49046107578496,34.55994457473856],[135.49010955248445,34.560526230895704]],[[135.50073637226168,34.57284487736664],[135.49984404388343,34.57279294378118]],[[135.49984404388343,34.57279294378118],[135.49948576051943,34.572787750422634]],[[135.49948576051943,34.572787750422634],[135.4993843595674,34.5748754805581]],[[135.50062145118267,34.57492741414356],[135.50073637226168,34.57284487736664]],[[135.4983838701736,34.57110510225375],[135.4983838701736,34.57106874874393]],[[135.4983838701736,34.57106874874393],[135.4970521376697,34.571333610029775]],[[135.4970521376697,34.571333610029775],[135.49699129709845,34.57272543012009]],[[135.49699129709845,34.57272543012009],[135.4982419088407,34.57275659027136]],[[135.4982419088407,34.57275659027136],[135.4983838701736,34.57110510225375]],[[135.4867295207487,34.54999409976457],[135.48539102818134,34.54982271893255]],[[135.48539102818134,34.54982271893255],[135.48384973370983,34.54898139484811]],[[135.48384973370983,34.54898139484811],[135.4817946744145,34.55226879080768],[135.484397298851,34.55417475339404]],[[135.49530804129404,34.57129206316141],[135.49583532624482,34.57266830317608]],[[135.49583532624482,34.57266830317608],[135.49699129709845,34.57272543012009]],[[135.4970521376697,34.571333610029775],[135.49702509741581,34.571333610029775]],[[135.49702509741581,34.571333610029775],[135.49530804129404,34.57129206316141]],[[135.48875753979016,34.54476438770882],[135.4883451759184,34.54513830952413]],[[135.4883451759184,34.54513830952413],[135.49169816740027,34.547381840415966],[135.4913060837189,34.5482335512175]],[[135.4913060837189,34.5482335512175],[135.49101540098962,34.54902294171648]],[[135.49101540098962,34.54902294171648],[135.4933273426969,34.54703388539339]],[[135.4933273426969,34.54703388539339],[135.48875753979016,34.54476438770882]],[[135.499593921535,34.56772422584036],[135.49986432407385,34.56838897573424]],[[135.49986432407385,34.56838897573424],[135.50070257194432,34.568300688638956],[135.50081073295988,34.57119858270758]],[[135.50081073295988,34.57119858270758],[135.50083101315028,34.57119858270758]],[[135.50188558305183,34.571245322934494],[135.50167602108422,34.56758400515962]],[[135.49030559432512,34.55126647260832],[135.49328678231606,34.55278293330373]],[[135.49328678231606,34.55278293330373],[135.49432783209068,34.55056017584607]],[[135.49432783209068,34.55056017584607],[135.49101540098962,34.54902294171648]],[[135.4913060837189,34.5482335512175],[135.48716892487434,34.547781729024],[135.48539102818134,34.54982271893255]],[[135.5382074040843,34.558173639474404],[135.53826824465554,34.55991860794583]],[[135.53826824465554,34.55991860794583],[135.54662368310633,34.559788773982184]],[[135.54662368310633,34.559788773982184],[135.54664396329673,34.55904612371012],[135.5382074040843,34.558173639474404]],[[135.4982148685868,34.567334723949415],[135.49853935163344,34.568861571361914]],[[135.49853935163344,34.568861571361914],[135.4983838701736,34.57106874874393]],[[135.4983838701736,34.57110510225375],[135.49991840458162,34.57116222919776]],[[135.49991840458162,34.57116222919776],[135.49986432407385,34.56838897573424]],[[135.4935098644106,34.56231793959405],[135.4921578517163,34.56494577901829]],[[135.4921578517163,34.56494577901829],[135.49236741368395,34.56538721449469],[135.49582856618136,34.5628320820901]],[[135.4883451759184,34.54513830952413],[135.48741228715932,34.546722283880634],[135.48384973370983,34.54898139484811]],[[135.49991840458162,34.57116222919776],[135.50081073295988,34.57119858270758]],[[135.49767406350907,34.55013432044531],[135.4965518929728,34.54932934987069]],[[135.4965518929728,34.54932934987069],[135.49432783209068,34.55056017584607]],[[135.49104244124354,34.553857958522734],[135.4883654561088,34.553603483953985]],[[135.48610759490933,34.55542115944506],[135.48851417750518,34.557727010639454]],[[135.48851417750518,34.557727010639454],[135.49125200321114,34.55650137802261]],[[135.49066387768912,34.561741476795454],[135.4921578517163,34.56494577901829]],[[135.50626610418138,34.55454867520935],[135.50316323504796,34.55701552051866]],[[135.50316323504796,34.55701552051866],[135.50300099352464,34.557150547840855]],[[135.50300099352464,34.557150547840855],[135.50453552793266,34.558833196009736]],[[135.50453552793266,34.558833196009736],[135.50711787217878,34.55662601862772]],[[135.50711787217878,34.55662601862772],[135.50626610418138,34.55454867520935]],[[135.50107437543525,34.558625461667894],[135.50300099352464,34.557150547840855]],[[135.50316323504796,34.55701552051866],[135.50128393740286,34.55427862056496]],[[135.4965518929728,34.54932934987069],[135.4933273426969,34.54703388539339]],[[135.50139885848188,34.546763830749],[135.4965518929728,34.54932934987069]],[[135.5023925878122,34.55343729648052],[135.5034606778407,34.55253365209352]],[[135.5034606778407,34.55253365209352],[135.5060971025946,34.55024338097477]],[[135.5060971025946,34.55024338097477],[135.50139885848188,34.546763830749]],[[135.5002564077552,34.55935253186433],[135.50169630127462,34.56206865838384]],[[135.50318351523836,34.56046391059316],[135.50453552793266,34.558833196009736]],[[135.4933273426969,34.54703388539339],[135.49578800580053,34.54435930574224]],[[135.49578800580053,34.54435930574224],[135.4900284317228,34.542095001416214],[135.48875753979016,34.54476438770882]],[[135.50626610418138,34.55454867520935],[135.5034606778407,34.55253365209352]],[[135.50139885848188,34.546763830749],[135.50071609207126,34.5453616239416],[135.49693721659068,34.545642065303085],[135.49578800580053,34.54435930574224]],[[135.49853935163344,34.568861571361914],[135.49692369646374,34.56945361423615]],[[135.49692369646374,34.56945361423615],[135.49702509741581,34.571333610029775]],[[135.53826824465554,34.55991860794583],[135.5381127631957,34.56576113631]],[[135.5381127631957,34.56576113631],[135.54671832399492,34.56569881600745],[135.54834073922808,34.56599483744456],[135.54732672970738,34.56178302366382],[135.5489085845597,34.56128446124341],[135.54860438170348,34.55990822122874],[135.54662368310633,34.559788773982184]],[[135.50197346387696,34.57698398412774],[135.5020140242578,34.57808497613948]],[[135.50242638812955,34.581393145533234],[135.50563741827852,34.58089458311283]],[[135.50563741827852,34.58089458311283],[135.50548193681868,34.57699437084484]],[[135.4982419088407,34.57275659027136],[135.49948576051943,34.572787750422634]],[[135.49984404388343,34.57279294378118],[135.49991840458162,34.57116222919776]],[[135.5021357054003,34.58414043220403],[135.5022776667332,34.58454032081207]],[[135.5022776667332,34.58454032081207],[135.5075640363679,34.58558937923834]],[[135.5075640363679,34.58558937923834],[135.50876056760237,34.582951153097014]],[[135.5084901650635,34.58295634645556],[135.50268327054147,34.58310695385339]],[[135.5162507179288,34.57494299421919],[135.51630479843658,34.57687492359828]],[[135.51630479843658,34.57687492359828],[135.52047575759852,34.576869730239736]],[[135.52047575759852,34.576869730239736],[135.5210233227397,34.576869730239736]],[[135.5210233227397,34.576869730239736],[135.52090840166068,34.575202662146495]],[[135.52090840166068,34.575202662146495],[135.5162507179288,34.57494299421919]],[[135.48881162029792,34.55813209260604],[135.49010955248445,34.560526230895704]],[[135.4945644343122,34.558963029973384],[135.48881162029792,34.55813209260604]],[[135.50871324715806,34.57982475125237],[135.50797640023967,34.579559889966525]],[[135.50797640023967,34.579559889966525],[135.50563741827852,34.58089458311283]],[[135.48851417750518,34.557727010639454],[135.48881162029792,34.55813209260604]],[[135.49692369646374,34.56945361423615],[135.49530804129404,34.57129206316141]],[[135.5022776667332,34.58454032081207],[135.50248046863732,34.586160648678394],[135.50887548868138,34.587879650357095]],[[135.50957853528243,34.58663843766462],[135.5075640363679,34.58558937923834]],[[135.5126205638446,34.58798871088656],[135.51418213850653,34.582857672643186]],[[135.50907829058553,34.552523265376436],[135.50626610418138,34.55454867520935]],[[135.50711787217878,34.55662601862772],[135.50876732766585,34.55541077272797]],[[135.5121946798459,34.57686453688119],[135.51630479843658,34.57687492359828]],[[135.5162507179288,34.57494299421919],[135.51268816447933,34.57467813293335]],[[135.51630479843658,34.57687492359828],[135.51635887894435,34.57883281977009]],[[135.52011071417104,34.58003767895275],[135.52047575759852,34.576869730239736]],[[135.50926757236272,34.576189400270216],[135.50797640023967,34.579559889966525]],[[135.51192427730703,34.578630278786804],[135.51213383927464,34.57683857008846]],[[135.50200726419433,34.57473006651881],[135.5019396635596,34.57290200431065]],[[135.52352454622417,34.56980156925873],[135.52075968026432,34.57042477228424],[135.51825845677985,34.56983792276855],[135.51576399335886,34.57012355748858]],[[135.51576399335886,34.57012355748858],[135.5162507179288,34.57494299421919]],[[135.52090840166068,34.575202662146495],[135.523206823241,34.575290949241776],[135.52219281372027,34.573681008092535],[135.52224689422803,34.57173869199636],[135.5235583465415,34.57143228384215],[135.52352454622417,34.56980156925873]],[[135.5382074040843,34.558173639474404],[135.53594278282134,34.558012645359476],[135.52827011078116,34.55933175843014]],[[135.52528892279022,34.559949768097106],[135.5318259041672,34.559840707567645],[135.53219094759464,34.565719589441635],[135.53097413616976,34.56716853647595],[135.53083893490034,34.57073118043845],[135.53314411654412,34.57080908081664],[135.53334691844827,34.57177504550618]],[[135.53334691844827,34.57177504550618],[135.53542225793402,34.57180620565746],[135.53568590040942,34.567729419198905],[135.53686215145345,34.56772422584036],[135.53693651215164,34.56576632966854],[135.5381127631957,34.56576113631]],[[135.51207975876687,34.56539240785324],[135.5024128680026,34.56576632966854]],[[135.50953121483812,34.574537912252616],[135.5099097783925,34.57138035025669]],[[135.51467562313994,34.59071522412317],[135.5177717322099,34.59259002655825],[135.52146272686534,34.59402339351693],[135.5222130939107,34.593187262791034],[135.522375335434,34.58988948011437],[135.520955722105,34.58977522622636],[135.5212126045169,34.58751092190034]],[[135.4982419088407,34.57275659027136],[135.49813374782514,34.574813160255545]],[[135.51249212263863,34.550518628977706],[135.51240424181353,34.54985387908383],[135.50838876411143,34.54823874457605],[135.5060971025946,34.55024338097477]],[[135.49583532624482,34.57266830317608],[135.49699805716193,34.574792386821365]],[[135.52352454622417,34.56980156925873],[135.52351778616068,34.566062351105664]],[[135.52243617600524,34.57980397781818],[135.52230097473583,34.57688531031537]],[[135.52230097473583,34.57688531031537],[135.5210233227397,34.576869730239736]],[[135.52230097473583,34.57688531031537],[135.5319678655001,34.57683857008846],[135.53158930194567,34.57390951586856],[135.53334691844827,34.57177504550618]],[[135.49816078807902,34.57689569703246],[135.4989719956956,34.578360224142415]],[[135.51013962055055,34.558443694118786],[135.5085848059521,34.556812979535366],[135.5094906544573,34.55617938979277]]]}