{"type":"Topology","bbox":[135.5083882726519,34.50507415056724,135.55503436694653,34.55933105836138],"objects":{"town":{"type":"GeometryCollection","geometries":[{"type":"MultiPolygon","arcs":[[[59,38,39,-34,8,9,3,4,5,2,60]]],"properties":{"name":"石原町"}},{"type":"Polygon","arcs":[[10,11,12,13,14]],"properties":{"name":"西野"}},{"type":"Polygon","arcs":[[15,16]],"properties":{"name":"草尾"}},{"type":"MultiPolygon","arcs":[[[118,-117,23,-116,-29,17,18,19,20,68]]],"properties":{"name":"日置荘北町"}},{"type":"MultiPolygon","arcs":[[[-102,-101,-53,112,-51,-50,-49,120,-47,121,-45,-84,-83,-82,-81,111,-97,-19,-18,28,93,72,73]]],"properties":{"name":"日置荘西町"}},{"type":"Polygon","arcs":[[-14,30,31]],"properties":{"name":"南野田"}},{"type":"MultiPolygon","arcs":[[[-9,33,34,99,-21,-20,96,97,92,89,-4,-10]]],"properties":{"name":"菩提町"}},{"type":"Polygon","arcs":[[36]],"properties":{"name":"中茶屋"}},{"type":"MultiPolygon","arcs":[[[109,41,108,103,-39,-60,104]]],"properties":{"name":"八下町"}},{"type":"Polygon","arcs":[[42,43,44]],"properties":{"name":"関茶屋"}},{"type":"Polygon","arcs":[[-17,45,46,47,48,49,50,51,52,53,54,55,56,57,-11,58]],"properties":{"name":"大美野"}},{"type":"MultiPolygon","arcs":[[[63,74,75,76,65,61,87]]],"properties":{"name":"白鷺町"}},{"type":"Polygon","arcs":[[66,-57]],"properties":{"name":"高松"}},{"type":"Polygon","arcs":[[-44,77,-66,-77,78,79,80,81,82,83]],"properties":{"name":"野尻町"}},{"type":"MultiPolygon","arcs":[[[-93,-98,-112,-80,-79,-76,84,107,-5,-90]]],"properties":{"name":"引野町"}},{"type":"Polygon","arcs":[[-31,-13,88]],"properties":{"name":"北野田"}},{"type":"Polygon","arcs":[[-54,100,101,-74,102]],"properties":{"name":"日置荘田中町"}},{"type":"Polygon","arcs":[[-55,-103,-73,-94,115,-24,116,117]],"properties":{"name":"日置荘原寺町"}},{"type":"Polygon","arcs":[[119]],"properties":{"name":"丈六"}}]}},"arcs":[[[135.53227812652557,34.55861479555222],[135.5322081503865,34.55382885769099]],[[135.5322081503865,34.55382885769099],[135.5283034818272,34.55420326779578]],[[135.5283034818272,34.55420326779578],[135.52892393692682,34.554990071639175],[135.52827082629562,34.55933105836138],[135.53227812652557,34.55861479555222]],[[135.530985900491,34.54996537950822],[135.53009953606295,34.55152813472822],[135.52793027575223,34.55140333135996]],[[135.52793027575223,34.55140333135996],[135.5272351794376,34.55239090583926]],[[135.5272351794376,34.55239090583926],[135.5283034818272,34.55420326779578]],[[135.5322081503865,34.55382885769099],[135.53500719594874,34.55283043074488]],[[135.53500719594874,34.55283043074488],[135.53499786579687,34.55242346323968]],[[135.53499786579687,34.55242346323968],[135.534839253215,34.5508986916535]],[[135.534839253215,34.5508986916535],[135.53262800722084,34.55092582282052],[135.530985900491,34.54996537950822]],[[135.53928507058302,34.52068542406696],[135.54073124412352,34.52203655618425]],[[135.54073124412352,34.52203655618425],[135.54121174694504,34.52246522862307]],[[135.54121174694504,34.52246522862307],[135.54226605410682,34.522606310691536],[135.54255062373898,34.52060403056592]],[[135.54255062373898,34.52060403056592],[135.5446312476069,34.5168165196508]],[[135.5446312476069,34.5168165196508],[135.5437868688623,34.51566615816942],[135.544104094026,34.51115695821173],[135.5431570836108,34.509794973627635],[135.54116043110972,34.512090270357],[135.54007813349233,34.511667024151585],[135.54030672221324,34.515508797400734],[135.5377735859794,34.51627389631052],[135.53624344107206,34.52031644019558],[135.53928507058302,34.52068542406696]],[[135.5257890058971,34.528868184038316],[135.5230272809424,34.530485201592334]],[[135.5230272809424,34.530485201592334],[135.52473936381128,34.53092472649796],[135.5257890058971,34.528868184038316]],[[135.53421413303946,34.542618259480896],[135.5343354250138,34.544029080165615]],[[135.5343354250138,34.544029080165615],[135.53306652435893,34.545429048383525]],[[135.53306652435893,34.545429048383525],[135.53433075993786,34.545434474616926]],[[135.53433075993786,34.545434474616926],[135.53824009357314,34.545510441884566]],[[135.53824009357314,34.545510441884566],[135.53809081114315,34.542639964414505]],[[135.53809081114315,34.542639964414505],[135.53421413303946,34.542618259480896]],[[135.5387019360909,34.53957956877535],[135.53689655170325,34.53994855264674]],[[135.53689655170325,34.53994855264674],[135.5387019360909,34.53957956877535]],[[135.52773434256287,34.54152216033354],[135.52770635210726,34.54153301280034]],[[135.52770635210726,34.54153301280034],[135.52478601457065,34.54331824358985]],[[135.52478601457065,34.54331824358985],[135.52925049224243,34.54369807992804],[135.53097657033913,34.544408916503805],[135.5343354250138,34.544029080165615]],[[135.53421413303946,34.542618259480896],[135.53455934865877,34.540686520389514]],[[135.53455934865877,34.540686520389514],[135.52945575558365,34.54200509510638],[135.52773434256287,34.54152216033354]],[[135.54255062373898,34.52060403056592],[135.54361892612854,34.52255204835751],[135.55167551227186,34.523371409601324],[135.55381678212694,34.522703982892786]],[[135.55381678212694,34.522703982892786],[135.553518217267,34.5193831280503],[135.55473580208655,34.51834671747038],[135.553368934837,34.51778238919649],[135.54759357082693,34.517473093892534],[135.5446312476069,34.5168165196508]],[[135.53459666926628,34.54763209914504],[135.534839253215,34.5508986916535]],[[135.53499786579687,34.55242346323968],[135.53665863283047,34.55232579103843],[135.5378995430297,34.54995995327482],[135.539434353013,34.54961267433705]],[[135.539434353013,34.54961267433705],[135.53898650572305,34.547604967978025]],[[135.53898650572305,34.547604967978025],[135.53459666926628,34.54763209914504]],[[135.53404152522978,34.51471656732394],[135.53404152522978,34.51471656732394]],[[135.53500719594874,34.55283043074488],[135.53849667274966,34.55271105361002],[135.53853399335716,34.55489782567133]],[[135.53853399335716,34.55489782567133],[135.54088519162943,34.55474046490265]],[[135.54088519162943,34.55474046490265],[135.54213543198057,34.550963806454334],[135.54110445019847,34.54963437927066],[135.539434353013,34.54961267433705]],[[135.5444679699491,34.55511487500744],[135.54436533827848,34.55878843502111]],[[135.54436533827848,34.55878843502111],[135.5466465604117,34.55904346799103],[135.54679584284168,34.55475131736946],[135.5444679699491,34.55511487500744]],[[135.51996699112766,34.53660056663724],[135.51910861715527,34.53629127133328],[135.51661280152894,34.539921421479725]],[[135.51661280152894,34.539921421479725],[135.519869024533,34.538716797664314]],[[135.519869024533,34.538716797664314],[135.51996699112766,34.53660056663724]],[[135.5230272809424,34.530485201592334],[135.5237876883201,34.53106580856643],[135.52049414470855,34.53632925496711]],[[135.52049414470855,34.53632925496711],[135.5207880444926,34.536361812367524]],[[135.5207880444926,34.536361812367524],[135.52351711391577,34.53456030287781]],[[135.52351711391577,34.53456030287781],[135.52539713951842,34.5337626465676]],[[135.52539713951842,34.5337626465676],[135.52631149440208,34.53271538352087]],[[135.52631149440208,34.53271538352087],[135.52657273865455,34.529714676449146]],[[135.52657273865455,34.529714676449146],[135.5273238158804,34.530099939020744]],[[135.5273238158804,34.530099939020744],[135.52886795601557,34.53137510387039]],[[135.52886795601557,34.53137510387039],[135.52995958378486,34.53101697246581]],[[135.52995958378486,34.53101697246581],[135.53213817424745,34.5307999231297]],[[135.53213817424745,34.5307999231297],[135.53070133085885,34.528862757804916],[135.53037011046732,34.52658373977576],[135.5317649681725,34.5250969518234],[135.53348638119326,34.52590546060041]],[[135.53348638119326,34.52590546060041],[135.53489523412625,34.52619847720416]],[[135.53489523412625,34.52619847720416],[135.53592621590835,34.528227888496794],[135.54073124412352,34.52203655618425]],[[135.53928507058302,34.52068542406696],[135.53665396775452,34.521597031278624],[135.5330152085236,34.5209567357371],[135.52814953432127,34.525883755666804],[135.52758506013288,34.527668986456305],[135.52658673388237,34.52715349428305],[135.5257890058971,34.528868184038316]],[[135.53820743804155,34.55817527064659],[135.53853399335716,34.55489782567133]],[[135.53227812652557,34.55861479555222],[135.53820743804155,34.55817527064659]],[[135.513421889588,34.54351901422575],[135.51275478372898,34.54457170350589]],[[135.51275478372898,34.54457170350589],[135.51691603146483,34.54803364041685]],[[135.51691603146483,34.54803364041685],[135.51861878418185,34.54699722983692]],[[135.51861878418185,34.54699722983692],[135.52122189655475,34.545456179550534]],[[135.52122189655475,34.545456179550534],[135.5148354075969,34.544408916503805],[135.513421889588,34.54351901422575]],[[135.53348638119326,34.52590546060041],[135.53489523412625,34.52619847720416]],[[135.5414963165772,34.54265624311471],[135.53809081114315,34.542639964414505]],[[135.53824009357314,34.545510441884566],[135.54131904369157,34.54574919615428],[135.5414963165772,34.54265624311471]],[[135.52743111262697,34.53689358324099],[135.52753374429759,34.54127255359701]],[[135.52753374429759,34.54127255359701],[135.52770635210726,34.54153301280034]],[[135.52773434256287,34.54152216033354],[135.53313183542204,34.538326108859316]],[[135.53313183542204,34.538326108859316],[135.53178829355218,34.537951698754526]],[[135.53178829355218,34.537951698754526],[135.53034678508763,34.53622073029905],[135.52743111262697,34.53689358324099]],[[135.51861878418185,34.54699722983692],[135.52045682410107,34.54884757542726],[135.5193791915596,34.550388625713644],[135.52173971998374,34.550703347251]],[[135.52173971998374,34.550703347251],[135.522980630183,34.54682359036803]],[[135.522980630183,34.54682359036803],[135.52122189655475,34.545456179550534]],[[135.51661280152894,34.539921421479725],[135.513421889588,34.54351901422575]],[[135.522980630183,34.54682359036803],[135.5230272809424,34.54678018050081]],[[135.5230272809424,34.54678018050081],[135.52499594298783,34.5451902941138]],[[135.52499594298783,34.5451902941138],[135.52327452996704,34.544229850801514]],[[135.52327452996704,34.544229850801514],[135.52402094211698,34.53921601113737]],[[135.52402094211698,34.53921601113737],[135.52383900415543,34.539085781535704]],[[135.52383900415543,34.539085781535704],[135.519869024533,34.538716797664314]],[[135.52173971998374,34.550703347251],[135.52506125405094,34.55211416793572]],[[135.52506125405094,34.55211416793572],[135.52425419591384,34.55183743003218],[135.52560706793557,34.5473499350081]],[[135.52560706793557,34.5473499350081],[135.5230272809424,34.54678018050081]],[[135.51275478372898,34.54457170350589],[135.50979246050895,34.54782744354754],[135.5083882726519,34.54823983728615],[135.5124049030337,34.549851428606765],[135.512530860084,34.55065993738378],[135.51691603146483,34.54803364041685]],[[135.54121174694504,34.52246522862307],[135.54267658078928,34.52615506733694],[135.5422753842587,34.53070225092845],[135.54356761029325,34.52976351254977],[135.54932431399956,34.532243301214834],[135.5515822107531,34.5321944651142],[135.55298639861016,34.53050148029254],[135.55300039383798,34.528504626400334],[135.55498771618716,34.52790231449263],[135.55381678212694,34.522703982892786]],[[135.52785563453725,34.54752357447698],[135.52793027575223,34.55140333135996]],[[135.530985900491,34.54996537950822],[135.53150372392003,34.54765923031206]],[[135.53150372392003,34.54765923031206],[135.52930647315367,34.54763209914504]],[[135.52930647315367,34.54763209914504],[135.52785563453725,34.54752357447698]],[[135.53455934865877,34.540686520389514],[135.53465265017752,34.53857028936244],[135.53313183542204,34.538326108859316]],[[135.53150372392003,34.54765923031206],[135.5341068362929,34.54764295161185]],[[135.5341068362929,34.54764295161185],[135.53433075993786,34.545434474616926]],[[135.53306652435893,34.545429048383525],[135.5295397269505,34.54529339254845]],[[135.5295397269505,34.54529339254845],[135.52930647315367,34.54763209914504]],[[135.5341068362929,34.54764295161185],[135.53459666926628,34.54763209914504]],[[135.53898650572305,34.547604967978025],[135.53824009357314,34.545510441884566]],[[135.52886795601557,34.53137510387039],[135.5273238158804,34.53288902298976]],[[135.5273238158804,34.53288902298976],[135.52623218811115,34.535699811892385],[135.52743111262697,34.53689358324099]],[[135.53178829355218,34.537951698754526],[135.53130779073066,34.53446805690996],[135.53242740895556,34.533176613360105],[135.52995958378486,34.53101697246581]],[[135.54181820681686,34.55559238354688],[135.54088519162943,34.55474046490265]],[[135.53820743804155,34.55817527064659],[135.5418135417409,34.558538828284576]],[[135.5418135417409,34.558538828284576],[135.54181820681686,34.55559238354688]],[[135.52785563453725,34.54752357447698],[135.52560706793557,34.5473499350081]],[[135.52506125405094,34.55211416793572],[135.5272351794376,34.55239090583926]],[[135.5444679699491,34.55511487500744],[135.54181820681686,34.55559238354688]],[[135.5418135417409,34.558538828284576],[135.54436533827848,34.55878843502111]],[[135.52478601457065,34.54331824358985],[135.52327452996704,34.544229850801514]],[[135.52499594298783,34.5451902941138],[135.5295397269505,34.54529339254845]],[[135.5273238158804,34.530099939020744],[135.52657273865455,34.529714676449146]],[[135.52631149440208,34.53271538352087],[135.5273238158804,34.53288902298976]],[[135.52753374429759,34.54127255359701],[135.52402094211698,34.53921601113737]],[[135.53455934865877,34.540686520389514],[135.53689655170325,34.53994855264674]],[[135.5387019360909,34.53957956877535],[135.541659594235,34.540643110522296]],[[135.541659594235,34.540643110522296],[135.54220540811963,34.53305180999184],[135.53754033218257,34.532780498321706],[135.53718578641136,34.534473483143366],[135.53432609486194,34.5345440241776],[135.53213817424745,34.5307999231297]],[[135.5414963165772,34.54265624311471],[135.541659594235,34.540643110522296]],[[135.54155696256439,34.50584467571043],[135.54155696256439,34.50584467571043]],[[135.52351711391577,34.53456030287781],[135.5233818267136,34.53547191008947],[135.5207880444926,34.536361812367524]],[[135.52049414470855,34.53632925496711],[135.51996699112766,34.53660056663724]],[[135.52383900415543,34.539085781535704],[135.52539713951842,34.5337626465676]]]}