{"type":"Topology","bbox":[135.40063366807905,34.49600347459623,135.48986191488356,34.6021004882701],"objects":{"town":{"type":"GeometryCollection","geometries":[{"type":"Polygon","arcs":[[0,1,2]],"properties":{"name":"石津ケ丘"}},{"type":"MultiPolygon","arcs":[[[-111,7,8,52,211,212,166,129,-2,-1,5,158,151,-78,-34]]],"properties":{"name":"上野芝町"}},{"type":"Polygon","arcs":[[12,13,14,15,16,17,18,19,20,21,22]],"properties":{"name":"石津西町"}},{"type":"MultiPolygon","arcs":[[[32,33,77,78,75,191,25,202,203,-100,-187,27,28]]],"properties":{"name":"上野芝向ケ丘町"}},{"type":"MultiPolygon","arcs":[[[279,280,40,41,42,208,209,142,-134,81,-133,-132,154,155,-61,-60,-141,-195,271,263]]],"properties":{"name":"鳳北町"}},{"type":"MultiPolygon","arcs":[[[149,145,146,147,49,192,193,194,140,59,60,-156,167,-86,-85,-66,-65]]],"properties":{"name":"鳳中町"}},{"type":"MultiPolygon","arcs":[[[168,-150,64,65,66,67,68,69,121]]],"properties":{"name":"鳳西町"}},{"type":"MultiPolygon","arcs":[[[-106,-117,-68,-67,84,85,-168,-155,103,104,101,95,96,92,-175,-211]]],"properties":{"name":"鳳東町"}},{"type":"MultiPolygon","arcs":[[[97,91,87,88,89,98,99,100]]],"properties":{"name":"家原寺町"}},{"type":"MultiPolygon","arcs":[[[174,-93,126,127,172,119,115,-69,116,105,210]]],"properties":{"name":"鳳南町"}},{"type":"MultiPolygon","arcs":[[[-90,-184,-183,-164,108,109,-8,110,-33,-29,-28,186,-99]]],"properties":{"name":"神野町"}},{"type":"MultiPolygon","arcs":[[[281,282,283,284,-18,-17,-16,-15,-14,297,-224,124,-317,-253,227,-252,-189]]],"properties":{"name":"浜寺石津町西"}},{"type":"Polygon","arcs":[[131,132,-82,133,134,135,136,137,-104]],"properties":{"name":"下田町"}},{"type":"Polygon","arcs":[[-88,143,-105,-138,144]],"properties":{"name":"鶴田町"}},{"type":"MultiPolygon","arcs":[[[187,188,251,-228,252,316,-125,223,224,225,161,-278,-198,190]]],"properties":{"name":"浜寺石津町中"}},{"type":"MultiPolygon","arcs":[[[-109,163,182,183,-89,-145,-137,184,-53,-9,-110]]],"properties":{"name":"津久野町"}},{"type":"Polygon","arcs":[[169,170]],"properties":{"name":"築港浜寺西町"}},{"type":"MultiPolygon","arcs":[[[237,342,-324,340,341,-319,178,179,180,175,239]]],"properties":{"name":"浜寺公園町"}},{"type":"MultiPolygon","arcs":[[[293,-366,364,-364,362,-362,360,-360,292,196,-22,-21,-20,213]]],"properties":{"name":"築港新町"}},{"type":"MultiPolygon","arcs":[[[217,278,199,200,205,206,207,204,-191,197,277,-162,-226,250]]],"properties":{"name":"浜寺石津町東"}},{"type":"MultiPolygon","arcs":[[[373,-315,234,235,236,221,222,218,383]]],"properties":{"name":"山田"}},{"type":"Polygon","arcs":[[230,231]],"properties":{"name":"築港浜寺町"}},{"type":"MultiPolygon","arcs":[[[-244,-355,241,242,-223,-222,-237,-245]]],"properties":{"name":"菱木"}},{"type":"Polygon","arcs":[[243,244,-236,245,246,247,248,249]],"properties":{"name":"草部"}},{"type":"Polygon","arcs":[[-120,-173,-128,254,-248,255]],"properties":{"name":"上"}},{"type":"MultiPolygon","arcs":[[[371,-300,-299,312,-42,-41,-281,-280,-264,-272,-194,-297,256,257,258,259,260,-334]]],"properties":{"name":"浜寺元町"}},{"type":"MultiPolygon","arcs":[[[-148,-147,353,267,268,269,-259,-258,-257,296,-193,-50]]],"properties":{"name":"浜寺南町"}},{"type":"MultiPolygon","arcs":[[[321,276,273,285,-98]]],"properties":{"name":"堀上緑町"}},{"type":"MultiPolygon","arcs":[[[288,-203,-26,-192,-76,-79,310]]],"properties":{"name":"北条町"}},{"type":"MultiPolygon","arcs":[[[-331,-309,-308,-352,339,-209,-43,-313,298,299,300,301,345,346,358,-207,-328]]],"properties":{"name":"浜寺船尾町西"}},{"type":"MultiPolygon","arcs":[[[-143,-210,-340,351,307,308,330,327,-206,-201,328,372,305,352]]],"properties":{"name":"浜寺船尾町東"}},{"type":"Polygon","arcs":[[-136,313,-212,-185]],"properties":{"name":"宮下町"}},{"type":"Polygon","arcs":[[-246,-235,314,315]],"properties":{"name":"原田"}},{"type":"MultiPolygon","arcs":[[[-336,375,317,-179,318,319,-367,350,-284,-283,343]]],"properties":{"name":"浜寺諏訪森町西"}},{"type":"MultiPolygon","arcs":[[[333,-261,-260,-270,-269,322,323,-343,-238,-240,-176,-181,379,380,-372]]],"properties":{"name":"浜寺昭和町"}},{"type":"MultiPolygon","arcs":[[[-180,-318,-376,335,-344,-282,-188,-205,357,337,381,-380]]],"properties":{"name":"浜寺諏訪森町中"}},{"type":"Polygon","arcs":[[-242,354,-250,355]],"properties":{"name":"太平寺"}},{"type":"Polygon","arcs":[[-23,-197,-293,359,360,361,362,363,364,365,-294,-214,-19,-285,-351,366,-320,-342,367,-232,368,-171,369]],"properties":{"name":"堺泉北港"}},{"type":"Polygon","arcs":[[-96,-102,-144,-92,-286,-274,376]],"properties":{"name":"平岡町"}},{"type":"MultiPolygon","arcs":[[[-381,-382,-338,-358,-208,-359,-347,-346,-302,-301]]],"properties":{"name":"浜寺諏訪森町東"}}]}},"arcs":[[[135.4788857429094,34.5563787129005],[135.479840580634,34.554734044721734],[135.47813615067702,34.55131737921488]],[[135.47813615067702,34.55131737921488],[135.4743167997787,34.552993879680976]],[[135.4743167997787,34.552993879680976],[135.476761898251,34.5563787129005],[135.4788857429094,34.5563787129005]],[[135.47894820892878,34.55016080610853],[135.47890359034352,34.550128973821195]],[[135.47890359034352,34.550128973821195],[135.47813615067702,34.55131737921488]],[[135.4788857429094,34.5563787129005],[135.48163424776146,34.55646359900004],[135.48179487466842,34.55227234783481]],[[135.48179487466842,34.55227234783481],[135.47894820892878,34.55016080610853]],[[135.4742454100423,34.54679719441389],[135.47423648632522,34.54679719441389]],[[135.47423648632522,34.54679719441389],[135.4728622338992,34.54681841593878]],[[135.4728622338992,34.54681841593878],[135.47312994541076,34.54968332179856]],[[135.47312994541076,34.54968332179856],[135.47702960976255,34.54881323927818]],[[135.47702960976255,34.54881323927818],[135.4742454100423,34.54679719441389]],[[135.45334606470615,34.56649076950927],[135.4550147997949,34.56582229147533],[135.45430982614778,34.56451716769476]],[[135.45430982614778,34.56451716769476],[135.45285526026828,34.562777002654]],[[135.45285526026828,34.562777002654],[135.4508563476486,34.56060179635306]],[[135.4508563476486,34.56060179635306],[135.44938393433497,34.55974232459513]],[[135.44938393433497,34.55974232459513],[135.44609108274273,34.55635749137561]],[[135.44609108274273,34.55635749137561],[135.44535041422742,34.55650604204982]],[[135.44535041422742,34.55650604204982],[135.44555565971962,34.557015358647114],[135.4376135515432,34.558904074362076],[135.43676579842324,34.55962560620824]],[[135.43676579842324,34.55962560620824],[135.43839883864376,34.56384868966081]],[[135.43839883864376,34.56384868966081],[135.43864870272122,34.56378502508615]],[[135.43864870272122,34.56378502508615],[135.44304809522794,34.562639062742235],[135.44500238926238,34.56702130763146]],[[135.44500238926238,34.56702130763146],[135.45235553211336,34.56481426904318],[135.45334606470615,34.56649076950927]],[[135.47943008964958,34.54206479436404],[135.4792248441574,34.54376251635502]],[[135.4792248441574,34.54376251635502],[135.48275863611005,34.54443099438897]],[[135.48275863611005,34.54443099438897],[135.48387410074156,34.54240433876223]],[[135.48387410074156,34.54240433876223],[135.47976026718052,34.540250353986174],[135.47943008964958,34.54206479436404]],[[135.47686005913857,34.541417537854976],[135.4765031104565,34.54514191547269]],[[135.4765031104565,34.54514191547269],[135.47695822002615,34.54526924462201]],[[135.47695822002615,34.54526924462201],[135.47976026718052,34.544897867936484]],[[135.47976026718052,34.544897867936484],[135.4792248441574,34.54376251635502]],[[135.47943008964958,34.54206479436404],[135.47686005913857,34.541417537854976]],[[135.47695822002615,34.54526924462201],[135.4762978649643,34.547242846436525]],[[135.4762978649643,34.547242846436525],[135.47893036149466,34.5482084258189]],[[135.47893036149466,34.5482084258189],[135.48025999533544,34.545937722655964]],[[135.48025999533544,34.545937722655964],[135.47976026718052,34.544897867936484]],[[135.45925356539468,34.53816003378478],[135.45966405637907,34.539051337830045]],[[135.45966405637907,34.539051337830045],[135.45993176789062,34.53969859433911]],[[135.45993176789062,34.53969859433911],[135.46200207024674,34.539030116305156]],[[135.46200207024674,34.539030116305156],[135.46212700228546,34.538096369210116],[135.45925356539468,34.53816003378478]],[[135.45640689965504,34.540664173721474],[135.45621950159693,34.541576699291625]],[[135.45621950159693,34.541576699291625],[135.45610349327526,34.54210723741381]],[[135.45610349327526,34.54210723741381],[135.45900370131722,34.54230884190024]],[[135.45900370131722,34.54230884190024],[135.46075274985944,34.54142814861741]],[[135.46075274985944,34.54142814861741],[135.46069920755713,34.54132204099298]],[[135.46069920755713,34.54132204099298],[135.4604582671967,34.54087638897035]],[[135.4604582671967,34.54087638897035],[135.45640689965504,34.540664173721474]],[[135.45586255291485,34.53361862745891],[135.45268570964427,34.53383084270778]],[[135.45268570964427,34.53383084270778],[135.4527570993807,34.534340159305074]],[[135.4527570993807,34.534340159305074],[135.45286418398533,34.53541184631188]],[[135.45286418398533,34.53541184631188],[135.4563176624845,34.53548612164898]],[[135.4563176624845,34.53548612164898],[135.45586255291485,34.53361862745891]],[[135.4728622338992,34.54681841593878],[135.4691142727373,34.548611634791754]],[[135.4691142727373,34.548611634791754],[135.47069377065554,34.5502032491583]],[[135.47069377065554,34.5502032491583],[135.47312994541076,34.54970454332345]],[[135.47312994541076,34.54970454332345],[135.47312994541076,34.54968332179856]],[[135.4598068358519,34.5339581718571],[135.45768299119348,34.533714124320895]],[[135.45768299119348,34.533714124320895],[135.4577365334958,34.53539062478699]],[[135.4577365334958,34.53539062478699],[135.45804886359264,34.5368761315291]],[[135.45804886359264,34.5368761315291],[135.4590393961854,34.53669574856756]],[[135.4590393961854,34.53669574856756],[135.45927141282877,34.5354649001241]],[[135.45927141282877,34.5354649001241],[135.4598068358519,34.5339581718571]],[[135.45015137400148,34.52507696369178],[135.45196288856306,34.52807980946333],[135.4523466083963,34.53046723101315]],[[135.4523466083963,34.53046723101315],[135.45248046415207,34.53177235479371]],[[135.45248046415207,34.53177235479371],[135.455202197853,34.531040212185104]],[[135.455202197853,34.531040212185104],[135.45815594819726,34.531188762859315]],[[135.45815594819726,34.531188762859315],[135.45800424500737,34.53081738617379]],[[135.45800424500737,34.53081738617379],[135.45733496622844,34.530000357465624]],[[135.45733496622844,34.530000357465624],[135.45307835319457,34.52482230539313]],[[135.45307835319457,34.52482230539313],[135.45015137400148,34.52507696369178]],[[135.46070813127417,34.5307006677869],[135.46065458897186,34.53088105074845]],[[135.46065458897186,34.53088105074845],[135.46025302170452,34.53263182655164]],[[135.46025302170452,34.53263182655164],[135.46321569576583,34.53324725077338]],[[135.46321569576583,34.53324725077338],[135.46287659451784,34.530976547610436]],[[135.46287659451784,34.530976547610436],[135.46070813127417,34.5307006677869]],[[135.48489140448552,34.546744140601675],[135.4831602033774,34.546807805176336]],[[135.4831602033774,34.546807805176336],[135.48025999533544,34.545937722655964]],[[135.47893036149466,34.5482084258189],[135.48361531294705,34.54888751461529]],[[135.48361531294705,34.54888751461529],[135.48489140448552,34.546744140601675]],[[135.45993176789062,34.53969859433911],[135.4604582671967,34.54087638897035]],[[135.46069920755713,34.54132204099298],[135.4633852463898,34.53997447416264]],[[135.4633852463898,34.53997447416264],[135.46337632267276,34.538881565630945]],[[135.46337632267276,34.538881565630945],[135.46200207024674,34.539030116305156]],[[135.46065458897186,34.53088105074845],[135.45800424500737,34.53081738617379]],[[135.45815594819726,34.531188762859315],[135.4589858538831,34.53216495300413]],[[135.4589858538831,34.53216495300413],[135.46002100506115,34.5333745799227]],[[135.46002100506115,34.5333745799227],[135.46025302170452,34.53263182655164]],[[135.46966754319453,34.53596360595895],[135.46977462779915,34.53700346067842]],[[135.46977462779915,34.53700346067842],[135.47143443917085,34.53764010642504],[135.47028327967112,34.539815312725985],[135.47203232821334,34.540250353986174],[135.47346904665875,34.53907255935493]],[[135.47346904665875,34.53907255935493],[135.47699391489436,34.53849957818297]],[[135.47699391489436,34.53849957818297],[135.47678866940214,34.535687726135414]],[[135.47678866940214,34.535687726135414],[135.47370106330212,34.53683368847933],[135.47185385387232,34.53501924810146],[135.46966754319453,34.53596360595895]],[[135.46822190103208,34.53130548124619],[135.46268919645973,34.529565316205435]],[[135.46268919645973,34.529565316205435],[135.46287659451784,34.530976547610436]],[[135.46321569576583,34.53324725077338],[135.4672135210052,34.53417038710597]],[[135.4672135210052,34.53417038710597],[135.46751692738496,34.53324725077338]],[[135.46751692738496,34.53324725077338],[135.46822190103208,34.53130548124619]],[[135.47995658895567,34.53507230191368],[135.47678866940214,34.535687726135414]],[[135.47699391489436,34.53849957818297],[135.4770206860455,34.53934843917847]],[[135.4770206860455,34.53934843917847],[135.48029569020366,34.539051337830045]],[[135.48029569020366,34.539051337830045],[135.48115236704066,34.53720506516485],[135.47995658895567,34.53507230191368]],[[135.4668208774549,34.535189020300564],[135.4672135210052,34.53417038710597]],[[135.46321569576583,34.53324725077338],[135.46339417010688,34.537470334225944]],[[135.46339417010688,34.537470334225944],[135.46520568466846,34.53967737281422]],[[135.46520568466846,34.53967737281422],[135.4668208774549,34.535189020300564]],[[135.45747774570128,34.529979135940735],[135.4585932103328,34.529650202304985]],[[135.4585932103328,34.529650202304985],[135.45840581227472,34.5272946130425]],[[135.45840581227472,34.5272946130425],[135.4571029495851,34.52725216999273],[135.45747774570128,34.529979135940735]],[[135.47333519090296,34.54566184283242],[135.4730674793914,34.545958944180846]],[[135.4730674793914,34.545958944180846],[135.47423648632522,34.54679719441389]],[[135.4742454100423,34.54679719441389],[135.4762978649643,34.547242846436525]],[[135.4765031104565,34.54514191547269],[135.47436141836397,34.54465382040028],[135.47333519090296,34.54566184283242]],[[135.45767406747643,34.532780377225855],[135.45768299119348,34.533714124320895]],[[135.4598068358519,34.5339581718571],[135.46002100506115,34.5333745799227]],[[135.4589858538831,34.53216495300413],[135.45767406747643,34.532780377225855]],[[135.45622842531398,34.52463131166915],[135.4552914350235,34.52388855829809],[135.45307835319457,34.52482230539313]],[[135.45733496622844,34.530000357465624],[135.45747774570128,34.529979135940735]],[[135.45840581227472,34.5272946130425],[135.46151126580887,34.52735827761716]],[[135.46151126580887,34.52735827761716],[135.4617432824522,34.526456362809455]],[[135.4617432824522,34.526456362809455],[135.4592267942435,34.52364451076189],[135.4567816957712,34.52521490360355],[135.45622842531398,34.52463131166915]],[[135.45158809244685,34.529830585266524],[135.4523466083963,34.53046723101315]],[[135.45015137400148,34.52507696369178],[135.44594830326992,34.52650941662167],[135.44789367358726,34.529735088404536],[135.45158809244685,34.529830585266524]],[[135.4535066916131,34.560028815181106],[135.4508563476486,34.56060179635306]],[[135.45285526026828,34.562777002654],[135.45468462226395,34.5619493631834]],[[135.45468462226395,34.5619493631834],[135.4535066916131,34.560028815181106]],[[135.46223408689008,34.52653063814656],[135.46268919645973,34.529565316205435]],[[135.46822190103208,34.53130548124619],[135.4693373656636,34.52820713861265]],[[135.4693373656636,34.52820713861265],[135.46223408689008,34.52653063814656]],[[135.47312994541076,34.54970454332345],[135.47333519090296,34.55157203751353]],[[135.47333519090296,34.55157203751353],[135.4743167997787,34.552993879680976]],[[135.47890359034352,34.550128973821195],[135.47702960976255,34.54881323927818]],[[135.46339417010688,34.537470334225944],[135.4633852463898,34.53766132794993]],[[135.4633852463898,34.53766132794993],[135.46337632267276,34.538881565630945]],[[135.4633852463898,34.53997447416264],[135.46342094125802,34.54561939978265]],[[135.46342094125802,34.54561939978265],[135.4667494877185,34.54748689397273]],[[135.4667494877185,34.54748689397273],[135.46703504666414,34.54381557016723],[135.46653531850922,34.54316831365817]],[[135.46653531850922,34.54316831365817],[135.46666025054796,34.541184101081214]],[[135.46666025054796,34.541184101081214],[135.46520568466846,34.53967737281422]],[[135.4577365334958,34.53539062478699],[135.4563176624845,34.53548612164898]],[[135.4563176624845,34.53548612164898],[135.45671922975185,34.53713078982775]],[[135.45671922975185,34.53713078982775],[135.45804886359264,34.5368761315291]],[[135.46075274985944,34.54142814861741],[135.46210915485136,34.54484481412427]],[[135.46210915485136,34.54484481412427],[135.46342094125802,34.54561939978265]],[[135.46966754319453,34.53596360595895],[135.46939983168298,34.534127944056195],[135.4668208774549,34.535189020300564]],[[135.46666025054796,34.541184101081214],[135.46977462779915,34.53700346067842]],[[135.44773304668033,34.53306686781183],[135.44807214792831,34.53341702297247]],[[135.44807214792831,34.53341702297247],[135.44948209522255,34.53328969382315],[135.44992828107516,34.53551795393631],[135.45095450853617,34.535337570974775]],[[135.45095450853617,34.535337570974775],[135.4527570993807,34.534340159305074]],[[135.45268570964427,34.53383084270778],[135.45248046415207,34.53177235479371]],[[135.45248046415207,34.53177235479371],[135.44773304668033,34.53306686781183]],[[135.47894820892878,34.55016080610853],[135.4835885417959,34.54892995766507]],[[135.4835885417959,34.54892995766507],[135.48361531294705,34.54888751461529]],[[135.45586255291485,34.53361862745891],[135.4557376208761,34.53309870009917]],[[135.4557376208761,34.53309870009917],[135.455202197853,34.531040212185104]],[[135.46339417010688,34.537470334225944],[135.4618592907739,34.53557100774853]],[[135.4618592907739,34.53557100774853],[135.45927141282877,34.5354649001241]],[[135.4590393961854,34.53669574856756],[135.4591018622048,34.53723689745218]],[[135.4591018622048,34.53723689745218],[135.4633852463898,34.53766132794993]],[[135.48179487466842,34.55227234783481],[135.4835885417959,34.54892995766507]],[[135.4573795848137,34.55830987166524],[135.4535066916131,34.560028815181106]],[[135.45468462226395,34.5619493631834],[135.4588163032591,34.56010309051821]],[[135.4588163032591,34.56010309051821],[135.4573795848137,34.55830987166524]],[[135.46908750158613,34.543030373746404],[135.4730674793914,34.545958944180846]],[[135.47333519090296,34.54566184283242],[135.47307640310845,34.541035550407]],[[135.47307640310845,34.541035550407],[135.4706402283532,34.54092944278256],[135.46908750158613,34.543030373746404]],[[135.47069377065554,34.5502032491583],[135.47001556815957,34.551826695812174]],[[135.47001556815957,34.551826695812174],[135.47333519090296,34.55157203751353]],[[135.4618592907739,34.53557100774853],[135.46002100506115,34.5333745799227]],[[135.45158809244685,34.529830585266524],[135.44601969300632,34.530997769135325],[135.44773304668033,34.53306686781183]],[[135.41219880537864,34.54351846881881],[135.40854008138726,34.54482359259938],[135.40917366529797,34.54590589036863],[135.40539000926785,34.54742322939807]],[[135.40539000926785,34.54742322939807],[135.40942352937543,34.55450060794797],[135.4158664530871,34.54999103390943],[135.41219880537864,34.54351846881881]],[[135.4557376208761,34.53309870009917],[135.45767406747643,34.532780377225855]],[[135.46223408689008,34.52653063814656],[135.4617432824522,34.526456362809455]],[[135.46151126580887,34.52735827761716],[135.461020461371,34.52943798705611]],[[135.461020461371,34.52943798705611],[135.46268919645973,34.529565316205435]],[[135.44545749883204,34.54273327239798],[135.4453147193592,34.54217090198847]],[[135.4453147193592,34.54217090198847],[135.4434675099294,34.542245177325576]],[[135.4434675099294,34.542245177325576],[135.44560027830488,34.54507825089803]],[[135.44560027830488,34.54507825089803],[135.44620709106442,34.54490847869893]],[[135.44620709106442,34.54490847869893],[135.44638556540545,34.54486603564915]],[[135.44638556540545,34.54486603564915],[135.44545749883204,34.54273327239798]],[[135.46666025054796,34.541184101081214],[135.46908750158613,34.543030373746404]],[[135.47307640310845,34.541035550407],[135.47339765692234,34.54056867685948]],[[135.47339765692234,34.54056867685948],[135.47346904665875,34.53907255935493]],[[135.46653531850922,34.54316831365817],[135.46859669714829,34.54475992802472],[135.4691142727373,34.548611634791754]],[[135.47339765692234,34.54056867685948],[135.47686005913857,34.541417537854976]],[[135.47686005913857,34.541417537854976],[135.4770206860455,34.53934843917847]],[[135.45302481089226,34.55289838281898],[135.45002644196273,34.55395945906334]],[[135.45002644196273,34.55395945906334],[135.45099912712143,34.555773899441206]],[[135.45099912712143,34.555773899441206],[135.45454184279112,34.554861373871056]],[[135.45454184279112,34.554861373871056],[135.45302481089226,34.55289838281898]],[[135.4831602033774,34.546807805176336],[135.48275863611005,34.54443099438897]],[[135.45286418398533,34.53541184631188],[135.453149742931,34.53784171091147]],[[135.453149742931,34.53784171091147],[135.45619273044576,34.53724750821463]],[[135.45619273044576,34.53724750821463],[135.45671922975185,34.53713078982775]],[[135.43864870272122,34.56378502508615],[135.4368104170085,34.56599206367442],[135.43399052242,34.582184087163405],[135.4343831659703,34.58265096071093]],[[135.4343831659703,34.58265096071093],[135.4415489107632,34.58291622977202],[135.44328903558835,34.57674076602982],[135.44500238926238,34.56702130763146]],[[135.45454184279112,34.554861373871056],[135.45572869715906,34.556315048325835]],[[135.45572869715906,34.556315048325835],[135.4598425307201,34.55498870302038]],[[135.4598425307201,34.55498870302038],[135.46104723252216,34.55322731645474],[135.459485582038,34.55285593976921]],[[135.459485582038,34.55285593976921],[135.45854859174756,34.55348197475338]],[[135.45854859174756,34.55348197475338],[135.45454184279112,34.554861373871056]],[[135.48387410074156,34.54240433876223],[135.48413288853607,34.541725249965836]],[[135.48413288853607,34.541725249965836],[135.48411504110197,34.539900198825535],[135.4819108829901,34.53995325263775],[135.48029569020366,34.539051337830045]],[[135.45215028662116,34.551847917337064],[135.45302481089226,34.55289838281898]],[[135.45854859174756,34.55348197475338],[135.45912863335593,34.55186913886195],[135.4575848303059,34.551476540651535]],[[135.4575848303059,34.551476540651535],[135.45677277205417,34.55235723393436],[135.4544883004888,34.55190097114928]],[[135.4544883004888,34.55190097114928],[135.45215028662116,34.551847917337064]],[[135.45900370131722,34.54230884190024],[135.46027979285566,34.545566345970435]],[[135.46027979285566,34.545566345970435],[135.46210915485136,34.54484481412427]],[[135.4585932103328,34.529650202304985],[135.461020461371,34.52943798705611]],[[135.4691142727373,34.548611634791754],[135.4672670633075,34.548717742416194]],[[135.4672670633075,34.548717742416194],[135.4666870216991,34.551646312850636],[135.47001556815957,34.551826695812174]],[[135.43676579842324,34.55962560620824],[135.4304299593162,34.56080340083949],[135.41044083311937,34.56076095778971],[135.40980724920868,34.56371074974904]],[[135.40980724920868,34.56371074974904],[135.43364249745497,34.564962819717394],[135.43839883864376,34.56384868966081]],[[135.461877138208,34.55621955146384],[135.4573795848137,34.55830987166524]],[[135.4588163032591,34.56010309051821],[135.46253749326985,34.5582037640408]],[[135.46253749326985,34.5582037640408],[135.461877138208,34.55621955146384]],[[135.47408478313534,34.50279436256015],[135.4722108025544,34.50272008722305],[135.47127381226392,34.50378116346741],[135.46931059451245,34.50234871053752]],[[135.46931059451245,34.50234871053752],[135.47000664444252,34.503759941942526],[135.46819512988094,34.508609060379264],[135.4678827997841,34.51114503260329]],[[135.4678827997841,34.51114503260329],[135.46999772072547,34.511208697177956]],[[135.46999772072547,34.511208697177956],[135.47156829492664,34.50809974378197]],[[135.47156829492664,34.50809974378197],[135.47453096898795,34.504545138363355],[135.47408478313534,34.50279436256015]],[[135.45468462226395,34.5619493631834],[135.45582685804663,34.56381685737348]],[[135.45582685804663,34.56381685737348],[135.46012808966577,34.561726537172085]],[[135.46012808966577,34.561726537172085],[135.4588163032591,34.56010309051821]],[[135.44938393433497,34.55974232459513],[135.4524983115862,34.55838414700234]],[[135.4524983115862,34.55838414700234],[135.45088311879974,34.55578451020365]],[[135.45088311879974,34.55578451020365],[135.44609108274273,34.55635749137561]],[[135.46070813127417,34.5307006677869],[135.461020461371,34.52943798705611]],[[135.43638207859,34.54262716477355],[135.42631612575516,34.54714734957454]],[[135.42631612575516,34.54714734957454],[135.4306887471107,34.55388518372624],[135.43493643642753,34.55269677833255],[135.43679256957438,34.55552985190501],[135.4409510217207,34.55424594964932],[135.44081716596492,34.549566603411684],[135.43638207859,34.54262716477355]],[[135.4678827997841,34.51114503260329],[135.46563402308695,34.51108136802863]],[[135.46563402308695,34.51108136802863],[135.46511644749793,34.51107075726619]],[[135.46511644749793,34.51107075726619],[135.46402775401756,34.51420093218706]],[[135.46402775401756,34.51420093218706],[135.46583926857915,34.51514529004454],[135.46884656122575,34.51489063174589]],[[135.46884656122575,34.51489063174589],[135.46873055290405,34.5126305393454],[135.46999772072547,34.511208697177956]],[[135.44502023669648,34.54140692709253],[135.44455620340977,34.54053684457215]],[[135.44455620340977,34.54053684457215],[135.44267329911176,34.540833945920575],[135.4434675099294,34.542245177325576]],[[135.4453147193592,34.54217090198847],[135.44502023669648,34.54140692709253]],[[135.47156829492664,34.50809974378197],[135.47455774013912,34.50838623436795],[135.47810045580883,34.507802642433546]],[[135.47810045580883,34.507802642433546],[135.47832354873512,34.50427986930226]],[[135.47832354873512,34.50427986930226],[135.47785059173137,34.5024654289244],[135.47608369575502,34.5034628405941],[135.47408478313534,34.50279436256015]],[[135.47830570130103,34.511537630813706],[135.47644956815418,34.51660957526176],[135.4729336236356,34.51591987570293]],[[135.4729336236356,34.51591987570293],[135.46884656122575,34.51489063174589]],[[135.46402775401756,34.51420093218706],[135.45951235318918,34.518508901739175]],[[135.45951235318918,34.518508901739175],[135.45916432822415,34.52019601296771]],[[135.45916432822415,34.52019601296771],[135.46077059729353,34.52101304167587],[135.4629390605372,34.52023845601748],[135.46288551823488,34.521288921499405],[135.465812497428,34.52224389011933],[135.4659463531838,34.52334740941347],[135.4706223809191,34.52468436548136]],[[135.4706223809191,34.52468436548136],[135.47128273598096,34.52288053586595],[135.47557504388305,34.520832658714326],[135.48481109103204,34.514232764474386]],[[135.48481109103204,34.514232764474386],[135.48220536565282,34.51259870705807],[135.47830570130103,34.511537630813706]],[[135.46012808966577,34.561726537172085],[135.46342094125802,34.56032591652953],[135.46253749326985,34.5582037640408]],[[135.45099912712143,34.555773899441206],[135.45088311879974,34.55578451020365]],[[135.4524983115862,34.55838414700234],[135.45269463336132,34.5586918591132]],[[135.45269463336132,34.5586918591132],[135.45572869715906,34.556315048325835]],[[135.4693373656636,34.52820713861265],[135.4706223809191,34.52468436548136]],[[135.45916432822415,34.52019601296771],[135.45731711879435,34.52081143718944],[135.45813810076314,34.5217982380967],[135.45595179008538,34.52334740941347],[135.45622842531398,34.52463131166915]],[[135.45246261671798,34.53799026158568],[135.45166840590034,34.53813881225989]],[[135.45166840590034,34.53813881225989],[135.44927684973035,34.53859507504497]],[[135.44927684973035,34.53859507504497],[135.44825954598642,34.53882851181873]],[[135.44825954598642,34.53882851181873],[135.4488038927266,34.539815312725985]],[[135.4488038927266,34.539815312725985],[135.4495445612419,34.541353873280315]],[[135.4495445612419,34.541353873280315],[135.45317651408214,34.54052623380971]],[[135.45317651408214,34.54052623380971],[135.45246261671798,34.53799026158568]],[[135.4561124169923,34.53774621404948],[135.45653183169375,34.539645540526884]],[[135.45653183169375,34.539645540526884],[135.45966405637907,34.539051337830045]],[[135.45925356539468,34.53816003378478],[135.4591554045071,34.53793720777346]],[[135.4591554045071,34.53793720777346],[135.4561124169923,34.53774621404948]],[[135.44814353766472,34.534053668719096],[135.4467871326728,34.53409611176887],[135.4459126084017,34.53609093510827]],[[135.4459126084017,34.53609093510827],[135.44813461394767,34.53884973334362]],[[135.44813461394767,34.53884973334362],[135.44825954598642,34.53882851181873]],[[135.44927684973035,34.53859507504497],[135.44814353766472,34.534053668719096]],[[135.45619273044576,34.53724750821463],[135.4561124169923,34.53774621404948]],[[135.4591554045071,34.53793720777346],[135.4591018622048,34.53723689745218]],[[135.476761898251,34.532196785291454],[135.47666373736342,34.53256816197698]],[[135.47666373736342,34.53256816197698],[135.4792783864597,34.53281220951319]],[[135.4792783864597,34.53281220951319],[135.48221428936986,34.531018990660215],[135.48181272210252,34.53053089558781]],[[135.48181272210252,34.53053089558781],[135.47945686080075,34.5297032561172],[135.476761898251,34.532196785291454]],[[135.45572869715906,34.556315048325835],[135.4573795848137,34.55830987166524]],[[135.461877138208,34.55621955146384],[135.4598425307201,34.55498870302038]],[[135.45653183169375,34.539645540526884],[135.4564515182403,34.539751648151324]],[[135.4564515182403,34.539751648151324],[135.45640689965504,34.540664173721474]],[[135.45002644196273,34.55395945906334],[135.4498836624899,34.553609303902704]],[[135.4498836624899,34.553609303902704],[135.444939923243,34.55505236759504],[135.44448481367334,34.553800297626694]],[[135.44448481367334,34.553800297626694],[135.44405647525485,34.553906405251126]],[[135.44405647525485,34.553906405251126],[135.44535041422742,34.55650604204982]],[[135.47666373736342,34.53256816197698],[135.4755304252978,34.533533741359356],[135.47678866940214,34.535687726135414]],[[135.47995658895567,34.53507230191368],[135.4792783864597,34.53281220951319]],[[135.48489140448552,34.546744140601675],[135.48594440309768,34.5419586867396]],[[135.48594440309768,34.5419586867396],[135.48413288853607,34.541725249965836]],[[135.4564515182403,34.539751648151324],[135.45317651408214,34.54052623380971]],[[135.45317651408214,34.54052623380971],[135.45398857233388,34.542330063425126]],[[135.45398857233388,34.542330063425126],[135.45621950159693,34.541576699291625]],[[135.41990889691172,34.57413051846869],[135.42073880259755,34.5726980655388],[135.42083696348513,34.56968460900481],[135.42945727415753,34.5707032421994],[135.42619119371642,34.58960101011151],[135.4337495820596,34.586683050439504],[135.4343831659703,34.58265096071093]],[[135.40980724920868,34.56371074974904],[135.40788865004245,34.57276173011346]],[[135.40788865004245,34.57276173011346],[135.41990889691172,34.57413051846869]],[[135.45095450853617,34.535337570974775],[135.45166840590034,34.53813881225989]],[[135.45246261671798,34.53799026158568],[135.453149742931,34.53784171091147]],[[135.45430982614778,34.56451716769476],[135.45582685804663,34.56381685737348]],[[135.45616595929462,34.543571522631034],[135.45481847801975,34.544027785416105]],[[135.45481847801975,34.544027785416105],[135.45143638925697,34.54516313699757]],[[135.45143638925697,34.54516313699757],[135.45241799813272,34.54708368499987]],[[135.45241799813272,34.54708368499987],[135.4527214045125,34.54714734957454]],[[135.4527214045125,34.54714734957454],[135.45476493571744,34.5476248338845]],[[135.45476493571744,34.5476248338845],[135.45544313821338,34.54577856121931]],[[135.45544313821338,34.54577856121931],[135.45616595929462,34.543571522631034]],[[135.46334955152162,34.54830392268089],[135.46342094125802,34.54772033074649]],[[135.46342094125802,34.54772033074649],[135.46185036705685,34.5462878778166],[135.45869137122037,34.54756116930984]],[[135.45869137122037,34.54756116930984],[135.4593606499993,34.54866468860397]],[[135.4593606499993,34.54866468860397],[135.459824683286,34.54942866349992]],[[135.459824683286,34.54942866349992],[135.46334955152162,34.54830392268089]],[[135.48361531294705,34.54888751461529],[135.48656013957427,34.54756116930984],[135.48986191488356,34.54245739257445],[135.48594440309768,34.5419586867396]],[[135.45398857233388,34.542330063425126],[135.45481847801975,34.544027785416105]],[[135.45616595929462,34.543571522631034],[135.45610349327526,34.54210723741381]],[[135.4667494877185,34.54748689397273],[135.4672670633075,34.548717742416194]],[[135.46511644749793,34.51107075726619],[135.4638938982618,34.511038924978855]],[[135.4638938982618,34.511038924978855],[135.46185036705685,34.510932817354416],[135.45926248911172,34.512471377908746],[135.45899477760017,34.510805488205094],[135.45786146553453,34.514253985999275],[135.45424736012842,34.51528322995631],[135.45442583446945,34.516577742974434],[135.4573260425114,34.516057815614694],[135.45839688855767,34.518657452413386],[135.45951235318918,34.518508901739175]],[[135.45269463336132,34.5586918591132],[135.4535066916131,34.560028815181106]],[[135.44709053905257,34.546998798900326],[135.44620709106442,34.54490847869893]],[[135.44560027830488,34.54507825089803],[135.44623386221556,34.546351542391264],[135.4422360369762,34.54805987514469]],[[135.4422360369762,34.54805987514469],[135.4426465279606,34.54958782493657]],[[135.4426465279606,34.54958782493657],[135.44665327691703,34.5484524733551],[135.44709053905257,34.546998798900326]],[[135.47995658895567,34.53507230191368],[135.4844273711988,34.53432954854263],[135.48402580393144,34.53161319335706],[135.48181272210252,34.53053089558781]],[[135.4459126084017,34.53609093510827],[135.44605538787454,34.537035292965754],[135.44357459453403,34.5384571351332]],[[135.44357459453403,34.5384571351332],[135.44415463614243,34.53974103738888]],[[135.44415463614243,34.53974103738888],[135.44813461394767,34.53884973334362]],[[135.47830570130103,34.511537630813706],[135.47566428105358,34.511410301664384]],[[135.47566428105358,34.511410301664384],[135.4729336236356,34.51591987570293]],[[135.45729034764318,34.55041546440717],[135.4575848303059,34.551476540651535]],[[135.459485582038,34.55285593976921],[135.4613952574872,34.5522935693597]],[[135.4613952574872,34.5522935693597],[135.459824683286,34.54942866349992]],[[135.459824683286,34.54942866349992],[135.45729034764318,34.55041546440717]],[[135.4495445612419,34.541353873280315],[135.44545749883204,34.54273327239798]],[[135.44638556540545,34.54486603564915],[135.4505975598541,34.54347602576904]],[[135.4505975598541,34.54347602576904],[135.4495445612419,34.541353873280315]],[[135.44948209522255,34.54856919174198],[135.44809891907948,34.549364998925256]],[[135.44809891907948,34.549364998925256],[135.44879496900953,34.5510308886289]],[[135.44879496900953,34.5510308886289],[135.4508741950827,34.550298746020296]],[[135.4508741950827,34.550298746020296],[135.44948209522255,34.54856919174198]],[[135.45544313821338,34.54577856121931],[135.45803101615851,34.546436428490814]],[[135.45803101615851,34.546436428490814],[135.46027979285566,34.545566345970435]],[[135.44357459453403,34.5384571351332],[135.44195047803055,34.53916805621692],[135.43822928801978,34.538987673255384],[135.43907704113974,34.540377683135496],[135.43772955986486,34.540982496594786]],[[135.43772955986486,34.540982496594786],[135.4422360369762,34.54805987514469]],[[135.44455620340977,34.54053684457215],[135.44415463614243,34.53974103738888]],[[135.4498836624899,34.553609303902704],[135.44879496900953,34.5510308886289]],[[135.44879496900953,34.5510308886289],[135.4479650633237,34.55203891106105],[135.44424387331293,34.55309998730541],[135.44448481367334,34.553800297626694]],[[135.4527214045125,34.54714734957454],[135.45364947108592,34.549609046461455]],[[135.45364947108592,34.549609046461455],[135.4537476319735,34.54959843569901]],[[135.4537476319735,34.54959843569901],[135.45729034764318,34.55041546440717]],[[135.4593606499993,34.54866468860397],[135.45476493571744,34.5476248338845]],[[135.44809891907948,34.549364998925256],[135.44378876374327,34.55133860073977]],[[135.44378876374327,34.55133860073977],[135.44405647525485,34.553906405251126]],[[135.45803101615851,34.546436428490814],[135.45869137122037,34.54756116930984]],[[135.46342094125802,34.54772033074649],[135.46342094125802,34.54561939978265]],[[135.44807214792831,34.53341702297247],[135.44814353766472,34.534053668719096]],[[135.47810045580883,34.507802642433546],[135.47751149048338,34.50944731061231],[135.47830570130103,34.511537630813706]],[[135.48481109103204,34.514232764474386],[135.48782730739566,34.51044472228201],[135.48506987882655,34.50953219671186],[135.48440060004765,34.5063808002661],[135.48312450850918,34.505807819094144],[135.48180379838547,34.50332490068234],[135.47958179283947,34.50284741637237],[135.47832354873512,34.50427986930226]],[[135.46999772072547,34.511208697177956],[135.47566428105358,34.511410301664384]],[[135.45215028662116,34.551847917337064],[135.4508741950827,34.550298746020296]],[[135.4537476319735,34.54959843569901],[135.4544883004888,34.55190097114928]],[[135.41990889691172,34.57413051846869],[135.41569690246308,34.59382409356407],[135.4103783671,34.59633884426321]],[[135.4103783671,34.59633884426321],[135.4103783671,34.59633884426321]],[[135.4103783671,34.59633884426321],[135.4088702589182,34.597060376109376]],[[135.4088702589182,34.597060376109376],[135.4088702589182,34.597060376109376]],[[135.4088702589182,34.597060376109376],[135.403872977369,34.59941596537186]],[[135.403872977369,34.59941596537186],[135.403872977369,34.59941596537186]],[[135.403872977369,34.59941596537186],[135.40210608139265,34.599797952819834],[135.40788865004245,34.57276173011346]],[[135.44378876374327,34.55133860073977],[135.4426465279606,34.54958782493657]],[[135.43772955986486,34.540982496594786],[135.43638207859,34.54262716477355]],[[135.42631612575516,34.54714734957454],[135.42533451687942,34.547593001597164],[135.4235140786008,34.54484481412427],[135.414144175696,34.54485542488671],[135.4131625668203,34.543136481370844],[135.41219880537864,34.54351846881881]],[[135.40539000926785,34.54742322939807],[135.40201684422215,34.5487920177533],[135.40141895517965,34.56964216595503],[135.40063366807905,34.6021004882701],[135.4453682616615,34.58416829974036],[135.44733147941298,34.56854925742334],[135.45334606470615,34.56649076950927]],[[135.45398857233388,34.542330063425126],[135.4505975598541,34.54347602576904]],[[135.4505975598541,34.54347602576904],[135.45143638925697,34.54516313699757]],[[135.4613952574872,34.5522935693597],[135.46224301060712,34.55218746173526],[135.46334955152162,34.54830392268089]],[[135.4664817762069,34.50093747913252],[135.4648398122693,34.50059793473432],[135.46617836982713,34.503070242383686],[135.4649736680251,34.5045557491258],[135.46381358480832,34.50314451772079],[135.46425977066093,34.50100114370718],[135.46362618675022,34.498115016322515],[135.46303722142477,34.49982334907594],[135.46125247801436,34.49600347459623],[135.4608152158788,34.49675683872972],[135.46171651130106,34.49991884593793],[135.46425084694388,34.50605186663035],[135.46328708550223,34.509585250524076],[135.4638938982618,34.511038924978855]],[[135.46563402308695,34.51108136802863],[135.46693688577656,34.503006577809025],[135.4664817762069,34.50093747913252]],[[135.44809891907948,34.549364998925256],[135.44709053905257,34.546998798900326]],[[135.476761898251,34.532196785291454],[135.47386169020905,34.53223922834123],[135.47247851406595,34.53324725077338],[135.46986386496968,34.532366557490555],[135.46942660283412,34.533735345845784],[135.46751692738496,34.53324725077338]],[[135.4488038927266,34.539815312725985],[135.44502023669648,34.54140692709253]],[[135.45364947108592,34.549609046461455],[135.4508741950827,34.550298746020296]],[[135.44638556540545,34.54486603564915],[135.4479472158896,34.54660620068991]],[[135.4479472158896,34.54660620068991],[135.45143638925697,34.54516313699757]],[[135.44948209522255,34.54856919174198],[135.4479472158896,34.54660620068991]],[[135.45241799813272,34.54708368499987],[135.45124006748182,34.54683963746367],[135.44948209522255,34.54856919174198]],[[135.46931059451245,34.50234871053752],[135.4664817762069,34.50093747913252]]]}