{"type":"Topology","bbox":[135.06523626908375,34.634492196718554,135.14227369796086,34.71480080242329],"objects":{"town":{"type":"GeometryCollection","geometries":[{"type":"MultiPolygon","arcs":[[[2,60,5,6,7,61,0,62,63,64]]],"properties":{"name":"青葉町"}},{"type":"MultiPolygon","arcs":[[[76,16,75,13,12,8,9,10,14,74,18,77,78,66,67,68]]],"properties":{"name":"磯馴町"}},{"type":"MultiPolygon","arcs":[[[91,87,105,24,25,97,79,20,21,22,80,98,27,28,106,89,92,93]]],"properties":{"name":"稲葉町"}},{"type":"MultiPolygon","arcs":[[[-516,-368,-367,-375,493,-418,31,32,33,-160,-458,625,-184,-552,-427,-330,-484,-513]]],"properties":{"name":"戎町"}},{"type":"MultiPolygon","arcs":[[[100,101,37,38,39,34,35,99,47,48,49,50,51,52,53,54,55]]],"properties":{"name":"板宿町"}},{"type":"MultiPolygon","arcs":[[[94,40,41,42,95,102,103,104,45,57]]],"properties":{"name":"一ノ谷町"}},{"type":"Polygon","arcs":[[69,70,71,72,73]],"properties":{"name":"板宿"}},{"type":"MultiPolygon","arcs":[[[107,112,111,82,83,84,109,110]]],"properties":{"name":"永楽町"}},{"type":"MultiPolygon","arcs":[[[114,115,116,117,451,452,167,168,-179,-178,263,260,598,597,496]]],"properties":{"name":"神の谷"}},{"type":"MultiPolygon","arcs":[[[122,123,402,403,404,401,120,220]]],"properties":{"name":"高尾台"}},{"type":"MultiPolygon","arcs":[[[537,538,517,518,-514,134,135,-352,563,173,174,-281,127,-52,-51,232]]],"properties":{"name":"大手町"}},{"type":"MultiPolygon","arcs":[[[-577,-13,-14,-76,-17,-77,-69,-64,412,519,130,-629,-628,718]]],"properties":{"name":"衣掛町"}},{"type":"MultiPolygon","arcs":[[[-210,265,266,-488,-600,-356,-355,138,139,140,575,-9,576,577,574,136,670,673,264,187,-103,188,189]]],"properties":{"name":"須磨浦通"}},{"type":"MultiPolygon","arcs":[[[320,234,146,147,142,143,144,235,321,322,323,324,325]]],"properties":{"name":"北町"}},{"type":"MultiPolygon","arcs":[[[289,-38,-102,290,291,287,-240,288,149,150,151,285,292]]],"properties":{"name":"川上町"}},{"type":"MultiPolygon","arcs":[[[-602,-601,-433,-440,749,892,154,155,156,-416,-424,494,-390,-357]]],"properties":{"name":"須磨寺町"}},{"type":"MultiPolygon","arcs":[[[326,327,328,329,426,551,183,-626,457,159,-34,694,-558,-554,161,458,-230,-229,185,186,-527,428,331]]],"properties":{"name":"大田町"}},{"type":"MultiPolygon","arcs":[[[-96,-43,-224,163,164,-285,-284,-251,383,-266,209,-190,-189]]],"properties":{"name":"潮見台町"}},{"type":"MultiPolygon","arcs":[[[491,359,360,-297,-296,-463,-462,-474,-779,-817,334,335,181,176,177,178,-169,-168,-453,641]]],"properties":{"name":"北落合"}},{"type":"MultiPolygon","arcs":[[[752,410,255,256,257,258,-386,207,208,197,198,199,191,192,715]]],"properties":{"name":"菅の台"}},{"type":"MultiPolygon","arcs":[[[203,204,-40,200,201,499,500,501,502,503]]],"properties":{"name":"菊池町"}},{"type":"MultiPolygon","arcs":[[[-289,239,240,241,347,348,-84,-83,-112,213,-151,-150]]],"properties":{"name":"神撫町"}},{"type":"MultiPolygon","arcs":[[[217,543,544,545,546,547,548,380,381,382,377,-691]]],"properties":{"name":"外浜町"}},{"type":"MultiPolygon","arcs":[[[-164,223,-42,221,438,439,-432,-282]]],"properties":{"name":"高倉町"}},{"type":"MultiPolygon","arcs":[[[271,341,476,226,527,520,521,522,523,-363,524,525,-332,-429,526,-187,-186,228,229,230,477,343,273,274]]],"properties":{"name":"大池町"}},{"type":"MultiPolygon","arcs":[[[449,488,489,336,337,310,762,761,312,313,243,549,-307,550]]],"properties":{"name":"高倉台"}},{"type":"MultiPolygon","arcs":[[[644,-63,-1,-62,-8,249,247,624,559,560,645]]],"properties":{"name":"鷹取町"}},{"type":"MultiPolygon","arcs":[[[281,282,252,-431,486,487,-267,-384,250,283,284,-165]]],"properties":{"name":"関守町"}},{"type":"MultiPolygon","arcs":[[[475,269,-731,-78,-19,-75,-15,-11,618,619,620]]],"properties":{"name":"村雨町"}},{"type":"Polygon","arcs":[[-175,275,276,277,278,-71,279,-53,-128,280]],"properties":{"name":"大手"}},{"type":"MultiPolygon","arcs":[[[461,462,295,296,297,424,479,480,481,654,655,656,555,472,473]]],"properties":{"name":"白川台"}},{"type":"MultiPolygon","arcs":[[[415,-157,302,303,304,305,300,416,421,422,423]]],"properties":{"name":"桜木町"}},{"type":"Polygon","arcs":[[306,307,308,309]],"properties":{"name":"多井畑字池ノ奥上"}},{"type":"MultiPolygon","arcs":[[[-422,-417,-301,-306,316,317,318,445,446,447]]],"properties":{"name":"離宮前町"}},{"type":"MultiPolygon","arcs":[[[-528,-227,-477,-342,-272,578,579,346,675,-635]]],"properties":{"name":"千歳町"}},{"type":"MultiPolygon","arcs":[[[512,483,-329,484,353,350,351,-136,-135,513,514,-369,515]]],"properties":{"name":"権現町"}},{"type":"MultiPolygon","arcs":[[[-139,354,355,356,389,390,391,392]]],"properties":{"name":"須磨本町"}},{"type":"MultiPolygon","arcs":[[[-61,-3,-65,-68,361,362,-524,-523,783,-6]]],"properties":{"name":"行平町"}},{"type":"MultiPolygon","arcs":[[[417,-494,374,366,367,368,369,364,375,611,419,535,536,-32]]],"properties":{"name":"大黒町"}},{"type":"MultiPolygon","arcs":[[[818,466,907,897,879,-72,-279,880,-309,-689,-688,855,-531,856]]],"properties":{"name":"横尾"}},{"type":"MultiPolygon","arcs":[[[604,605,606,-742,-776,-775,393,-208,385,-259,386,-829]]],"properties":{"name":"竜が台"}},{"type":"MultiPolygon","arcs":[[[-349,-348,-242,396,397,398,399,568,-110,-85]]],"properties":{"name":"禅昌寺町"}},{"type":"MultiPolygon","arcs":[[[599,-487,430,-253,-283,431,432,600,601]]],"properties":{"name":"千守町"}},{"type":"MultiPolygon","arcs":[[[-117,-844,-843,904,888,437,876]]],"properties":{"name":"弥栄台"}},{"type":"MultiPolygon","arcs":[[[507,-446,-319,-318,440,441,442,784,-574,-322,-236,-145]]],"properties":{"name":"月見山町"}},{"type":"Polygon","arcs":[[453,454,-404,455]],"properties":{"name":"奥山畑町"}},{"type":"MultiPolygon","arcs":[[[-678,459,-293,-286,-152,-214,-113,-108,872,-858,-679]]],"properties":{"name":"養老町"}},{"type":"MultiPolygon","arcs":[[[-303,-156,469,826,827,-304]]],"properties":{"name":"離宮西町"}},{"type":"MultiPolygon","arcs":[[[584,585,-686,-685,-200,-199,-198,-209,-394,774,775,741,-607,-659,742,-533,508,509,790]]],"properties":{"name":"友が丘"}},{"type":"MultiPolygon","arcs":[[[-80,-98,-26,-25,-106,-88,-92,-591,-525,-362,-67,-79,730,-270,-476,-621,-620,681,682,-21]]],"properties":{"name":"松風町"}},{"type":"Polygon","arcs":[[530,531,-509,532,533,534]],"properties":{"name":"多井畑字東山ノ上"}},{"type":"Polygon","arcs":[[539,540,541,542]],"properties":{"name":"清水台"}},{"type":"MultiPolygon","arcs":[[[-231,-459,-162,553,557,558,-274,-344,-478]]],"properties":{"name":"寺田町"}},{"type":"MultiPolygon","arcs":[[[-143,567,-81,-23,564,565,830,-447,-508,-144]]],"properties":{"name":"月見山本町"}},{"type":"MultiPolygon","arcs":[[[-615,-276,-174,-564,-896,571,572,-323,573,-785,-443,-747,-454,-613]]],"properties":{"name":"若木町"}},{"type":"MultiPolygon","arcs":[[[850,-789,-665,-849,-802,580,-518,-539,581,582,-874,-840,862,852,853]]],"properties":{"name":"飛松町"}},{"type":"MultiPolygon","arcs":[[[-622,-611,593,-526,590,-94,-734,-616,-697]]],"properties":{"name":"中島町"}},{"type":"MultiPolygon","arcs":[[[695,623,609,-327,-594,610,621,696,615,-325,616]]],"properties":{"name":"戸政町"}},{"type":"Polygon","arcs":[[612,-456,-403,-124,613,-277,614]],"properties":{"name":"上細沢町"}},{"type":"MultiPolygon","arcs":[[[-894,-545,-694,-578,-719,627,628,-131,-520,-413,-645]]],"properties":{"name":"若宮町"}},{"type":"MultiPolygon","arcs":[[[-676,-347,-580,631,844,751,633,-521,634]]],"properties":{"name":"常盤町"}},{"type":"MultiPolygon","arcs":[[[-382,-381,-549,-548,-547,636,757,758,726,728,729]]],"properties":{"name":"小寺町"}},{"type":"MultiPolygon","arcs":[[[901,640,902]]],"properties":{"name":"若草町"}},{"type":"MultiPolygon","arcs":[[[-101,-56,-55,-54,-280,-70,652,-398,-397,-241,-288,-292,-291]]],"properties":{"name":"明神町"}},{"type":"MultiPolygon","arcs":[[[-392,-391,-495,-423,763,737,651,648,-141,-140,-393]]],"properties":{"name":"天神町"}},{"type":"MultiPolygon","arcs":[[[-743,658,-606,659,660,661,-835,722,723,724,883,884,-534]]],"properties":{"name":"南落合"}},{"type":"MultiPolygon","arcs":[[[-515,-519,-581,801,848,664,788,-851,886,-536,-420,-612,-376,-365,-370]]],"properties":{"name":"平田町"}},{"type":"MultiPolygon","arcs":[[[-798,-797,-834,-182,-336,-335,816,-778,813,668,-661,-660,-605,-830]]],"properties":{"name":"中落合"}},{"type":"MultiPolygon","arcs":[[[677,678,857,858,-501,-500,-202,-201,-39,-290,-460]]],"properties":{"name":"宝田町"}},{"type":"Polygon","arcs":[[683,-192,684,685,-586,686,687,688,-308,-550,-244,-314,689]],"properties":{"name":"多井畑"}},{"type":"Polygon","arcs":[[-218,690,-378,691,692,-104,-188,-265,-674,-671,-137,-575,693,-544]],"properties":{"name":""}},{"type":"MultiPolygon","arcs":[[[-655,-482,-481,702,770,701,697,865]]],"properties":{"name":"東白川台"}},{"type":"MultiPolygon","arcs":[[[767,710,711,712,713,714,706,707,708,768,769]]],"properties":{"name":"緑が丘"}},{"type":"Polygon","arcs":[[719,-715]],"properties":{"name":"妙法寺字ぬめり石"}},{"type":"MultiPolygon","arcs":[[[-147,-235,-321,-326,733,-93,-90,-107,-29,-28,-99,-568,-148]]],"properties":{"name":"南町"}},{"type":"MultiPolygon","arcs":[[[743,-707,-720,-714,744,-712,-711,-768,877]]],"properties":{"name":"桜の杜"}},{"type":"Polygon","arcs":[[746,-442,747,-405,-455]],"properties":{"name":"水野町"}},{"type":"MultiPolygon","arcs":[[[-841,-115,-497,-598,-599,-261,-264,-177,833,796,797,829,828,-387,-258,-257,753,754,806]]],"properties":{"name":"西落合"}},{"type":"MultiPolygon","arcs":[[[-540,836,-723,834,-662,-669,-814,777,778,-473,-556,-657,881,-541]]],"properties":{"name":"東落合"}},{"type":"Polygon","arcs":[[-74,787,-399,-653]],"properties":{"name":"妙法寺字アチ口"}},{"type":"MultiPolygon","arcs":[[[-573,811,889,869,800,-354,-485,-328,-610,-624,-696,-617,-324]]],"properties":{"name":"東町"}},{"type":"MultiPolygon","arcs":[[[-565,-22,-683,-682,-619,-10,-576,-649,-652,-738,-764,-448,-831,-566]]],"properties":{"name":"行幸町"}},{"type":"MultiPolygon","arcs":[[[893,-646,-561,-560,-625,-248,824,-729,-727,-759,-758,-637,-546]]],"properties":{"name":"古川町"}},{"type":"MultiPolygon","arcs":[[[-49,-48,-100,-36,-35,-205,-204,-504,-503,870,-853,-863,839,873,-583,-582,-538,-233,-50]]],"properties":{"name":"前池町"}},{"type":"Polygon","arcs":[[840,-807,-755,841,842,843,-116]],"properties":{"name":"緑台"}},{"type":"Polygon","arcs":[[849,-690,-313,-762]],"properties":{"name":"多井畑南町"}},{"type":"Polygon","arcs":[[-585,-791,-510,-532,-856,-687]],"properties":{"name":"多井畑東町"}},{"type":"MultiPolygon","arcs":[[[-890,-812,-572,895,-351,-801,-870]]],"properties":{"name":"堀池町"}},{"type":"Polygon","arcs":[[-46,-105,-693,898,-337,-490,899,-827,-470,-155,-893,-750,-439,-222,-41,-95,-58]],"properties":{"name":"西須磨"}},{"type":"Polygon","arcs":[[-278,-614,-123,-221,-121,-402,-748,-441,-317,-305,-828,-900,-489,-450,-551,-310,-881]],"properties":{"name":"東須磨"}},{"type":"Polygon","arcs":[[-725,903,-884]],"properties":{"name":"道正台"}},{"type":"Polygon","arcs":[[905,-702,-771,-703,-480,-425,-298,-361,906]],"properties":{"name":"白川"}},{"type":"Polygon","arcs":[[908,-542,-882,-656,-866,-698,-906,909,-769,-709],[-902,-903,-641]],"properties":{"name":"車"}}]}},"arcs":[[[135.13380643780124,34.648033581778876],[135.1327894420405,34.64737498535246]],[[135.1327894420405,34.64737498535246],[135.13202669521993,34.6481701200624]],[[135.13202669521993,34.6481701200624],[135.13305910000736,34.64882068482509]],[[135.13305910000736,34.64882068482509],[135.13380643780124,34.648033581778876]],[[135.13470016134858,34.64859579824046],[135.13394511904136,34.64939896461414]],[[135.13394511904136,34.64939896461414],[135.13489277418205,34.64996921273946]],[[135.13489277418205,34.64996921273946],[135.13571715710933,34.64927848965809]],[[135.13571715710933,34.64927848965809],[135.13470016134858,34.64859579824046]],[[135.12671828552934,34.64471650465556],[135.12612503800221,34.64466831467314]],[[135.12612503800221,34.64466831467314],[135.12548556339507,34.64532691109956]],[[135.12548556339507,34.64532691109956],[135.1264563320758,34.645985507525985]],[[135.1264563320758,34.645985507525985],[135.12728841951642,34.64515824616109]],[[135.12728841951642,34.64515824616109],[135.12671828552934,34.64471650465556]],[[135.12818214306375,34.645776684268824],[135.12728841951642,34.64515824616109]],[[135.1264563320758,34.645985507525985],[135.1273654646498,34.64659591396998]],[[135.1273654646498,34.64659591396998],[135.12818214306375,34.645776684268824]],[[135.13003893077845,34.64704568713925],[135.1290604575844,34.64637102738535]],[[135.1290604575844,34.64637102738535],[135.1282514836838,34.647198288750246]],[[135.1282514836838,34.647198288750246],[135.12922995687785,34.64784885351293]],[[135.12922995687785,34.64784885351293],[135.13003893077845,34.64704568713925]],[[135.1241064555074,34.646812768890875],[135.12332059514682,34.64617023579193]],[[135.12332059514682,34.64617023579193],[135.12261177991962,34.64693324384693]],[[135.12261177991962,34.64693324384693],[135.12352091249363,34.64751955529972]],[[135.12352091249363,34.64751955529972],[135.1241064555074,34.646812768890875]],[[135.1268107396894,34.64863595655914],[135.1268492622561,34.64859579824046]],[[135.1268492622561,34.64859579824046],[135.12594783419541,34.64802555011514]],[[135.12594783419541,34.64802555011514],[135.12530065507494,34.64866808321409]],[[135.12530065507494,34.64866808321409],[135.1253160641016,34.64867611487783]],[[135.1253160641016,34.64867611487783],[135.1261558560556,34.6493025846493]],[[135.1261558560556,34.6493025846493],[135.1268107396894,34.64863595655914]],[[135.13674956189678,34.65895664446099],[135.13596370153618,34.65979193748962]],[[135.13596370153618,34.65979193748962],[135.13685742508352,34.6604184072611]],[[135.13685742508352,34.6604184072611],[135.13771262606414,34.65956705090499]],[[135.13771262606414,34.65956705090499],[135.13674956189678,34.65895664446099]],[[135.1314103341528,34.662080961654624],[135.1315644244196,34.66181591675131]],[[135.1315644244196,34.66181591675131],[135.13078626857234,34.66132598526336]],[[135.13078626857234,34.66132598526336],[135.12964600059817,34.66351862946352]],[[135.12964600059817,34.66351862946352],[135.1301467939652,34.66303672963931]],[[135.1301467939652,34.66303672963931],[135.13116378972595,34.66229781657552]],[[135.13116378972595,34.66229781657552],[135.1314103341528,34.662080961654624]],[[135.10347376878542,34.64395349660056],[135.10549235128028,34.64607385582709],[135.10463715029962,34.64764806191951]],[[135.10463715029962,34.64764806191951],[135.10586216792055,34.64591322255235]],[[135.10586216792055,34.64591322255235],[135.10547694225357,34.643359153484035],[135.10620887102078,34.64241141716309]],[[135.10620887102078,34.64241141716309],[135.10347376878542,34.64395349660056]],[[135.10117011929705,34.63841968028587],[135.09919776388227,34.63737556400008]],[[135.09919776388227,34.63737556400008],[135.09876631113528,34.63922284665956],[135.1002532822097,34.64044365954756]],[[135.1002532822097,34.64044365954756],[135.10117011929705,34.63841968028587]],[[135.13027777069198,34.660916370412785],[135.13044726998544,34.66075573713805]],[[135.13044726998544,34.66075573713805],[135.12967681865152,34.66033809062373]],[[135.12967681865152,34.66033809062373],[135.1288447312109,34.65990438078194]],[[135.1288447312109,34.65990438078194],[135.12694171641616,34.66098062372268]],[[135.12694171641616,34.66098062372268],[135.12547785888174,34.66032202729625]],[[135.12547785888174,34.66032202729625],[135.1254470408284,34.66320539457779],[135.12467658949447,34.665574735380154]],[[135.12467658949447,34.665574735380154],[135.125824561982,34.66535788045926]],[[135.125824561982,34.66535788045926],[135.12879079961752,34.663847927676734]],[[135.12879079961752,34.663847927676734],[135.12909127563776,34.66360697776462]],[[135.12909127563776,34.66360697776462],[135.13027777069198,34.660916370412785]],[[135.1002532822097,34.64044365954756],[135.10100832451693,34.642467638809244]],[[135.10100832451693,34.642467638809244],[135.10382817639902,34.63983325310356]],[[135.10382817639902,34.63983325310356],[135.10117011929705,34.63841968028587]],[[135.13305910000736,34.64882068482509],[135.13394511904136,34.64939896461414]],[[135.13470016134858,34.64859579824046],[135.13380643780124,34.648033581778876]],[[135.1327894420405,34.64737498535246],[135.13207292229995,34.64690111719198]],[[135.13207292229995,34.64690111719198],[135.13159524247294,34.648017518451404]],[[135.13159524247294,34.648017518451404],[135.13202669521993,34.6481701200624]],[[135.1309326543258,34.647656093583244],[135.1301082713985,34.64845925995693]],[[135.1301082713985,34.64845925995693],[135.1311560852126,34.64903753974598]],[[135.1311560852126,34.64903753974598],[135.13159524247294,34.648017518451404]],[[135.13159524247294,34.648017518451404],[135.1309326543258,34.647656093583244]],[[135.12377516143383,34.66718909979126],[135.12461495338778,34.665759463646104]],[[135.12461495338778,34.665759463646104],[135.11954538361067,34.66665097832089]],[[135.11954538361067,34.66665097832089],[135.11972258741747,34.667687062942946]],[[135.11972258741747,34.667687062942946],[135.12010010857108,34.667687062942946]],[[135.12010010857108,34.667687062942946],[135.12296618753322,34.668570545954],[135.12377516143383,34.66718909979126]],[[135.1273654646498,34.64659591396998],[135.1282514836838,34.647198288750246]],[[135.1290604575844,34.64637102738535],[135.12818214306375,34.645776684268824]],[[135.1309326543258,34.647656093583244],[135.13003893077845,34.64704568713925]],[[135.12922995687785,34.64784885351293],[135.12914520723112,34.64793720181404]],[[135.12914520723112,34.64793720181404],[135.1301082713985,34.64845925995693]],[[135.12503099710807,34.64743120699862],[135.1241064555074,34.646812768890875]],[[135.12352091249363,34.64751955529972],[135.12439152250093,34.648073740097566]],[[135.12439152250093,34.648073740097566],[135.12503099710807,34.64743120699862]],[[135.130778564059,34.66638593341757],[135.13069381441227,34.66649837670989]],[[135.13069381441227,34.66649837670989],[135.12983861343164,34.66705256150773]],[[135.12983861343164,34.66705256150773],[135.13094035883913,34.66738185972095]],[[135.13094035883913,34.66738185972095],[135.13150278831287,34.6668276749231]],[[135.13150278831287,34.6668276749231],[135.130778564059,34.66638593341757]],[[135.12869064094411,34.64990495942956],[135.12780462191014,34.64931061631304]],[[135.12780462191014,34.64931061631304],[135.12718055632968,34.64993708608451]],[[135.12718055632968,34.64993708608451],[135.12822837014377,34.65040292258125]],[[135.12822837014377,34.65040292258125],[135.12869064094411,34.64990495942956]],[[135.12909127563776,34.65044308089993],[135.12869064094411,34.64990495942956]],[[135.12822837014377,34.65040292258125],[135.12837475589723,34.650667967484566]],[[135.12837475589723,34.650667967484566],[135.12909127563776,34.65044308089993]],[[135.10100832451693,34.642467638809244],[135.10347376878542,34.64395349660056]],[[135.10620887102078,34.64241141716309],[135.1062705071275,34.64164037744435]],[[135.1062705071275,34.64164037744435],[135.10382817639902,34.63983325310356]],[[135.12594783419541,34.64802555011514],[135.12503099710807,34.64743120699862]],[[135.12439152250093,34.648073740097566],[135.12530065507494,34.64866808321409]],[[135.13078626857234,34.66132598526336],[135.13027777069198,34.660916370412785]],[[135.12909127563776,34.66360697776462],[135.12938404714464,34.6637756427031]],[[135.12938404714464,34.6637756427031],[135.12964600059817,34.66351862946352]],[[135.1062705071275,34.64164037744435],[135.10690998173465,34.64017861464424]],[[135.10690998173465,34.64017861464424],[135.102464477538,34.63715870907919],[135.0982732222816,34.63590576953624]],[[135.0982732222816,34.63590576953624],[135.09919776388227,34.63737556400008]],[[135.12780462191014,34.64931061631304],[135.1268107396894,34.64863595655914]],[[135.1261558560556,34.6493025846493],[135.12718055632968,34.64993708608451]],[[135.13238110283353,34.66666704164837],[135.1319650591132,34.6663698700901]],[[135.1319650591132,34.6663698700901],[135.13150278831287,34.6668276749231]],[[135.13094035883913,34.66738185972095],[135.13206521778662,34.6691166990881]],[[135.13206521778662,34.6691166990881],[135.13238110283353,34.66666704164837]],[[135.1315104928262,34.6654542604241],[135.130778564059,34.66638593341757]],[[135.1319650591132,34.6663698700901],[135.1315104928262,34.6654542604241]],[[135.08166999603594,34.686063509572854],[135.08240192480315,34.685533419766216]],[[135.08240192480315,34.685533419766216],[135.08153901930916,34.68469812673759]],[[135.08153901930916,34.68469812673759],[135.081307883909,34.68565389472227]],[[135.081307883909,34.68565389472227],[135.0796668225678,34.687420860744375],[135.0805220235484,34.68966169492696]],[[135.0805220235484,34.68966169492696],[135.0823556977231,34.69120377436443]],[[135.0823556977231,34.69120377436443],[135.08363464693738,34.68922798508517]],[[135.08363464693738,34.68922798508517],[135.08093806726873,34.687605589010325],[135.08166999603594,34.686063509572854]],[[135.1193296572372,34.65662746197731],[135.11835118404312,34.658081193113674]],[[135.11835118404312,34.658081193113674],[135.12066253804485,34.65872372621262]],[[135.12066253804485,34.65872372621262],[135.12075499220492,34.65849883962799]],[[135.12075499220492,34.65849883962799],[135.12063942450482,34.65710936180152]],[[135.12063942450482,34.65710936180152],[135.1193296572372,34.65662746197731]],[[135.12694171641616,34.66098062372268],[135.12660271782926,34.66038628060615]],[[135.12660271782926,34.66038628060615],[135.12464577144112,34.65970358918852]],[[135.12464577144112,34.65970358918852],[135.12547785888174,34.66032202729625]],[[135.12990024953837,34.64552770269298],[135.1290604575844,34.64637102738535]],[[135.13003893077845,34.64704568713925],[135.13092494981245,34.646162204128196]],[[135.13092494981245,34.646162204128196],[135.12990024953837,34.64552770269298]],[[135.1288678447509,34.65627406877289],[135.12755037296995,34.65752700831583]],[[135.12755037296995,34.65752700831583],[135.12869834545745,34.65833820635326]],[[135.12869834545745,34.65833820635326],[135.13045497449878,34.65770370491804]],[[135.13045497449878,34.65770370491804],[135.1294765013047,34.65683628523446]],[[135.1294765013047,34.65683628523446],[135.1288678447509,34.65627406877289]],[[135.1223960535461,34.64221062556967],[135.1196301332574,34.641238794257504],[135.11815857120965,34.641768884064135]],[[135.11815857120965,34.641768884064135],[135.11754991465585,34.64383302164451]],[[135.11754991465585,34.64383302164451],[135.11884427289684,34.64394546493682]],[[135.11884427289684,34.64394546493682],[135.11969947387746,34.64399365491924]],[[135.11969947387746,34.64399365491924],[135.1218952601791,34.64415428819398]],[[135.1218952601791,34.64415428819398],[135.1223960535461,34.64221062556967]],[[135.12319732293338,34.64946321792404],[135.12312798231332,34.64940699627788]],[[135.12312798231332,34.64940699627788],[135.12230359938604,34.6503707959263]],[[135.12230359938604,34.6503707959263],[135.1233591177135,34.651326563910985]],[[135.1233591177135,34.651326563910985],[135.12427595480085,34.65003346604935]],[[135.12427595480085,34.65003346604935],[135.12412186453406,34.649945117748246]],[[135.12412186453406,34.649945117748246],[135.12319732293338,34.64946321792404]],[[135.13098658591915,34.66461093573173],[135.13057054219885,34.665084803892206]],[[135.13057054219885,34.665084803892206],[135.1311560852126,34.665406070441676]],[[135.1311560852126,34.665406070441676],[135.13137181158612,34.66528559548563]],[[135.13137181158612,34.66528559548563],[135.13098658591915,34.66461093573173]],[[135.11429090551346,34.64791310682283],[135.11420615586673,34.64797736013272]],[[135.11420615586673,34.64797736013272],[135.1117946431916,34.650467175891144]],[[135.1117946431916,34.650467175891144],[135.1138440437398,34.65123018394615]],[[135.1138440437398,34.65123018394615],[135.1146992447204,34.64934274296799]],[[135.1146992447204,34.64934274296799],[135.11456826799366,34.64914195137457]],[[135.11456826799366,34.64914195137457],[135.11429090551346,34.64791310682283]],[[135.13678037995012,34.657567166634514],[135.1359482925095,34.65845064964557]],[[135.1359482925095,34.65845064964557],[135.13674956189678,34.65895664446099]],[[135.13674956189678,34.65895664446099],[135.13765098995742,34.65799284481257]],[[135.13765098995742,34.65799284481257],[135.13678037995012,34.657567166634514]],[[135.1071796397015,34.64466831467314],[135.1068406411146,34.64555982934793]],[[135.1068406411146,34.64555982934793],[135.10828908962233,34.64625858409303]],[[135.10828908962233,34.64625858409303],[135.1099378554769,34.64531887943583]],[[135.1099378554769,34.64531887943583],[135.1071796397015,34.64466831467314]],[[135.08363464693738,34.68922798508517],[135.0853142308453,34.68958137828959]],[[135.0853142308453,34.68958137828959],[135.08642368076613,34.68801520386091]],[[135.08642368076613,34.68801520386091],[135.08646220333281,34.68795095055101]],[[135.08646220333281,34.68795095055101],[135.0846439381848,34.68775015895759]],[[135.0846439381848,34.68775015895759],[135.08166999603594,34.686063509572854]],[[135.12644862756247,34.65771173658178],[135.12755037296995,34.65752700831583]],[[135.12755037296995,34.65752700831583],[135.1264332185358,34.65635438541025]],[[135.1264332185358,34.65635438541025],[135.12485379330127,34.658273953043356]],[[135.12485379330127,34.658273953043356],[135.12504640613474,34.65847474463678]],[[135.12504640613474,34.65847474463678],[135.12644862756247,34.65771173658178]],[[135.09064575407592,34.683123920645166],[135.08926664618824,34.68430457521448]],[[135.08926664618824,34.68430457521448],[135.08774885706043,34.68611973121901]],[[135.08774885706043,34.68611973121901],[135.08646220333281,34.68795095055101]],[[135.08642368076613,34.68801520386091],[135.09093082106946,34.68875411692469]],[[135.09093082106946,34.68875411692469],[135.09177831753675,34.685533419766216],[135.09335003825794,34.68403953031117]],[[135.09335003825794,34.68403953031117],[135.09064575407592,34.683123920645166]],[[135.13370627912784,34.655527124045356],[135.1328279646072,34.6563865120652]],[[135.1328279646072,34.6563865120652],[135.13403757320143,34.657229836757566]],[[135.13403757320143,34.657229836757566],[135.13492359223542,34.656346353746514]],[[135.13492359223542,34.656346353746514],[135.13483113807536,34.65628210043662]],[[135.13483113807536,34.65628210043662],[135.13370627912784,34.655527124045356]],[[135.11029996760382,34.64102193933661],[135.11044635335728,34.640427596220086],[135.10690998173465,34.64017861464424]],[[135.1062705071275,34.64164037744435],[135.10856645210254,34.64268449373014]],[[135.10856645210254,34.64268449373014],[135.10984540131682,34.643021823607086]],[[135.10984540131682,34.643021823607086],[135.11029996760382,34.64102193933661]],[[135.0860846821792,34.66736579639347],[135.08481343747826,34.66681161159563]],[[135.08481343747826,34.66681161159563],[135.08209374426957,34.664546682421836]],[[135.08209374426957,34.664546682421836],[135.08117690718223,34.6659120652571],[135.081739336656,34.66840188101553]],[[135.081739336656,34.66840188101553],[135.08463623367146,34.67014475204642]],[[135.08463623367146,34.67014475204642],[135.08558388881218,34.67057043022447]],[[135.08558388881218,34.67057043022447],[135.0856070023522,34.67057846188821]],[[135.0856070023522,34.67057846188821],[135.08632352209273,34.669903802134314]],[[135.08632352209273,34.669903802134314],[135.0870477463466,34.668377786024315]],[[135.0870477463466,34.668377786024315],[135.0860846821792,34.66736579639347]],[[135.13116378972595,34.66229781657552],[135.13155671990626,34.66254679815136]],[[135.13155671990626,34.66254679815136],[135.13218849000006,34.66293231801073]],[[135.13218849000006,34.66293231801073],[135.1326122382337,34.662466481513995]],[[135.1326122382337,34.662466481513995],[135.13262764726036,34.662450418186516]],[[135.13262764726036,34.662450418186516],[135.1314103341528,34.662080961654624]],[[135.08558388881218,34.67057043022447],[135.08459771110478,34.67191974973226],[135.08536816243867,34.673397575859845]],[[135.08536816243867,34.673397575859845],[135.08642368076613,34.673759000728]],[[135.08642368076613,34.673759000728],[135.08755624422696,34.67122099498716]],[[135.08755624422696,34.67122099498716],[135.0856070023522,34.67057846188821]],[[135.11115516858445,34.64329490017414],[135.10984540131682,34.643021823607086]],[[135.10856645210254,34.64268449373014],[135.10745700218172,34.64383302164451]],[[135.10745700218172,34.64383302164451],[135.10999178707027,34.64429082647751]],[[135.10999178707027,34.64429082647751],[135.11115516858445,34.64329490017414]],[[135.1315104928262,34.6654542604241],[135.13137181158612,34.66528559548563]],[[135.1311560852126,34.665406070441676],[135.13012368042519,34.66603254021315]],[[135.13012368042519,34.66603254021315],[135.13069381441227,34.66649837670989]],[[135.1374044455306,34.64334309015656],[135.13525488630899,34.64273268371256]],[[135.13525488630899,34.64273268371256],[135.1343303447083,34.643857116635715]],[[135.1343303447083,34.643857116635715],[135.13683431154348,34.64453980805335]],[[135.13683431154348,34.64453980805335],[135.1374044455306,34.64334309015656]],[[135.11835118404312,34.658081193113674],[135.11986897317092,34.65939838596652],[135.12066253804485,34.65872372621262]],[[135.10463715029962,34.64764806191951],[135.10625509810083,34.64830665834593],[135.10697161784137,34.647198288750246]],[[135.10697161784137,34.647198288750246],[135.10828908962233,34.64625858409303]],[[135.1068406411146,34.64555982934793],[135.10586216792055,34.64591322255235]],[[135.1071796397015,34.64466831467314],[135.10745700218172,34.64383302164451]],[[135.13652613100993,34.65616162548057],[135.13728117331715,34.65539058576183]],[[135.13728117331715,34.65539058576183],[135.13631810914978,34.65477214765409]],[[135.13631810914978,34.65477214765409],[135.13483113807536,34.65628210043662]],[[135.13492359223542,34.656346353746514],[135.135732566136,34.656892506880624]],[[135.135732566136,34.656892506880624],[135.13575567967604,34.656908570208095]],[[135.13575567967604,34.656908570208095],[135.13652613100993,34.65616162548057]],[[135.12769675872337,34.65938232263905],[135.12660271782926,34.66038628060615]],[[135.1288447312109,34.65990438078194],[135.12881391315756,34.65988028579073]],[[135.12881391315756,34.65988028579073],[135.12769675872337,34.65938232263905]],[[135.12508492870145,34.65042701757246],[135.12427595480085,34.65003346604935]],[[135.1233591177135,34.651326563910985],[135.12365959373372,34.65159964047804]],[[135.12365959373372,34.65159964047804],[135.12508492870145,34.65042701757246]],[[135.1290450485577,34.66670719996705],[135.12960747803146,34.66632971177142]],[[135.12960747803146,34.66632971177142],[135.1296537051115,34.66526150049442]],[[135.1296537051115,34.66526150049442],[135.1295535464381,34.66526150049442]],[[135.1295535464381,34.66526150049442],[135.12782773545015,34.66724532143742]],[[135.12782773545015,34.66724532143742],[135.12879850413088,34.667309574747314]],[[135.12879850413088,34.667309574747314],[135.1290450485577,34.66670719996705]],[[135.09999132875618,34.657952686493886],[135.1000760784029,34.66039431226989],[135.10148600434397,34.66112519366994],[135.10283429417828,34.65988028579073]],[[135.10283429417828,34.65988028579073],[135.1036278590522,34.65785630652904]],[[135.1036278590522,34.65785630652904],[135.10249529559138,34.656699746950935]],[[135.10249529559138,34.656699746950935],[135.09999132875618,34.657952686493886]],[[135.1363412226898,34.64864398822288],[135.135277999849,34.64799342346019]],[[135.135277999849,34.64799342346019],[135.13470016134858,34.64859579824046]],[[135.13571715710933,34.64927848965809],[135.1363412226898,34.64864398822288]],[[135.1122106869119,34.64398562325551],[135.1108855106176,34.645286752780876]],[[135.1108855106176,34.645286752780876],[135.11176382513824,34.645985507525985]],[[135.11176382513824,34.645985507525985],[135.11324309169933,34.644917296248984]],[[135.11324309169933,34.644917296248984],[135.1122106869119,34.64398562325551]],[[135.0844050982713,34.673558209134576],[135.0815852463892,34.673919634002736]],[[135.0815852463892,34.673919634002736],[135.08136952001573,34.67493162363358],[135.08340351153723,34.67600786657432]],[[135.08340351153723,34.67600786657432],[135.08614631828593,34.67710017284253]],[[135.08614631828593,34.67710017284253],[135.08619254536595,34.67698772955021]],[[135.08619254536595,34.67698772955021],[135.0864776123595,34.675132415227004]],[[135.0864776123595,34.675132415227004],[135.0846824607515,34.674787053686316],[135.0844050982713,34.673558209134576]],[[135.08695529218653,34.68355763048695],[135.08686283802646,34.68372629542543]],[[135.08686283802646,34.68372629542543],[135.08552225270546,34.68577436967833]],[[135.08552225270546,34.68577436967833],[135.08774885706043,34.68611973121901]],[[135.08926664618824,34.68430457521448],[135.08695529218653,34.68355763048695]],[[135.11294261567912,34.641415490859714],[135.11029996760382,34.64102193933661]],[[135.11115516858445,34.64329490017414],[135.11254968549883,34.64358404006867]],[[135.11254968549883,34.64358404006867],[135.11325079621267,34.64372861001593]],[[135.11325079621267,34.64372861001593],[135.11294261567912,34.641415490859714]],[[135.1273654646498,34.64659591396998],[135.12697253446953,34.64696537050188]],[[135.12697253446953,34.64696537050188],[135.12802034828363,34.64743120699862]],[[135.12802034828363,34.64743120699862],[135.1282514836838,34.647198288750246]],[[135.14005479811922,34.65720574176636],[135.1392843467853,34.6566917152872]],[[135.1392843467853,34.6566917152872],[135.13852159996475,34.65747078666968]],[[135.13852159996475,34.65747078666968],[135.13929975581198,34.6579767814851]],[[135.13929975581198,34.6579767814851],[135.14005479811922,34.65720574176636]],[[135.12485379330127,34.658273953043356],[135.1237905704605,34.6576715782631]],[[135.1237905704605,34.6576715782631],[135.12215721363262,34.6586755362302]],[[135.12215721363262,34.6586755362302],[135.1207704012316,34.6605067555622],[135.11828184342306,34.66150268186557],[135.11700289420878,34.665759463646104]],[[135.11700289420878,34.665759463646104],[135.11954538361067,34.66665097832089]],[[135.12461495338778,34.665759463646104],[135.12467658949447,34.665574735380154]],[[135.12464577144112,34.65970358918852],[135.12504640613474,34.65847474463678]],[[135.10828908962233,34.64625858409303],[135.11020751344375,34.6472304154052]],[[135.11020751344375,34.6472304154052],[135.11176382513824,34.645985507525985]],[[135.1108855106176,34.645286752780876],[135.110076536717,34.645286752780876]],[[135.110076536717,34.645286752780876],[135.1099378554769,34.64531887943583]],[[135.13098658591915,34.66461093573173],[135.1301082713985,34.664048719270156]],[[135.1301082713985,34.664048719270156],[135.12933011555126,34.66457880907679]],[[135.12933011555126,34.66457880907679],[135.1295535464381,34.66526150049442]],[[135.1296537051115,34.66526150049442],[135.13057054219885,34.665084803892206]],[[135.1302469526386,34.66309295128547],[135.1301467939652,34.66303672963931]],[[135.12938404714464,34.6637756427031],[135.1292761839579,34.66444227079326]],[[135.1292761839579,34.66444227079326],[135.12933011555126,34.66457880907679]],[[135.1301082713985,34.664048719270156],[135.1302469526386,34.66309295128547]],[[135.10026869123638,34.69166157919744],[135.097487361921,34.69218363734033]],[[135.097487361921,34.69218363734033],[135.09593875473985,34.693034993696436]],[[135.09593875473985,34.693034993696436],[135.0952222349993,34.69362933681296]],[[135.0952222349993,34.69362933681296],[135.09724081749414,34.69586213933181],[135.09616989014,34.69617537421754]],[[135.09616989014,34.69617537421754],[135.09741802130094,34.697163268857175]],[[135.09741802130094,34.697163268857175],[135.0986507434352,34.69515535292296],[135.10045359955652,34.69432809155807]],[[135.10045359955652,34.69432809155807],[135.10026869123638,34.69166157919744]],[[135.11764236881592,34.649591724543825],[135.1176731868693,34.6495194395702]],[[135.1176731868693,34.6495194395702],[135.11456826799366,34.64914195137457]],[[135.1146992447204,34.64934274296799],[135.11634801057497,34.65139081722088]],[[135.11634801057497,34.65139081722088],[135.1164096466817,34.65139884888462]],[[135.1164096466817,34.65139884888462],[135.11674864526861,34.65143097553957]],[[135.11674864526861,34.65143097553957],[135.11764236881592,34.649591724543825]],[[135.10409012985255,34.6604184072611],[135.10394374409913,34.66051478722594]],[[135.10394374409913,34.66051478722594],[135.1049068082665,34.66269136809863]],[[135.1049068082665,34.66269136809863],[135.10706407200144,34.66449046077568]],[[135.10706407200144,34.66449046077568],[135.10770354660858,34.66110913034247],[135.10409012985255,34.6604184072611]],[[135.1018866390376,34.65433843781231],[135.10138584567056,34.654161741210096]],[[135.10138584567056,34.654161741210096],[135.09921317290895,34.65579216894867]],[[135.09921317290895,34.65579216894867],[135.0962623443001,34.6565391136762],[135.09680936474714,34.65891648614231]],[[135.09680936474714,34.65891648614231],[135.09946742184914,34.65715755178394],[135.09999132875618,34.657952686493886]],[[135.10249529559138,34.656699746950935],[135.10260315877812,34.6559287072322]],[[135.10260315877812,34.6559287072322],[135.1018866390376,34.65433843781231]],[[135.11674864526861,34.65143097553957],[135.1192757256438,34.651856653717616]],[[135.1192757256438,34.651856653717616],[135.12077810574493,34.650973170706564]],[[135.12077810574493,34.650973170706564],[135.12151773902548,34.649800547800986]],[[135.12151773902548,34.649800547800986],[135.11946063396394,34.65041095424498],[135.11764236881592,34.649591724543825]],[[135.12510804224146,34.65044308089993],[135.12508492870145,34.65042701757246]],[[135.12365959373372,34.65159964047804],[135.124029410374,34.65193697035499]],[[135.124029410374,34.65193697035499],[135.12408334196738,34.65192893869125]],[[135.12408334196738,34.65192893869125],[135.12555490401513,34.65158357715057]],[[135.12555490401513,34.65158357715057],[135.1266335358826,34.65122215228241]],[[135.1266335358826,34.65122215228241],[135.12510804224146,34.65044308089993]],[[135.13047808803879,34.653446923137516],[135.13010056688518,34.65441875444967]],[[135.13010056688518,34.65441875444967],[135.13029317971865,34.65531026912446]],[[135.13029317971865,34.65531026912446],[135.13045497449878,34.655503029054145]],[[135.13045497449878,34.655503029054145],[135.13094035883913,34.65510947753104]],[[135.13094035883913,34.65510947753104],[135.13174933273973,34.654258121174934]],[[135.13174933273973,34.654258121174934],[135.13047808803879,34.653446923137516]],[[135.09093082106946,34.68875411692469],[135.09435162499202,34.68836056540159]],[[135.09435162499202,34.68836056540159],[135.09432080693864,34.68611973121901],[135.09531468915938,34.684521430135376]],[[135.09531468915938,34.684521430135376],[135.09531468915938,34.68451339847164]],[[135.09531468915938,34.68451339847164],[135.09335003825794,34.68403953031117]],[[135.10364326807888,34.65346298646499],[135.10335820108534,34.65396898128041]],[[135.10335820108534,34.65396898128041],[135.1018866390376,34.65433843781231]],[[135.10260315877812,34.6559287072322],[135.104213402066,34.65534239577941],[135.10517646623336,34.65658730365862]],[[135.10517646623336,34.65658730365862],[135.1070178449214,34.653414796482565]],[[135.1070178449214,34.653414796482565],[135.10364326807888,34.65346298646499]],[[135.1392843467853,34.6566917152872],[135.13825194199788,34.656025087197044]],[[135.13825194199788,34.656025087197044],[135.137504604204,34.65681219024325]],[[135.137504604204,34.65681219024325],[135.13852159996475,34.65747078666968]],[[135.13905321138515,34.655173730840936],[135.13825194199788,34.656025087197044]],[[135.1392843467853,34.6566917152872],[135.1400702071459,34.655832327267355]],[[135.1400702071459,34.655832327267355],[135.13905321138515,34.655173730840936]],[[135.12879850413088,34.667309574747314],[135.12908357112443,34.668337627705625]],[[135.12908357112443,34.668337627705625],[135.12983861343164,34.66705256150773]],[[135.12983861343164,34.66705256150773],[135.1290450485577,34.66670719996705]],[[135.1297307502449,34.65527011080578],[135.1281898475771,34.65563956733767]],[[135.1281898475771,34.65563956733767],[135.1288678447509,34.65627406877289]],[[135.1294765013047,34.65683628523446],[135.13009286237184,34.65579216894867]],[[135.13009286237184,34.65579216894867],[135.1297307502449,34.65527011080578]],[[135.11754991465585,34.64383302164451],[135.1152308561408,34.64367238836977]],[[135.1152308561408,34.64367238836977],[135.11503824330734,34.64428279481377]],[[135.11503824330734,34.64428279481377],[135.11574705853454,34.64503777120503]],[[135.11574705853454,34.64503777120503],[135.11754991465585,34.64383302164451]],[[135.0952222349993,34.69362933681296],[135.092987926131,34.694175489947064]],[[135.092987926131,34.694175489947064],[135.09399721737842,34.696143247562595]],[[135.09399721737842,34.696143247562595],[135.09616989014,34.69617537421754]],[[135.1311560852126,34.64903753974598],[135.13107904007921,34.64919014135698]],[[135.13107904007921,34.64919014135698],[135.13220389902673,34.64968810450867]],[[135.13220389902673,34.64968810450867],[135.13305910000736,34.64882068482509]],[[135.13264305628707,34.65877994785878],[135.13270469239376,34.658812074513726]],[[135.13270469239376,34.658812074513726],[135.13342891664763,34.65805709812246]],[[135.13342891664763,34.65805709812246],[135.13379102877457,34.65747078666968]],[[135.13379102877457,34.65747078666968],[135.13195735459988,34.657245900085044]],[[135.13195735459988,34.657245900085044],[135.13164917406633,34.658129383096096]],[[135.13164917406633,34.658129383096096],[135.13264305628707,34.65877994785878]],[[135.1074955247484,34.66913276241558],[135.10647852898765,34.670594525215684]],[[135.10647852898765,34.670594525215684],[135.10852022502252,34.67167076815642]],[[135.10852022502252,34.67167076815642],[135.1093446079498,34.66963072556726]],[[135.1093446079498,34.66963072556726],[135.1074955247484,34.66913276241558]],[[135.1341531409015,34.65857915626536],[135.13342891664763,34.65805709812246]],[[135.13270469239376,34.658812074513726],[135.13348284824102,34.659302006001674]],[[135.13348284824102,34.659302006001674],[135.1341531409015,34.65857915626536]],[[135.13970809501896,34.64225078388835],[135.1381594878378,34.641809042382825]],[[135.1381594878378,34.641809042382825],[135.1374044455306,34.64334309015656]],[[135.13683431154348,34.64453980805335],[135.1364182678232,34.64566424097651]],[[135.1364182678232,34.64566424097651],[135.13741215004393,34.645792747596296]],[[135.13741215004393,34.645792747596296],[135.13814407881114,34.64608991915456]],[[135.13814407881114,34.64608991915456],[135.13970809501896,34.64225078388835]],[[135.1122106869119,34.64398562325551],[135.11254968549883,34.64358404006867]],[[135.10999178707027,34.64429082647751],[135.110076536717,34.645286752780876]],[[135.08642368076613,34.673759000728],[135.0864776123595,34.675132415227004]],[[135.08619254536595,34.67698772955021],[135.08908944238144,34.67777483259643]],[[135.08908944238144,34.67777483259643],[135.08749460812027,34.67684315960295],[135.08912026043478,34.67540549179405]],[[135.08912026043478,34.67540549179405],[135.08642368076613,34.673759000728]],[[135.11574705853454,34.64503777120503],[135.11641735119503,34.646467407350194]],[[135.11641735119503,34.646467407350194],[135.11659455500183,34.64637102738535]],[[135.11659455500183,34.64637102738535],[135.1175730281959,34.64543132272814]],[[135.1175730281959,34.64543132272814],[135.11884427289684,34.64394546493682]],[[135.0899677569021,34.67159848318279],[135.08755624422696,34.67122099498716]],[[135.08912026043478,34.67540549179405],[135.0903838006224,34.67432924885332]],[[135.0903838006224,34.67432924885332],[135.08913566946148,34.67364655743569],[135.0899677569021,34.67159848318279]],[[135.12782773545015,34.66724532143742],[135.12739628270316,34.668377786024315]],[[135.12739628270316,34.668377786024315],[135.12593242516874,34.66962269390353]],[[135.12593242516874,34.66962269390353],[135.12895259439765,34.67332529088621]],[[135.12895259439765,34.67332529088621],[135.12938404714464,34.67327710090379]],[[135.12938404714464,34.67327710090379],[135.12963829608483,34.67049011358711],[135.12908357112443,34.668337627705625]],[[135.11875181873677,34.65548696572667],[135.1193296572372,34.65662746197731]],[[135.12063942450482,34.65710936180152],[135.12119414946523,34.656900538544356]],[[135.12119414946523,34.656900538544356],[135.11983815511755,34.65628210043662]],[[135.11983815511755,34.65628210043662],[135.11875181873677,34.65548696572667]],[[135.12644862756247,34.65771173658178],[135.12769675872337,34.65938232263905]],[[135.12769675872337,34.65938232263905],[135.12869834545745,34.65833820635326]],[[135.10542301066022,34.657261963412516],[135.10517646623336,34.65658730365862]],[[135.1036278590522,34.65785630652904],[135.10542301066022,34.657261963412516]],[[135.08463623367146,34.67014475204642],[135.08241733382982,34.67122902665089]],[[135.08241733382982,34.67122902665089],[135.0815852463892,34.673919634002736]],[[135.0844050982713,34.673558209134576],[135.08536816243867,34.673397575859845]],[[135.13207292229995,34.64690111719198],[135.13175703725307,34.64670032559856]],[[135.13175703725307,34.64670032559856],[135.1309326543258,34.647656093583244]],[[135.1185052743099,34.64833075333714],[135.11624785190156,34.6477765685393]],[[135.11624785190156,34.6477765685393],[135.11456826799366,34.64914195137457]],[[135.1176731868693,34.6495194395702],[135.1185052743099,34.64833075333714]],[[135.13596370153618,34.65979193748962],[135.13518554568893,34.65926184768299]],[[135.13518554568893,34.65926184768299],[135.1345306620551,34.65996863409183]],[[135.1345306620551,34.65996863409183],[135.13533963595572,34.66048266057099]],[[135.13533963595572,34.66048266057099],[135.13596370153618,34.65979193748962]],[[135.1185052743099,34.64833075333714],[135.1188211593568,34.64794523347777]],[[135.1188211593568,34.64794523347777],[135.11692584907541,34.64696537050188]],[[135.11692584907541,34.64696537050188],[135.11624785190156,34.6477765685393]],[[135.09741802130094,34.697163268857175],[135.0993672631757,34.697307838804434],[135.10258774975145,34.69639222913844],[135.10241054594465,34.695420397826275]],[[135.10241054594465,34.695420397826275],[135.10045359955652,34.69432809155807]],[[135.13094035883913,34.65510947753104],[135.13203439973327,34.65581626393988]],[[135.13203439973327,34.65581626393988],[135.13265846531374,34.654852464291466]],[[135.13265846531374,34.654852464291466],[135.13174933273973,34.654258121174934]],[[135.1359482925095,34.65845064964557],[135.13518554568893,34.65926184768299]],[[135.11338947745278,34.64501367621382],[135.11324309169933,34.644917296248984]],[[135.11020751344375,34.6472304154052],[135.110985669291,34.647358922024985]],[[135.110985669291,34.647358922024985],[135.11279622992566,34.647720346893145]],[[135.11279622992566,34.647720346893145],[135.11338947745278,34.64501367621382]],[[135.07711662865256,34.69132424932049],[135.07341846224983,34.689541219970906]],[[135.07341846224983,34.689541219970906],[135.0718159234753,34.687629684001536]],[[135.0718159234753,34.687629684001536],[135.0712072669215,34.68791882389606]],[[135.0712072669215,34.68791882389606],[135.06523626908375,34.691123457727066],[135.06854920981954,34.693179563643696],[135.0706910645278,34.693332165254695],[135.07301782755619,34.69133228098422],[135.07628454121195,34.69293861373159],[135.07711662865256,34.69132424932049]],[[135.10697161784137,34.647198288750246],[135.10967590202335,34.64905360307346]],[[135.10967590202335,34.64905360307346],[135.110985669291,34.647358922024985]],[[135.1192757256438,34.651856653717616],[135.1198073370642,34.653053371614405]],[[135.1198073370642,34.653053371614405],[135.120439107158,34.652724073401195]],[[135.120439107158,34.652724073401195],[135.12208787301256,34.65243493350667]],[[135.12208787301256,34.65243493350667],[135.12144069389208,34.6509812023703]],[[135.12144069389208,34.6509812023703],[135.12077810574493,34.650973170706564]],[[135.12151773902548,34.649800547800986],[135.1216024886722,34.64973629449109]],[[135.1216024886722,34.64973629449109],[135.12126349008528,34.64943109126909]],[[135.12126349008528,34.64943109126909],[135.1188211593568,34.64794523347777]],[[135.10542301066022,34.657261963412516],[135.10674048244118,34.65841852299062]],[[135.10674048244118,34.65841852299062],[135.10943706210986,34.656394543728936]],[[135.10943706210986,34.656394543728936],[135.1070178449214,34.653414796482565]],[[135.0823556977231,34.69120377436443],[135.0848596645583,34.69170976917985]],[[135.0848596645583,34.69170976917985],[135.0853142308453,34.68958137828959]],[[135.12305093717995,34.655848390594834],[135.12134053521868,34.65423402618372]],[[135.12134053521868,34.65423402618372],[135.11983815511755,34.65628210043662]],[[135.12119414946523,34.656900538544356],[135.12305093717995,34.655848390594834]],[[135.135732566136,34.656892506880624],[135.13490818320872,34.657775989891675]],[[135.13490818320872,34.657775989891675],[135.1359482925095,34.65845064964557]],[[135.13678037995012,34.657567166634514],[135.13575567967604,34.656908570208095]],[[135.13073233697898,34.66338209118],[135.1302469526386,34.66309295128547]],[[135.1301082713985,34.664048719270156],[135.13073233697898,34.66338209118]],[[135.09627775332677,34.68809552049827],[135.09435162499202,34.68836056540159]],[[135.09435162499202,34.68836056540159],[135.0953763252661,34.69268963215575],[135.09593875473985,34.693034993696436]],[[135.097487361921,34.69218363734033],[135.09627775332677,34.68809552049827]],[[135.11298884275917,34.67136556493442],[135.10852022502252,34.67167076815642]],[[135.10852022502252,34.67167076815642],[135.10720275324152,34.67315662594774]],[[135.10720275324152,34.67315662594774],[135.10832761218904,34.67424090055221]],[[135.10832761218904,34.67424090055221],[135.11127073628455,34.67381522237416],[135.1122492094786,34.67212857298942]],[[135.1122492094786,34.67212857298942],[135.11298884275917,34.67136556493442]],[[135.1138440437398,34.65123018394615],[135.1139056798465,34.65123821560988]],[[135.1139056798465,34.65123821560988],[135.11634801057497,34.65139081722088]],[[135.10026869123638,34.69166157919744],[135.0990667871555,34.68753330403669]],[[135.0990667871555,34.68753330403669],[135.09893581042874,34.68756543069164]],[[135.09893581042874,34.68756543069164],[135.09627775332677,34.68809552049827]],[[135.1264563320758,34.645985507525985],[135.12594783419541,34.64650756566888]],[[135.12594783419541,34.64650756566888],[135.12697253446953,34.64696537050188]],[[135.13825194199788,34.656025087197044],[135.13728117331715,34.65539058576183]],[[135.13652613100993,34.65616162548057],[135.137504604204,34.65681219024325]],[[135.10266479488484,34.691613389215014],[135.10026869123638,34.69166157919744]],[[135.10241054594465,34.695420397826275],[135.10355081391882,34.69389438171628]],[[135.10355081391882,34.69389438171628],[135.10378965383234,34.69187040245459]],[[135.10378965383234,34.69187040245459],[135.10382047188568,34.69184630746338]],[[135.10382047188568,34.69184630746338],[135.10266479488484,34.691613389215014]],[[135.13122542583267,34.65645879703883],[135.13045497449878,34.655503029054145]],[[135.13029317971865,34.65531026912446],[135.13009286237184,34.65579216894867]],[[135.13045497449878,34.65770370491804],[135.13122542583267,34.65645879703883]],[[135.11338947745278,34.64501367621382],[135.11446040480692,34.64399365491924]],[[135.11446040480692,34.64399365491924],[135.11325079621267,34.64372861001593]],[[135.10943706210986,34.656394543728936],[135.11271148027896,34.65555121903657]],[[135.11271148027896,34.65555121903657],[135.1076496150152,34.65160767214178],[135.10325804241194,34.650298510952666],[135.10364326807888,34.65346298646499]],[[135.09093082106946,34.68875411692469],[135.09112343390294,34.69244868224364],[135.09188618072352,34.692858297094226]],[[135.09188618072352,34.692858297094226],[135.092987926131,34.694175489947064]],[[135.13490818320872,34.657775989891675],[135.1341531409015,34.65857915626536]],[[135.1341531409015,34.65857915626536],[135.13518554568893,34.65926184768299]],[[135.11692584907541,34.64696537050188],[135.11641735119503,34.646467407350194]],[[135.11641735119503,34.646467407350194],[135.11429090551346,34.64791310682283]],[[135.08364235145072,34.684657968418904],[135.08240192480315,34.685533419766216]],[[135.0846439381848,34.68775015895759],[135.0854914346521,34.685846654651954]],[[135.0854914346521,34.685846654651954],[135.08364235145072,34.684657968418904]],[[135.13218849000006,34.66293231801073],[135.13287419168722,34.66336602785252]],[[135.13287419168722,34.66336602785252],[135.1335213708077,34.6637756427031]],[[135.1335213708077,34.6637756427031],[135.13427641311492,34.6630126346481]],[[135.13427641311492,34.6630126346481],[135.1334212121343,34.66250663983268]],[[135.1334212121343,34.66250663983268],[135.1326122382337,34.662466481513995]],[[135.13012368042519,34.66603254021315],[135.12960747803146,34.66632971177142]],[[135.08552225270546,34.68577436967833],[135.0854914346521,34.685846654651954]],[[135.12144069389208,34.6509812023703],[135.12230359938604,34.6503707959263]],[[135.12230359938604,34.6503707959263],[135.1216024886722,34.64973629449109]],[[135.10314247471186,34.66952631393868],[135.10273413550487,34.66782360122647]],[[135.10273413550487,34.66782360122647],[135.09943660379577,34.666265458461524]],[[135.09943660379577,34.666265458461524],[135.09818076812152,34.669245205707895]],[[135.09818076812152,34.669245205707895],[135.10314247471186,34.66952631393868]],[[135.13144885671952,34.656699746950935],[135.13122542583267,34.65645879703883]],[[135.13045497449878,34.65770370491804],[135.1312870619394,34.658466712973045]],[[135.1312870619394,34.658466712973045],[135.13164917406633,34.658129383096096]],[[135.13195735459988,34.657245900085044],[135.13144885671952,34.656699746950935]],[[135.12869834545745,34.65833820635326],[135.1305243151188,34.65923775269178]],[[135.1305243151188,34.65923775269178],[135.13082479113905,34.658940581133514]],[[135.13082479113905,34.658940581133514],[135.1312870619394,34.658466712973045]],[[135.13175703725307,34.64670032559856],[135.13092494981245,34.646162204128196]],[[135.13714249207706,34.653928822961724],[135.13796687500434,34.65315778324299]],[[135.13796687500434,34.65315778324299],[135.1342070724949,34.65070009413951]],[[135.1342070724949,34.65070009413951],[135.13317466770744,34.65020213098783]],[[135.13317466770744,34.65020213098783],[135.13220389902673,34.64968810450867]],[[135.13107904007921,34.64919014135698],[135.13079397308567,34.64981661112846]],[[135.13079397308567,34.64981661112846],[135.13047808803879,34.653446923137516]],[[135.13265846531374,34.654852464291466],[135.13370627912784,34.655527124045356]],[[135.13631810914978,34.65477214765409],[135.13714249207706,34.653928822961724]],[[135.12446856763432,34.64641118570403],[135.1241064555074,34.646812768890875]],[[135.12503099710807,34.64743120699862],[135.12446856763432,34.64641118570403]],[[135.1055616919003,34.670915791765154],[135.10286511223165,34.667454144694574]],[[135.10286511223165,34.667454144694574],[135.10273413550487,34.66782360122647]],[[135.10314247471186,34.66952631393868],[135.10337361011202,34.669871675479364]],[[135.10337361011202,34.669871675479364],[135.103758835779,34.67143784990805]],[[135.103758835779,34.67143784990805],[135.1055616919003,34.670915791765154]],[[135.13533963595572,34.66048266057099],[135.13622565498972,34.661052908696306]],[[135.13622565498972,34.661052908696306],[135.13685742508352,34.6604184072611]],[[135.12881391315756,34.65988028579073],[135.13013138493852,34.659655399206095]],[[135.13013138493852,34.659655399206095],[135.1305243151188,34.65923775269178]],[[135.1077882962553,34.67869847392616],[135.1073568435083,34.6823689442539]],[[135.1073568435083,34.6823689442539],[135.1061472349141,34.68392708701885]],[[135.1061472349141,34.68392708701885],[135.1090364274162,34.68507561493322],[135.1090903590096,34.681180258020845]],[[135.1090903590096,34.681180258020845],[135.1077882962553,34.67869847392616]],[[135.1343303447083,34.643857116635715],[135.13302057744067,34.64504580286877]],[[135.13302057744067,34.64504580286877],[135.13292041876727,34.64516627782483]],[[135.13292041876727,34.64516627782483],[135.1336754610745,34.64535903775451]],[[135.1336754610745,34.64535903775451],[135.13455377559515,34.645455417719354]],[[135.13455377559515,34.645455417719354],[135.13607926923626,34.645632114321565]],[[135.13607926923626,34.645632114321565],[135.1364182678232,34.64566424097651]],[[135.10283429417828,34.65988028579073],[135.10394374409913,34.66051478722594]],[[135.10409012985255,34.6604184072611],[135.10674048244118,34.65841852299062]],[[135.13203439973327,34.65581626393988],[135.1328279646072,34.6563865120652]],[[135.137504604204,34.65681219024325],[135.13678037995012,34.657567166634514]],[[135.13765098995742,34.65799284481257],[135.13788982987094,34.658137414759835]],[[135.13788982987094,34.658137414759835],[135.13852159996475,34.65747078666968]],[[135.10133961859052,34.68680242263664],[135.0990667871555,34.68753330403669]],[[135.10266479488484,34.691613389215014],[135.10133961859052,34.68680242263664]],[[135.13788982987094,34.658137414759835],[135.1386294631515,34.65865144123899]],[[135.1386294631515,34.65865144123899],[135.13929975581198,34.6579767814851]],[[135.13434575373498,34.64746333365356],[135.1340760957681,34.64731073204256]],[[135.1340760957681,34.64731073204256],[135.13329023540754,34.646836863882086]],[[135.13329023540754,34.646836863882086],[135.1327894420405,34.64737498535246]],[[135.13380643780124,34.648033581778876],[135.13434575373498,34.64746333365356]],[[135.1281898475771,34.65563956733767],[135.1264332185358,34.65635438541025]],[[135.12261177991962,34.64693324384693],[135.12162560221222,34.648547608258035]],[[135.12162560221222,34.648547608258035],[135.1218182150457,34.64865201988662]],[[135.1218182150457,34.64865201988662],[135.12312798231332,34.64940699627788]],[[135.12319732293338,34.64946321792404],[135.12439152250093,34.648073740097566]],[[135.12938404714464,34.67327710090379],[135.13141803866614,34.672377554565266],[135.13206521778662,34.6691166990881]],[[135.12245768965283,34.652346585205564],[135.1242451367475,34.65495687592004]],[[135.1242451367475,34.65495687592004],[135.12550097242175,34.653768189686986],[135.12713432924963,34.65469183101673]],[[135.12713432924963,34.65469183101673],[135.1254932679084,34.65323006821662]],[[135.1254932679084,34.65323006821662],[135.12408334196738,34.65192893869125]],[[135.124029410374,34.65193697035499],[135.12245768965283,34.652346585205564]],[[135.12758889553663,34.64234716385319],[135.12455331728106,34.641455649178404],[135.1223960535461,34.64221062556967]],[[135.1218952601791,34.64415428819398],[135.12612503800221,34.64466831467314]],[[135.12671828552934,34.64471650465556],[135.12724989694973,34.644764694637985]],[[135.12724989694973,34.644764694637985],[135.12758889553663,34.64234716385319]],[[135.14005479811922,34.65720574176636],[135.14087147653316,34.656378480401465]],[[135.14087147653316,34.656378480401465],[135.1400702071459,34.655832327267355]],[[135.1318032643331,34.65945460761267],[135.13082479113905,34.658940581133514]],[[135.13013138493852,34.659655399206095],[135.13011597591185,34.659671462533574]],[[135.13011597591185,34.659671462533574],[135.13101740397252,34.66024171065889]],[[135.13101740397252,34.66024171065889],[135.1318032643331,34.65945460761267]],[[135.09714065882073,34.66495629727242],[135.09669379704707,34.664731410687786]],[[135.09669379704707,34.664731410687786],[135.09525305305266,34.66449046077568],[135.09498339508582,34.666466250054945],[135.09333462923124,34.665574735380154],[135.09338085631128,34.667839664553945]],[[135.09338085631128,34.667839664553945],[135.09282613135088,34.66927733236284]],[[135.09282613135088,34.66927733236284],[135.09292629002428,34.66927733236284]],[[135.09292629002428,34.66927733236284],[135.096578229347,34.668851654184785]],[[135.096578229347,34.668851654184785],[135.09564598323297,34.6678958862001],[135.09714065882073,34.66495629727242]],[[135.13079397308567,34.64981661112846],[135.12909127563776,34.65044308089993]],[[135.12837475589723,34.650667967484566],[135.1292222523645,34.65131853224725]],[[135.1292222523645,34.65131853224725],[135.13003893077845,34.6531818782342]],[[135.13003893077845,34.6531818782342],[135.13047808803879,34.653446923137516]],[[135.11303506983919,34.67027325866621],[135.11311211497258,34.671180836668476]],[[135.11311211497258,34.671180836668476],[135.1163326015483,34.67022506868379],[135.11752680111584,34.66862676760015]],[[135.11752680111584,34.66862676760015],[135.1139442024132,34.66825731106826],[135.11303506983919,34.67027325866621]],[[135.0851524360652,34.682971319034166],[135.08364235145072,34.684657968418904]],[[135.08686283802646,34.68372629542543],[135.0851524360652,34.682971319034166]],[[135.11503824330734,34.64428279481377],[135.11446040480692,34.64399365491924]],[[135.11279622992566,34.647720346893145],[135.11420615586673,34.64794523347777]],[[135.11420615586673,34.64794523347777],[135.11503824330734,34.64428279481377]],[[135.09260270046403,34.675461713440214],[135.09244861019727,34.67673071631064]],[[135.09244861019727,34.67673071631064],[135.0924563147106,34.67710820450627]],[[135.0924563147106,34.67710820450627],[135.09492946349243,34.676827096275474],[135.09759522510774,34.67740537606453]],[[135.09759522510774,34.67740537606453],[135.09838108546833,34.67399191897637]],[[135.09838108546833,34.67399191897637],[135.09612366305998,34.673373480868634]],[[135.09612366305998,34.673373480868634],[135.09573843739304,34.67514044689074],[135.09260270046403,34.675461713440214]],[[135.1290989801511,34.65265178842757],[135.12839786943724,34.65339873315509]],[[135.12839786943724,34.65339873315509],[135.13010056688518,34.65441875444967]],[[135.13003893077845,34.6531818782342],[135.1290989801511,34.65265178842757]],[[135.13348284824102,34.659302006001674],[135.1345306620551,34.65996863409183]],[[135.12315109585336,34.656009023869565],[135.12305093717995,34.655848390594834]],[[135.12075499220492,34.65849883962799],[135.12215721363262,34.6586755362302]],[[135.1237905704605,34.6576715782631],[135.12315109585336,34.656009023869565]],[[135.12709580668295,34.65149522884946],[135.1266335358826,34.65122215228241]],[[135.12555490401513,34.65158357715057],[135.1264563320758,34.65218595193083]],[[135.1264563320758,34.65218595193083],[135.12709580668295,34.65149522884946]],[[135.12548556339507,34.64532691109956],[135.1248614978146,34.645977475862246]],[[135.1248614978146,34.645977475862246],[135.12483067976126,34.646009602517196]],[[135.12483067976126,34.646009602517196],[135.12594783419541,34.64650756566888]],[[135.1290989801511,34.65265178842757],[135.12828230173716,34.65218595193083]],[[135.12828230173716,34.65218595193083],[135.12755037296995,34.65286864334846]],[[135.12755037296995,34.65286864334846],[135.12839786943724,34.65339873315509]],[[135.135277999849,34.64799342346019],[135.13434575373498,34.64746333365356]],[[135.13490818320872,34.657775989891675],[135.13403757320143,34.657229836757566]],[[135.13403757320143,34.657229836757566],[135.13379102877457,34.65747078666968]],[[135.12897570793766,34.644933359576456],[135.12899111696436,34.644941391240195]],[[135.12899111696436,34.644941391240195],[135.12990024953837,34.64552770269298]],[[135.13092494981245,34.646162204128196],[135.13114067618594,34.64539919607319]],[[135.13114067618594,34.64539919607319],[135.12897570793766,34.644933359576456]],[[135.14087147653316,34.656378480401465],[135.14080984042644,34.65508538253983]],[[135.14080984042644,34.65508538253983],[135.1400702071459,34.655832327267355]],[[135.13883748501163,34.65382441133315],[135.13796687500434,34.65315778324299]],[[135.13714249207706,34.653928822961724],[135.13810555624443,34.6545552927332]],[[135.13810555624443,34.6545552927332],[135.13883748501163,34.65382441133315]],[[135.1336754610745,34.64535903775451],[135.13427641311492,34.645768652605085]],[[135.13427641311492,34.645768652605085],[135.13455377559515,34.645455417719354]],[[135.11121680469117,34.68753330403669],[135.11151728071138,34.686055477909115],[135.11410599719332,34.687107625858644],[135.11378240763307,34.68799914053343]],[[135.11378240763307,34.68799914053343],[135.11624785190156,34.68895490851811]],[[135.11624785190156,34.68895490851811],[135.11715698447557,34.6861839845289],[135.11508447038736,34.68689880260148],[135.11360520382627,34.68510774158817],[135.11006883220367,34.68566995804974],[135.11121680469117,34.68753330403669]],[[135.0848596645583,34.69170976917985],[135.08624647695933,34.692320175623856],[135.08956712220845,34.69174992749854],[135.09188618072352,34.692858297094226]],[[135.1242451367475,34.65495687592004],[135.12315109585336,34.656009023869565]],[[135.1264332185358,34.65635438541025],[135.1242451367475,34.65495687592004]],[[135.1323579892935,34.64623448910182],[135.13207292229995,34.64690111719198]],[[135.13329023540754,34.646836863882086],[135.1323579892935,34.64623448910182]],[[135.12804346182364,34.666410028408784],[135.12879079961752,34.663847927676734]],[[135.125824561982,34.66535788045926],[135.12804346182364,34.666410028408784]],[[135.12182591955903,34.64430688980498],[135.1218952601791,34.64415428819398]],[[135.11969947387746,34.64399365491924],[135.1195684971507,34.64499761288635]],[[135.1195684971507,34.64499761288635],[135.12066253804485,34.64568833596772]],[[135.12066253804485,34.64568833596772],[135.12182591955903,34.64430688980498]],[[135.12377516143383,34.66718909979126],[135.12593242516874,34.66962269390353]],[[135.12739628270316,34.668377786024315],[135.1250541106481,34.66743004970336],[135.12461495338778,34.665759463646104]],[[135.10382047188568,34.69184630746338],[135.10432126525274,34.69149291425896]],[[135.10432126525274,34.69149291425896],[135.10509171658663,34.690031151458854],[135.10506860304662,34.68719597415975]],[[135.10506860304662,34.68719597415975],[135.10133961859052,34.68680242263664]],[[135.09994510167616,34.67431318552585],[135.0998988745961,34.67430515386211]],[[135.0998988745961,34.67430515386211],[135.09838108546833,34.67399191897637]],[[135.09759522510774,34.67740537606453],[135.09763374767445,34.67744553438322]],[[135.09763374767445,34.67744553438322],[135.0997756023827,34.677911370879954]],[[135.0997756023827,34.677911370879954],[135.09978330689603,34.677879244225004]],[[135.09978330689603,34.677879244225004],[135.09994510167616,34.67431318552585]],[[135.13348284824102,34.659302006001674],[135.13277403301382,34.66009714071162]],[[135.13277403301382,34.66009714071162],[135.13371398364117,34.660699515491885]],[[135.13371398364117,34.660699515491885],[135.1345306620551,34.65996863409183]],[[135.09763374767445,34.67744553438322],[135.09659363837366,34.680521661594426]],[[135.09659363837366,34.680521661594426],[135.09904367361548,34.68093127644501]],[[135.09904367361548,34.68093127644501],[135.0997756023827,34.677911370879954]],[[135.11420615586673,34.64794523347777],[135.11420615586673,34.64797736013272]],[[135.11815857120965,34.641768884064135],[135.11593196685467,34.64116650928388],[135.1155621502144,34.64219456224219]],[[135.1155621502144,34.64219456224219],[135.1152308561408,34.64367238836977]],[[135.13203439973327,34.65581626393988],[135.13144885671952,34.656699746950935]],[[135.1155621502144,34.64219456224219],[135.11294261567912,34.641415490859714]],[[135.13810555624443,34.6545552927332],[135.13728117331715,34.65539058576183]],[[135.13905321138515,34.655173730840936],[135.13810555624443,34.6545552927332]],[[135.13155671990626,34.66254679815136],[135.13073233697898,34.66338209118]],[[135.13073233697898,34.66338209118],[135.13160294698628,34.66392021265036]],[[135.13160294698628,34.66392021265036],[135.13207292229995,34.664201320881155]],[[135.13207292229995,34.664201320881155],[135.13287419168722,34.66336602785252]],[[135.12446856763432,34.64641118570403],[135.12483067976126,34.646009602517196]],[[135.1248614978146,34.645977475862246],[135.12391384267391,34.645455417719354]],[[135.12391384267391,34.645455417719354],[135.12332059514682,34.64617023579193]],[[135.09197093037025,34.65665155696852],[135.0890046927347,34.65785630652904],[135.08711708696663,34.65992044410941],[135.0872095411267,34.661068972023784],[135.08481343747826,34.66681161159563]],[[135.0860846821792,34.66736579639347],[135.08802621954064,34.6656068620351],[135.08983678017532,34.66600041355821]],[[135.08983678017532,34.66600041355821],[135.09274908621748,34.6669160232242],[135.09338085631128,34.667839664553945]],[[135.09669379704707,34.664731410687786],[135.0957538464197,34.66328571121515],[135.09821158617487,34.662964444665676],[135.10227956921787,34.66534984879552],[135.10308854311847,34.66674735828573]],[[135.10308854311847,34.66674735828573],[135.10438290135943,34.664530619094364]],[[135.10438290135943,34.664530619094364],[135.1049068082665,34.66269136809863]],[[135.09680936474714,34.65891648614231],[135.09511437181257,34.6605067555622],[135.09479848676565,34.658796011186254],[135.09197093037025,34.65665155696852]],[[135.13525488630899,34.64273268371256],[135.13698840181027,34.64133517422235],[135.1381594878378,34.641809042382825]],[[135.13970809501896,34.64225078388835],[135.14227369796086,34.636588460953874],[135.1109702602643,34.635407806384556],[135.0940126264051,34.63486165325045]],[[135.0940126264051,34.63486165325045],[135.0982732222816,34.63590576953624]],[[135.12758889553663,34.64234716385319],[135.13207292229995,34.64238732217188],[135.13221160354007,34.64118257261135],[135.13406839125477,34.641094224310244],[135.1347617974553,34.642692525393876],[135.1328896007139,34.64347159677635],[135.13302057744067,34.64504580286877]],[[135.13771262606414,34.65956705090499],[135.1386294631515,34.65865144123899]],[[135.1264563320758,34.65218595193083],[135.12755037296995,34.65286864334846]],[[135.12828230173716,34.65218595193083],[135.12709580668295,34.65149522884946]],[[135.11170989354488,34.694030919999804],[135.11081616999755,34.69172583250733],[135.10933690343646,34.69096282445233]],[[135.10933690343646,34.69096282445233],[135.10915969962966,34.692850265430486]],[[135.10915969962966,34.692850265430486],[135.1085818611292,34.6944887248328]],[[135.1085818611292,34.6944887248328],[135.1073337299683,34.696994603918704]],[[135.1073337299683,34.696994603918704],[135.11091632867095,34.696448450784594],[135.11170989354488,34.694030919999804]],[[135.10355081391882,34.69389438171628],[135.10304231603845,34.69705082556486],[135.10438290135943,34.69720342717586]],[[135.10438290135943,34.69720342717586],[135.1046525593263,34.694223679929486]],[[135.1046525593263,34.694223679929486],[135.10463715029962,34.69274585380191]],[[135.10463715029962,34.69274585380191],[135.10378965383234,34.69187040245459]],[[135.11349734063953,34.6787065055899],[135.11259591257885,34.67868241059869]],[[135.11259591257885,34.67868241059869],[135.1116559619515,34.68028071168232]],[[135.1116559619515,34.68028071168232],[135.11493808463393,34.681373017950534],[135.1169412581021,34.68271430579458]],[[135.1169412581021,34.68271430579458],[135.11606294358143,34.68026464835485]],[[135.11606294358143,34.68026464835485],[135.11436024613351,34.679838970176796]],[[135.11436024613351,34.679838970176796],[135.11407517913995,34.67970243189327]],[[135.11407517913995,34.67970243189327],[135.1138902708198,34.67967030523832]],[[135.1138902708198,34.67967030523832],[135.11395190692653,34.679148247095426]],[[135.11395190692653,34.679148247095426],[135.11349734063953,34.6787065055899]],[[135.08209374426957,34.664546682421836],[135.0790966885807,34.66535788045926],[135.07715515121924,34.6642334475361],[135.0756835891715,34.66669113663958],[135.07715515121924,34.667277448092364],[135.07790248901316,34.67084350679153]],[[135.07790248901316,34.67084350679153],[135.081739336656,34.66840188101553]],[[135.12818214306375,34.645776684268824],[135.12899111696436,34.644941391240195]],[[135.12897570793766,34.644933359576456],[135.12724989694973,34.644764694637985]],[[135.11395190692653,34.679148247095426],[135.11349734063953,34.6787065055899]],[[135.1040361982592,34.67535730181164],[135.1029960889584,34.676048024893]],[[135.1029960889584,34.676048024893],[135.10404390277253,34.67936510201632]],[[135.10404390277253,34.67936510201632],[135.1074724112084,34.678939423838266]],[[135.1074724112084,34.678939423838266],[135.10787304590204,34.677903339216215],[135.10603166721398,34.676513861389736]],[[135.10603166721398,34.676513861389736],[135.1040361982592,34.67535730181164]],[[135.13607926923626,34.645632114321565],[135.13530111338903,34.64644331235898]],[[135.13530111338903,34.64644331235898],[135.13621024596304,34.64705371880299]],[[135.13621024596304,34.64705371880299],[135.13741215004393,34.645792747596296]],[[135.13621024596304,34.64705371880299],[135.137096264997,34.64764003025577]],[[135.137096264997,34.64764003025577],[135.13814407881114,34.64608991915456]],[[135.12914520723112,34.64793720181404],[135.12802034828363,34.64743120699862]],[[135.12802034828363,34.64743120699862],[135.1268492622561,34.64859579824046]],[[135.1261558560556,34.6493025846493],[135.12510804224146,34.65044308089993]],[[135.1266335358826,34.65122215228241],[135.12837475589723,34.650667967484566]],[[135.1195684971507,34.64499761288635],[135.11916015794372,34.645832905914986]],[[135.11916015794372,34.645832905914986],[135.11834347952978,34.6471019087854]],[[135.11834347952978,34.6471019087854],[135.1192140895371,34.64747939698103]],[[135.1192140895371,34.64747939698103],[135.12066253804485,34.64568833596772]],[[135.09818076812152,34.669245205707895],[135.09660904740034,34.668859685848524]],[[135.09660904740034,34.668859685848524],[135.09691722793391,34.67204825635205],[135.0957307328797,34.672016129697106]],[[135.0957307328797,34.672016129697106],[135.09489094092575,34.67313253095653]],[[135.09489094092575,34.67313253095653],[135.09612366305998,34.673373480868634]],[[135.0998988745961,34.67430515386211],[135.1010622561103,34.67196793971468],[135.10337361011202,34.669871675479364]],[[135.11648669181508,34.676706621319425],[135.11555444570106,34.676529924717215],[135.11234166363866,34.6780960991459],[135.11259591257885,34.67868241059869]],[[135.1138902708198,34.67967030523832],[135.11407517913995,34.67970243189327]],[[135.11436024613351,34.679838970176796],[135.11648669181508,34.676706621319425]],[[135.12134053521868,34.65423402618372],[135.120439107158,34.652724073401195]],[[135.1198073370642,34.653053371614405],[135.11758843722257,34.65490868593762],[135.11875181873677,34.65548696572667]],[[135.1113400769046,34.65017000433288],[135.10967590202335,34.64905360307346]],[[135.10967590202335,34.64905360307346],[135.10939853954315,34.65071615746699],[135.1113400769046,34.65017000433288]],[[135.13905321138515,34.655173730840936],[135.1397157995323,34.65444284944088]],[[135.1397157995323,34.65444284944088],[135.13883748501163,34.65382441133315]],[[135.07790248901316,34.67084350679153],[135.0822786525897,34.66997608710795],[135.08241733382982,34.67122902665089]],[[135.08340351153723,34.67600786657432],[135.08432034862457,34.677726642614005],[135.0828102640101,34.67852980898769],[135.07987484442793,34.677421439392006]],[[135.07987484442793,34.677421439392006],[135.07981320832124,34.680015666779006],[135.0833187618905,34.67982290684932]],[[135.0833187618905,34.67982290684932],[135.0856686384589,34.679461481981164]],[[135.0856686384589,34.679461481981164],[135.08614631828593,34.67710017284253]],[[135.13427641311492,34.645768652605085],[135.13503145542217,34.64626661575677]],[[135.13503145542217,34.64626661575677],[135.13530111338903,34.64644331235898]],[[135.11916015794372,34.645832905914986],[135.1175730281959,34.64543132272814]],[[135.11659455500183,34.64637102738535],[135.11834347952978,34.6471019087854]],[[135.09562286969296,34.65369590471336],[135.09698656855394,34.653936854625464],[135.09778013342788,34.65595280222341],[135.09921317290895,34.65579216894867]],[[135.10138584567056,34.654161741210096],[135.09870467502856,34.651832558726404],[135.09623923076006,34.65162373546925],[135.09562286969296,34.65369590471336]],[[135.1188211593568,34.64794523347777],[135.1192140895371,34.64747939698103]],[[135.12828230173716,34.65218595193083],[135.1292222523645,34.65131853224725]],[[135.08632352209273,34.669903802134314],[135.0894977815884,34.669895770470575]],[[135.0894977815884,34.669895770470575],[135.08793376538057,34.66738989138468],[135.0870477463466,34.668377786024315]],[[135.1171646889889,34.679806843521845],[135.11606294358143,34.68026464835485]],[[135.1169412581021,34.68271430579458],[135.1201848582178,34.683485345513326]],[[135.1201848582178,34.683485345513326],[135.12165642026557,34.68114009970216],[135.11882886387014,34.68096340309995],[135.1171646889889,34.679806843521845]],[[135.10438290135943,34.69720342717586],[135.1073337299683,34.696994603918704]],[[135.1085818611292,34.6944887248328],[135.1046525593263,34.694223679929486]],[[135.09282613135088,34.66927733236284],[135.09096934363617,34.66943796563758]],[[135.09096934363617,34.66943796563758],[135.0894977815884,34.669895770470575]],[[135.0899677569021,34.67159848318279],[135.09378919551824,34.672867486053214]],[[135.09378919551824,34.672867486053214],[135.09489094092575,34.67313253095653]],[[135.0957307328797,34.672016129697106],[135.09415130764518,34.66967088388594],[135.09292629002428,34.66927733236284]],[[135.09902056007547,34.6809955297549],[135.09833485838828,34.68528443819038]],[[135.09833485838828,34.68528443819038],[135.09893581042874,34.68756543069164]],[[135.10133961859052,34.68680242263664],[135.1017325487708,34.68489891833101],[135.103758835779,34.68127663798569]],[[135.103758835779,34.68127663798569],[135.09902056007547,34.6809955297549]],[[135.09096934363617,34.66943796563758],[135.08983678017532,34.66600041355821]],[[135.13394511904136,34.64939896461414],[135.13317466770744,34.65020213098783]],[[135.1342070724949,34.65070009413951],[135.13489277418205,34.64996921273946]],[[135.12208787301256,34.65243493350667],[135.12245768965283,34.652346585205564]],[[135.11298884275917,34.67136556493442],[135.11311211497258,34.671180836668476]],[[135.11303506983919,34.67027325866621],[135.11090862415762,34.66935764900021],[135.1093446079498,34.66963072556726]],[[135.12010010857108,34.667687062942946],[135.12090908247168,34.67176714812126],[135.1246611804678,34.67175108479379],[135.1286675274041,34.67435334384453],[135.12895259439765,34.67332529088621]],[[135.13371398364117,34.660699515491885],[135.13459229816183,34.661261731953466]],[[135.13459229816183,34.661261731953466],[135.13533963595572,34.66048266057099]],[[135.09943660379577,34.666265458461524],[135.09714065882073,34.66495629727242]],[[135.096578229347,34.668851654184785],[135.09660904740034,34.668859685848524]],[[135.1292761839579,34.66444227079326],[135.12820525660376,34.66642609173626]],[[135.12820525660376,34.66642609173626],[135.12782773545015,34.66724532143742]],[[135.08788753830055,34.67961408359216],[135.08812637821404,34.6814533345879]],[[135.08812637821404,34.6814533345879],[135.09169356789005,34.68126057465822]],[[135.09169356789005,34.68126057465822],[135.09201715745027,34.67991125515043]],[[135.09201715745027,34.67991125515043],[135.09204027099028,34.67985503350427]],[[135.09204027099028,34.67985503350427],[135.08788753830055,34.67961408359216]],[[135.12839786943724,34.65339873315509],[135.12769675872337,34.654121582891406]],[[135.12769675872337,34.654121582891406],[135.1297307502449,34.65527011080578]],[[135.1318032643331,34.65945460761267],[135.1323965118602,34.659856190799516]],[[135.1323965118602,34.659856190799516],[135.13264305628707,34.65877994785878]],[[135.12066253804485,34.64568833596772],[135.12261177991962,34.64693324384693]],[[135.12391384267391,34.645455417719354],[135.12182591955903,34.64430688980498]],[[135.08579961518566,34.67956589360974],[135.0856686384589,34.679461481981164]],[[135.0833187618905,34.67982290684932],[135.08304910392363,34.68220831097916]],[[135.08304910392363,34.68220831097916],[135.08551454819212,34.6821279943418]],[[135.08551454819212,34.6821279943418],[135.08579961518566,34.67956589360974]],[[135.12594783419541,34.64802555011514],[135.12697253446953,34.64696537050188]],[[135.12804346182364,34.666410028408784],[135.12820525660376,34.66642609173626]],[[135.1254932679084,34.65323006821662],[135.12570899428192,34.65298911830451]],[[135.12570899428192,34.65298911830451],[135.1264563320758,34.65218595193083]],[[135.09902056007547,34.6809955297549],[135.09904367361548,34.68093127644501]],[[135.09659363837366,34.680521661594426],[135.09657052483365,34.68054575658564]],[[135.09657052483365,34.68054575658564],[135.09531468915938,34.68451339847164]],[[135.09531468915938,34.684521430135376],[135.09833485838828,34.68528443819038]],[[135.10647852898765,34.670594525215684],[135.10562332800703,34.6711005200311]],[[135.10562332800703,34.6711005200311],[135.10720275324152,34.67315662594774]],[[135.1323579892935,34.64623448910182],[135.13114067618594,34.64539919607319]],[[135.08788753830055,34.67961408359216],[135.08579961518566,34.67956589360974]],[[135.08551454819212,34.6821279943418],[135.0851524360652,34.682971319034166]],[[135.08695529218653,34.68355763048695],[135.08812637821404,34.6814533345879]],[[135.13621024596304,34.64705371880299],[135.135277999849,34.64799342346019]],[[135.1363412226898,34.64864398822288],[135.137096264997,34.64764003025577]],[[135.09378919551824,34.672867486053214],[135.09260270046403,34.675461713440214]],[[135.1139056798465,34.65123821560988],[135.11431401905347,34.65441072278593]],[[135.11431401905347,34.65441072278593],[135.1164558737617,34.65285258002099],[135.1164096466817,34.65139884888462]],[[135.0924563147106,34.67710820450627],[135.08908944238144,34.67777483259643]],[[135.09204027099028,34.67985503350427],[135.0924563147106,34.67710820450627]],[[135.1218182150457,34.64865201988662],[135.12126349008528,34.64943109126909]],[[135.1192140895371,34.64747939698103],[135.12162560221222,34.648547608258035]],[[135.12412186453406,34.649945117748246],[135.1253160641016,34.64867611487783]],[[135.09064575407592,34.683123920645166],[135.09169356789005,34.68126057465822]],[[135.10404390277253,34.67936510201632],[135.09978330689603,34.677879244225004]],[[135.103758835779,34.68127663798569],[135.1073568435083,34.6823689442539]],[[135.1077882962553,34.67869847392616],[135.1074724112084,34.678939423838266]],[[135.1319958771666,34.66086818043036],[135.1315644244196,34.66181591675131]],[[135.13262764726036,34.662450418186516],[135.13297435036063,34.66150268186557]],[[135.13297435036063,34.66150268186557],[135.1319958771666,34.66086818043036]],[[135.08153901930916,34.68469812673759],[135.08304910392363,34.68220831097916]],[[135.07987484442793,34.677421439392006],[135.07850344105358,34.67712426783374],[135.07753267237288,34.67489949697863],[135.0764309269654,34.674618388747845],[135.07515968226446,34.67684315960295],[135.0727019425093,34.6794695136449],[135.07109940373476,34.6822805959528]],[[135.07109940373476,34.6822805959528],[135.07599176970507,34.6822163426429],[135.07841098689352,34.682915097388005]],[[135.07841098689352,34.682915097388005],[135.081307883909,34.68565389472227]],[[135.14080984042644,34.65508538253983],[135.1397157995323,34.65444284944088]],[[135.07723219635264,34.684882855003536],[135.0709067909013,34.68386283370896]],[[135.0709067909013,34.68386283370896],[135.0718159234753,34.687629684001536]],[[135.07341846224983,34.689541219970906],[135.0759763606784,34.688143710480695],[135.0779333070665,34.68527640652664],[135.07723219635264,34.684882855003536]],[[135.1323965118602,34.659856190799516],[135.13277403301382,34.66009714071162]],[[135.09562286969296,34.65369590471336],[135.09197093037025,34.65665155696852]],[[135.13548602170917,34.66180788508757],[135.13459229816183,34.661261731953466]],[[135.13459229816183,34.661261731953466],[135.1338526648813,34.66205686666341]],[[135.1338526648813,34.66205686666341],[135.1346847523219,34.66259498813378]],[[135.1346847523219,34.66259498813378],[135.13548602170917,34.66180788508757]],[[135.1074955247484,34.66913276241558],[135.10562332800703,34.66771918959789],[135.10438290135943,34.664530619094364]],[[135.10308854311847,34.66674735828573],[135.10286511223165,34.667454144694574]],[[135.1055616919003,34.670915791765154],[135.10562332800703,34.6711005200311]],[[135.13207292229995,34.664201320881155],[135.13259682920702,34.664522587430625]],[[135.13259682920702,34.664522587430625],[135.1335213708077,34.6637756427031]],[[135.13503145542217,34.64626661575677],[135.1340760957681,34.64731073204256]],[[135.09201715745027,34.67991125515043],[135.09657052483365,34.68054575658564]],[[135.13371398364117,34.660699515491885],[135.13297435036063,34.66150268186557]],[[135.13297435036063,34.66150268186557],[135.1338526648813,34.66205686666341]],[[135.1323965118602,34.659856190799516],[135.1319958771666,34.66086818043036]],[[135.10463715029962,34.69274585380191],[135.10915969962966,34.692850265430486]],[[135.10933690343646,34.69096282445233],[135.1084585889158,34.692135447357906],[135.1054615332269,34.69244868224364],[135.10432126525274,34.69149291425896]],[[135.13427641311492,34.645768652605085],[135.13329023540754,34.646836863882086]],[[135.1334212121343,34.66250663983268],[135.1338526648813,34.66205686666341]],[[135.12755037296995,34.65286864334846],[135.12677992163603,34.653607556412254]],[[135.12677992163603,34.653607556412254],[135.12769675872337,34.654121582891406]],[[135.13427641311492,34.6630126346481],[135.1346847523219,34.66259498813378]],[[135.13160294698628,34.66392021265036],[135.13098658591915,34.66461093573173]],[[135.13238110283353,34.66666704164837],[135.13259682920702,34.664522587430625]],[[135.1319958771666,34.66086818043036],[135.13101740397252,34.66024171065889]],[[135.13101740397252,34.66024171065889],[135.13044726998544,34.66075573713805]],[[135.07841098689352,34.682915097388005],[135.07723219635264,34.684882855003536]],[[135.07711662865256,34.69132424932049],[135.0805220235484,34.68966169492696]],[[135.1171646889889,34.679806843521845],[135.11885197741017,34.678786822227266],[135.11821250280303,34.67717245781616],[135.11648669181508,34.676706621319425]],[[135.11752680111584,34.66862676760015],[135.11923720307712,34.66889984416721]],[[135.11923720307712,34.66889984416721],[135.11972258741747,34.667687062942946]],[[135.11700289420878,34.665759463646104],[135.11476858534047,34.665936160248314],[135.11028455857715,34.66518118385705],[135.10866661077594,34.6656068620351],[135.10706407200144,34.66449046077568]],[[135.10506860304662,34.68719597415975],[135.1061472349141,34.68392708701885]],[[135.09994510167616,34.67431318552585],[135.1029960889584,34.676048024893]],[[135.1040361982592,34.67535730181164],[135.1039591531258,34.67341363918732],[135.1057928273005,34.673558209134576]],[[135.1057928273005,34.673558209134576],[135.103758835779,34.67143784990805]],[[135.12967681865152,34.66033809062373],[135.13011597591185,34.659671462533574]],[[135.13548602170917,34.66180788508757],[135.13622565498972,34.661052908696306]],[[135.0709067909013,34.68386283370896],[135.07098383603469,34.682256500961586]],[[135.07098383603469,34.682256500961586],[135.06760925919218,34.68193523441211],[135.0675168050321,34.68323636393748],[135.0712072669215,34.68791882389606]],[[135.12570899428192,34.65298911830451],[135.12677992163603,34.653607556412254]],[[135.09260270046403,34.675461713440214],[135.0903838006224,34.67432924885332]],[[135.08912026043478,34.67540549179405],[135.0905995269959,34.67698772955021],[135.09244861019727,34.67673071631064]],[[135.1113400769046,34.65017000433288],[135.1117946431916,34.650467175891144]],[[135.13292041876727,34.64516627782483],[135.1323579892935,34.64623448910182]],[[135.12769675872337,34.654121582891406],[135.12713432924963,34.65469183101673]],[[135.12713432924963,34.65469183101673],[135.1281898475771,34.65563956733767]],[[135.1122492094786,34.67212857298942],[135.11247264036544,34.67206431967953]],[[135.11247264036544,34.67206431967953],[135.11697207615543,34.67334135421368],[135.11602442101474,34.671622578174],[135.11841282014984,34.672377554565266],[135.11977651901086,34.67035357530358],[135.11923720307712,34.66889984416721]],[[135.0940126264051,34.63486165325045],[135.0924563147106,34.634492196718554],[135.09381230905828,34.63617884610329],[135.09275679073082,34.64031515292777],[135.09356576463142,34.64321458353677],[135.09479078225232,34.64356797674119],[135.0953763252661,34.645447386055615],[135.09929021804234,34.647166162095296],[135.09917465034223,34.64914195137457],[135.10079259814344,34.652402806851725],[135.10335820108534,34.65396898128041]],[[135.11271148027896,34.65555121903657],[135.11431401905347,34.65441072278593]],[[135.11378240763307,34.68799914053343],[135.1117792341649,34.69011146809622]],[[135.1117792341649,34.69011146809622],[135.11345881807284,34.690376512999535],[135.11586262623462,34.69238442893375],[135.11624785190156,34.68895490851811]],[[135.11121680469117,34.68753330403669],[135.11040783079056,34.689356491704956],[135.1117792341649,34.69011146809622]],[[135.10603166721398,34.676513861389736],[135.1080271361688,34.67693953956779],[135.10818893094893,34.67554203007758],[135.1057928273005,34.673558209134576]],[[135.07109940373476,34.6822805959528],[135.07098383603469,34.682256500961586]],[[135.11782727713606,34.694416439859175],[135.11555444570106,34.69279404378433],[135.11170989354488,34.694030919999804]],[[135.09399721737842,34.696143247562595],[135.09477537322564,34.6991310264727],[135.093011039671,34.70252038856965],[135.09638561651352,34.706206922224865],[135.0985351757351,34.70675307535897],[135.09810372298813,34.708833276266816],[135.0994443083091,34.7107930022186],[135.0989666284821,34.70831121812392],[135.10106996062365,34.70872886463823],[135.1029498618784,34.7103994506955],[135.1053228519868,34.70924289111739],[135.10576971376048,34.70787750828213],[135.10797320457544,34.707395608457915],[135.10794238652207,34.714479535873814],[135.10886692812275,34.714543789183715],[135.11005342317696,34.7095721893306],[135.1089362687428,34.7079578249195],[135.10980687875013,34.705700927409445],[135.10882070104273,34.70305851004002],[135.11113975955777,34.70164493722233],[135.11126303177122,34.69982978121781],[135.11251886744546,34.697845960274805],[135.11594737588135,34.698592905002336],[135.11581639915457,34.695990645951596],[135.11782727713606,34.694416439859175]],[[135.10832761218904,34.67424090055221],[135.11006112769033,34.67714033116121],[135.11372077152637,34.67402404563132],[135.11247264036544,34.67206431967953]],[[135.1116559619515,34.68028071168232],[135.11124762274451,34.68178263280111],[135.1090903590096,34.681180258020845]],[[135.11782727713606,34.694416439859175],[135.11919097599707,34.692850265430486],[135.12167182929227,34.69263341050959],[135.11821250280303,34.6899990248039],[135.1201848582178,34.687436924071854],[135.1218182150457,34.68646509275969],[135.12038517556462,34.68525231153543],[135.1201848582178,34.683485345513326]]]}