{"type":"Topology","bbox":[135.24266476081695,34.6667044267374,135.30961855019012,34.78027396582862],"objects":{"town":{"type":"GeometryCollection","geometries":[{"type":"MultiPolygon","arcs":[[[37,38,18,19,20,2,15,16,26,27,28,13,14,11,8,10,-33]]],"properties":{"name":"魚崎北町"}},{"type":"MultiPolygon","arcs":[[[46,41,42,23,24,25,39,43,44,63,64,65,66,-31,67]]],"properties":{"name":"魚崎西町"}},{"type":"MultiPolygon","arcs":[[[36,62,29,30,31,32,-11,-9,-12,-15,47,48]]],"properties":{"name":"魚崎中町"}},{"type":"MultiPolygon","arcs":[[[86,80,87,-24,-43,-42,-47,-68,-30,-63,-37,-49,78,79,52,53,54,55,56,49,74]]],"properties":{"name":"魚崎南町"}},{"type":"MultiPolygon","arcs":[[[94,95,108,99,100,107,59,60,97,98]]],"properties":{"name":"渦森台"}},{"type":"Polygon","arcs":[[-57,61]],"properties":{"name":"魚崎浜町"}},{"type":"MultiPolygon","arcs":[[[-53,-80,-243,-200,153,154,-269,-264,294,295,296,72,73,-55,-54]]],"properties":{"name":"青木"}},{"type":"MultiPolygon","arcs":[[[240,241,102,103,185,186,187,188,189,231,91,396,397,128,129,126,113,109,110,208,209]]],"properties":{"name":"岡本"}},{"type":"MultiPolygon","arcs":[[[175,176,177,-169,-19,-39,-38,-32,-67,-66,114,115,164,165]]],"properties":{"name":"住吉東町"}},{"type":"MultiPolygon","arcs":[[[-199,-208,312,313,121,122,237,228,-225,229,230,125,314]]],"properties":{"name":"向洋町東"}},{"type":"MultiPolygon","arcs":[[[136,131,132,133,134,-159,238,239]]],"properties":{"name":"御影郡家"}},{"type":"MultiPolygon","arcs":[[[182,183,225,282,283,138,139,140,-28,-27,-17,-16,-3,-21,-20,168,169]]],"properties":{"name":"甲南町"}},{"type":"Polygon","arcs":[[141,142,143,144,145,146,147]],"properties":{"name":"住吉台"}},{"type":"MultiPolygon","arcs":[[[256,257,-204,-64,-45,-44,-40,-26,276,333,334]]],"properties":{"name":"住吉南町"}},{"type":"MultiPolygon","arcs":[[[157,158,-135,-134,-477,-500,-366,555,558,-450,-381]]],"properties":{"name":"御影"}},{"type":"Polygon","arcs":[[160,161,162,163]],"properties":{"name":"甲南台"}},{"type":"MultiPolygon","arcs":[[[173,236,222,223,224,220,234,260,258,-219,-218,261,-196,262]]],"properties":{"name":"向洋町西"}},{"type":"MultiPolygon","arcs":[[[-363,-486,-214,493,-176,-166,-165,-116,-115,-65,203,-258,-426,-364]]],"properties":{"name":"住吉宮町"}},{"type":"MultiPolygon","arcs":[[[217,218,-259,-261,-235,-221,-229,-238,-123,-122,-314,-313,207,198,194,195,-262]]],"properties":{"name":"向洋町中"}},{"type":"MultiPolygon","arcs":[[[201,267,265,266,263,268,-155,-154,199,242,-79,-48,-14,243]]],"properties":{"name":"北青木"}},{"type":"MultiPolygon","arcs":[[[504,505,-177,-494,213,-137,-240,278,279,280]]],"properties":{"name":"住吉本町"}},{"type":"MultiPolygon","arcs":[[[-99,316,317,318,319,247,244,347,348,349,-95]]],"properties":{"name":"鴨子ケ原"}},{"type":"Polygon","arcs":[[-230,-224,248,249,250]],"properties":{"name":"住吉浜町"}},{"type":"MultiPolygon","arcs":[[[335,336,253,291,437,-435,-274,-273,284,285,286,289,298,-164,299]]],"properties":{"name":"森北町"}},{"type":"MultiPolygon","arcs":[[[345,-285,272,273,434,435,436,275,346]]],"properties":{"name":"森南町"}},{"type":"MultiPolygon","arcs":[[[-377,-321,-325,-329,309,310,311,304,305,339,-266,-268,-202,-244,-29,-141,-140,465,-373]]],"properties":{"name":"本山南町"}},{"type":"MultiPolygon","arcs":[[[372,373,-110,374,375,322,325,326,356,-286,-346,357,-311,-310,328,324,320,376]]],"properties":{"name":"本山中町"}},{"type":"Polygon","arcs":[[329,330,331,-142,332]],"properties":{"name":"本山町野寄"}},{"type":"MultiPolygon","arcs":[[[520,-349,-348,-245,383,384,-239,-158,380,449,447,341,398]]],"properties":{"name":"御影山手"}},{"type":"Polygon","arcs":[[350,351,352,353,354,355]],"properties":{"name":"本山町北畑"}},{"type":"MultiPolygon","arcs":[[[-416,-415,446,443,-367,499,476,-133,-132,485,362,363,358,359,-389]]],"properties":{"name":"御影中町"}},{"type":"MultiPolygon","arcs":[[[467,-403,468,469,481,540,541,364,365,366,-444,483,471,-417]]],"properties":{"name":"御影石町"}},{"type":"Polygon","arcs":[[-250,368]],"properties":{"name":"御影浜町"}},{"type":"MultiPolygon","arcs":[[[559,-541,-482,-470,-469,-402,549,369,552]]],"properties":{"name":"御影塚町"}},{"type":"Polygon","arcs":[[-333,-148,385]],"properties":{"name":"本山町田中"}},{"type":"MultiPolygon","arcs":[[[-404,-468,416,-472,-484,-447,414,415,388,-360,-359,425,-257,-335,-406,-405]]],"properties":{"name":"御影本町"}},{"type":"Polygon","arcs":[[400,401,402,403,404,405,-334,-277,-25,-88,-81,-87,-75,-50,-62,-56,-74,406,407,408,409,410],[-369,-249,-223,-237,-174,-263,-195,-315,-126,-231,-251]],"properties":{"name":"水面"}},{"type":"MultiPolygon","arcs":[[[-305,421,494,-545,536,537,538,-547,496,423,419,-523,-295,-267,-340,-306]]],"properties":{"name":"深江北町"}},{"type":"MultiPolygon","arcs":[[[-353,-352,439,-161,-299,-290,-287,-357,-327,-326,-323,-376,-375,-114,-127,-130,-479,-354]]],"properties":{"name":"本山北町"}},{"type":"MultiPolygon","arcs":[[[490,532,431,432,501,502,-411,-410,488,-408,-407,-73,-297,-525]]],"properties":{"name":"深江南町"}},{"type":"MultiPolygon","arcs":[[[-495,-422,-312,-358,-347,-276,-437,543,-537,544]]],"properties":{"name":"本庄町"}},{"type":"MultiPolygon","arcs":[[[-319,-318,-317,-98,-61,-60,-108,-101,472,-145,-144,-143,-332,464,457,458,459,-518,-530,-280,-279,-385,-384,-248,-320]]],"properties":{"name":"住吉山手"}},{"type":"Polygon","arcs":[[-355,478,-129,-398,479,480]],"properties":{"name":"本山町田辺"}},{"type":"Polygon","arcs":[[-162,-440,-351,486]],"properties":{"name":"本山町中野"}},{"type":"MultiPolygon","arcs":[[[-281,529,517,-460,-459,-458,-465,-331,507,526,-189,-188,-187,-186,-104,-103,-242,-528,-516,-515,-505]]],"properties":{"name":"西岡本"}},{"type":"MultiPolygon","arcs":[[[-170,-178,-506,514,515,527,-241,-210,-209,-111,-374,-466,-139,-284,-283,-226,-184,-183]]],"properties":{"name":"田中町"}},{"type":"MultiPolygon","arcs":[[[-433,-432,-533,-491,524,-296,522,-420,-424,-497,546,-539,551,-502]]],"properties":{"name":"深江本町"}},{"type":"Polygon","arcs":[[-489,-409]],"properties":{"name":"深江浜町"}},{"type":"Polygon","arcs":[[-480,-397,-92,-232,-190,-527,-508,-330,-386,-147,534,535]],"properties":{"name":"本山町岡本"}},{"type":"Polygon","arcs":[[-336,-300,-163,-487,-356,-481,-536,548]],"properties":{"name":"本山町森"}}]}},"arcs":[[[135.2707613804999,34.71735014879038],[135.27040648992715,34.71814521507064]],[[135.27040648992715,34.71814521507064],[135.26999133491756,34.719201517414426]],[[135.26999133491756,34.719201517414426],[135.2716988272958,34.71964448291343]],[[135.2716988272958,34.71964448291343],[135.27258270570337,34.717724965751074]],[[135.27258270570337,34.717724965751074],[135.2707613804999,34.71735014879038]],[[135.27335275128573,34.71605532656252],[135.27258270570337,34.717724965751074]],[[135.27258270570337,34.717724965751074],[135.27484597011062,34.71845188349303]],[[135.27484597011062,34.71845188349303],[135.27556244730465,34.716839034753065]],[[135.27556244730465,34.716839034753065],[135.27335275128573,34.71605532656252]],[[135.27164525890745,34.71571458387097],[135.2707613804999,34.71735014879038]],[[135.27335275128573,34.71605532656252],[135.27164525890745,34.71571458387097]],[[135.27572315246965,34.7164869339718],[135.27556244730465,34.716839034753065]],[[135.27484597011062,34.71845188349303],[135.27692844120725,34.71908793651725]],[[135.27692844120725,34.71908793651725],[135.27778553542063,34.717179777444606]],[[135.27778553542063,34.717179777444606],[135.27572315246965,34.7164869339718]],[[135.2716988272958,34.71964448291343],[135.2728103713538,34.72000794178441]],[[135.2728103713538,34.72000794178441],[135.27390852331473,34.72032596829652]],[[135.27390852331473,34.72032596829652],[135.27484597011062,34.71845188349303]],[[135.26776824680155,34.717849904737974],[135.26701159331628,34.719564976285405]],[[135.26701159331628,34.719564976285405],[135.26986410999524,34.71954226010597]],[[135.26986410999524,34.71954226010597],[135.26999133491756,34.719201517414426]],[[135.27040648992715,34.71814521507064],[135.26776824680155,34.717849904737974]],[[135.2658063045787,34.709444918346584],[135.26862534101494,34.709263188911095]],[[135.26862534101494,34.709263188911095],[135.26792895196655,34.707059719505786]],[[135.26792895196655,34.707059719505786],[135.26443361462756,34.70759354972254]],[[135.26443361462756,34.70759354972254],[135.2658063045787,34.709444918346584]],[[135.27390852331473,34.72032596829652],[135.27502676342127,34.72066671098806]],[[135.27502676342127,34.72066671098806],[135.27630570869283,34.72106424412819]],[[135.27630570869283,34.72106424412819],[135.27692844120725,34.71908793651725]],[[135.27268314643152,34.713374817389045],[135.26899362368476,34.71251160257047]],[[135.26899362368476,34.71251160257047],[135.2687592619858,34.71399951232354]],[[135.2687592619858,34.71399951232354],[135.26862534101494,34.71536248308971]],[[135.26862534101494,34.71536248308971],[135.27164525890745,34.71571458387097]],[[135.27164525890745,34.71571458387097],[135.27268314643152,34.713374817389045]],[[135.27441072695538,34.713772350529176],[135.27335275128573,34.71605532656252]],[[135.27572315246965,34.7164869339718],[135.27672755975098,34.71443111973283]],[[135.27672755975098,34.71443111973283],[135.27441072695538,34.713772350529176]],[[135.26862534101494,34.71536248308971],[135.26818340181117,34.71680496048391]],[[135.26818340181117,34.71680496048391],[135.26776824680155,34.717849904737974]],[[135.2658063045787,34.709444918346584],[135.26596700974372,34.711228138432325]],[[135.26596700974372,34.711228138432325],[135.26883291851976,34.71137579359866]],[[135.26883291851976,34.71137579359866],[135.26883291851976,34.711319003150074]],[[135.26883291851976,34.711319003150074],[135.26862534101494,34.709263188911095]],[[135.26596700974372,34.711228138432325],[135.26560542312242,34.71123949652204]],[[135.26560542312242,34.71123949652204],[135.2655853349768,34.71168246202105]],[[135.2655853349768,34.71168246202105],[135.26885300666538,34.71239802167329]],[[135.26885300666538,34.71239802167329],[135.26883291851976,34.71137579359866]],[[135.27778553542063,34.717179777444606],[135.2788903834301,34.71574865814013]],[[135.2788903834301,34.71574865814013],[135.27672755975098,34.71443111973283]],[[135.28026307338124,34.71042171406234],[135.27967382110953,34.71051257878008]],[[135.27967382110953,34.71051257878008],[135.27745073299354,34.71363605345256]],[[135.27745073299354,34.71363605345256],[135.28011576031332,34.714817294783245]],[[135.28011576031332,34.714817294783245],[135.28014924055603,34.71477186242437]],[[135.28014924055603,34.71477186242437],[135.28131435300236,34.71313629750497]],[[135.28131435300236,34.71313629750497],[135.28196386971095,34.712114069430335]],[[135.28196386971095,34.712114069430335],[135.28063805209962,34.71062615967727]],[[135.28063805209962,34.71062615967727],[135.28026307338124,34.71042171406234]],[[135.25171781844597,34.73745396759141],[135.2497893564658,34.73860113465293],[135.24887199781554,34.73805594634646]],[[135.24887199781554,34.73805594634646],[135.25017103123272,34.740089044406005]],[[135.25017103123272,34.740089044406005],[135.25316416493106,34.73956657227897]],[[135.25316416493106,34.73956657227897],[135.25171781844597,34.73745396759141]],[[135.28063805209962,34.71062615967727],[135.2834637845844,34.711591597303304],[135.28678502466133,34.711932339994846],[135.28802379364163,34.70403846764077],[135.27187962060646,34.70223253137559],[135.2710292224416,34.70608292379003],[135.27634588498407,34.70813873802901],[135.28026307338124,34.71042171406234]],[[135.27441072695538,34.713772350529176],[135.27268314643152,34.713374817389045]],[[135.2655853349768,34.71168246202105],[135.2655652468312,34.71177332673879]],[[135.2655652468312,34.71177332673879],[135.265538462637,34.713283952671304]],[[135.265538462637,34.713283952671304],[135.26740666018028,34.71382914097777]],[[135.26740666018028,34.71382914097777],[135.2687592619858,34.71399951232354]],[[135.26899362368476,34.71251160257047],[135.26885300666538,34.71239802167329]],[[135.28131435300236,34.71313629750497],[135.28356422531255,34.71406766086185]],[[135.28356422531255,34.71406766086185],[135.28682520095256,34.71571458387097],[135.2858944502052,34.71786126282769]],[[135.2858944502052,34.71786126282769],[135.28631630126335,34.71811114080149]],[[135.28631630126335,34.71811114080149],[135.28794344105913,34.71901978797894]],[[135.28794344105913,34.71901978797894],[135.28862643801043,34.7176795333922],[135.29048793950514,34.71836101877529],[135.29118432855353,34.71716841935489]],[[135.29118432855353,34.71716841935489],[135.29085622217497,34.7151693955645],[135.28720017967095,34.71465828152719],[135.28414008548717,34.71360197918341],[135.28196386971095,34.712114069430335]],[[135.27967382110953,34.71051257878008],[135.27767170259543,34.709206398462506]],[[135.27767170259543,34.709206398462506],[135.27515398834356,34.71275012245455]],[[135.27515398834356,34.71275012245455],[135.27745073299354,34.71363605345256]],[[135.27745073299354,34.71363605345256],[135.27672755975098,34.71443111973283]],[[135.2788903834301,34.71574865814013],[135.27891716762426,34.71572594196069]],[[135.27891716762426,34.71572594196069],[135.28011576031332,34.714817294783245]],[[135.27429019808162,34.70799108286267],[135.2723483440044,34.707298239389864]],[[135.2723483440044,34.707298239389864],[135.27060737138342,34.711591597303304]],[[135.27060737138342,34.711591597303304],[135.27313178168384,34.71210271134062]],[[135.27313178168384,34.71210271134062],[135.27429019808162,34.70799108286267]],[[135.27313178168384,34.71210271134062],[135.27268314643152,34.713374817389045]],[[135.27515398834356,34.71275012245455],[135.27313178168384,34.71210271134062]],[[135.27767170259543,34.709206398462506],[135.27429019808162,34.70799108286267]],[[135.2723483440044,34.707298239389864],[135.26929494586918,34.706230578956365],[135.26792895196655,34.707059719505786]],[[135.26883291851976,34.711319003150074],[135.27060737138342,34.711591597303304]],[[135.27372103395555,34.72895811648227],[135.2716318668104,34.72837885390665]],[[135.2716318668104,34.72837885390665],[135.270701116063,34.73038923578675],[135.2688396145683,34.73178628082208]],[[135.2688396145683,34.73178628082208],[135.2687257817431,34.733705797984435],[135.26983062975253,34.734409999546955],[135.27131045648036,34.73193393598841]],[[135.27131045648036,34.73193393598841],[135.27364068137302,34.72974182467282]],[[135.27364068137302,34.72974182467282],[135.27372103395555,34.72895811648227]],[[135.24960186710663,34.735273214365534],[135.24798811940798,34.73562531514679]],[[135.24798811940798,34.73562531514679],[135.24754618020418,34.735943341658896]],[[135.24754618020418,34.735943341658896],[135.24887199781554,34.73805594634646]],[[135.25171781844597,34.73745396759141],[135.2508339400384,34.7364430976065]],[[135.2508339400384,34.7364430976065],[135.24960186710663,34.735273214365534]],[[135.2452293474086,34.738067304436186],[135.24474053586502,34.73973694362474],[135.24631410727244,34.74219029100385],[135.24774036561192,34.742883134476656],[135.2492335844368,34.74196312920949]],[[135.2492335844368,34.74196312920949],[135.24946125008725,34.74134979236471]],[[135.24946125008725,34.74134979236471],[135.2452293474086,34.738067304436186]],[[135.2701587361311,34.725857357989234],[135.26895344739353,34.72557340574628]],[[135.26895344739353,34.72557340574628],[135.26714551428714,34.726959092691885]],[[135.26714551428714,34.726959092691885],[135.26827714649076,34.7273452677423]],[[135.26827714649076,34.7273452677423],[135.26927485772353,34.72765193616469]],[[135.26927485772353,34.72765193616469],[135.2701587361311,34.725857357989234]],[[135.24946125008725,34.74134979236471],[135.25017103123272,34.740089044406005]],[[135.24754618020418,34.735943341658896],[135.2452293474086,34.738067304436186]],[[135.27864932568258,34.727015883140474],[135.2774641250906,34.72673193089752]],[[135.2774641250906,34.72673193089752],[135.27513390019794,34.72617538450134]],[[135.27513390019794,34.72617538450134],[135.27372103395555,34.72895811648227]],[[135.27372103395555,34.72895811648227],[135.27695522540142,34.72911712973833]],[[135.27695522540142,34.72911712973833],[135.2773837725081,34.72692501842273],[135.27864932568258,34.727015883140474]],[[135.265538462637,34.713283952671304],[135.2651233076274,34.71424939029734]],[[135.2651233076274,34.71424939029734],[135.2641858608315,34.71605532656252]],[[135.2641858608315,34.71605532656252],[135.26629511612228,34.71652100824096]],[[135.26629511612228,34.71652100824096],[135.26740666018028,34.71382914097777]],[[135.28356422531255,34.71406766086185],[135.28250624964286,34.716043968472796]],[[135.28250624964286,34.716043968472796],[135.2858944502052,34.71786126282769]],[[135.27873637431364,34.689727274595974],[135.27568967222695,34.68938653190443]],[[135.27568967222695,34.68938653190443],[135.27548209472212,34.69070407031173]],[[135.27548209472212,34.69070407031173],[135.27484597011062,34.69444088182898]],[[135.27484597011062,34.69444088182898],[135.27764491840125,34.69483841496912],[135.28624934077794,34.69345272802351],[135.28605515537024,34.694668043623345],[135.27814712204193,34.695747062146566],[135.27346658411093,34.695735704056844]],[[135.27346658411093,34.695735704056844],[135.27384825887785,34.697700653578075],[135.27259609780046,34.697882383013564]],[[135.27259609780046,34.697882383013564],[135.27285054764505,34.69874559783214],[135.28815771461245,34.69666706741373],[135.2889746325346,34.69084036738835],[135.27832791535255,34.692453216128314],[135.27873637431364,34.689727274595974]],[[135.27692844120725,34.72924206872522],[135.27695522540142,34.72911712973833]],[[135.27364068137302,34.72974182467282],[135.274825881965,34.73235418530798]],[[135.274825881965,34.73235418530798],[135.27508702785815,34.73228603676967]],[[135.27508702785815,34.73228603676967],[135.27692844120725,34.72924206872522]],[[135.28014924055603,34.71477186242437],[135.28250624964286,34.716043968472796]],[[135.2569474323574,34.7189970717995],[135.25485826521225,34.719076578427526]],[[135.25485826521225,34.719076578427526],[135.2528360585525,34.71917880123499]],[[135.2528360585525,34.71917880123499],[135.25236733515456,34.72141634490946]],[[135.25236733515456,34.72141634490946],[135.2533449582417,34.721598074344946]],[[135.2533449582417,34.721598074344946],[135.2569809126001,34.72225684354859]],[[135.2569809126001,34.72225684354859],[135.2569474323574,34.7189970717995]],[[135.27630570869283,34.72106424412819],[135.27658024668304,34.7231995649952]],[[135.27658024668304,34.7231995649952],[135.27758465396437,34.7235175915073]],[[135.27758465396437,34.7235175915073],[135.278394875838,34.72166622288326]],[[135.278394875838,34.72166622288326],[135.27630570869283,34.72106424412819]],[[135.2600878791237,34.73570482177482],[135.25968611621116,34.73270628608924]],[[135.25968611621116,34.73270628608924],[135.2572956268816,34.733217400126556],[135.2571884901049,34.73470530987963],[135.25523993997916,34.73575025413369]],[[135.25523993997916,34.73575025413369],[135.25378020139695,34.74019126721347]],[[135.25378020139695,34.74019126721347],[135.25418866035804,34.74314437054017]],[[135.25418866035804,34.74314437054017],[135.25548099772666,34.74600660914913],[135.25726884268744,34.74708562767235],[135.25834021045418,34.74638142610983]],[[135.25834021045418,34.74638142610983],[135.25851430771627,34.745756731175334]],[[135.25851430771627,34.745756731175334],[135.25830003416291,34.744439192768034],[135.259585675483,34.74028213193121],[135.25831342626,34.73710186681014],[135.2600878791237,34.73570482177482]],[[135.2625051526474,34.709603931602636],[135.26259220127847,34.71108048326599]],[[135.26259220127847,34.71108048326599],[135.26257211313282,34.711159989894014]],[[135.26257211313282,34.711159989894014],[135.26560542312242,34.71123949652204]],[[135.2658063045787,34.709444918346584],[135.2625051526474,34.709603931602636]],[[135.28250624964286,34.716043968472796],[135.28167593962365,34.71758866867446]],[[135.28167593962365,34.71758866867446],[135.28259329827392,34.718372376865005]],[[135.28259329827392,34.718372376865005],[135.2854792951956,34.72003065796385]],[[135.2854792951956,34.72003065796385],[135.28631630126335,34.71811114080149]],[[135.24948803428143,34.720768933795526],[135.24814882457298,34.72368796285308]],[[135.24814882457298,34.72368796285308],[135.2533583503388,34.724869204183754]],[[135.2533583503388,34.724869204183754],[135.252595000805,34.72418771880067],[135.2533449582417,34.721598074344946]],[[135.25236733515456,34.72141634490946],[135.24948803428143,34.720768933795526]],[[135.28571365689456,34.73308110304994],[135.28432087879779,34.733580858997534]],[[135.28432087879779,34.733580858997534],[135.28439453533176,34.73570482177482],[135.2854190307587,34.736034206376644]],[[135.2854190307587,34.736034206376644],[135.2861154198071,34.7347507422385]],[[135.2861154198071,34.7347507422385],[135.28571365689456,34.73308110304994]],[[135.2641858608315,34.71605532656252],[135.26306762072494,34.71884941663317]],[[135.26306762072494,34.71884941663317],[135.2631412772589,34.71888349090232]],[[135.2631412772589,34.71888349090232],[135.26472824076342,34.719417321119074]],[[135.26472824076342,34.719417321119074],[135.26629511612228,34.71652100824096]],[[135.26701159331628,34.719564976285405],[135.26665670274355,34.72034868447596]],[[135.26665670274355,34.72034868447596],[135.26911415255853,34.72116646693566]],[[135.26911415255853,34.72116646693566],[135.26986410999524,34.71954226010597]],[[135.25513280320249,34.68969320032682],[135.25527342022187,34.688841343597964]],[[135.25527342022187,34.688841343597964],[135.2529632834748,34.688534675175575]],[[135.2529632834748,34.688534675175575],[135.252199933941,34.69330507285717],[135.2540413472901,34.69399791632998]],[[135.2540413472901,34.69399791632998],[135.25513280320249,34.68969320032682]],[[135.2631412772589,34.71888349090232],[135.26298726814244,34.71951954392654]],[[135.26298726814244,34.71951954392654],[135.2661544991029,34.72097337941045]],[[135.2661544991029,34.72097337941045],[135.26665670274355,34.72034868447596]],[[135.26665670274355,34.72034868447596],[135.26472824076342,34.719417321119074]],[[135.26190920432714,34.713193087953556],[135.26123959947293,34.7152261860131]],[[135.26123959947293,34.7152261860131],[135.2641858608315,34.71605532656252]],[[135.2651233076274,34.71424939029734],[135.26190920432714,34.713193087953556]],[[135.26911415255853,34.72116646693566],[135.26965653249044,34.72130276401227]],[[135.26965653249044,34.72130276401227],[135.2719532771404,34.72192745894677]],[[135.2719532771404,34.72192745894677],[135.2728103713538,34.72000794178441]],[[135.26714551428714,34.726959092691885],[135.2671254261415,34.72698180887132]],[[135.2671254261415,34.72698180887132],[135.26577282433598,34.72825391491975]],[[135.26577282433598,34.72825391491975],[135.26519696416136,34.72967367613451]],[[135.26519696416136,34.72967367613451],[135.26498938665654,34.73027565488957]],[[135.26498938665654,34.73027565488957],[135.2660741465204,34.73068454611942]],[[135.2660741465204,34.73068454611942],[135.26695802492796,34.730605039491394],[135.26827714649076,34.7273452677423]],[[135.26103871801666,34.6883643038298],[135.25546760562958,34.68769417653643],[135.25527342022187,34.688841343597964]],[[135.25513280320249,34.68969320032682],[135.26039589735663,34.69241914185916]],[[135.26039589735663,34.69241914185916],[135.26103871801666,34.6883643038298]],[[135.27502676342127,34.680129688784184],[135.26612771490872,34.679243757786175]],[[135.26612771490872,34.679243757786175],[135.2655183744914,34.682617110432446]],[[135.2655183744914,34.682617110432446],[135.27039979387862,34.683105508290325]],[[135.27039979387862,34.683105508290325],[135.27445090324665,34.68352575760989]],[[135.27445090324665,34.68352575760989],[135.27502676342127,34.680129688784184]],[[135.28167593962365,34.71758866867446],[135.2796537329639,34.71623705599801]],[[135.2796537329639,34.71623705599801],[135.2805108271773,34.71715706126517],[135.27926536214846,34.71982621234892]],[[135.27926536214846,34.71982621234892],[135.2815286265557,34.72053041391145]],[[135.2815286265557,34.72053041391145],[135.28259329827392,34.718372376865005]],[[135.2655652468312,34.71177332673879],[135.2620899976378,34.71268197391624]],[[135.2620899976378,34.71268197391624],[135.26190920432714,34.713193087953556]],[[135.27039979387862,34.683105508290325],[135.27009847169424,34.68504774163212]],[[135.27009847169424,34.68504774163212],[135.27626553240157,34.68569515274605]],[[135.27626553240157,34.68569515274605],[135.27656015853742,34.68376427749397],[135.27445090324665,34.68352575760989]],[[135.27513390019794,34.72617538450134],[135.27519416463483,34.726027729335]],[[135.27519416463483,34.726027729335],[135.272997860713,34.725244021144455]],[[135.272997860713,34.725244021144455],[135.2716318668104,34.72837885390665]],[[135.2569809126001,34.72225684354859],[135.2597731648422,34.722790673765346]],[[135.2597731648422,34.722790673765346],[135.26065034720122,34.71901978797894]],[[135.26065034720122,34.71901978797894],[135.2569474323574,34.7189970717995]],[[135.26257211313282,34.711159989894014],[135.2620899976378,34.71268197391624]],[[135.26972349297586,34.68750108901123],[135.27009847169424,34.68504774163212]],[[135.27009847169424,34.68504774163212],[135.26365017694812,34.684298107710724]],[[135.26365017694812,34.684298107710724],[135.26348277573456,34.68533169387507]],[[135.26348277573456,34.68533169387507],[135.2632350219385,34.686819603628145]],[[135.2632350219385,34.686819603628145],[135.26972349297586,34.68750108901123]],[[135.26873247779162,34.693748038356176],[135.2648688577828,34.693282356677734]],[[135.2648688577828,34.693282356677734],[135.26326180613268,34.697450775604274]],[[135.26326180613268,34.697450775604274],[135.26417916478295,34.69779151829582],[135.26525722859824,34.69579249450543],[135.26808296108302,34.69609916292782],[135.26721247477255,34.701732775428]],[[135.26721247477255,34.701732775428],[135.26732630759776,34.701744133517714]],[[135.26732630759776,34.701744133517714],[135.26873247779162,34.693748038356176]],[[135.2719532771404,34.72192745894677],[135.27420984549912,34.72255215388127]],[[135.27420984549912,34.72255215388127],[135.27502676342127,34.72066671098806]],[[135.27346658411093,34.695735704056844],[135.2731920461207,34.69424779430378]],[[135.2731920461207,34.69424779430378],[135.26873247779162,34.693748038356176]],[[135.26732630759776,34.701744133517714],[135.2674602285686,34.70176684969715]],[[135.2674602285686,34.70176684969715],[135.26838428326744,34.69613323719698],[135.2723483440044,34.696564844606264],[135.27259609780046,34.697882383013564]],[[135.2660741465204,34.73068454611942],[135.2688396145683,34.73178628082208]],[[135.2716318668104,34.72837885390665],[135.26927485772353,34.72765193616469]],[[135.26818340181117,34.71680496048391],[135.26629511612228,34.71652100824096]],[[135.2648688577828,34.693282356677734],[135.26223731070573,34.692952972075915]],[[135.26223731070573,34.692952972075915],[135.26039589735663,34.69241914185916]],[[135.2540413472901,34.69399791632998],[135.26326180613268,34.697450775604274]],[[135.27484597011062,34.69444088182898],[135.2731920461207,34.69424779430378]],[[135.2533583503388,34.724869204183754],[135.2564519247653,34.7250850078884]],[[135.2564519247653,34.7250850078884],[135.2569809126001,34.72225684354859]],[[135.272997860713,34.725244021144455],[135.27098904615033,34.72406277981377]],[[135.27098904615033,34.72406277981377],[135.2701587361311,34.725857357989234]],[[135.2796537329639,34.71623705599801],[135.27891716762426,34.71572594196069]],[[135.27692844120725,34.71908793651725],[135.27926536214846,34.71982621234892]],[[135.25253473636812,34.72648205292373],[135.24936750540766,34.72773144279272]],[[135.24936750540766,34.72773144279272],[135.24878494918448,34.72938972389156],[135.25124239899947,34.72957145332705]],[[135.25124239899947,34.72957145332705],[135.2524075114458,34.72927614299438]],[[135.2524075114458,34.72927614299438],[135.25253473636812,34.72648205292373]],[[135.26721247477255,34.701732775428],[135.2607574839779,34.70102857386548]],[[135.2607574839779,34.70102857386548],[135.25992047791013,34.706753051083396],[135.26048294598766,34.707604907812254]],[[135.26048294598766,34.707604907812254],[135.26757406139382,34.70608292379003],[135.2683641951218,34.70203944385039],[135.2674602285686,34.70176684969715]],[[135.288954544389,34.73242233384629],[135.28989199118487,34.735148275378634]],[[135.28989199118487,34.735148275378634],[135.2919610701844,34.73565938941594]],[[135.2919610701844,34.73565938941594],[135.29276459600948,34.73341048765177]],[[135.29276459600948,34.73341048765177],[135.29084283007788,34.7323655433977],[135.288954544389,34.73242233384629]],[[135.26259220127847,34.71108048326599],[135.2601213593664,34.711159989894014]],[[135.2601213593664,34.711159989894014],[135.25898972716277,34.713863215246924]],[[135.25898972716277,34.713863215246924],[135.2620899976378,34.71268197391624]],[[135.26282656297744,34.68932974145584],[135.2632350219385,34.686819603628145]],[[135.26348277573456,34.68533169387507],[135.26158109794858,34.68510453208071],[135.26103871801666,34.6883643038298]],[[135.26223731070573,34.692952972075915],[135.26282656297744,34.68932974145584]],[[135.26365017694812,34.684298107710724],[135.26405863590918,34.68244673908668],[135.2655183744914,34.682617110432446]],[[135.26612771490872,34.679243757786175],[135.25470425609578,34.677983009827464],[135.2529632834748,34.688534675175575]],[[135.28766220702033,34.721007453679604],[135.2854792951956,34.72007609032272]],[[135.2854792951956,34.72007609032272],[135.2847962982443,34.72157535816551]],[[135.2847962982443,34.72157535816551],[135.28711982708842,34.722324992086904]],[[135.28711982708842,34.722324992086904],[135.28766220702033,34.721007453679604]],[[135.2815286265557,34.72053041391145],[135.2847962982443,34.72157535816551]],[[135.2854792951956,34.72007609032272],[135.2854792951956,34.72003065796385]],[[135.2693150340148,34.6900566591978],[135.26873247779162,34.693748038356176]],[[135.27548209472212,34.69070407031173],[135.2693150340148,34.6900566591978]],[[135.28989199118487,34.727481564818916],[135.28886749575793,34.729537379057895]],[[135.28886749575793,34.729537379057895],[135.29139860210688,34.730184790171826]],[[135.29139860210688,34.730184790171826],[135.29147225864085,34.73019614826154]],[[135.29147225864085,34.73019614826154],[135.29223560817465,34.728219840650596]],[[135.29223560817465,34.728219840650596],[135.28989199118487,34.727481564818916]],[[135.26443361462756,34.70759354972254],[135.26213017392905,34.7074458945562]],[[135.26213017392905,34.7074458945562],[135.2625051526474,34.709603931602636]],[[135.2564519247653,34.7250850078884],[135.25814602504644,34.72489192036319]],[[135.25814602504644,34.72489192036319],[135.2622507028028,34.72559612192571]],[[135.2622507028028,34.72559612192571],[135.26348947178312,34.72400598936518]],[[135.26348947178312,34.72400598936518],[135.2597731648422,34.722790673765346]],[[135.27420984549912,34.72255215388127],[135.276493198052,34.72317684881576]],[[135.276493198052,34.72317684881576],[135.27658024668304,34.7231995649952]],[[135.28886749575793,34.729537379057895],[135.2878496963795,34.72926478490466]],[[135.2878496963795,34.72926478490466],[135.28672476022444,34.72896947457199]],[[135.28672476022444,34.72896947457199],[135.28621586053524,34.73034380342788]],[[135.28621586053524,34.73034380342788],[135.28853269333084,34.73071862038857]],[[135.28853269333084,34.73071862038857],[135.28886749575793,34.729537379057895]],[[135.28621586053524,34.73034380342788],[135.28635647755462,34.73120701824645]],[[135.28635647755462,34.73120701824645],[135.288954544389,34.73242233384629]],[[135.29276459600948,34.73341048765177],[135.2938158756306,34.73292208979389]],[[135.2938158756306,34.73292208979389],[135.29101692733997,34.731502328579126]],[[135.29101692733997,34.731502328579126],[135.28853269333084,34.73071862038857]],[[135.28766220702033,34.721007453679604],[135.2888474076123,34.721439061088894]],[[135.2888474076123,34.721439061088894],[135.28984511884508,34.72001929987413]],[[135.28984511884508,34.72001929987413],[135.28794344105913,34.71901978797894]],[[135.278394875838,34.72166622288326],[135.27926536214846,34.71982621234892]],[[135.28635647755462,34.73120701824645],[135.28571365689456,34.73308110304994]],[[135.2861154198071,34.7347507422385],[135.28894784834043,34.736284084350444]],[[135.28894784834043,34.736284084350444],[135.28989199118487,34.735148275378634]],[[135.29101692733997,34.731502328579126],[135.29139860210688,34.730184790171826]],[[135.2873073164476,34.72240449871493],[135.28644352618568,34.72388105037828]],[[135.28644352618568,34.72388105037828],[135.28880053527251,34.72455117767165]],[[135.28880053527251,34.72455117767165],[135.2894835322238,34.72312005836717]],[[135.2894835322238,34.72312005836717],[135.2873073164476,34.72240449871493]],[[135.278394875838,34.72166622288326],[135.28069831653647,34.72229091781775]],[[135.28069831653647,34.72229091781775],[135.2815286265557,34.72053041391145]],[[135.28644352618568,34.72388105037828],[135.2854659030985,34.72605044551444]],[[135.2854659030985,34.72605044551444],[135.28661762344777,34.72641390438542]],[[135.28661762344777,34.72641390438542],[135.28776264774848,34.72680007943583]],[[135.28776264774848,34.72680007943583],[135.28880053527251,34.72455117767165]],[[135.27626553240157,34.68569515274605],[135.27585037739195,34.688159858214874]],[[135.27585037739195,34.688159858214874],[135.27568967222695,34.68938653190443]],[[135.27873637431364,34.689727274595974],[135.28947014012672,34.687978128779385],[135.29050802765076,34.681697105165284],[135.27502676342127,34.680129688784184]],[[135.25124239899947,34.72957145332705],[135.25068662697046,34.730059851184926],[135.24960186710663,34.735273214365534]],[[135.2508339400384,34.7364430976065],[135.2521329734556,34.73463716134132]],[[135.2521329734556,34.73463716134132],[135.25296997952336,34.73201344261644]],[[135.25296997952336,34.73201344261644],[135.25296997952336,34.730309729158726]],[[135.25296997952336,34.730309729158726],[135.2524075114458,34.72927614299438]],[[135.28304193352625,34.72526673732389],[135.28211787882742,34.72498278508094]],[[135.28211787882742,34.72498278508094],[135.2808925019442,34.727515639088075]],[[135.2808925019442,34.727515639088075],[135.28314237425437,34.72804946930482]],[[135.28314237425437,34.72804946930482],[135.28426731040946,34.72566427046402]],[[135.28426731040946,34.72566427046402],[135.28304193352625,34.72526673732389]],[[135.28314237425437,34.72804946930482],[135.28375171467172,34.72819712447116]],[[135.28375171467172,34.72819712447116],[135.28529850188497,34.72859465761129]],[[135.28529850188497,34.72859465761129],[135.28661762344777,34.72641390438542]],[[135.2854659030985,34.72605044551444],[135.28426731040946,34.72566427046402]],[[135.26219713441446,34.7370110020924],[135.26288682741432,34.736306800529874],[135.26093827728855,34.73310381922938]],[[135.26093827728855,34.73310381922938],[135.2594383624151,34.73247912429488]],[[135.2594383624151,34.73247912429488],[135.25968611621116,34.73270628608924]],[[135.2600878791237,34.73570482177482],[135.26219713441446,34.7370110020924]],[[135.26213017392905,34.7074458945562],[135.26049633808475,34.70762762399169]],[[135.26049633808475,34.70762762399169],[135.2601213593664,34.711159989894014]],[[135.28894784834043,34.736284084350444],[135.28957058085487,34.73749939995028],[135.28904159302002,34.74053200990501]],[[135.28904159302002,34.74053200990501],[135.29015313707802,34.740668306981625],[135.2912579850875,34.73735174478394],[135.2926708513299,34.7368860631055],[135.2919610701844,34.73565938941594]],[[135.2847962982443,34.72157535816551],[135.2840195566134,34.7232677135335]],[[135.2840195566134,34.7232677135335],[135.28644352618568,34.72388105037828]],[[135.2873073164476,34.72240449871493],[135.28711982708842,34.722324992086904]],[[135.2840195566134,34.7232677135335],[135.28304193352625,34.72526673732389]],[[135.24315357236054,34.72369932094279],[135.24277189759363,34.72926478490466]],[[135.24277189759363,34.72926478490466],[135.24401736262246,34.72940108198128]],[[135.24401736262246,34.72940108198128],[135.24445930182625,34.726777363256396],[135.24583868782594,34.72510772406784]],[[135.24583868782594,34.72510772406784],[135.24315357236054,34.72369932094279]],[[135.28864652615604,34.727084031678785],[135.2878496963795,34.72926478490466]],[[135.28989199118487,34.727481564818916],[135.28864652615604,34.727084031678785]],[[135.24936750540766,34.72773144279272],[135.24851041119427,34.72740205819089]],[[135.24851041119427,34.72740205819089],[135.2472582501169,34.72826527300947],[135.24737877899065,34.73045738432506],[135.24639445985494,34.73188850362954]],[[135.24639445985494,34.73188850362954],[135.24798811940798,34.73562531514679]],[[135.28160228308968,34.742417452798215],[135.2822384077012,34.74011176058544],[135.28241920101183,34.73571617986454],[135.28169602776927,34.733092461139655]],[[135.28169602776927,34.733092461139655],[135.28158219494406,34.732876657435014]],[[135.28158219494406,34.732876657435014],[135.27955998828432,34.73286529934529]],[[135.27955998828432,34.73286529934529],[135.27856227705152,34.73239961766685]],[[135.27856227705152,34.73239961766685],[135.27703557798392,34.7352504981861],[135.27908456883782,34.73681791456719],[135.27824756277005,34.739225829587426],[135.2767007755568,34.74006632822657],[135.27720297919748,34.741429298992735]],[[135.27720297919748,34.741429298992735],[135.2804773469346,34.74397351108959],[135.28160228308968,34.742417452798215]],[[135.28529850188497,34.72859465761129],[135.28672476022444,34.72896947457199]],[[135.28864652615604,34.727084031678785],[135.28776264774848,34.72680007943583]],[[135.2589629429686,34.713897289516076],[135.2565858457361,34.71477186242437]],[[135.2565858457361,34.71477186242437],[135.25628452355173,34.71543063162802]],[[135.25628452355173,34.71543063162802],[135.25556135030916,34.71733879070066]],[[135.25556135030916,34.71733879070066],[135.25721527429909,34.717600026764174]],[[135.25721527429909,34.717600026764174],[135.25868840497836,34.714510626360855]],[[135.25868840497836,34.714510626360855],[135.2589629429686,34.713897289516076]],[[135.24905948717472,34.71547606398689],[135.24788767867983,34.718860774722884]],[[135.24788767867983,34.718860774722884],[135.25009737469875,34.719235591683585]],[[135.25009737469875,34.719235591683585],[135.25149015279553,34.71621433981857]],[[135.25149015279553,34.71621433981857],[135.24905948717472,34.71547606398689]],[[135.2607574839779,34.70102857386548],[135.25526002812478,34.700619682635626],[135.25418866035804,34.70738910410761],[135.26048294598766,34.707604907812254]],[[135.24761314068962,34.70804787331126],[135.24470035957378,34.70808194758041],[135.24401736262246,34.71017183608854]],[[135.24401736262246,34.71017183608854],[135.2472783382625,34.71043307215206]],[[135.2472783382625,34.71043307215206],[135.24761314068962,34.70804787331126]],[[135.27986800651726,34.72425586733898],[135.27876985455634,34.723915124647434]],[[135.27876985455634,34.723915124647434],[135.2774641250906,34.72673193089752]],[[135.27864932568258,34.727015883140474],[135.28083893355586,34.727515639088075]],[[135.28083893355586,34.727515639088075],[135.2808925019442,34.727515639088075]],[[135.28211787882742,34.72498278508094],[135.27986800651726,34.72425586733898]],[[135.26123959947293,34.7152261860131],[135.26026197638578,34.718099782711775]],[[135.26026197638578,34.718099782711775],[135.26050973018184,34.71814521507064]],[[135.26050973018184,34.71814521507064],[135.26306762072494,34.71884941663317]],[[135.24814882457298,34.72368796285308],[135.24790107077692,34.72363117240448]],[[135.24790107077692,34.72363117240448],[135.24915992790287,34.72623217494993]],[[135.24915992790287,34.72623217494993],[135.24851041119427,34.72740205819089]],[[135.25253473636812,34.72648205292373],[135.25396769075613,34.72642526247513]],[[135.25396769075613,34.72642526247513],[135.2564519247653,34.7250850078884]],[[135.25851430771627,34.745756731175334],[135.2613467362496,34.74518882668943],[135.2650764352876,34.74555228556041],[135.2645206632586,34.742167574824414],[135.26246497635614,34.74052065181529],[135.26219713441446,34.7370110020924]],[[135.25749650833785,34.71112591562486],[135.25633809194005,34.71105776708655]],[[135.25633809194005,34.71105776708655],[135.25455694302784,34.71493087568042]],[[135.25455694302784,34.71493087568042],[135.25628452355173,34.71543063162802]],[[135.2565858457361,34.71477186242437],[135.25749650833785,34.71112591562486]],[[135.26972349297586,34.68751244710094],[135.26972349297586,34.68750108901123]],[[135.26282656297744,34.68932974145584],[135.26932842611188,34.689999868749204]],[[135.26932842611188,34.689999868749204],[135.26972349297586,34.68751244710094]],[[135.24401736262246,34.72940108198128],[135.24582529572885,34.7296055275962]],[[135.24582529572885,34.7296055275962],[135.2478809826313,34.7259027903481]],[[135.2478809826313,34.7259027903481],[135.24583868782594,34.72510772406784]],[[135.27131045648036,34.73193393598841],[135.27154481817934,34.73378530461246],[135.27350006435364,34.735670747505665]],[[135.27350006435364,34.735670747505665],[135.274825881965,34.73235418530798]],[[135.24277189759363,34.72926478490466],[135.24275850549654,34.73134331532307],[135.24493472127276,34.73160455138659]],[[135.24493472127276,34.73160455138659],[135.24582529572885,34.7296055275962]],[[135.3035184499682,34.71909929460696],[135.30535316726875,34.701164870942094],[135.30590224324922,34.701164870942094],[135.30961855019012,34.67190643182828],[135.25511271505684,34.6667044267374],[135.2507067151161,34.69422507812434],[135.25495200989184,34.69630360854275],[135.25329808590192,34.707820711516895],[135.2515972895722,34.707888860055206]],[[135.2515972895722,34.707888860055206],[135.2515504172324,34.70813873802901]],[[135.2515504172324,34.70813873802901],[135.25434936552304,34.708161454208444]],[[135.25434936552304,34.708161454208444],[135.25681351138655,34.708434048361674]],[[135.25681351138655,34.708434048361674],[135.25879554175503,34.707763921068306]],[[135.25879554175503,34.707763921068306],[135.26049633808475,34.70762762399169]],[[135.29118432855353,34.71716841935489],[135.29286503673762,34.71890620708176]],[[135.29286503673762,34.71890620708176],[135.2939765807956,34.71895163944063]],[[135.2939765807956,34.71895163944063],[135.295228741873,34.715464705897176],[135.29340072062098,34.71473778815522],[135.29228248051444,34.71206863707147],[135.29341411271807,34.70477674347245],[135.29469305798963,34.70423155516598],[135.29699649868812,34.704969830997655],[135.30403404570595,34.70573082300877],[135.30321043173527,34.71680496048391],[135.2983892767849,34.71752052013615],[135.2942912950771,34.719076578427526]],[[135.2942912950771,34.719076578427526],[135.30047174788152,34.71964448291343]],[[135.30047174788152,34.71964448291343],[135.3035184499682,34.71909929460696]],[[135.2693150340148,34.6900566591978],[135.26932842611188,34.689999868749204]],[[135.25633809194005,34.71105776708655],[135.25505914666851,34.710978260458525]],[[135.25505914666851,34.710978260458525],[135.25353914364945,34.714567416809444]],[[135.25353914364945,34.714567416809444],[135.2535056634067,34.714635565347756]],[[135.2535056634067,34.714635565347756],[135.25455694302784,34.71493087568042]],[[135.25425562084345,34.708683926335475],[135.2538471618824,34.710887395740784]],[[135.2538471618824,34.710887395740784],[135.25505914666851,34.710978260458525]],[[135.25505914666851,34.710978260458525],[135.25543412538687,34.7086384939766],[135.25425562084345,34.708683926335475]],[[135.29107049572832,34.722393140625215],[135.29003260820429,34.72195017512621]],[[135.29003260820429,34.72195017512621],[135.2894835322238,34.72312005836717]],[[135.28880053527251,34.72455117767165],[135.29097005500017,34.72522130496502]],[[135.29097005500017,34.72522130496502],[135.29202803066983,34.72280203185506]],[[135.29202803066983,34.72280203185506],[135.29107049572832,34.722393140625215]],[[135.2601213593664,34.711159989894014],[135.25749650833785,34.71112591562486]],[[135.2589629429686,34.713897289516076],[135.25898972716277,34.713863215246924]],[[135.2799215749056,34.729469230519584],[135.27955998828432,34.73286529934529]],[[135.28158219494406,34.732876657435014],[135.28268034690495,34.731990726437004],[135.2828477481185,34.729844047480285]],[[135.2828477481185,34.729844047480285],[135.2799215749056,34.729469230519584]],[[135.30047174788152,34.71966719909287],[135.2982486597655,34.71996250942554]],[[135.2982486597655,34.71996250942554],[135.29713711570753,34.72316549072604]],[[135.29713711570753,34.72316549072604],[135.2980544743578,34.72354030768674]],[[135.2980544743578,34.72354030768674],[135.29904548954204,34.72394919891659]],[[135.29904548954204,34.72394919891659],[135.30047174788152,34.71966719909287]],[[135.29147225864085,34.73019614826154],[135.29467966589255,34.731036646900684]],[[135.29467966589255,34.731036646900684],[135.29588495463014,34.73135467341279],[135.29553676010593,34.729287501084094]],[[135.29553676010593,34.729287501084094],[135.29223560817465,34.728219840650596]],[[135.2938158756306,34.73292208979389],[135.29467966589255,34.731036646900684]],[[135.282928100701,34.72982133130085],[135.2828477481185,34.729844047480285]],[[135.28169602776927,34.733092461139655],[135.28432087879779,34.733580858997534]],[[135.28621586053524,34.73034380342788],[135.282928100701,34.72982133130085]],[[135.25681351138655,34.708434048361674],[135.25633809194005,34.71105776708655]],[[135.25749650833785,34.71112591562486],[135.25879554175503,34.707763921068306]],[[135.25241420749435,34.7142266741179],[135.25149015279553,34.71621433981857]],[[135.25149015279553,34.71621433981857],[135.25271552967874,34.71655508251011]],[[135.25271552967874,34.71655508251011],[135.2535056634067,34.714635565347756]],[[135.25353914364945,34.714567416809444],[135.25241420749435,34.7142266741179]],[[135.24441242948646,34.72280203185506],[135.24315357236054,34.72369932094279]],[[135.2478809826313,34.7259027903481],[135.24915992790287,34.72623217494993]],[[135.24790107077692,34.72363117240448],[135.24441242948646,34.72280203185506]],[[135.28989199118487,34.727481564818916],[135.29097005500017,34.72522130496502]],[[135.282928100701,34.72982133130085],[135.28375171467172,34.72819712447116]],[[135.28083893355586,34.727515639088075],[135.2799215749056,34.729469230519584]],[[135.26972349297586,34.68751244710094],[135.27585037739195,34.688159858214874]],[[135.2581995934348,34.727015883140474],[135.2576906937456,34.728651448059885]],[[135.2576906937456,34.728651448059885],[135.25805228036685,34.73037787769703]],[[135.25805228036685,34.73037787769703],[135.25880893385212,34.73028701297929]],[[135.25880893385212,34.73028701297929],[135.25894285482298,34.73004849309521]],[[135.25894285482298,34.73004849309521],[135.26093158124,34.72820848256087]],[[135.26093158124,34.72820848256087],[135.26097845357978,34.72786773986933]],[[135.26097845357978,34.72786773986933],[135.2581995934348,34.727015883140474]],[[135.25805228036685,34.73037787769703],[135.25675324694967,34.73059368140168],[135.25554126216355,34.733455920010634]],[[135.25554126216355,34.733455920010634],[135.25558813450334,34.734228270111466]],[[135.25558813450334,34.734228270111466],[135.25523993997916,34.73575025413369]],[[135.2594383624151,34.73247912429488],[135.25880893385212,34.73028701297929]],[[135.27758465396437,34.7235175915073],[135.27876985455634,34.723915124647434]],[[135.27986800651726,34.72425586733898],[135.28069831653647,34.72229091781775]],[[135.25425562084345,34.708683926335475],[135.25434936552304,34.708161454208444]],[[135.2515504172324,34.70813873802901],[135.2509946452034,34.71068295012586]],[[135.2509946452034,34.71068295012586],[135.2510080373005,34.71069430821557]],[[135.2510080373005,34.71069430821557],[135.25375341720277,34.710887395740784]],[[135.25375341720277,34.710887395740784],[135.2538471618824,34.710887395740784]],[[135.2492335844368,34.74196312920949],[135.25268204943603,34.74353054559059],[135.25418866035804,34.74314437054017]],[[135.25378020139695,34.74019126721347],[135.25316416493106,34.73956657227897]],[[135.25376011325133,34.7168617509325],[135.25271552967874,34.71655508251011]],[[135.25271552967874,34.71655508251011],[135.25166425005762,34.719235591683585]],[[135.25166425005762,34.719235591683585],[135.2528360585525,34.71917880123499]],[[135.2528360585525,34.71917880123499],[135.25376011325133,34.7168617509325]],[[135.27856227705152,34.73239961766685],[135.27508702785815,34.73228603676967]],[[135.27350006435364,34.735670747505665],[135.27285054764505,34.737045076361554],[135.2740491403341,34.73837397285857],[135.2735201524993,34.73987324070136]],[[135.2735201524993,34.73987324070136],[135.2754954868192,34.74166781887682],[135.27720297919748,34.741429298992735]],[[135.2510080373005,34.71069430821557],[135.2497893564658,34.71342024974792]],[[135.2497893564658,34.71342024974792],[135.25241420749435,34.7142266741179]],[[135.25241420749435,34.7142266741179],[135.25375341720277,34.710887395740784]],[[135.25556135030916,34.71733879070066],[135.25485826521225,34.719076578427526]],[[135.2569474323574,34.7189970717995],[135.25721527429909,34.717600026764174]],[[135.28160228308968,34.742417452798215],[135.2833499517592,34.74239473661878],[135.2851311006714,34.73987324070136],[135.2854190307587,34.736034206376644]],[[135.30047174788152,34.71966719909287],[135.30047174788152,34.71964448291343]],[[135.2942912950771,34.719076578427526],[135.2939765807956,34.71895163944063]],[[135.29286503673762,34.71890620708176],[135.29159948356315,34.72087115660299]],[[135.29159948356315,34.72087115660299],[135.29511490904778,34.72233635017662]],[[135.29511490904778,34.72233635017662],[135.29682909747459,34.71998522560498],[135.2982486597655,34.71996250942554]],[[135.26050973018184,34.71814521507064],[135.26065034720122,34.71901978797894]],[[135.26065034720122,34.71901978797894],[135.26298726814244,34.71951954392654]],[[135.29097005500017,34.72522130496502],[135.29331367198995,34.72592550652754]],[[135.29331367198995,34.72592550652754],[135.2943381674169,34.723801543750255]],[[135.2943381674169,34.723801543750255],[135.29202803066983,34.72280203185506]],[[135.2581995934348,34.727015883140474],[135.25566848708584,34.72728847729371],[135.25396769075613,34.72642526247513]],[[135.25296997952336,34.730309729158726],[135.2576906937456,34.728651448059885]],[[135.25009737469875,34.719235591683585],[135.25166425005762,34.719235591683585]],[[135.2799215749056,34.729469230519584],[135.27692844120725,34.72924206872522]],[[135.29904548954204,34.72394919891659],[135.30154311564826,34.72494871081178]],[[135.30154311564826,34.72494871081178],[135.3035184499682,34.71909929460696]],[[135.28069831653647,34.72229091781775],[135.2840195566134,34.7232677135335]],[[135.26348947178312,34.72400598936518],[135.266094234666,34.72105288603848]],[[135.266094234666,34.72105288603848],[135.2661544991029,34.72097337941045]],[[135.25376011325133,34.7168617509325],[135.25455694302784,34.71493087568042]],[[135.26093827728855,34.73310381922938],[135.2645407514042,34.7314228219511],[135.26416577268586,34.730729978478294]],[[135.26416577268586,34.730729978478294],[135.26254532893867,34.73108207925956],[135.25894285482298,34.73004849309521]],[[135.26626163587957,34.724880562273476],[135.26348947178312,34.72400598936518]],[[135.2622507028028,34.72559612192571],[135.2671254261415,34.72698180887132]],[[135.26895344739353,34.72557340574628],[135.26626163587957,34.724880562273476]],[[135.27420984549912,34.72255215388127],[135.272997860713,34.725244021144455]],[[135.27519416463483,34.726027729335],[135.276493198052,34.72317684881576]],[[135.266094234666,34.72105288603848],[135.2676678060734,34.722052397933666]],[[135.2676678060734,34.722052397933666],[135.26898692763623,34.72280203185506]],[[135.26898692763623,34.72280203185506],[135.26965653249044,34.72130276401227]],[[135.2613467362496,34.72681143752555],[135.26097845357978,34.72786773986933]],[[135.26093158124,34.72820848256087],[135.26290691555994,34.72940108198128],[135.26519696416136,34.72967367613451]],[[135.26577282433598,34.72825391491975],[135.26348277573456,34.72798132076652],[135.2613467362496,34.72681143752555]],[[135.24493472127276,34.73160455138659],[135.24639445985494,34.73188850362954]],[[135.2581995934348,34.727015883140474],[135.25814602504644,34.72489192036319]],[[135.2888474076123,34.721439061088894],[135.29003260820429,34.72195017512621]],[[135.29107049572832,34.722393140625215],[135.29159948356315,34.72087115660299]],[[135.29159948356315,34.72087115660299],[135.28984511884508,34.72001929987413]],[[135.25558813450334,34.734228270111466],[135.2517379065916,34.735920625479466],[135.2521329734556,34.73463716134132]],[[135.26416577268586,34.730729978478294],[135.26498938665654,34.73027565488957]],[[135.26898692763623,34.72280203185506],[135.27098904615033,34.72406277981377]],[[135.27098904615033,34.72406277981377],[135.2719532771404,34.72192745894677]],[[135.2622507028028,34.72559612192571],[135.2613467362496,34.72681143752555]],[[135.25721527429909,34.717600026764174],[135.26026197638578,34.718099782711775]],[[135.26123959947293,34.7152261860131],[135.25868840497836,34.714510626360855]],[[135.29511490904778,34.72233635017662],[135.29713711570753,34.72316549072604]],[[135.2943381674169,34.723801543750255],[135.29511490904778,34.72233635017662]],[[135.25834021045418,34.74638142610983],[135.2600878791237,34.748244152823595]],[[135.2600878791237,34.748244152823595],[135.26476172100612,34.74892563820668],[135.26577282433598,34.74715377621066],[135.2680160005976,34.74677895924996],[135.2722545993248,34.74328066761679],[135.2736674655672,34.74138386663387],[135.2735201524993,34.73987324070136]],[[135.29658803972706,34.72693637651245],[135.2964206385135,34.727322551562864]],[[135.2964206385135,34.727322551562864],[135.2997217904448,34.72864008997016],[135.30075967796884,34.72655020146203]],[[135.30075967796884,34.72655020146203],[135.29737817345503,34.725119082157555]],[[135.29737817345503,34.725119082157555],[135.29658803972706,34.72693637651245]],[[135.2497893564658,34.71342024974792],[135.24944785799016,34.714101735131]],[[135.24944785799016,34.714101735131],[135.24905948717472,34.71547606398689]],[[135.29223560817465,34.728219840650596],[135.29331367198995,34.72592550652754]],[[135.29553676010593,34.729287501084094],[135.2964206385135,34.727322551562864]],[[135.29658803972706,34.72693637651245],[135.29331367198995,34.72592550652754]],[[135.25296997952336,34.73201344261644],[135.25554126216355,34.733455920010634]],[[135.2943381674169,34.723801543750255],[135.29737817345503,34.725119082157555]],[[135.29737817345503,34.725119082157555],[135.2980544743578,34.72354030768674]],[[135.2600878791237,34.748244152823595],[135.26176189125923,34.75153799884184],[135.2601682317062,34.75362788734997],[135.2603289368712,34.75603580237021],[135.25830003416291,34.75768272537933],[135.25836699464836,34.759102486594095],[135.25630461169735,34.75981804624633],[135.25517967554228,34.762657568675856],[135.25364628042612,34.76275979148332],[135.25980664508492,34.76729166928084],[135.25677333509532,34.771369223489636],[135.25834021045418,34.772005276513845],[135.2612462955215,34.77544677769843],[135.26392471493836,34.7766848094777],[135.263710441385,34.777956915526126],[135.26538445352054,34.77816136114105],[135.2668374960542,34.78027396582862],[135.2694757391798,34.77612826308152],[135.27132384857745,34.770471934401904],[135.27593072997445,34.76646252873142],[135.27750430138187,34.764224985056956],[135.27781901566334,34.76179435385728],[135.27959346852703,34.76144225307602],[135.2808255414588,34.75882989244086],[135.28057778766274,34.75500221620586],[135.28113355969174,34.75396863004151],[135.2799550551483,34.75186738344367],[135.28123400041986,34.75074293256157],[135.28728722830198,34.747846619683465],[135.28936300335005,34.7448594420876],[135.28435435904052,34.74457548984465],[135.2878630884766,34.7407818878788],[135.28904159302002,34.74053200990501]],[[135.2515972895722,34.707888860055206],[135.24761314068962,34.70804787331126]],[[135.2472783382625,34.71043307215206],[135.2509946452034,34.71068295012586]],[[135.30075967796884,34.72655020146203],[135.30154311564826,34.72494871081178]],[[135.24401736262246,34.71017183608854],[135.24336784591387,34.71177332673879],[135.24653507687432,34.71277283863399]],[[135.24653507687432,34.71277283863399],[135.2472783382625,34.71043307215206]],[[135.26626163587957,34.724880562273476],[135.2676678060734,34.722052397933666]],[[135.24788767867983,34.718860774722884],[135.24701719236936,34.72007609032272]],[[135.24701719236936,34.72007609032272],[135.24948803428143,34.720768933795526]],[[135.25556135030916,34.71733879070066],[135.25376011325133,34.7168617509325]],[[135.24701719236936,34.72007609032272],[135.24441242948646,34.72280203185506]],[[135.24653507687432,34.71277283863399],[135.24944785799016,34.714101735131]]]}