{"type":"Topology","bbox":[135.01874066875678,34.62415592659392,135.09622519307646,34.676685868951715],"objects":{"town":{"type":"GeometryCollection","geometries":[{"type":"MultiPolygon","arcs":[[[125,179,13,157,158,155,156,15,165,166,128,124,4,5,6,7,0,1,8,9]]],"properties":{"name":"青山台"}},{"type":"MultiPolygon","arcs":[[[196,197,40,35,36,37,38,198,199,215,214,183,19,223,220,221,222,17,184,211,212]]],"properties":{"name":"狩口台"}},{"type":"MultiPolygon","arcs":[[[87,88,89,90,370,23,654,-328,-381,-253,93,94]]],"properties":{"name":"北舞子"}},{"type":"MultiPolygon","arcs":[[[-172,216,217,218,190,27,28,29,30,25,191,188,219]]],"properties":{"name":"上高丸"}},{"type":"MultiPolygon","arcs":[[[160,161,162,163,159,33,81,82,83,147,148,149,150]]],"properties":{"name":"歌敷山"}},{"type":"MultiPolygon","arcs":[[[85,174,175,176,177,178,58,59,60,46,41,42,43,152,153,154]]],"properties":{"name":"泉が丘"}},{"type":"MultiPolygon","arcs":[[[375,376,-433,48,49,50,-570,-593,378]]],"properties":{"name":"向陽"}},{"type":"MultiPolygon","arcs":[[[63,64,65,66,61,51,52,53,167,168,169,170,171,172,173]]],"properties":{"name":"旭が丘"}},{"type":"MultiPolygon","arcs":[[[132,133,181,182,180,143,67,68,69,135,136]]],"properties":{"name":"大町"}},{"type":"Polygon","arcs":[[72,73,74,75,76,77,78,79]],"properties":{"name":"海岸通"}},{"type":"Polygon","arcs":[[95,96,97,98,99,100]],"properties":{"name":"神田町"}},{"type":"MultiPolygon","arcs":[[[192,102,103,104,105,213,210,114,193]]],"properties":{"name":"川原"}},{"type":"MultiPolygon","arcs":[[[-75,360,250,-148,-84,-116,-120,122,110,-146,-265,439,-98,-79,-78,-77,-76]]],"properties":{"name":"五色山"}},{"type":"MultiPolygon","arcs":[[[-34,-160,-164,206,207,208,204,205,140,141,146,145,-111,-123,119,115,-83,-82]]],"properties":{"name":"霞ケ丘"}},{"type":"MultiPolygon","arcs":[[[625,-194,-115,-211,-214,230,418,-298,232,226,359,-383]]],"properties":{"name":"坂上"}},{"type":"MultiPolygon","arcs":[[[576,521,659,587,588,-663,-354,798,524,229,510,511]]],"properties":{"name":"つつじが丘"}},{"type":"MultiPolygon","arcs":[[[267,268,-283,422,423,235,270,271]]],"properties":{"name":"塩屋台"}},{"type":"MultiPolygon","arcs":[[[-173,-220,-189,-192,-26,262,284,285,286,-136,-70,-69,471,464,465,466,-66,-65,-64,-174]]],"properties":{"name":"高丸"}},{"type":"MultiPolygon","arcs":[[[467,369,-208,-207,-163,251,-94,252,380,327,328,507,242,243,244,245,246,247,420]]],"properties":{"name":"星陵台"}},{"type":"MultiPolygon","arcs":[[[-60,-59,-179,505,506,448,449,387,388,-346,385,255,-47,-61]]],"properties":{"name":"城が山"}},{"type":"MultiPolygon","arcs":[[[-168,-54,-53,263,264,-147,-142,-141,-206,-513,-169]]],"properties":{"name":"仲田"}},{"type":"MultiPolygon","arcs":[[[435,364,365,366,434,410,407,548,487,-401,483,484,485,480,272,273,371]]],"properties":{"name":"神陵台"}},{"type":"MultiPolygon","arcs":[[[412,519,-423,282,-269,278,440]]],"properties":{"name":"塩屋北町"}},{"type":"MultiPolygon","arcs":[[[-224,-20,-184,-215,-216,-200,-199,-39,518,461,462,306,302,303,291,292,287,-222,-221]]],"properties":{"name":"西舞子"}},{"type":"MultiPolygon","arcs":[[[571,293,-247,294,-29,-28,-191,-219]]],"properties":{"name":"千代が丘"}},{"type":"MultiPolygon","arcs":[[[381,382,-360,-227,-233,297,298,299,615,-530,616,617,614,301,421,395,392,442,441,384]]],"properties":{"name":"中道"}},{"type":"MultiPolygon","arcs":[[[443,444,565,-411,-435,-367,566,473,474,310,311,312,313,446]]],"properties":{"name":"多聞台"}},{"type":"MultiPolygon","arcs":[[[430,431,-49,432,-377,433,-286,-285,-263,-31,318,331,332]]],"properties":{"name":"千鳥が丘"}},{"type":"MultiPolygon","arcs":[[[-319,-30,-295,-246,514,321,322,323,324,515,-332]]],"properties":{"name":"潮見が丘"}},{"type":"Polygon","arcs":[[334,335,336,-231,-106]],"properties":{"name":"御霊町"}},{"type":"MultiPolygon","arcs":[[[342,350,344,345,-389,572,573,574,661,-7,-6,-5,-125,-129,-167,584,-456,585,428,-272,429,438]]],"properties":{"name":"塩屋町"}},{"type":"Polygon","arcs":[[351,352,353,354]],"properties":{"name":"下畑町"}},{"type":"MultiPolygon","arcs":[[[-559,402,399,400,-488,-549,-408,-566,-445]]],"properties":{"name":"西脇"}},{"type":"Polygon","arcs":[[403,-293,404,405,406,-149,-251,-361,-74]],"properties":{"name":"東舞子町"}},{"type":"MultiPolygon","arcs":[[[-405,-292,-304,-303,-307,-722,-88,-95,-252,-162,-161,-151,-150,-407,-406]]],"properties":{"name":"舞子台"}},{"type":"Polygon","arcs":[[455,456,457]],"properties":{"name":"東垂水町"}},{"type":"MultiPolygon","arcs":[[[469,579,577,706,707,708]]],"properties":{"name":"神和台"}},{"type":"MultiPolygon","arcs":[[[-536,-103,-193,-626,-382,687,-43,-42,-256,-386,-345,609,667,477,478,-705,-96,-537],[479]]],"properties":{"name":"平磯"}},{"type":"Polygon","arcs":[[488,489,490,491,492,493,494,495,496,497,498,499,500,501,502,503,504]],"properties":{"name":"多聞町"}},{"type":"MultiPolygon","arcs":[[[-217,-171,-170,512,-205,-209,-370,-468,-421,-248,-294,-572,-218]]],"properties":{"name":"星が丘"}},{"type":"Polygon","arcs":[[525,526,-466,527,528,529]],"properties":{"name":"馬場通"}},{"type":"MultiPolygon","arcs":[[[-137,-287,-434,-376,-379,592,569,-51,-50,-432,534,532,570,567,593,651,650,550,551,-133]]],"properties":{"name":"福田"}},{"type":"MultiPolygon","arcs":[[[-104,535,536,-101,698,-646,-335,-105]]],"properties":{"name":"日向"}},{"type":"MultiPolygon","arcs":[[[-556,653,540,541,542,-244,538,652,594,595,596,597,-557]]],"properties":{"name":"清水が丘"}},{"type":"MultiPolygon","arcs":[[[-500,-499,546,797,-738,720,-501]]],"properties":{"name":"小束山手"}},{"type":"MultiPolygon","arcs":[[[-493,-492,640,-750,715,716,-603,-312,-311,-475,-474,-567,-366,793,-495,-494]]],"properties":{"name":"舞多聞西"}},{"type":"MultiPolygon","arcs":[[[-313,602,603,604,600,611,582,-542,-541,-654,555,556,557,-403,558,-444,-447,-314]]],"properties":{"name":"本多聞"}},{"type":"Polygon","arcs":[[-440,-264,-52,-62,590,-99]],"properties":{"name":"天ノ下町"}},{"type":"MultiPolygon","arcs":[[[613,-457,-585,-166,-16,-157,-156,809]]],"properties":{"name":"松風台"}},{"type":"MultiPolygon","arcs":[[[699,-744,-489,-679,-674,628,629,-778,-788,790,631,626,-748,701,702,703]]],"properties":{"name":"小束山本町"}},{"type":"MultiPolygon","arcs":[[[803,-786,-755,-774,633,634,779,-571,-533,778,-158,-14,-180,-126,-10,-9,-2]]],"properties":{"name":"美山台"}},{"type":"MultiPolygon","arcs":[[[-322,-515,-245,-543,-583,-612,-601,-605,782,-745,-704,-703,-702,747,-627,748,742,639,-324,-323]]],"properties":{"name":"学が丘"}},{"type":"Polygon","arcs":[[645,646,-467,-527,647,648,-336]],"properties":{"name":"瑞ケ丘"}},{"type":"MultiPolygon","arcs":[[[-688,-385,-442,-443,-393,-396,-422,-302,-615,-618,-617,-529,-712,-183,-182,-134,-552,801,-670,-772,-771,-770,-769,-784,-177,-176,-175,-86,-155,-154,-153,-44]]],"properties":{"name":"山手"}},{"type":"Polygon","arcs":[[-355,662,-589,663]],"properties":{"name":"名谷町"}},{"type":"MultiPolygon","arcs":[[[-804,-1,804,-574,-573,-388,-450,-449,-507,-785,-752,785]]],"properties":{"name":"王居殿"}},{"type":"MultiPolygon","arcs":[[[669,670,671,-753,784,-506,-178,783,768,769,770,771]]],"properties":{"name":"東垂水"}},{"type":"MultiPolygon","arcs":[[[-505,-504,-503,-502,-721,737,738,-708,-707,-578,788,787,777,-630,-629,673,678]]],"properties":{"name":"小束山"}},{"type":"MultiPolygon","arcs":[[[-525,-799,-353,802,800,796,756,727,760,-511,-230]]],"properties":{"name":"桃山台"}},{"type":"MultiPolygon","arcs":[[[683,730,-273,-481,-486,-485,-484,-400,-558,-598,-597,736,-36,-41,-198,-197,-213,765]]],"properties":{"name":"南多聞台"}},{"type":"Polygon","arcs":[[-299,-419,-337,-649,688]],"properties":{"name":"清水通"}},{"type":"Polygon","arcs":[[694]],"properties":{"name":"朝谷町"}},{"type":"MultiPolygon","arcs":[[[721,-463,-462,-519,-38,-37,-737,-596,-713,697,-90,-89]]],"properties":{"name":"舞子坂"}},{"type":"Polygon","arcs":[[-80,-97,704,-479,705]],"properties":{"name":"宮本町"}},{"type":"Polygon","arcs":[[-528,-465,-472,-68,-144,-181,711]],"properties":{"name":"野田通"}},{"type":"Polygon","arcs":[[-595,-653,-539,-243,-508,-329,-655,-24,-371,-91,-698,712]],"properties":{"name":"舞子陵"}},{"type":"MultiPolygon","arcs":[[[-716,749,-641,-491,-490,743,-700,744,-783,-604,-717]]],"properties":{"name":"舞多聞東"}},{"type":"MultiPolygon","arcs":[[[775,-634,773,754,751,752,-672,-671,-802,-551,-651,808]]],"properties":{"name":"乙木"}},{"type":"Polygon","arcs":[[-497,759]],"properties":{"name":"小束台"}},{"type":"Polygon","arcs":[[-300,-689,-648,-526,-616]],"properties":{"name":"瑞穂通"}},{"type":"Polygon","arcs":[[-591,-67,-647,-699,-100]],"properties":{"name":"陸ノ町"}},{"type":"Polygon","arcs":[[806]],"properties":{"name":"清玄町"}}]}},"arcs":[[[135.07201660682037,34.63682741583955],[135.0720631021845,34.6375313874643]],[[135.0720631021845,34.6375313874643],[135.07196236222887,34.639869203680846]],[[135.07196236222887,34.639869203680846],[135.0741476443429,34.640399809159206]],[[135.0741476443429,34.640399809159206],[135.07690636928118,34.641088020225205]],[[135.07690636928118,34.641088020225205],[135.07708460151034,34.64060469642313]],[[135.07708460151034,34.64060469642313],[135.0774023198319,34.63977464032827]],[[135.0774023198319,34.63977464032827],[135.07602295736274,34.638151302775654]],[[135.07602295736274,34.638151302775654],[135.0730395048312,34.638119781658126],[135.07201660682037,34.63682741583955]],[[135.07196236222887,34.639869203680846],[135.07194686377417,34.6399322459159]],[[135.07194686377417,34.6399322459159],[135.07158265008852,34.640961935755094]],[[135.07158265008852,34.640961935755094],[135.07357420151865,34.64187604816336]],[[135.07357420151865,34.64187604816336],[135.0741476443429,34.640399809159206]],[[135.07260554809932,34.64473921633868],[135.07065274280595,34.64422437141908]],[[135.07065274280595,34.64422437141908],[135.07048225980412,34.6463993285284]],[[135.07048225980412,34.6463993285284],[135.07333397547066,34.64684062417378],[135.07759605051575,34.64677232841913]],[[135.07759605051575,34.64677232841913],[135.07732482755833,34.645695356903644]],[[135.07732482755833,34.645695356903644],[135.07260554809932,34.64473921633868]],[[135.0199495482241,34.64279016057163],[135.01874066875678,34.64330500549123],[135.02029826345506,34.6471295677511]],[[135.02029826345506,34.6471295677511],[135.02163887978745,34.64659896227274]],[[135.02163887978745,34.64659896227274],[135.02352194203462,34.64451331499641]],[[135.02352194203462,34.64451331499641],[135.0199495482241,34.64279016057163]],[[135.04151564795225,34.64066248513859],[135.03978757025214,34.641455766596344]],[[135.03978757025214,34.641455766596344],[135.03977207179744,34.642853202806684]],[[135.03977207179744,34.642853202806684],[135.04163963558992,34.64329975197164]],[[135.04163963558992,34.64329975197164],[135.04151564795225,34.64066248513859]],[[135.0565801459298,34.643898653204644],[135.05651815211095,34.64379883633247]],[[135.05651815211095,34.64379883633247],[135.05464283909112,34.644797005054144]],[[135.05464283909112,34.644797005054144],[135.05265903688831,34.64503341343559]],[[135.05265903688831,34.64503341343559],[135.05395315785654,34.647565609876885]],[[135.05395315785654,34.647565609876885],[135.05833147131196,34.64679334249748]],[[135.05833147131196,34.64679334249748],[135.0565801459298,34.643898653204644]],[[135.0397255764333,34.634610430573524],[135.0401052885737,34.637042810142646]],[[135.0401052885737,34.637042810142646],[135.0429802519223,34.63646492298799]],[[135.0429802519223,34.63646492298799],[135.04287951196667,34.63551403594261]],[[135.04287951196667,34.63551403594261],[135.0397255764333,34.634610430573524]],[[135.03239480735576,34.64997172184807],[135.03259628726698,34.649719552907854]],[[135.03259628726698,34.649719552907854],[135.03254979190285,34.649688031790326]],[[135.03254979190285,34.649688031790326],[135.03168962766648,34.649157426311966]],[[135.03168962766648,34.649157426311966],[135.02959733628072,34.64837465189339],[135.02844270140486,34.6489315249697]],[[135.02844270140486,34.6489315249697],[135.02920212568563,34.65062315827694]],[[135.02920212568563,34.65062315827694],[135.03239480735576,34.64997172184807]],[[135.06756080109142,34.6294357137796],[135.06470133619752,34.6290469533301]],[[135.06470133619752,34.6290469533301],[135.06459284701455,34.629514516573416]],[[135.06459284701455,34.629514516573416],[135.0650655498832,34.63026576987446]],[[135.0650655498832,34.63026576987446],[135.06622018475906,34.63133748787036]],[[135.06622018475906,34.63133748787036],[135.06750655649992,34.631447811781705]],[[135.06750655649992,34.631447811781705],[135.06756080109142,34.6294357137796]],[[135.06486406997197,34.6451594979057],[135.06343046291136,34.64574789209953]],[[135.06343046291136,34.64574789209953],[135.06479432692578,34.64755510283771],[135.0659722094837,34.64735546909337]],[[135.0659722094837,34.64735546909337],[135.06569323729892,34.64669352562532]],[[135.06569323729892,34.64669352562532],[135.06486406997197,34.6451594979057]],[[135.0522328293838,34.63218855804357],[135.05104719759854,34.631999431338414]],[[135.05104719759854,34.631999431338414],[135.05031102099983,34.6336753040869]],[[135.05031102099983,34.6336753040869],[135.0500940426339,34.63647017650758]],[[135.0500940426339,34.63647017650758],[135.05219408324703,34.6364596694684]],[[135.05219408324703,34.6364596694684],[135.05137266514743,34.63422167012403],[135.0522328293838,34.63218855804357]],[[135.06622018475906,34.63133748787036],[135.0660419525299,34.633549219616796]],[[135.0660419525299,34.633549219616796],[135.06747555959052,34.63374885336113]],[[135.06747555959052,34.63374885336113],[135.06749105804522,34.63360700833226]],[[135.06749105804522,34.63360700833226],[135.06750655649992,34.632535290336364]],[[135.06750655649992,34.632535290336364],[135.06750655649992,34.631447811781705]],[[135.05306199671077,34.63194164262295],[135.0522328293838,34.63218855804357]],[[135.05219408324703,34.6364596694684],[135.05332547044083,34.63683266935914]],[[135.05332547044083,34.63683266935914],[135.0537904240821,34.635524542981784]],[[135.0537904240821,34.635524542981784],[135.05426312695073,34.63403779693846]],[[135.05426312695073,34.63403779693846],[135.0551620373239,34.63335483939205]],[[135.0551620373239,34.63335483939205],[135.05306199671077,34.63194164262295]],[[135.0597418306905,34.63651220466428],[135.05878092649854,34.636890458074596]],[[135.05878092649854,34.636890458074596],[135.05997430751117,34.63875545752825]],[[135.05997430751117,34.63875545752825],[135.06054775033542,34.63902338702722]],[[135.06054775033542,34.63902338702722],[135.06026877815063,34.638298401324114]],[[135.06026877815063,34.638298401324114],[135.0597418306905,34.63651220466428]],[[135.05179887265194,34.627076883484705],[135.05164388810485,34.624434363132075],[135.04560723999555,34.62476008134651],[135.03874142455928,34.62796998181462],[135.03638565944343,34.62860565768474],[135.03657164089995,34.62961433344558]],[[135.03657164089995,34.62961433344558],[135.0393536135203,34.62960382640641]],[[135.0393536135203,34.62960382640641],[135.04049274994142,34.62914151668269]],[[135.04049274994142,34.62914151668269],[135.04624267663863,34.628495333773394]],[[135.04624267663863,34.628495333773394],[135.04764528678982,34.62854786896927]],[[135.04764528678982,34.62854786896927],[135.05063648854875,34.62888934774247]],[[135.05063648854875,34.62888934774247],[135.0517368788331,34.628999671653816]],[[135.0517368788331,34.628999671653816],[135.05179887265194,34.627076883484705]],[[135.03950084884002,34.633039628216785],[135.0397255764333,34.634610430573524]],[[135.04287951196667,34.63551403594261],[135.04265478437338,34.63396950118381]],[[135.04265478437338,34.63396950118381],[135.04243005678012,34.6327349240807]],[[135.04243005678012,34.6327349240807],[135.03950084884002,34.633039628216785]],[[135.06622018475906,34.63133748787036],[135.06427512869303,34.631295459713655]],[[135.06427512869303,34.631295459713655],[135.0640891472365,34.63244598050337]],[[135.0640891472365,34.63244598050337],[135.0660419525299,34.633549219616796]],[[135.03857094155745,34.641082766705615],[135.03544025370616,34.6422437945345],[135.03374317291548,34.64191282280048],[135.0328520117697,34.643031822472665]],[[135.0328520117697,34.643031822472665],[135.03497530006487,34.64309486470772]],[[135.03497530006487,34.64309486470772],[135.03685836231207,34.64325247029535]],[[135.03685836231207,34.64325247029535],[135.03773402500315,34.643010808394315]],[[135.03773402500315,34.643010808394315],[135.0371993283157,34.64218075229945],[135.03978757025214,34.641455766596344]],[[135.04151564795225,34.64066248513859],[135.04175587400024,34.64063621754065]],[[135.04175587400024,34.64063621754065],[135.042383561416,34.64016340077776]],[[135.042383561416,34.64016340077776],[135.03857094155745,34.641082766705615]],[[135.05520078346066,34.62925709411361],[135.05462734063642,34.629162530761036]],[[135.05462734063642,34.629162530761036],[135.0517368788331,34.628999671653816]],[[135.0517368788331,34.628999671653816],[135.05169813269634,34.62931488282908]],[[135.05169813269634,34.62931488282908],[135.0531239905296,34.6303340656291]],[[135.0531239905296,34.6303340656291],[135.05535576800776,34.63085941758788]],[[135.05535576800776,34.63085941758788],[135.05520078346066,34.62925709411361]],[[135.0579982545357,34.63038134730539],[135.05787426689804,34.62954603769094]],[[135.05787426689804,34.62954603769094],[135.05761079316798,34.629530277132176]],[[135.05761079316798,34.629530277132176],[135.05780452385184,34.6308489105487]],[[135.05780452385184,34.6308489105487],[135.0581687375375,34.63247224810131]],[[135.0581687375375,34.63247224810131],[135.05940861391426,34.63291354374668]],[[135.05940861391426,34.63291354374668],[135.05868018654292,34.63219381156316]],[[135.05868018654292,34.63219381156316],[135.05818423599223,34.631305966752834]],[[135.05818423599223,34.631305966752834],[135.0579982545357,34.63038134730539]],[[135.04764528678982,34.62854786896927],[135.04783901747368,34.63210450173017]],[[135.04783901747368,34.63210450173017],[135.04892390930334,34.631983670779654]],[[135.04892390930334,34.631983670779654],[135.05063648854875,34.62888934774247]],[[135.05941636314162,34.63026576987446],[135.0579982545357,34.63038134730539]],[[135.05818423599223,34.631305966752834],[135.05952485232459,34.6311903893219]],[[135.05952485232459,34.6311903893219],[135.05941636314162,34.63026576987446]],[[135.04377067311248,34.63258782553224],[135.04243005678012,34.6327349240807]],[[135.04265478437338,34.63396950118381],[135.04656039496015,34.63346516330339]],[[135.04656039496015,34.63346516330339],[135.04656039496015,34.63343889570545]],[[135.04656039496015,34.63343889570545],[135.04658364264222,34.63224634675904]],[[135.04658364264222,34.63224634675904],[135.04377067311248,34.63258782553224]],[[135.04624267663863,34.628495333773394],[135.0462116797292,34.62870022103731]],[[135.0462116797292,34.62870022103731],[135.04658364264222,34.63224634675904]],[[135.04658364264222,34.63224634675904],[135.04783901747368,34.63210450173017]],[[135.07357420151865,34.64187604816336],[135.07657315250492,34.642501216994305]],[[135.07657315250492,34.642501216994305],[135.07690636928118,34.641088020225205]],[[135.07158265008852,34.640961935755094],[135.07103245494633,34.64279541409122]],[[135.07103245494633,34.64279541409122],[135.0732409847424,34.64310537174689]],[[135.0732409847424,34.64310537174689],[135.07657315250492,34.64256951274894]],[[135.07657315250492,34.64256951274894],[135.07657315250492,34.642501216994305]],[[135.064383617876,34.637925401433385],[135.0620201035328,34.63797268310967]],[[135.0620201035328,34.63797268310967],[135.0620201035328,34.638261626687]],[[135.0620201035328,34.638261626687],[135.06185736975834,34.63964855585816]],[[135.06185736975834,34.63964855585816],[135.06476333001638,34.6389025560767]],[[135.06476333001638,34.6389025560767],[135.064383617876,34.637925401433385]],[[135.0620201035328,34.638261626687],[135.06026877815063,34.638298401324114]],[[135.06054775033542,34.63902338702722],[135.06131492384353,34.63990072479837]],[[135.06131492384353,34.63990072479837],[135.06185736975834,34.63964855585816]],[[135.04656039496015,34.63346516330339],[135.04674637641668,34.635135782532295]],[[135.04674637641668,34.635135782532295],[135.0467773733261,34.63537219091374]],[[135.0467773733261,34.63537219091374],[135.04839696184322,34.635461500746736]],[[135.04839696184322,34.635461500746736],[135.04869918171008,34.63498343046425]],[[135.04869918171008,34.63498343046425],[135.04897040466747,34.63410083917351]],[[135.04897040466747,34.63410083917351],[135.04656039496015,34.63343889570545]],[[135.0619658589413,34.63646492298799],[135.0597418306905,34.63651220466428]],[[135.0620201035328,34.63797268310967],[135.0619658589413,34.63646492298799]],[[135.05010954108863,34.6317052342415],[135.04892390930334,34.631983670779654]],[[135.04897040466747,34.63410083917351],[135.05010954108863,34.6317052342415]],[[135.03950084884002,34.633039628216785],[135.03930711815616,34.63272441704152]],[[135.03930711815616,34.63272441704152],[135.03757129122872,34.63323400844153]],[[135.03757129122872,34.63323400844153],[135.03879566915074,34.63628104980242]],[[135.03879566915074,34.63628104980242],[135.03959383956828,34.63716889461275]],[[135.03959383956828,34.63716889461275],[135.0401052885737,34.637042810142646]],[[135.0650655498832,34.63026576987446],[135.06396515959884,34.63019747411982]],[[135.06396515959884,34.63019747411982],[135.06415114105533,34.63105905133221]],[[135.06415114105533,34.63105905133221],[135.06427512869303,34.631295459713655]],[[135.07884367611987,34.64801741256143],[135.07802225802027,34.64719786350574]],[[135.07802225802027,34.64719786350574],[135.07759605051575,34.64677232841913]],[[135.07048225980412,34.6463993285284],[135.0701102968911,34.64685113121295]],[[135.0701102968911,34.64685113121295],[135.07186162227327,34.6466147228315],[135.07884367611987,34.64801741256143]],[[135.04307324265054,34.637058570701406],[135.0429802519223,34.63646492298799]],[[135.03959383956828,34.63716889461275],[135.0409577035827,34.63958026010352]],[[135.0409577035827,34.63958026010352],[135.04196510313884,34.63924928836949]],[[135.04196510313884,34.63924928836949],[135.043476202473,34.63885527440041]],[[135.043476202473,34.63885527440041],[135.04307324265054,34.637058570701406]],[[135.0732409847424,34.64310537174689],[135.07260554809932,34.64473921633868]],[[135.07732482755833,34.645695356903644],[135.07696061387267,34.64430842773248]],[[135.07696061387267,34.64430842773248],[135.07657315250492,34.64256951274894]],[[135.0500940426339,34.63647017650758],[135.04952834903702,34.636365106115825]],[[135.04952834903702,34.636365106115825],[135.04950510135495,34.63661727505604]],[[135.04950510135495,34.63661727505604],[135.04935786603522,34.63747359874884]],[[135.04935786603522,34.63747359874884],[135.04996230576887,34.63820909149112]],[[135.04996230576887,34.63820909149112],[135.05135716669272,34.63874495048907]],[[135.05135716669272,34.63874495048907],[135.05300000289193,34.63822485204989]],[[135.05300000289193,34.63822485204989],[135.05332547044083,34.63683266935914]],[[135.0640891472365,34.63244598050337],[135.06397290882617,34.63317621972607]],[[135.06397290882617,34.63317621972607],[135.0648253238352,34.63395899414464]],[[135.0648253238352,34.63395899414464],[135.06549175738772,34.63473126152404]],[[135.06549175738772,34.63473126152404],[135.06749105804522,34.63475752912198]],[[135.06749105804522,34.63475752912198],[135.06747555959052,34.63374885336113]],[[135.07103245494633,34.64279541409122],[135.07065274280595,34.64422437141908]],[[135.0629112646786,34.63644916242923],[135.0619658589413,34.63646492298799]],[[135.064383617876,34.637925401433385],[135.06351570441225,34.63686419047666]],[[135.06351570441225,34.63686419047666],[135.0629112646786,34.63644916242923]],[[135.02219682415696,34.64664099042944],[135.02163887978745,34.64659896227274]],[[135.02029826345506,34.6471295677511],[135.02442860163512,34.65063891883571]],[[135.02442860163512,34.65063891883571],[135.02540500428182,34.64999273592642]],[[135.02540500428182,34.64999273592642],[135.0246533292284,34.649204707988254]],[[135.0246533292284,34.649204707988254],[135.02219682415696,34.64664099042944]],[[135.05558049560105,34.6420284002314],[135.05472033136468,34.64102497799015]],[[135.05472033136468,34.64102497799015],[135.05375167794534,34.642658822581936]],[[135.05375167794534,34.642658822581936],[135.053023250574,34.64335228716752],[135.05464283909112,34.644797005054144]],[[135.05651815211095,34.64379883633247],[135.05558049560105,34.6420284002314]],[[135.05885066954474,34.629519770093005],[135.05787426689804,34.62954603769094]],[[135.05941636314162,34.63026576987446],[135.05885066954474,34.629519770093005]],[[135.02512603209706,34.64854801803979],[135.0246533292284,34.649204707988254]],[[135.02540500428182,34.64999273592642],[135.02796224930887,34.65263525627905]],[[135.02796224930887,34.65263525627905],[135.0282179738116,34.65226225638832]],[[135.0282179738116,34.65226225638832],[135.02920212568563,34.65062315827694]],[[135.02844270140486,34.6489315249697],[135.0283032153125,34.64869511658824]],[[135.0283032153125,34.64869511658824],[135.02512603209706,34.64854801803979]],[[135.04307324265054,34.637058570701406],[135.0468936117364,34.636538472262224]],[[135.0468936117364,34.636538472262224],[135.0467773733261,34.63537219091374]],[[135.04674637641668,34.635135782532295],[135.04287951196667,34.63551403594261]],[[135.0468936117364,34.636538472262224],[135.04688586250907,34.63767848601276]],[[135.04688586250907,34.63767848601276],[135.04885416625714,34.636690824330266]],[[135.04885416625714,34.636690824330266],[135.04839696184322,34.635461500746736]],[[135.043476202473,34.63885527440041],[135.04467733271298,34.638650387136494]],[[135.04467733271298,34.638650387136494],[135.046141936683,34.63841397875504]],[[135.046141936683,34.63841397875504],[135.04688586250907,34.63767848601276]],[[135.05868018654292,34.63219381156316],[135.05963334150755,34.63210975524976]],[[135.05963334150755,34.63210975524976],[135.05952485232459,34.6311903893219]],[[135.02442860163512,34.65063891883571],[135.02744305107612,34.65313959415947]],[[135.02744305107612,34.65313959415947],[135.02796224930887,34.65263525627905]],[[135.05940861391426,34.63291354374668],[135.05963334150755,34.63210975524976]],[[135.02291750230097,34.64664099042944],[135.02219682415696,34.64664099042944]],[[135.02512603209706,34.64854801803979],[135.02291750230097,34.64664099042944]],[[135.04996230576887,34.63820909149112],[135.0498383181312,34.63977464032827]],[[135.0498383181312,34.63977464032827],[135.050008801133,34.641408484920056]],[[135.050008801133,34.641408484920056],[135.05231032165736,34.641623879223154],[135.05375167794534,34.642658822581936]],[[135.05472033136468,34.64102497799015],[135.05135716669272,34.63874495048907]],[[135.02514927977913,34.64068875273653],[135.02511053364233,34.64011611910147]],[[135.02511053364233,34.64011611910147],[135.02478506609344,34.63964330233858]],[[135.02478506609344,34.63964330233858],[135.0199495482241,34.64279016057163]],[[135.02352194203462,34.64451331499641],[135.02514927977913,34.64068875273653]],[[135.06078022715604,34.63108531893015],[135.05952485232459,34.6311903893219]],[[135.05963334150755,34.63210975524976],[135.06088096711167,34.63200993837759]],[[135.06088096711167,34.63200993837759],[135.06078022715604,34.63108531893015]],[[135.07874293616425,34.65701143809564],[135.07762704742518,34.65682756491007],[135.07771228892608,34.65879238123588]],[[135.07771228892608,34.65879238123588],[135.08064924609351,34.660047972417345]],[[135.08064924609351,34.660047972417345],[135.07913814675933,34.65883440939258],[135.07874293616425,34.65701143809564]],[[135.05940861391426,34.63291354374668],[135.05978057682728,34.63312893804978]],[[135.05978057682728,34.63312893804978],[135.06098945629464,34.63292930430544]],[[135.06098945629464,34.63292930430544],[135.06088096711167,34.63200993837759]],[[135.0854072716893,34.64256951274894],[135.08541502091666,34.642685090179874]],[[135.08541502091666,34.642685090179874],[135.08865419795092,34.64343634348092]],[[135.08865419795092,34.64343634348092],[135.08977783591735,34.641245625812836],[135.08777853525984,34.64086211888293],[135.0854072716893,34.64256951274894]],[[135.0537904240821,34.635524542981784],[135.0559137123773,34.63713211997563]],[[135.0559137123773,34.63713211997563],[135.05696760729754,34.637410556513785]],[[135.05696760729754,34.637410556513785],[135.05746355784822,34.63701654254471]],[[135.05746355784822,34.63701654254471],[135.05426312695073,34.63403779693846]],[[135.04820323115936,34.64261154090565],[135.04609544131887,34.64311587878607]],[[135.04609544131887,34.64311587878607],[135.04655264573282,34.645485216120136]],[[135.04655264573282,34.645485216120136],[135.046622388779,34.64795962384596]],[[135.046622388779,34.64795962384596],[135.04914088766927,34.648810694019176]],[[135.04914088766927,34.648810694019176],[135.05201585101787,34.648117229433595]],[[135.05201585101787,34.648117229433595],[135.0520468479273,34.64810672239442]],[[135.0520468479273,34.64810672239442],[135.05064423777608,34.6460998779119]],[[135.05064423777608,34.6460998779119],[135.05008629340657,34.6440037235964],[135.04820323115936,34.64261154090565]],[[135.04243005678012,34.6327349240807],[135.0420193477303,34.63065978384354]],[[135.0420193477303,34.63065978384354],[135.03990380866247,34.63238293826832]],[[135.03990380866247,34.63238293826832],[135.03930711815616,34.63272441704152]],[[135.04196510313884,34.63924928836949],[135.042383561416,34.64016340077776]],[[135.04175587400024,34.64063621754065],[135.04283301660254,34.641271893410774]],[[135.04283301660254,34.641271893410774],[135.04524302630986,34.6407045132953]],[[135.04524302630986,34.6407045132953],[135.04467733271298,34.638650387136494]],[[135.06984682316104,34.62993479814043],[135.06756080109142,34.6294357137796]],[[135.06750655649992,34.631447811781705],[135.06931987570093,34.63173150183944]],[[135.06931987570093,34.63173150183944],[135.06984682316104,34.62993479814043]],[[135.0588041741806,34.640242203571574],[135.05855619890525,34.639459429153]],[[135.05855619890525,34.639459429153],[135.05812999140073,34.639669569936515]],[[135.05812999140073,34.639669569936515],[135.05662664129392,34.64116682301902]],[[135.05662664129392,34.64116682301902],[135.05558049560105,34.6420284002314]],[[135.0565801459298,34.643898653204644],[135.05830047440253,34.64259578034688],[135.0588041741806,34.640242203571574]],[[135.05104719759854,34.631999431338414],[135.05102394991647,34.63064402328478]],[[135.05102394991647,34.63064402328478],[135.05010954108863,34.6317052342415]],[[135.04869918171008,34.63498343046425],[135.0499080611774,34.63490462767044]],[[135.0499080611774,34.63490462767044],[135.05031102099983,34.6336753040869]],[[135.08190462092497,34.6434888786768],[135.0840046615381,34.644082526390214]],[[135.0840046615381,34.644082526390214],[135.0844696151794,34.644051005272686]],[[135.0844696151794,34.644051005272686],[135.08541502091666,34.642685090179874]],[[135.0854072716893,34.64256951274894],[135.083849676991,34.64140323140047]],[[135.083849676991,34.64140323140047],[135.0822068407918,34.64095142871592],[135.08190462092497,34.6434888786768]],[[135.03280551640557,34.65831956447298],[135.03255754113022,34.65822500112041]],[[135.03255754113022,34.65822500112041],[135.0312944170714,34.65908132481321],[135.031635383075,34.66045774694519]],[[135.031635383075,34.66045774694519],[135.0328985071338,34.660389451190554]],[[135.0328985071338,34.660389451190554],[135.03378191905225,34.65923367688125]],[[135.03378191905225,34.65923367688125],[135.03280551640557,34.65831956447298]],[[135.0499080611774,34.63490462767044],[135.04952834903702,34.636365106115825]],[[135.0840046615381,34.644082526390214],[135.08375668626275,34.645290835895395]],[[135.08375668626275,34.645290835895395],[135.08560100237315,34.645479962600554]],[[135.08560100237315,34.645479962600554],[135.08801101208047,34.646189187744895]],[[135.08801101208047,34.646189187744895],[135.08834422885673,34.6449020754459]],[[135.08834422885673,34.6449020754459],[135.0844696151794,34.644051005272686]],[[135.05997430751117,34.63875545752825],[135.05855619890525,34.639459429153]],[[135.0588041741806,34.640242203571574],[135.06115993929643,34.641103780783965]],[[135.06115993929643,34.641103780783965],[135.06191936357718,34.640930414637566]],[[135.06191936357718,34.640930414637566],[135.06131492384353,34.63990072479837]],[[135.03054274201799,34.63465245873022],[135.02767552789675,34.63746309170966],[135.02637365770116,34.63767323249317],[135.02478506609344,34.63964330233858]],[[135.02511053364233,34.64011611910147],[135.02604819015227,34.63977989384785]],[[135.02604819015227,34.63977989384785],[135.02738105725726,34.639012879988044]],[[135.02738105725726,34.639012879988044],[135.03076746961128,34.63579247248076]],[[135.03076746961128,34.63579247248076],[135.0310386925687,34.635482514825085]],[[135.0310386925687,34.635482514825085],[135.03054274201799,34.63465245873022]],[[135.0509309591882,34.64324721677576],[135.05064423777608,34.6460998779119]],[[135.0520468479273,34.64810672239442],[135.05395315785654,34.647565609876885]],[[135.05265903688831,34.64503341343559],[135.0509309591882,34.64324721677576]],[[135.0622448311261,34.632839994472455],[135.06098945629464,34.63292930430544]],[[135.06098945629464,34.63292930430544],[135.0607492302466,34.63384341671371]],[[135.0607492302466,34.63384341671371],[135.06077247792868,34.63385392375289]],[[135.06077247792868,34.63385392375289],[135.06084997020224,34.63389069839]],[[135.06084997020224,34.63389069839],[135.06262454326648,34.633738346321955]],[[135.06262454326648,34.633738346321955],[135.0622448311261,34.632839994472455]],[[135.03086046033954,34.63998478111178],[135.03085271111217,34.636717091928205]],[[135.03085271111217,34.636717091928205],[135.03076746961128,34.63579247248076]],[[135.02738105725726,34.639012879988044],[135.0297523208278,34.64204416079017]],[[135.0297523208278,34.64204416079017],[135.0313641601176,34.64313689286442]],[[135.0313641601176,34.64313689286442],[135.03086046033954,34.63998478111178]],[[135.04454559584795,34.65907081777403],[135.04352269783712,34.660562817336945]],[[135.04352269783712,34.660562817336945],[135.04456884353002,34.662496112545234],[135.0439179084322,34.66362036573701]],[[135.0439179084322,34.66362036573701],[135.04491755876097,34.66420875993084]],[[135.04491755876097,34.66420875993084],[135.04501054948923,34.66345750662979]],[[135.04501054948923,34.66345750662979],[135.04719583160326,34.66103038058026]],[[135.04719583160326,34.66103038058026],[135.04627367354803,34.660394704710136]],[[135.04627367354803,34.660394704710136],[135.04454559584795,34.65907081777403]],[[135.03573472434564,34.661261535442115],[135.03496755083754,34.66026862024003]],[[135.03496755083754,34.66026862024003],[135.03378191905225,34.65923367688125]],[[135.0328985071338,34.660389451190554],[135.03344095304865,34.66180790147924],[135.03586646121067,34.662123112654506]],[[135.03586646121067,34.662123112654506],[135.03573472434564,34.661261535442115]],[[135.05833147131196,34.64679334249748],[135.05967208764432,34.647071779035635]],[[135.05967208764432,34.647071779035635],[135.06114444084173,34.6449861317593],[135.06143116225385,34.64194959743759]],[[135.06143116225385,34.64194959743759],[135.06115993929643,34.641103780783965]],[[135.052542798478,34.648632074353195],[135.0507604761864,34.650223890788276],[135.05427862540546,34.65360715740278]],[[135.05427862540546,34.65360715740278],[135.05896690795504,34.65590819898221],[135.06048575651656,34.65717955072245]],[[135.06048575651656,34.65717955072245],[135.0629577600427,34.655997508815204]],[[135.0629577600427,34.655997508815204],[135.0618806174404,34.653733241872885],[135.05881192340794,34.65258797460276],[135.05884292031737,34.65155828476357]],[[135.05884292031737,34.65155828476357],[135.05720008411816,34.64824856742329],[135.0537206810359,34.64806994775731],[135.052542798478,34.648632074353195]],[[135.04558399231348,34.64167116089944],[135.0428562642846,34.64227006213244]],[[135.0428562642846,34.64227006213244],[135.0429105088761,34.64359920258814]],[[135.0429105088761,34.64359920258814],[135.04336771329002,34.64371478001907]],[[135.04336771329002,34.64371478001907],[135.04609544131887,34.64311587878607]],[[135.04609544131887,34.64311587878607],[135.04558399231348,34.64167116089944]],[[135.05967208764432,34.647071779035635],[135.06205884966957,34.64785455345421]],[[135.06205884966957,34.64785455345421],[135.0642596302383,34.64795962384596]],[[135.0642596302383,34.64795962384596],[135.0615086545274,34.64398796303763],[135.06143116225385,34.64194959743759]],[[135.0581687375375,34.63247224810131],[135.05613843997057,34.632503769218836]],[[135.05613843997057,34.632503769218836],[135.05679712429574,34.633570233695146]],[[135.05679712429574,34.633570233695146],[135.05978057682728,34.63312893804978]],[[135.0436621839295,34.62964060104352],[135.04377067311248,34.63258782553224]],[[135.0462116797292,34.62870022103731],[135.0436621839295,34.62964060104352]],[[135.06750655649992,34.632535290336364],[135.06956010174892,34.63260883961059]],[[135.06956010174892,34.63260883961059],[135.06931987570093,34.63173150183944]],[[135.0854072716893,34.634295219398254],[135.08541502091666,34.63499919102301]],[[135.08541502091666,34.63499919102301],[135.08946011759582,34.636569993379744],[135.0901265511483,34.634762782641566]],[[135.0901265511483,34.634762782641566],[135.0854072716893,34.634295219398254]],[[135.07417864125233,34.63086467110746],[135.07379892911194,34.63085416406829]],[[135.07379892911194,34.63085416406829],[135.07348896001776,34.63139002306624]],[[135.07348896001776,34.63139002306624],[135.07710009996507,34.63237243122914]],[[135.07710009996507,34.63237243122914],[135.08030053086256,34.63310267045184]],[[135.08030053086256,34.63310267045184],[135.0821061008362,34.63360700833226]],[[135.0821061008362,34.63360700833226],[135.0854072716893,34.634295219398254]],[[135.0901265511483,34.634762782641566],[135.0902815356954,34.634095585653924],[135.08513604873187,34.63352820553845],[135.08147066419312,34.63174200887862],[135.07758055206105,34.63155813569305],[135.07417864125233,34.63086467110746]],[[135.08598071451354,34.66330515456175],[135.0862131913342,34.66243832382977]],[[135.0862131913342,34.66243832382977],[135.08398916308337,34.662306985840075],[135.0831677449838,34.66127204248129],[135.08103670746124,34.66111443689366],[135.07952560812708,34.662133619693684]],[[135.07952560812708,34.662133619693684],[135.0801222986334,34.66241205623183]],[[135.0801222986334,34.66241205623183],[135.08143191805632,34.66222292952667],[135.0843843736785,34.6634102249535],[135.08598071451354,34.66330515456175]],[[135.04352269783712,34.660562817336945],[135.04271677819224,34.66129305655964],[135.04036876230376,34.660772958120454]],[[135.04036876230376,34.660772958120454],[135.0419341062294,34.66362036573701]],[[135.0419341062294,34.66362036573701],[135.0439179084322,34.66362036573701]],[[135.06067948720045,34.6301659530023],[135.05941636314162,34.63026576987446]],[[135.06078022715604,34.63108531893015],[135.06067948720045,34.6301659530023]],[[135.0393536135203,34.62960382640641],[135.03990380866247,34.63238293826832]],[[135.0420193477303,34.63065978384354],[135.04049274994142,34.62914151668269]],[[135.02219682415696,34.64664099042944],[135.02509503518763,34.644434512202594]],[[135.02509503518763,34.644434512202594],[135.02514927977913,34.64068875273653]],[[135.03651739630845,34.666494040951505],[135.04075622367148,34.66924688521548],[135.04237581218862,34.668999969794854]],[[135.04237581218862,34.668999969794854],[135.0410971896751,34.667718111015446],[135.0394543534759,34.664403140155585]],[[135.0394543534759,34.664403140155585],[135.03943110579382,34.66435060495971]],[[135.03943110579382,34.66435060495971],[135.03651739630845,34.666494040951505]],[[135.04524302630986,34.6407045132953],[135.04733531769563,34.64018441485611]],[[135.04733531769563,34.64018441485611],[135.046141936683,34.63841397875504]],[[135.03773402500315,34.643010808394315],[135.03977207179744,34.642853202806684]],[[135.031635383075,34.66045774694519],[135.0357579720277,34.6646973372525]],[[135.0357579720277,34.6646973372525],[135.03581996584654,34.66315805601329]],[[135.03581996584654,34.66315805601329],[135.03586646121067,34.662123112654506]],[[135.0420193477303,34.63065978384354],[135.0436621839295,34.62964060104352]],[[135.06317473840866,34.64205992134893],[135.06298875695214,34.64181300592831]],[[135.06298875695214,34.64181300592831],[135.06253155253822,34.6441298080665]],[[135.06253155253822,34.6441298080665],[135.06401165496297,34.64359394906855]],[[135.06401165496297,34.64359394906855],[135.06317473840866,34.64205992134893]],[[135.04558399231348,34.64167116089944],[135.04524302630986,34.6407045132953]],[[135.04283301660254,34.641271893410774],[135.0428562642846,34.64227006213244]],[[135.0614389114812,34.62931488282908],[135.06060199492688,34.62950400953424]],[[135.06060199492688,34.62950400953424],[135.06067948720045,34.6301659530023]],[[135.06067948720045,34.6301659530023],[135.06174113134804,34.630071389649714]],[[135.06174113134804,34.630071389649714],[135.0614389114812,34.62931488282908]],[[135.07379892911194,34.63085416406829],[135.06984682316104,34.62993479814043]],[[135.06956010174892,34.63260883961059],[135.07059849821445,34.63348617738175]],[[135.07059849821445,34.63348617738175],[135.07117969026606,34.63276644519822]],[[135.07117969026606,34.63276644519822],[135.07152840549702,34.631463572340465],[135.07348896001776,34.63139002306624]],[[135.0559137123773,34.63713211997563],[135.05454984836285,34.638655640656076]],[[135.05454984836285,34.638655640656076],[135.05662664129392,34.64116682301902]],[[135.05812999140073,34.639669569936515],[135.05696760729754,34.637410556513785]],[[135.062089846579,34.63145306530129],[135.06204335121487,34.63099075557757]],[[135.06204335121487,34.63099075557757],[135.06078022715604,34.63108531893015]],[[135.06088096711167,34.63200993837759],[135.06214409117047,34.63190486798584]],[[135.06214409117047,34.63190486798584],[135.062089846579,34.63145306530129]],[[135.07710009996507,34.63237243122914],[135.07629418032016,34.63447383906424]],[[135.07629418032016,34.63447383906424],[135.0783089794324,34.63467872632816],[135.07920788980553,34.63594482454881]],[[135.07920788980553,34.63594482454881],[135.08002930790514,34.636034134381795],[135.08030053086256,34.63310267045184]],[[135.0378425141861,34.65281912946462],[135.03650189785375,34.65396439673475]],[[135.03650189785375,34.65396439673475],[135.0389041583337,34.65674350859666]],[[135.0389041583337,34.65674350859666],[135.03998130093603,34.655992255295615]],[[135.03998130093603,34.655992255295615],[135.0378425141861,34.65281912946462]],[[135.03657164089995,34.62961433344558],[135.0345955879245,34.62959331936723],[135.0319453521692,34.63133223435077],[135.03270477644995,34.63225685379821],[135.03054274201799,34.63465245873022]],[[135.0310386925687,34.635482514825085],[135.03138740779966,34.63521458532611]],[[135.03138740779966,34.63521458532611],[135.03447160028682,34.63403254341887]],[[135.03447160028682,34.63403254341887],[135.03757129122872,34.63323400844153]],[[135.03868717996778,34.65960667677198],[135.038648433831,34.65955939509569]],[[135.038648433831,34.65955939509569],[135.03573472434564,34.661261535442115]],[[135.03581996584654,34.66315805601329],[135.03833846473682,34.66253288718235]],[[135.03833846473682,34.66253288718235],[135.03868717996778,34.65960667677198]],[[135.08560100237315,34.645479962600554],[135.0861589467427,34.64644135668511],[135.08519029332336,34.64926249670372]],[[135.08519029332336,34.64926249670372],[135.08970809287115,34.647786257699565]],[[135.08970809287115,34.647786257699565],[135.08801101208047,34.646189187744895]],[[135.05300000289193,34.63822485204989],[135.05454984836285,34.638655640656076]],[[135.02509503518763,34.644434512202594],[135.02751279412232,34.643220949177824]],[[135.02751279412232,34.643220949177824],[135.02751279412232,34.643199935099474]],[[135.02751279412232,34.643199935099474],[135.02590095483254,34.64123511877366],[135.02604819015227,34.63977989384785]],[[135.05978057682728,34.63312893804978],[135.0607492302466,34.63384341671371]],[[135.04767628369925,34.6411720765386],[135.04558399231348,34.64167116089944]],[[135.04820323115936,34.64261154090565],[135.04767628369925,34.6411720765386]],[[135.0622448311261,34.632839994472455],[135.06214409117047,34.63190486798584]],[[135.08834422885673,34.6449020754459],[135.08936712686756,34.644586864270636]],[[135.08936712686756,34.644586864270636],[135.08865419795092,34.64343634348092]],[[135.08339247257706,34.638650387136494],[135.08122268891776,34.638786978645776],[135.08025403549843,34.63766797897358]],[[135.08025403549843,34.63766797897358],[135.08041676927286,34.63867665473443]],[[135.08041676927286,34.63867665473443],[135.08063374763879,34.64011611910147]],[[135.08063374763879,34.64011611910147],[135.08109870128007,34.643583442029374]],[[135.08109870128007,34.643583442029374],[135.08190462092497,34.6434888786768]],[[135.083849676991,34.64140323140047],[135.08339247257706,34.638650387136494]],[[135.0642596302383,34.64795962384596],[135.06601870484783,34.64788607457174]],[[135.06601870484783,34.64788607457174],[135.0659722094837,34.64735546909337]],[[135.06343046291136,34.64574789209953],[135.06253155253822,34.6441298080665]],[[135.06298875695214,34.64181300592831],[135.06191936357718,34.640930414637566]],[[135.03943110579382,34.66435060495971],[135.03833846473682,34.66253288718235]],[[135.0357579720277,34.6646973372525],[135.03651739630845,34.666494040951505]],[[135.0821061008362,34.63360700833226],[135.08271054056985,34.63710059885811],[135.08061049995675,34.6372739650045]],[[135.08061049995675,34.6372739650045],[135.08025403549843,34.63766797897358]],[[135.08339247257706,34.638650387136494],[135.08367144476185,34.63709009181893],[135.08541502091666,34.63499919102301]],[[135.05102394991647,34.63064402328478],[135.05169813269634,34.62931488282908]],[[135.08375668626275,34.645290835895395],[135.08254005756805,34.64646237076346],[135.08519029332336,34.64926249670372]],[[135.06180312516688,34.63013968540436],[135.06174113134804,34.630071389649714]],[[135.06204335121487,34.63099075557757],[135.06180312516688,34.63013968540436]],[[135.0419496046841,34.65662793116573],[135.0402757715755,34.656197142559535]],[[135.0402757715755,34.656197142559535],[135.03990380866247,34.65870307140289]],[[135.03990380866247,34.65870307140289],[135.04036876230376,34.660772958120454]],[[135.04454559584795,34.65907081777403],[135.0430809918779,34.65848767709979],[135.0419496046841,34.65662793116573]],[[135.06749105804522,34.63360700833226],[135.06967634015925,34.63389069839]],[[135.06967634015925,34.63389069839],[135.0703195260297,34.63389069839]],[[135.0703195260297,34.63389069839],[135.07059849821445,34.63348617738175]],[[135.03475832169894,34.637589176179766],[135.03138740779966,34.63521458532611]],[[135.03085271111217,34.636717091928205],[135.03282101486027,34.637069077740584],[135.03461108637921,34.63995325999425]],[[135.03461108637921,34.63995325999425],[135.0348513124272,34.63990597831796]],[[135.0348513124272,34.63990597831796],[135.03579671816448,34.63974837273033]],[[135.03579671816448,34.63974837273033],[135.03475832169894,34.637589176179766]],[[135.08048651231906,34.64445552628094],[135.08000606022307,34.644439765722176]],[[135.08000606022307,34.644439765722176],[135.0779835118835,34.645511483718074],[135.0785647039351,34.64649914540057]],[[135.0785647039351,34.64649914540057],[135.0802927816352,34.64628900461706],[135.08048651231906,34.64445552628094]],[[135.0297523208278,34.64204416079017],[135.02751279412232,34.643199935099474]],[[135.02751279412232,34.643220949177824],[135.02675336984154,34.644980878239714],[135.02805524003713,34.64587923008922]],[[135.02805524003713,34.64587923008922],[135.03120142634313,34.645674342825295]],[[135.03120142634313,34.645674342825295],[135.0320305936701,34.645332864052094]],[[135.0320305936701,34.645332864052094],[135.0313641601176,34.64313689286442]],[[135.05746355784822,34.63701654254471],[135.05821523290163,34.636349345557065]],[[135.05821523290163,34.636349345557065],[135.0576572885321,34.63577145840241]],[[135.0576572885321,34.63577145840241],[135.05735506866526,34.635503528903435]],[[135.05735506866526,34.635503528903435],[135.0551620373239,34.63335483939205]],[[135.04767628369925,34.6411720765386],[135.04733531769563,34.64018441485611]],[[135.0724583127796,34.67144810992274],[135.0730007586944,34.67383846133516]],[[135.0730007586944,34.67383846133516],[135.07539526994702,34.672314940654715],[135.07441886730032,34.67061280030829]],[[135.07441886730032,34.67061280030829],[135.0724583127796,34.67144810992274]],[[135.05878092649854,34.636890458074596],[135.05821523290163,34.636349345557065]],[[135.0419341062294,34.66362036573701],[135.04260828900928,34.6653382666422]],[[135.04260828900928,34.6653382666422],[135.04331346869856,34.66673570285254]],[[135.04331346869856,34.66673570285254],[135.04491755876097,34.66420875993084]],[[135.05455759759022,34.62821164371566],[135.0547978236382,34.62823265779401]],[[135.0547978236382,34.62823265779401],[135.05499930354944,34.627097897563054]],[[135.05499930354944,34.627097897563054],[135.05386791635564,34.62694029197542]],[[135.05386791635564,34.62694029197542],[135.05455759759022,34.62821164371566]],[[135.0542553777234,34.62806979868679],[135.0542553777234,34.62806979868679]],[[135.03382066518904,34.657426466143065],[135.03280551640557,34.65831956447298]],[[135.03496755083754,34.66026862024003],[135.03628491948783,34.65911284593073]],[[135.03628491948783,34.65911284593073],[135.03382066518904,34.657426466143065]],[[135.03650189785375,34.65396439673475],[135.0358974581201,34.65483122746672]],[[135.0358974581201,34.65483122746672],[135.0349520523828,34.65609732568737]],[[135.0349520523828,34.65609732568737],[135.03382066518904,34.657426466143065]],[[135.03628491948783,34.65911284593073],[135.03822997555386,34.657232085918324],[135.03872592610455,34.658288043355455]],[[135.03872592610455,34.658288043355455],[135.0389041583337,34.65674350859666]],[[135.05751005321235,34.66536453424014],[135.0569056134787,34.66502305546694]],[[135.0569056134787,34.66502305546694],[135.05671963202218,34.66515439345663]],[[135.05671963202218,34.66515439345663],[135.0560144523329,34.66626288608964],[135.05297675520987,34.666000210110255],[135.052062346382,34.66695109715564]],[[135.052062346382,34.66695109715564],[135.0533797150323,34.66855867414949],[135.0520313494726,34.670717870700045]],[[135.0520313494726,34.670717870700045],[135.0496833335841,34.67222037730214],[135.04740506074182,34.67179484221553],[135.04583971681618,34.67012422298663]],[[135.04583971681618,34.67012422298663],[135.044088391434,34.668464110796904]],[[135.044088391434,34.668464110796904],[135.0433909609721,34.66896319515774]],[[135.0433909609721,34.66896319515774],[135.04525077553723,34.671763321098005],[135.04712608855706,34.67288232077019]],[[135.04712608855706,34.67288232077019],[135.04919513226076,34.672787757417616],[135.0539764055386,34.671579447912436],[135.05505354814093,34.673717630384644]],[[135.05505354814093,34.673717630384644],[135.05868018654292,34.6729663770836],[135.05980382450934,34.673917264128974]],[[135.05980382450934,34.673917264128974],[135.06077247792868,34.672335954733065]],[[135.06077247792868,34.672335954733065],[135.06065623951838,34.67079141997427],[135.06242306335525,34.67096478612067]],[[135.06242306335525,34.67096478612067],[135.06325997990956,34.670712617180456]],[[135.06325997990956,34.670712617180456],[135.06335297063782,34.67044994120107]],[[135.06335297063782,34.67044994120107],[135.06232232339963,34.67009795538869]],[[135.06232232339963,34.67009795538869],[135.0602610289233,34.67015049058457],[135.05891266336357,34.6679965475536]],[[135.05891266336357,34.6679965475536],[135.05751005321235,34.66536453424014]],[[135.06749105804522,34.63475752912198],[135.06793276400444,34.63596058510757]],[[135.06793276400444,34.63596058510757],[135.06967634015925,34.63389069839]],[[135.04336771329002,34.64371478001907],[135.04655264573282,34.645485216120136]],[[135.07544176531115,34.65489426970178],[135.07459709952948,34.6583983672668]],[[135.07459709952948,34.6583983672668],[135.07771228892608,34.65879238123588]],[[135.07874293616425,34.65701143809564],[135.07861119929922,34.65640728334304]],[[135.07861119929922,34.65640728334304],[135.07591446817977,34.654421452938884],[135.07544176531115,34.65489426970178]],[[135.04950510135495,34.63661727505604],[135.04885416625714,34.636690824330266]],[[135.04733531769563,34.64018441485611],[135.04913313844193,34.639002372948866],[135.04935786603522,34.63747359874884]],[[135.05201585101787,34.648117229433595],[135.052542798478,34.648632074353195]],[[135.05884292031737,34.65155828476357],[135.06058649647218,34.650596890679005],[135.05964883996225,34.64926775022331],[135.06205884966957,34.64785455345421]],[[135.02805524003713,34.64587923008922],[135.02793125239947,34.64669352562532]],[[135.02793125239947,34.64669352562532],[135.0283032153125,34.64869511658824]],[[135.03168962766648,34.649157426311966],[135.03120142634313,34.645674342825295]],[[135.08970809287115,34.647786257699565],[135.09273029153948,34.6471715959078],[135.09194761957667,34.645148990866524],[135.08936712686756,34.644586864270636]],[[135.07459709952948,34.6583983672668],[135.0726442942361,34.657741677318334]],[[135.0726442942361,34.657741677318334],[135.07337272160743,34.65885016995134]],[[135.07337272160743,34.65885016995134],[135.0762554341834,34.65963294436992]],[[135.0762554341834,34.65963294436992],[135.07821598870413,34.660899042590565]],[[135.07821598870413,34.660899042590565],[135.08064924609351,34.660047972417345]],[[135.0627717785862,34.6348783600725],[135.05766503775945,34.63499919102301]],[[135.05766503775945,34.63499919102301],[135.05735506866526,34.635503528903435]],[[135.0576572885321,34.63577145840241],[135.0630275030889,34.63563486689313]],[[135.0630275030889,34.63563486689313],[135.06310499536247,34.63539845851168]],[[135.06310499536247,34.63539845851168],[135.0627717785862,34.6348783600725]],[[135.03475832169894,34.637589176179766],[135.03662588549145,34.635461500746736]],[[135.03662588549145,34.635461500746736],[135.03447160028682,34.63403254341887]],[[135.06960659711305,34.64564282170777],[135.06943611411126,34.64533811757168]],[[135.06943611411126,34.64533811757168],[135.06569323729892,34.64669352562532]],[[135.06601870484783,34.64788607457174],[135.0677002871838,34.64782303233668],[135.06960659711305,34.64564282170777]],[[135.05761079316798,34.629530277132176],[135.0575720470312,34.62897340405588]],[[135.0575720470312,34.62897340405588],[135.05520078346066,34.62925709411361]],[[135.05535576800776,34.63085941758788],[135.05780452385184,34.6308489105487]],[[135.046622388779,34.64795962384596],[135.04377067311248,34.64890525737176]],[[135.04377067311248,34.64890525737176],[135.04232156759713,34.6493150318996],[135.0429105088761,34.6508122849821]],[[135.0429105088761,34.6508122849821],[135.0445533450753,34.65031320062127]],[[135.0445533450753,34.65031320062127],[135.0480404973849,34.64908913055733]],[[135.0480404973849,34.64908913055733],[135.04914088766927,34.648810694019176]],[[135.02291750230097,34.64664099042944],[135.02635815924646,34.64595277936345],[135.02793125239947,34.64669352562532]],[[135.06267878785795,34.672661672947505],[135.06215184039783,34.672456785683586]],[[135.06215184039783,34.672456785683586],[135.06077247792868,34.672335954733065]],[[135.05980382450934,34.673917264128974],[135.06192711280454,34.67455819351868]],[[135.06192711280454,34.67455819351868],[135.06267878785795,34.672661672947505]],[[135.038648433831,34.65955939509569],[135.03872592610455,34.658288043355455]],[[135.06317473840866,34.64205992134893],[135.06525928056706,34.641282400449946]],[[135.06525928056706,34.641282400449946],[135.0651507913841,34.64099871039221]],[[135.0651507913841,34.64099871039221],[135.06476333001638,34.6389025560767]],[[135.05161289119542,34.67025556097632],[135.04776152520014,34.669315180970116]],[[135.04776152520014,34.669315180970116],[135.04583971681618,34.67012422298663]],[[135.0520313494726,34.670717870700045],[135.05161289119542,34.67025556097632]],[[135.04127542190426,34.65129035526459],[135.03886541219694,34.65205211560481]],[[135.03886541219694,34.65205211560481],[135.03761003736548,34.65272981963163]],[[135.03761003736548,34.65272981963163],[135.0378425141861,34.65281912946462]],[[135.03998130093603,34.655992255295615],[135.0402757715755,34.656197142559535]],[[135.0419496046841,34.65662793116573],[135.04266253360075,34.65604479049149]],[[135.04266253360075,34.65604479049149],[135.04174812477288,34.65526201607292],[135.04127542190426,34.65129035526459]],[[135.0470330978288,34.65519897383787],[135.04470832962238,34.654973072495594]],[[135.04470832962238,34.654973072495594],[135.04266253360075,34.65604479049149]],[[135.04627367354803,34.660394704710136],[135.0486914324827,34.66011626817199]],[[135.0486914324827,34.66011626817199],[135.0469478563279,34.657731170279156],[135.0470330978288,34.65519897383787]],[[135.03990380866247,34.65870307140289],[135.03868717996778,34.65960667677198]],[[135.0394543534759,34.664403140155585],[135.04260828900928,34.6653382666422]],[[135.0677855286847,34.64446077980053],[135.0671190951322,34.644234878458256]],[[135.0671190951322,34.644234878458256],[135.0648253238352,34.64511221622941]],[[135.0648253238352,34.64511221622941],[135.06486406997197,34.6451594979057]],[[135.06943611411126,34.64533811757168],[135.0677855286847,34.64446077980053]],[[135.050008801133,34.641408484920056],[135.0509309591882,34.64324721677576]],[[135.07117969026606,34.63276644519822],[135.07299300946707,34.63326027603947],[135.07257455118992,34.63447383906424]],[[135.07257455118992,34.63447383906424],[135.0734347154263,34.63615496533232]],[[135.0734347154263,34.63615496533232],[135.07578273131475,34.637421063552964]],[[135.07578273131475,34.637421063552964],[135.07629418032016,34.63447383906424]],[[135.07544176531115,34.65489426970178],[135.07470558871245,34.65396965025433],[135.0718538730459,34.65358614332443],[135.0717376346356,34.65444246701723],[135.07388417061284,34.656690973400785],[135.0726442942361,34.657741677318334]],[[135.06973833397808,34.670696856621696],[135.06964534324982,34.67127999729593]],[[135.06964534324982,34.67127999729593],[135.0724583127796,34.67144810992274]],[[135.07441886730032,34.67061280030829],[135.0737911798846,34.66925739225465],[135.07021103684673,34.668957941638155],[135.06973833397808,34.670696856621696]],[[135.0445533450753,34.65031320062127],[135.04498730180717,34.65220972119244]],[[135.04498730180717,34.65220972119244],[135.04947410444552,34.65277710130792]],[[135.04947410444552,34.65277710130792],[135.05038076404603,34.650413017493435],[135.0480404973849,34.64908913055733]],[[135.08063374763879,34.64011611910147],[135.07708460151034,34.64060469642313]],[[135.07696061387267,34.64430842773248],[135.08000606022307,34.644439765722176]],[[135.08048651231906,34.64445552628094],[135.08109870128007,34.643583442029374]],[[135.07699936000944,34.66274828148545],[135.07520153926316,34.662963675788546]],[[135.07520153926316,34.662963675788546],[135.07556575294882,34.66462378797827],[135.0778595242458,34.664093182499904],[135.07909940062257,34.66535928072055],[135.08126143505453,34.66449770350816]],[[135.08126143505453,34.66449770350816],[135.08017654322487,34.66262745053493]],[[135.08017654322487,34.66262745053493],[135.07699936000944,34.66274828148545]],[[135.05306199671077,34.63194164262295],[135.0531239905296,34.6303340656291]],[[135.06593346334694,34.642842695767506],[135.06401165496297,34.64359394906855]],[[135.06401165496297,34.64359394906855],[135.0648253238352,34.64511221622941]],[[135.0671190951322,34.644234878458256],[135.06593346334694,34.642842695767506]],[[135.03971782720595,34.64894728552846],[135.0383617124189,34.64929927134084]],[[135.0383617124189,34.64929927134084],[135.03444060337742,34.65042352453261]],[[135.03444060337742,34.65042352453261],[135.03604469343983,34.651642341076965]],[[135.03604469343983,34.651642341076965],[135.03761003736548,34.65272981963163]],[[135.03886541219694,34.65205211560481],[135.04033776539433,34.65068094699241],[135.03971782720595,34.64894728552846]],[[135.0486914324827,34.66011626817199],[135.05285276757218,34.65887643754928]],[[135.05285276757218,34.65887643754928],[135.05057449472991,34.655114917524465]],[[135.05057449472991,34.655114917524465],[135.0470330978288,34.65519897383787]],[[135.04719583160326,34.66103038058026],[135.04967558435675,34.662469844947296]],[[135.04967558435675,34.662469844947296],[135.05402290090274,34.66201804226275]],[[135.05402290090274,34.66201804226275],[135.05285276757218,34.65887643754928]],[[135.08041676927286,34.63867665473443],[135.0774023198319,34.63977464032827]],[[135.05763404085005,34.62854261544968],[135.05761854239532,34.628647685841436]],[[135.05761854239532,34.628647685841436],[135.0575720470312,34.62897340405588]],[[135.0575720470312,34.62897340405588],[135.06470133619752,34.6290469533301]],[[135.07417864125233,34.63086467110746],[135.07440336884562,34.62826943243112],[135.06002855210264,34.62554285576508],[135.05763404085005,34.62854261544968]],[[135.04498730180717,34.65220972119244],[135.04470832962238,34.654973072495594]],[[135.05057449472991,34.655114917524465],[135.04947410444552,34.65277710130792]],[[135.07802225802027,34.64719786350574],[135.07851820857096,34.64669352562532]],[[135.07851820857096,34.64669352562532],[135.0785647039351,34.64649914540057]],[[135.0628570200871,34.634263698280726],[135.06262454326648,34.633738346321955]],[[135.06084997020224,34.63389069839],[135.0627717785862,34.6348783600725]],[[135.06310499536247,34.63539845851168],[135.06327547836426,34.63507274029724]],[[135.06327547836426,34.63507274029724],[135.0628570200871,34.634263698280726]],[[135.0376565327296,34.63943841507465],[135.03579671816448,34.63974837273033]],[[135.0348513124272,34.63990597831796],[135.03857094155745,34.641082766705615]],[[135.0409577035827,34.63958026010352],[135.0376565327296,34.63943841507465]],[[135.04638216273102,34.66685128028347],[135.04411938834343,34.66742391391853]],[[135.04411938834343,34.66742391391853],[135.044088391434,34.668464110796904]],[[135.04776152520014,34.669315180970116],[135.0470873424203,34.668106871464936]],[[135.0470873424203,34.668106871464936],[135.04638216273102,34.66685128028347]],[[135.06060199492688,34.62950400953424],[135.05885066954474,34.629519770093005]],[[135.06363969204995,34.66410368953908],[135.06221383421666,34.66382525300093]],[[135.06221383421666,34.66382525300093],[135.0619658589413,34.665669238376225]],[[135.0619658589413,34.665669238376225],[135.06436037019392,34.666189336815414]],[[135.06436037019392,34.666189336815414],[135.06487181919934,34.6662366184917]],[[135.06487181919934,34.6662366184917],[135.064995806837,34.66499153434941]],[[135.064995806837,34.66499153434941],[135.06363969204995,34.66410368953908]],[[135.07194686377417,34.6399322459159],[135.06874643287668,34.639890217759195]],[[135.06874643287668,34.639890217759195],[135.06892466510584,34.64131917508706]],[[135.06892466510584,34.64131917508706],[135.06959109865835,34.64258527330771]],[[135.06959109865835,34.64258527330771],[135.07103245494633,34.64279541409122]],[[135.06048575651656,34.65717955072245],[135.0569056134787,34.657247846477084],[135.0552627772795,34.65788877586679]],[[135.0552627772795,34.65788877586679],[135.05850970354112,34.65928621207713],[135.05863369117878,34.66033166247509]],[[135.05863369117878,34.66033166247509],[135.06303525231627,34.66120374672665]],[[135.06303525231627,34.66120374672665],[135.06372493355084,34.65945432470394],[135.06267103863058,34.65821449408123],[135.06415114105533,34.65637576222552],[135.0629577600427,34.655997508815204]],[[135.052062346382,34.66695109715564],[135.05110144219003,34.66632067480511]],[[135.05110144219003,34.66632067480511],[135.0504582563196,34.667066674586565]],[[135.0504582563196,34.667066674586565],[135.05179112342458,34.66873729381547]],[[135.05179112342458,34.66873729381547],[135.0518066218793,34.67006643427116]],[[135.0518066218793,34.67006643427116],[135.05161289119542,34.67025556097632]],[[135.05613843997057,34.632503769218836],[135.05549525410015,34.63209924821058]],[[135.05549525410015,34.63209924821058],[135.0551620373239,34.63335483939205]],[[135.05766503775945,34.63499919102301],[135.0566963843401,34.634263698280726]],[[135.0566963843401,34.634263698280726],[135.05679712429574,34.633570233695146]],[[135.07920788980553,34.63594482454881],[135.08061049995675,34.6372739650045]],[[135.0654452620236,34.64176572425202],[135.06525928056706,34.641282400449946]],[[135.06593346334694,34.642842695767506],[135.0654452620236,34.64176572425202]],[[135.04377067311248,34.64890525737176],[135.04327472256176,34.647949116806785],[135.03971782720595,34.64894728552846]],[[135.04127542190426,34.65129035526459],[135.0429105088761,34.6508122849821]],[[135.04163963558992,34.64329975197164],[135.0429105088761,34.64359920258814]],[[135.05427862540546,34.65360715740278],[135.05300775211927,34.65412725584197]],[[135.05300775211927,34.65412725584197],[135.0552627772795,34.65788877586679]],[[135.06415114105533,34.63105905133221],[135.062089846579,34.63145306530129]],[[135.0622448311261,34.632839994472455],[135.06397290882617,34.63317621972607]],[[135.07337272160743,34.65885016995134],[135.07431037811736,34.660032211858585],[135.0731944893783,34.66112494393283],[135.07417864125233,34.66305298562153],[135.07520153926316,34.662963675788546]],[[135.07699936000944,34.66274828148545],[135.0762554341834,34.65963294436992]],[[135.07578273131475,34.637421063552964],[135.07602295736274,34.638151302775654]],[[135.0801222986334,34.66241205623183],[135.08017654322487,34.66262745053493]],[[135.08126143505453,34.66449770350816],[135.0832529864847,34.66505457658446],[135.08481058118298,34.66681450564636],[135.08598071451354,34.66330515456175]],[[135.0703195260297,34.63389069839],[135.07080772735304,34.63403779693846]],[[135.07080772735304,34.63403779693846],[135.07257455118992,34.63447383906424]],[[135.0547978236382,34.62823265779401],[135.05761854239532,34.628647685841436]],[[135.05763404085005,34.62854261544968],[135.05818423599223,34.624754827826926],[135.05630117374503,34.62415592659392],[135.0572465794823,34.62717144683728],[135.05499930354944,34.627097897563054]],[[135.06777777945734,34.63736852835709],[135.0658869679828,34.63887628847876]],[[135.0658869679828,34.63887628847876],[135.06616594016756,34.63978514736744]],[[135.06616594016756,34.63978514736744],[135.06628992780523,34.63974311921074]],[[135.06628992780523,34.63974311921074],[135.0687076867399,34.6373632748375]],[[135.0687076867399,34.6373632748375],[135.06777777945734,34.63736852835709]],[[135.0619658589413,34.665669238376225],[135.06191936357718,34.66639422407933]],[[135.06191936357718,34.66639422407933],[135.06174113134804,34.6676498152608]],[[135.06174113134804,34.6676498152608],[135.06352345363962,34.668253970013396]],[[135.06352345363962,34.668253970013396],[135.06436037019392,34.666189336815414]],[[135.05891266336357,34.6679965475536],[135.06174113134804,34.6676498152608]],[[135.06191936357718,34.66639422407933],[135.05751005321235,34.66536453424014]],[[135.0832839833941,34.65871357844206],[135.08224558692856,34.65996916962353]],[[135.08224558692856,34.65996916962353],[135.08390392158248,34.66127729600088],[135.0864844142916,34.66116171856995]],[[135.0864844142916,34.66116171856995],[135.08564749773728,34.65973801476167],[135.0832839833941,34.65871357844206]],[[135.0299615499664,34.65444246701723],[135.02955859014395,34.65485224154507]],[[135.02955859014395,34.65485224154507],[135.03050399588122,34.65626018479459]],[[135.03050399588122,34.65626018479459],[135.03216233053513,34.655987001776026]],[[135.03216233053513,34.655987001776026],[135.03261178572168,34.6548837626626]],[[135.03261178572168,34.6548837626626],[135.0299615499664,34.65444246701723]],[[135.0614389114812,34.62931488282908],[135.06459284701455,34.629514516573416]],[[135.0566963843401,34.634263698280726],[135.06077247792868,34.63385392375289]],[[135.05300775211927,34.65412725584197],[135.05057449472991,34.655114917524465]],[[135.05285276757218,34.65887643754928],[135.0552627772795,34.65788877586679]],[[135.06352345363962,34.668253970013396],[135.06232232339963,34.67009795538869]],[[135.06335297063782,34.67044994120107],[135.0661116955761,34.669688180860845]],[[135.0661116955761,34.669688180860845],[135.06352345363962,34.668253970013396]],[[135.09358270654852,34.64909438407692],[135.08946786682316,34.649703792349094],[135.09218784562466,34.651957552252235],[135.0949543197903,34.65119053839242],[135.09465209992345,34.649157426311966],[135.09358270654852,34.64909438407692]],[[135.03497530006487,34.64309486470772],[135.03464983251598,34.64552199075725]],[[135.03464983251598,34.64552199075725],[135.036463151717,34.647413257808836]],[[135.036463151717,34.647413257808836],[135.0378115172767,34.64577415969747],[135.03685836231207,34.64325247029535]],[[135.05535576800776,34.63085941758788],[135.05549525410015,34.63209924821058]],[[135.05592146160464,34.66127204248129],[135.05754879934915,34.66356783054113]],[[135.05754879934915,34.66356783054113],[135.05941636314162,34.66268523925039]],[[135.05941636314162,34.66268523925039],[135.05860269426938,34.66208633801739]],[[135.05860269426938,34.66208633801739],[135.05792076226217,34.661771126842126]],[[135.05792076226217,34.661771126842126],[135.05592146160464,34.66127204248129]],[[135.05462734063642,34.629162530761036],[135.05455759759022,34.62821164371566]],[[135.05386791635564,34.62694029197542],[135.05179887265194,34.627076883484705]],[[135.06964534324982,34.67127999729593],[135.06899440815204,34.67279826445679]],[[135.06899440815204,34.67279826445679],[135.0690486527435,34.67364933463]],[[135.0690486527435,34.67364933463],[135.07052100594092,34.6742902640197],[135.0730007586944,34.67383846133516]],[[135.06396515959884,34.63019747411982],[135.06180312516688,34.63013968540436]],[[135.0628570200871,34.634263698280726],[135.0648253238352,34.63395899414464]],[[135.0629112646786,34.63644916242923],[135.0630275030889,34.63563486689313]],[[135.036463151717,34.647413257808836],[135.0383617124189,34.64929927134084]],[[135.04501054948923,34.66345750662979],[135.04649065191398,34.665259463848386]],[[135.04649065191398,34.665259463848386],[135.05007079495184,34.6639250698731]],[[135.05007079495184,34.6639250698731],[135.0501637856801,34.663914562833924]],[[135.0501637856801,34.663914562833924],[135.04967558435675,34.662469844947296]],[[135.04767628369925,34.6411720765386],[135.0498383181312,34.63977464032827]],[[135.06242306335525,34.67096478612067],[135.06215184039783,34.672456785683586]],[[135.06267878785795,34.672661672947505],[135.06504230220114,34.672845546133075]],[[135.06504230220114,34.672845546133075],[135.06325997990956,34.670712617180456]],[[135.0328520117697,34.643031822472665],[135.0313641601176,34.64313689286442]],[[135.0320305936701,34.645332864052094],[135.03464983251598,34.64552199075725]],[[135.03254979190285,34.649688031790326],[135.036463151717,34.647413257808836]],[[135.07878943152838,34.6551832132791],[135.0797580849477,34.655104410485286]],[[135.0797580849477,34.655104410485286],[135.07954885580915,34.65413776288114]],[[135.07954885580915,34.65413776288114],[135.0778595242458,34.65171063683161],[135.0785647039351,34.64939383469341]],[[135.0785647039351,34.64939383469341],[135.07432587657206,34.64960922899651],[135.0763251772296,34.65059163715942],[135.07878943152838,34.6551832132791]],[[135.03733881440806,34.63749986634678],[135.03662588549145,34.635461500746736]],[[135.0376565327296,34.63943841507465],[135.03733881440806,34.63749986634678]],[[135.03050399588122,34.65626018479459],[135.03255754113022,34.65822500112041]],[[135.0349520523828,34.65609732568737],[135.03216233053513,34.655987001776026]],[[135.05179112342458,34.66873729381547],[135.0518066218793,34.67006643427116]],[[135.03239480735576,34.64997172184807],[135.03200734598803,34.65279286186668]],[[135.03200734598803,34.65279286186668],[135.03391365591727,34.653528354608966]],[[135.03391365591727,34.653528354608966],[135.03604469343983,34.651642341076965]],[[135.03444060337742,34.65042352453261],[135.03259628726698,34.649719552907854]],[[135.06504230220114,34.672845546133075],[135.0660032063931,34.67388574301145],[135.06750655649992,34.67321854602381],[135.0687076867399,34.674059109157845]],[[135.0687076867399,34.674059109157845],[135.0690486527435,34.67364933463]],[[135.06899440815204,34.67279826445679],[135.06834347305423,34.67072837773922],[135.0661116955761,34.669688180860845]],[[135.05863369117878,34.66033166247509],[135.05792076226217,34.661771126842126]],[[135.05860269426938,34.66208633801739],[135.06272528322208,34.66235426751636]],[[135.06272528322208,34.66235426751636],[135.06303525231627,34.66120374672665]],[[135.0569056134787,34.66502305546694],[135.05754879934915,34.66356783054113]],[[135.05592146160464,34.66127204248129],[135.05410814240363,34.66199177466481]],[[135.05410814240363,34.66199177466481],[135.05607644615174,34.66448719646899]],[[135.05607644615174,34.66448719646899],[135.05671963202218,34.66515439345663]],[[135.05941636314162,34.66268523925039],[135.06221383421666,34.66382525300093]],[[135.06363969204995,34.66410368953908],[135.06272528322208,34.66235426751636]],[[135.05007079495184,34.6639250698731],[135.05110144219003,34.66632067480511]],[[135.05607644615174,34.66448719646899],[135.05447235608932,34.66500204138858],[135.0501637856801,34.663914562833924]],[[135.0700405538449,34.63734751427873],[135.06873093442198,34.63728447204368]],[[135.06873093442198,34.63728447204368],[135.0687076867399,34.6373632748375]],[[135.06628992780523,34.63974311921074],[135.0684054668731,34.63977989384785]],[[135.0684054668731,34.63977989384785],[135.0700405538449,34.63734751427873]],[[135.07954885580915,34.65413776288114],[135.08173413792318,34.65327618566875],[135.08178838251465,34.65219921415327]],[[135.08178838251465,34.65219921415327],[135.08106770437067,34.65024490486663],[135.0785647039351,34.64939383469341]],[[135.03362693450515,34.653696467235775],[135.03261178572168,34.6548837626626]],[[135.0358974581201,34.65483122746672],[135.03362693450515,34.653696467235775]],[[135.04712608855706,34.67288232077019],[135.05024127795366,34.675808531180564],[135.05505354814093,34.673717630384644]],[[135.07878943152838,34.6551832132791],[135.07861119929922,34.65640728334304]],[[135.08064924609351,34.660047972417345],[135.08224558692856,34.65996916962353]],[[135.0832839833941,34.65871357844206],[135.08183487787878,34.658088409611125]],[[135.08183487787878,34.658088409611125],[135.0799285679495,34.65632848054923],[135.0797580849477,34.655104410485286]],[[135.03086046033954,34.63998478111178],[135.03461108637921,34.63995325999425]],[[135.02744305107612,34.65313959415947],[135.02955859014395,34.65485224154507]],[[135.0299615499664,34.65444246701723],[135.03200734598803,34.65279286186668]],[[135.03200734598803,34.65279286186668],[135.0282179738116,34.65226225638832]],[[135.06565449116215,34.63521458532611],[135.06449985628632,34.63570316264777]],[[135.06449985628632,34.63570316264777],[135.06442236401276,34.63677488064367]],[[135.06442236401276,34.63677488064367],[135.06577847879984,34.638639880097315]],[[135.06577847879984,34.638639880097315],[135.0658869679828,34.63887628847876]],[[135.06777777945734,34.63736852835709],[135.06565449116215,34.63521458532611]],[[135.06874643287668,34.639890217759195],[135.0684054668731,34.63977989384785]],[[135.06616594016756,34.63978514736744],[135.06748330881786,34.641471527155105]],[[135.06748330881786,34.641471527155105],[135.06892466510584,34.64131917508706]],[[135.0661116955761,34.669688180860845],[135.06750655649992,34.66621560441335]],[[135.06750655649992,34.66621560441335],[135.06487181919934,34.6662366184917]],[[135.06960659711305,34.64564282170777],[135.0701102968911,34.64685113121295]],[[135.06959109865835,34.64258527330771],[135.06841321610042,34.64240665364172],[135.0677855286847,34.64446077980053]],[[135.06476333001638,34.6389025560767],[135.06577847879984,34.638639880097315]],[[135.06442236401276,34.63677488064367],[135.06351570441225,34.63686419047666]],[[135.05402290090274,34.66201804226275],[135.05410814240363,34.66199177466481]],[[135.06549175738772,34.63473126152404],[135.06565449116215,34.63521458532611]],[[135.06873093442198,34.63728447204368],[135.06793276400444,34.63596058510757]],[[135.0700405538449,34.63734751427873],[135.0718538730459,34.63732124668079]],[[135.0718538730459,34.63732124668079],[135.07069923817008,34.636181232930255],[135.07080772735304,34.63403779693846]],[[135.0677855286847,34.665811083405096],[135.06750655649992,34.66621560441335]],[[135.06973833397808,34.670696856621696],[135.0677855286847,34.665811083405096]],[[135.03733881440806,34.63749986634678],[135.03879566915074,34.63628104980242]],[[135.0677855286847,34.665811083405096],[135.06794826245914,34.66506508362364],[135.064995806837,34.66499153434941]],[[135.03391365591727,34.653528354608966],[135.03362693450515,34.653696467235775]],[[135.06327547836426,34.63507274029724],[135.06449985628632,34.63570316264777]],[[135.04237581218862,34.668999969794854],[135.0433909609721,34.66896319515774]],[[135.04411938834343,34.66742391391853],[135.04331346869856,34.66673570285254]],[[135.08183487787878,34.658088409611125],[135.08392716926454,34.65586091730592],[135.08322973880263,34.65485224154507]],[[135.08322973880263,34.65485224154507],[135.0841054014937,34.652813875945036],[135.08178838251465,34.65219921415327]],[[135.06192711280454,34.67455819351868],[135.06469358697018,34.67667536191254],[135.0657474818904,34.67558262983829],[135.0680954977789,34.67551433408365],[135.0687076867399,34.674059109157845]],[[135.07952560812708,34.662133619693684],[135.07821598870413,34.660899042590565]],[[135.0864844142916,34.66116171856995],[135.08676338647638,34.661587253656556]],[[135.08676338647638,34.661587253656556],[135.08681763106785,34.65746324078018],[135.08322973880263,34.65485224154507]],[[135.0651507913841,34.64099871039221],[135.06616594016756,34.63978514736744]],[[135.0862131913342,34.66243832382977],[135.08676338647638,34.661587253656556]],[[135.0720631021845,34.6375313874643],[135.0718538730459,34.63732124668079]],[[135.07201660682037,34.63682741583955],[135.0734347154263,34.63615496533232]],[[135.0504582563196,34.667066674586565],[135.0470873424203,34.668106871464936]],[[135.0889486685904,34.65226750990791],[135.0857482376929,34.651232566549126],[135.0883519780841,34.653344481423396],[135.09154465975422,34.6542848614296],[135.0930015144969,34.65535132590591],[135.09565949947958,34.65363867852031],[135.0960314623926,34.65207312968316],[135.0889486685904,34.65226750990791]],[[135.04638216273102,34.66685128028347],[135.04649065191398,34.665259463848386]],[[135.0654452620236,34.64176572425202],[135.06748330881786,34.641471527155105]],[[135.07884367611987,34.64801741256143],[135.07923888671496,34.648957792567636],[135.08214484697297,34.64922046854702],[135.08170314101375,34.64696670864388],[135.07851820857096,34.64669352562532]]]}