{"type":"Topology","bbox":[135.1940713846665,34.66398600603429,135.26176010555366,34.771374566538164],"objects":{"town":{"type":"GeometryCollection","geometries":[{"type":"MultiPolygon","arcs":[[[10,7,3,4,0,1,5,8,160,161]]],"properties":{"name":"青谷町"}},{"type":"MultiPolygon","arcs":[[[-8,-38,195,12,20,185,17,-74,157,158,159,162,19,186,184,22,14,15,196,-123,93]]],"properties":{"name":"赤坂通"}},{"type":"MultiPolygon","arcs":[[[24,25,213,212,27,108,109,-33,110]]],"properties":{"name":"赤松町"}},{"type":"MultiPolygon","arcs":[[[30,31,32,33,28,640,641,-424]]],"properties":{"name":"大土平町"}},{"type":"MultiPolygon","arcs":[[[73,-18,-186,-21,-13,-196,37,-11,34,35,775,131,147,148,-728,226,227,75,187,188,-158]]],"properties":{"name":"上野通"}},{"type":"MultiPolygon","arcs":[[[62,-57,97,-205,41,38,39,609,610,95,-653,724,59,60,98,99,100,101]]],"properties":{"name":"大内通"}},{"type":"MultiPolygon","arcs":[[[807,42,43,44,-73,-72,-413,568,569]]],"properties":{"name":"大石南町"}},{"type":"MultiPolygon","arcs":[[[240,241,48,84,85,82,83,46,237,238,239,228,229,230,231]]],"properties":{"name":"上河原通"}},{"type":"MultiPolygon","arcs":[[[-4,-94,122,-197,-16,207,200,219,220,126,127,52,172,173,174,175,50,128,129,218,202,208,198,124]]],"properties":{"name":"天城通"}},{"type":"MultiPolygon","arcs":[[[169,-42,204,-98,56,-63,-102,210,211,214,54,217,203,171]]],"properties":{"name":"泉通"}},{"type":"MultiPolygon","arcs":[[[189,183,64,163,164,165,66,-179,-178,143,144,145]]],"properties":{"name":"岩屋中町"}},{"type":"Polygon","arcs":[[-45,67,68,69,70,71,72]],"properties":{"name":"大石北町"}},{"type":"MultiPolygon","arcs":[[[-500,-481,-480,-479,139,140,77,78,-71,79,80,141,-276,-637,-88,-87,119,120,121]]],"properties":{"name":"大石東町"}},{"type":"MultiPolygon","arcs":[[[-275,635,89,90,599,-350,-120,86,87,636]]],"properties":{"name":"烏帽子町"}},{"type":"MultiPolygon","arcs":[[[-146,166,215,216,104,105,106,206,191,192,221,222,223,224,-164,-65,-184,-190]]],"properties":{"name":"岩屋北町"}},{"type":"MultiPolygon","arcs":[[[-5,114,115,116,-513,-343,-359,603,111,112,-525,678,679,-1]]],"properties":{"name":"王子町"}},{"type":"Polygon","arcs":[[133,134,135,136,137,138]],"properties":{"name":"大石"}},{"type":"Polygon","arcs":[[150,151,152,153,154,155]],"properties":{"name":"一王山町"}},{"type":"Polygon","arcs":[[176,-144,177,178,-67,-166,179,180,181]],"properties":{"name":"岩屋南町"}},{"type":"MultiPolygon","arcs":[[[242,611,-589,236,-100,233,234,-365,-364,613,244,245,246]]],"properties":{"name":"神ノ木通"}},{"type":"MultiPolygon","arcs":[[[744,312,316,250,247,248,317,318,310,743,-533,368,369,370]]],"properties":{"name":"記田町"}},{"type":"MultiPolygon","arcs":[[[359,796,-563,-562,255,256,251,252,253,-526,-112,-604,358,342,343,-39,-170,344]]],"properties":{"name":"城内通"}},{"type":"MultiPolygon","arcs":[[[258,259,260,-401,-603,510,511,-472,708,-495,-487,-699,-698,-288,-465,-174,806,-159,-381]]],"properties":{"name":"篠原中町"}},{"type":"MultiPolygon","arcs":[[[-372,674,265,-423,-356,659,-463,657,-704,-626,263,673,302,303,304]]],"properties":{"name":"倉石通"}},{"type":"MultiPolygon","arcs":[[[-78,-141,-140,478,479,480,499,-122,-891,-825,-722,-556,-737,498,477,269,411,412,-79]]],"properties":{"name":"新在家南町"}},{"type":"MultiPolygon","arcs":[[[-599,829,-490,-398,-786,605,271,272,273,274,275,-142,-81]]],"properties":{"name":"鹿ノ下通"}},{"type":"MultiPolygon","arcs":[[[324,315,306,307,278,345,346,347,276,308,313,325,808,809,-452]]],"properties":{"name":"楠丘町"}},{"type":"MultiPolygon","arcs":[[[683,680,827,280,281,-380,682,408,409,-386,410]]],"properties":{"name":"五毛通"}},{"type":"MultiPolygon","arcs":[[[-326,-314,-309,-277,-348,361,362,360,283,845,326,-714,-578,-577,-623,819,-809]]],"properties":{"name":"高徳町"}},{"type":"MultiPolygon","arcs":[[[287,697,698,486,494,-709,471,472,469,-787,-695,491,492,493,-366,-322,696,289,460,461,462,463,-175,464]]],"properties":{"name":"篠原南町"}},{"type":"MultiPolygon","arcs":[[[-634,-800,-779,751,719,294,752,-152,-677,290,-676]]],"properties":{"name":"鶴甲"}},{"type":"MultiPolygon","arcs":[[[-640,-586,-844,298,299,330,691,-457,692,690,329,296,-414,-351]]],"properties":{"name":"桜口町"}},{"type":"MultiPolygon","arcs":[[[-245,-614,363,364,-235,319,320,321,365,-494,-493,497]]],"properties":{"name":"将軍通"}},{"type":"MultiPolygon","arcs":[[[333,504,732,-718,886,-789,-535,503,335,-459,558,559]]],"properties":{"name":"中郷町"}},{"type":"MultiPolygon","arcs":[[[384,385,386,387,388,389,-805,-455,-425,-642,-641,-29,-34,-110,338,339,340,336,-591,392,-383]]],"properties":{"name":"篠原北町"}},{"type":"MultiPolygon","arcs":[[[746,-768,689,415,348,349,350,413,-297,-330,-691,-693,-248]]],"properties":{"name":"友田町"}},{"type":"MultiPolygon","arcs":[[[-573,373,374,-777,421,353,-701,720,-464,-660,355,422,-266,-675,371,-305,-304,-514,-116,-686,-871]]],"properties":{"name":"中原通"}},{"type":"MultiPolygon","arcs":[[[501,502,377,-649,-643,-409,-683,379,-282,-440]]],"properties":{"name":"高尾通"}},{"type":"MultiPolygon","arcs":[[[400,-261,-260,-259,380,-189,381,382,-393,590,-337,-341,601,-511,602]]],"properties":{"name":"篠原本町"}},{"type":"MultiPolygon","arcs":[[[506,-438,725,726,394,395,745,-382,-188,-76,-228,-227,727,-149,-148]]],"properties":{"name":"国玉通"}},{"type":"MultiPolygon","arcs":[[[-239,-238,-47,-84,-83,520,521,-273,-272,-606,785,397,489,490,-229,-240]]],"properties":{"name":"下河原通"}},{"type":"MultiPolygon","arcs":[[[-846,-284,-361,-363,518,516,844,403,404,-876,-872,830,-715,-327]]],"properties":{"name":"弓木町"}},{"type":"MultiPolygon","arcs":[[[418,416,882,-182,-792,883,-858]]],"properties":{"name":"摩耶海岸通"}},{"type":"MultiPolygon","arcs":[[[452,540,541,427,428,-31,423,424,454]]],"properties":{"name":"篠原伯母野山町"}},{"type":"MultiPolygon","arcs":[[[-830,-598,-609,813,756,-710,429,-223,430,431,816,-477,-476,-764,-760,-870,-230,-491]]],"properties":{"name":"灘南通"}},{"type":"MultiPolygon","arcs":[[[-339,-109,-28,-213,-442,-450,-550,433,455]]],"properties":{"name":"曾和町"}},{"type":"MultiPolygon","arcs":[[[-396,-395,-727,-726,437,438,439,-281,-828,-681,-684,-411,-385,-746]]],"properties":{"name":"薬師通"}},{"type":"Polygon","arcs":[[440,441,-214,-26,442,-156,443,444,445,446]],"properties":{"name":"寺口町"}},{"type":"MultiPolygon","arcs":[[[-279,-308,-307,-316,-325,451,447,448,449,-441,-447,-446,-445,655,-665,-782,880,-346]]],"properties":{"name":"高羽町"}},{"type":"MultiPolygon","arcs":[[[-369,532,-744,-311,-319,-318,-249,456,457,458,-336,-504,534,788,789,-370]]],"properties":{"name":"徳井町"}},{"type":"MultiPolygon","arcs":[[[721,722,-690,767,768,468,465,554,555]]],"properties":{"name":"浜田町"}},{"type":"MultiPolygon","arcs":[[[885,-257,-256,561,562,-797,-360,-345,-172,-204,-218,-55,-215,-212,-841,-231,869,759,763,475,476,-817,-432,-431,-222,-193,-192,-207,-107,-106,-105,-217]]],"properties":{"name":"灘北通"}},{"type":"MultiPolygon","arcs":[[[-36,-35,-162,482,483,660,-670,-687,-502,-439,-507,-132,-776]]],"properties":{"name":"城の下通"}},{"type":"MultiPolygon","arcs":[[[-868,705,-651,702,623,699,515,512,-117,513,-303,-674,-264,625,703,-658,-462,-461,-290,-697,-321,-773]]],"properties":{"name":"水道筋"}},{"type":"MultiPolygon","arcs":[[[868,797,-679,524,-113,525,-254,-253]]],"properties":{"name":"原田通"}},{"type":"MultiPolygon","arcs":[[[862,-823,-822,-247,-246,-694,-788,530,-630,-827,-749,526,-763]]],"properties":{"name":"六甲町"}},{"type":"Polygon","arcs":[[-154,536,537]],"properties":{"name":"高羽"}},{"type":"MultiPolygon","arcs":[[[-53,-128,-127,-221,-220,-201,-208,-15,-23,-185,-187,-20,-163,-160,-807,-173]]],"properties":{"name":"畑原通"}},{"type":"MultiPolygon","arcs":[[[545,546,-847,-628,-810,-820,-622,835,-878,543,-631,-616,-473,876]]],"properties":{"name":"八幡町"}},{"type":"MultiPolygon","arcs":[[[-434,549,-449,550,-850,-849,854,-602,-340,-456]]],"properties":{"name":"山田町"}},{"type":"MultiPolygon","arcs":[[[762,-527,748,749,-639,551,760,874,-521,-86,-824,-863]]],"properties":{"name":"稗原町"}},{"type":"MultiPolygon","arcs":[[[619,-813,566,564,-544,877,-836,621,622,-576]]],"properties":{"name":"日尾町"}},{"type":"MultiPolygon","arcs":[[[-115,-125,-199,-209,-203,-219,-130,-129,-51,-176,-721,700,-354,-422,776,-375,-374,572,870,685]]],"properties":{"name":"福住通"}},{"type":"MultiPolygon","arcs":[[[826,-567,812,-620,575,576,577,578,579,580,573,810,-774]]],"properties":{"name":"森後町"}},{"type":"MultiPolygon","arcs":[[[-692,-331,-300,-299,843,585,581,582,583,841,-895,-732,889,739,740,-559,-458]]],"properties":{"name":"備後町"}},{"type":"MultiPolygon","arcs":[[[588,-612,-243,821,822,823,-85,-49,-242,-241,-232,840,-211,-101,-237]]],"properties":{"name":"千旦通"}},{"type":"MultiPolygon","arcs":[[[-796,-795,-794,-793,-180,-165,-225,591,592,593,837,-893,833,834,-607,-68]]],"properties":{"name":"都通"}},{"type":"MultiPolygon","arcs":[[[709,-757,-814,608,597,598,-80,-70,-69,606,-835,-834,892,-838,-594,-593,-592,-224,-430]]],"properties":{"name":"船寺通"}},{"type":"MultiPolygon","arcs":[[[786,-470,615,630,-565,629,-531,787,693,-498,-492,694]]],"properties":{"name":"神前町"}},{"type":"MultiPolygon","arcs":[[[-855,848,849,-551,-448,627,846,-547,-546,-877,-512]]],"properties":{"name":"宮山町"}},{"type":"Polygon","arcs":[[-428,-542,631,632,633,634]],"properties":{"name":"篠原台"}},{"type":"MultiPolygon","arcs":[[[-274,-522,-875,-761,-552,638,-582,639,-600,-91,-90,-636]]],"properties":{"name":"琵琶町"}},{"type":"MultiPolygon","arcs":[[[686,-669,-668,647,644,-137,645,-387,-410,642,648,-378,-503]]],"properties":{"name":"箕岡通"}},{"type":"MultiPolygon","arcs":[[[-344,-516,-700,-624,-703,650,-706,867,772,-320,-234,-99,-61,-60,-725,652,-96,-611,-610,-40]]],"properties":{"name":"岸地通"}},{"type":"Polygon","arcs":[[664,-656,-444,-155,-538,665,666]],"properties":{"name":"桜ケ丘町"}},{"type":"Polygon","arcs":[[-138,-645,-648,667,668,669,-661,-484,670,671]],"properties":{"name":"摩耶山町"}},{"type":"Polygon","arcs":[[-151,-443,-25,-111,-32,-429,-635,675,-291,676]],"properties":{"name":"六甲台町"}},{"type":"MultiPolygon","arcs":[[[-811,-574,-581,-580,-579,713,714,711,741,-730,851,887,-583,-750,773]]],"properties":{"name":"永手町"}},{"type":"MultiPolygon","arcs":[[[871,875,-405,-404,-845,-517,716,717,-733,-505,-334,-560,-766,-831]]],"properties":{"name":"大和町"}},{"type":"MultiPolygon","arcs":[[[-842,-584,-888,-852,729,-742,-712,765,-741,-740,-890,731,894]]],"properties":{"name":"深田町"}},{"type":"Polygon","arcs":[[735,-412,-270,-478,-499,736,-555,-466,737]],"properties":{"name":"灘浜東町"}},{"type":"Polygon","arcs":[[778,779,780]],"properties":{"name":"水車新田"}},{"type":"Polygon","arcs":[[781,-667,782,783]],"properties":{"name":"土山町"}},{"type":"Polygon","arcs":[[790,791,-181,792,793,794,795,-44]],"properties":{"name":"味泥町"}},{"type":"Polygon","arcs":[[799,-633,800,801,-780]],"properties":{"name":"大月台"}},{"type":"Polygon","arcs":[[-390,802,-134,803,-801,-632,-541,-453,804]],"properties":{"name":"篠原"}},{"type":"MultiPolygon","arcs":[[[-416,-723,824,890,-121,-349]]],"properties":{"name":"新在家北町"}},{"type":"Polygon","arcs":[[856,-419,857,858,859,860,-569,-736]],"properties":{"name":"水面"}},{"type":"MultiPolygon","arcs":[[[-388,-646,-136,-135,-803,-389]]],"properties":{"name":"長峰台"}},{"type":"Polygon","arcs":[[-860,866]],"properties":{"name":"摩耶埠頭"}},{"type":"Polygon","arcs":[[-783,-666,-537,-153,-753,-295,-720,-752,-781,-802,-804,-139,-672,879]],"properties":{"name":"六甲山町"}},{"type":"Polygon","arcs":[[-859,-884,-791,-43,-808,-570,-861,-867]],"properties":{"name":"灘浜町"}}]}},"arcs":[[[135.21535484685964,34.71202571311838],[135.21192268549453,34.7106187822827]],[[135.21192268549453,34.7106187822827],[135.21139466066913,34.711531676336385]],[[135.21139466066913,34.711531676336385],[135.21484036113233,34.71317488563302]],[[135.21484036113233,34.71317488563302],[135.2157813284494,34.71263788913085]],[[135.2157813284494,34.71263788913085],[135.21535484685964,34.71202571311838]],[[135.21139466066913,34.711531676336385],[135.21054846703868,34.71283120787164]],[[135.21054846703868,34.71283120787164],[135.2136421509516,34.71419517898715]],[[135.2136421509516,34.71419517898715],[135.21484036113233,34.71317488563302]],[[135.21054846703868,34.71283120787164],[135.20995274672285,34.71375484185537]],[[135.20995274672285,34.71375484185537],[135.21224085429958,34.715333611571744]],[[135.21224085429958,34.715333611571744],[135.2136421509516,34.71419517898715]],[[135.21772418902492,34.71436701786784],[135.2169795386301,34.715559150102656]],[[135.2169795386301,34.715559150102656],[135.21806943602613,34.715967267444306]],[[135.21806943602613,34.715967267444306],[135.2185906913025,34.715419531012095]],[[135.2185906913025,34.715419531012095],[135.21903071199034,34.71495771402023]],[[135.21903071199034,34.71495771402023],[135.21772418902492,34.71436701786784]],[[135.22077048609455,34.71625724555548],[135.22045908683853,34.716880161498]],[[135.22045908683853,34.716880161498],[135.2224899515516,34.71765343646112]],[[135.2224899515516,34.71765343646112],[135.22275396396432,34.71711643995895]],[[135.22275396396432,34.71711643995895],[135.22077048609455,34.71625724555548]],[[135.21806943602613,34.715967267444306],[135.21961289320808,34.71655796359669]],[[135.21961289320808,34.71655796359669],[135.21995137066025,34.71594578758422]],[[135.21995137066025,34.71594578758422],[135.2185906913025,34.715419531012095]],[[135.23321968678576,34.72262602407121],[135.23353108604175,34.723646317425334]],[[135.23353108604175,34.723646317425334],[135.23709186883872,34.72488140938032]],[[135.23709186883872,34.72488140938032],[135.23653676581714,34.724312193088025]],[[135.23653676581714,34.724312193088025],[135.23451944020212,34.722980441762644]],[[135.23451944020212,34.722980441762644],[135.23321968678576,34.72262602407121]],[[135.23067433634534,34.72425849343781],[135.23073526228674,34.72438737259833]],[[135.23073526228674,34.72438737259833],[135.23141221719112,34.72592318259453]],[[135.23141221719112,34.72592318259453],[135.23198762885983,34.72668571762761]],[[135.23198762885983,34.72668571762761],[135.23148668223058,34.7241081344172]],[[135.23148668223058,34.7241081344172],[135.23148668223058,34.724075914627065]],[[135.23148668223058,34.724075914627065],[135.23067433634534,34.72425849343781]],[[135.21224085429958,34.715333611571744],[135.2124304016728,34.71536583136188]],[[135.2124304016728,34.71536583136188],[135.21486066977945,34.71617132611513]],[[135.21486066977945,34.71617132611513],[135.21563239837045,34.715043633460574]],[[135.21563239837045,34.715043633460574],[135.2136421509516,34.71419517898715]],[[135.22114281129194,34.709630708718706],[135.22079079474167,34.71013548543075]],[[135.22079079474167,34.71013548543075],[135.22204316131473,34.710586562492566]],[[135.22204316131473,34.710586562492566],[135.22228686508032,34.710028086130315]],[[135.22228686508032,34.710028086130315],[135.22114281129194,34.709630708718706]],[[135.2312091307198,34.702359776079334],[135.23022754610847,34.70259605454029]],[[135.23022754610847,34.70259605454029],[135.22966567353785,34.70527029712109]],[[135.22966567353785,34.70527029712109],[135.23059310175682,34.70546361586187]],[[135.23059310175682,34.70546361586187],[135.2312091307198,34.702359776079334]],[[135.23267135331324,34.711402797175865],[135.23205532435026,34.71113429892478]],[[135.23205532435026,34.71113429892478],[135.2315814559172,34.71215459227891]],[[135.2315814559172,34.71215459227891],[135.23221102397827,34.712347911019684]],[[135.23221102397827,34.712347911019684],[135.23267135331324,34.711402797175865]],[[135.22432449934243,34.71584912821383],[135.2235121534572,34.71552693031253]],[[135.2235121534572,34.71552693031253],[135.22311275006362,34.71635390492587]],[[135.22311275006362,34.71635390492587],[135.22393186549792,34.716654622967084]],[[135.22393186549792,34.716654622967084],[135.22432449934243,34.71584912821383]],[[135.2269578539204,34.710822840953526],[135.22596949976005,34.71048990312218]],[[135.22596949976005,34.71048990312218],[135.22571902644543,34.71106985934452]],[[135.22571902644543,34.71106985934452],[135.22663968511537,34.71147797668617]],[[135.22663968511537,34.71147797668617],[135.2269578539204,34.710822840953526]],[[135.22663968511537,34.71147797668617],[135.22635536405554,34.712068672838555]],[[135.22635536405554,34.712068672838555],[135.22612519938804,34.7125734495506]],[[135.22612519938804,34.7125734495506],[135.2276077306286,34.71312118598281]],[[135.2276077306286,34.71312118598281],[135.22804775131644,34.71195053360808]],[[135.22804775131644,34.71195053360808],[135.22663968511537,34.71147797668617]],[[135.2209058770754,34.7032189704828],[135.22037785225,34.70463664124853]],[[135.22037785225,34.70463664124853],[135.2219754658243,34.705066238450264]],[[135.2219754658243,34.705066238450264],[135.22282165945475,34.70359486803432]],[[135.22282165945475,34.70359486803432],[135.2209058770754,34.7032189704828]],[[135.22966567353785,34.70527029712109],[135.228914253594,34.70666648802673]],[[135.228914253594,34.70666648802673],[135.23007184648048,34.70683832690742]],[[135.23007184648048,34.70683832690742],[135.23201470705598,34.707063865438336]],[[135.23201470705598,34.707063865438336],[135.23267812286227,34.70593617278378]],[[135.23267812286227,34.70593617278378],[135.23205532435026,34.70579655369322]],[[135.23205532435026,34.70579655369322],[135.23059310175682,34.70546361586187]],[[135.22330229743685,34.71796489443238],[135.2224899515516,34.71765343646112]],[[135.2224899515516,34.71765343646112],[135.22204316131473,34.71860929023498]],[[135.22204316131473,34.71860929023498],[135.22284873765093,34.7189100082762]],[[135.22284873765093,34.7189100082762],[135.22330229743685,34.71796489443238]],[[135.23428927553465,34.706408729705686],[135.23390341123917,34.706279850545165]],[[135.23390341123917,34.706279850545165],[135.23267812286227,34.70593617278378]],[[135.23201470705598,34.707063865438336],[135.23112112658222,34.708417096623805]],[[135.23112112658222,34.708417096623805],[135.23324676498194,34.70861041536458]],[[135.23324676498194,34.70861041536458],[135.23428927553465,34.706408729705686]],[[135.23368001612073,34.71186461416773],[135.23308429580487,34.7115853759866]],[[135.23308429580487,34.7115853759866],[135.23267135331324,34.711402797175865]],[[135.23221102397827,34.712347911019684],[135.2333212300214,34.71270232871112]],[[135.2333212300214,34.71270232871112],[135.23368001612073,34.71186461416773]],[[135.23769435870358,34.71000660627023],[135.23770789780167,34.70997438648009]],[[135.23770789780167,34.70997438648009],[135.23655030491523,34.709641448648746]],[[135.23655030491523,34.709641448648746],[135.23597489324652,34.710833580883566]],[[135.23597489324652,34.710833580883566],[135.23601551054077,34.710855060743654]],[[135.23601551054077,34.710855060743654],[135.23713925568202,34.711241698225216]],[[135.23713925568202,34.711241698225216],[135.23769435870358,34.71000660627023]],[[135.21563239837045,34.715043633460574],[135.21649890064802,34.713808541505585]],[[135.21649890064802,34.713808541505585],[135.21484036113233,34.71317488563302]],[[135.2243041906953,34.710726181583134],[135.22400633053738,34.711273918015344]],[[135.22400633053738,34.711273918015344],[135.2254482444837,34.71172499507717]],[[135.2254482444837,34.71172499507717],[135.22571902644543,34.71106985934452]],[[135.22571902644543,34.71106985934452],[135.2243041906953,34.710726181583134]],[[135.2276077306286,34.71312118598281],[135.22851485020044,34.7134648637442]],[[135.22851485020044,34.7134648637442],[135.22887363629977,34.712852687731726]],[[135.22887363629977,34.712852687731726],[135.22920534420288,34.71226199157934]],[[135.22920534420288,34.71226199157934],[135.22804775131644,34.71195053360808]],[[135.21867192589102,34.7056676745327],[135.21686445629638,34.70482995998931]],[[135.21686445629638,34.70482995998931],[135.21654628749133,34.70616171131469]],[[135.21654628749133,34.70616171131469],[135.21739248112178,34.706269110615125]],[[135.21739248112178,34.706269110615125],[135.21861099994962,34.70661278837651]],[[135.21861099994962,34.70661278837651],[135.21867192589102,34.7066342682366]],[[135.21867192589102,34.7066342682366],[135.21867192589102,34.7056676745327]],[[135.23321968678576,34.72262602407121],[135.23196732021268,34.72228234630982]],[[135.23196732021268,34.72228234630982],[135.23148668223058,34.724075914627065]],[[135.23148668223058,34.7241081344172],[135.23353108604175,34.723646317425334]],[[135.21735863337656,34.70926555109723],[135.2173180160823,34.70926555109723]],[[135.2173180160823,34.70926555109723],[135.2163567401181,34.70917963165688]],[[135.2163567401181,34.70917963165688],[135.21535484685964,34.71202571311838]],[[135.2157813284494,34.71263788913085],[135.21764972398543,34.71171425514712]],[[135.21764972398543,34.71171425514712],[135.21908486838268,34.71120947843509]],[[135.21908486838268,34.71120947843509],[135.21913902477502,34.71117725864495]],[[135.21913902477502,34.71117725864495],[135.21735863337656,34.70926555109723]],[[135.23841870045126,34.7083419171135],[135.23770789780167,34.70997438648009]],[[135.23769435870358,34.71000660627023],[135.23886549068814,34.71036102396166]],[[135.23886549068814,34.71036102396166],[135.2394815196511,34.70884669382554]],[[135.2394815196511,34.70884669382554],[135.23841870045126,34.7083419171135]],[[135.21649890064802,34.713808541505585],[135.21653951794227,34.71374410192532]],[[135.21653951794227,34.71374410192532],[135.2170066168263,34.71307822626264]],[[135.2170066168263,34.71307822626264],[135.2157813284494,34.71263788913085]],[[135.2215422146855,34.71477513520949],[135.22119019813525,34.71544101087218]],[[135.22119019813525,34.71544101087218],[135.22112250264482,34.715580629962744]],[[135.22112250264482,34.715580629962744],[135.22311275006362,34.71635390492587]],[[135.2235121534572,34.71552693031253],[135.22349184481007,34.71552693031253]],[[135.22349184481007,34.71552693031253],[135.2215422146855,34.71477513520949]],[[135.2169795386301,34.715559150102656],[135.21651920929514,34.71648278408639]],[[135.21651920929514,34.71648278408639],[135.2171013905129,34.71668684275721]],[[135.2171013905129,34.71668684275721],[135.21806943602613,34.715967267444306]],[[135.21607918860732,34.7400247107415],[135.21804235782997,34.73890775801699],[135.2186245390477,34.73715714941992],[135.2216640665683,34.73333373432447],[135.22361369669287,34.73167978509779],[135.2228284290038,34.72685755650831]],[[135.2228284290038,34.72685755650831],[135.2221311654523,34.72658905825722]],[[135.2221311654523,34.72658905825722],[135.22008676164114,34.72599836210483]],[[135.22008676164114,34.72599836210483],[135.2200190661507,34.72597688224475]],[[135.2200190661507,34.72597688224475],[135.21948427177625,34.72914516160755],[135.21721647284664,34.73099242957501],[135.21639735741235,34.732968576702994],[135.21387908516814,34.73535284117263],[135.21015583319414,34.73500916341124],[135.20568793082535,34.73599723697523],[135.20678459777042,34.7371034497697],[135.2049365108815,34.73965955312003],[135.20800988614732,34.741292022486626],[135.20803019479445,34.74225861619053]],[[135.20803019479445,34.74225861619053],[135.21315474342046,34.741292022486626],[135.21528038182015,34.74137794192697],[135.21607918860732,34.7400247107415]],[[135.23540625112685,34.706924246347775],[135.23489176539954,34.706677227956774]],[[135.23489176539954,34.706677227956774],[135.23428927553465,34.706408729705686]],[[135.23324676498194,34.70861041536458],[135.23431635373083,34.70893261326589]],[[135.23431635373083,34.70893261326589],[135.23540625112685,34.706924246347775]],[[135.21744663751412,34.70267123405059],[135.2165259788442,34.70252087502998]],[[135.2165259788442,34.70252087502998],[135.2159370280774,34.70333710971328]],[[135.2159370280774,34.70333710971328],[135.21714200780715,34.70380966663519]],[[135.21714200780715,34.70380966663519],[135.21744663751412,34.70267123405059]],[[135.2171013905129,34.71668684275721],[135.2186042304006,34.71726679897956]],[[135.2186042304006,34.71726679897956],[135.21909840748077,34.717460117720336]],[[135.21909840748077,34.717460117720336],[135.21961289320808,34.71655796359669]],[[135.23762666321315,34.725386186092365],[135.23941382416066,34.726213160705704],[135.23769435870358,34.728780003986074]],[[135.23769435870358,34.728780003986074],[135.23956275423964,34.73116426845571]],[[135.23956275423964,34.73116426845571],[135.23977937980902,34.731185748315795]],[[135.23977937980902,34.731185748315795],[135.24026001779112,34.72942439978868]],[[135.24026001779112,34.72942439978868],[135.24028032643827,34.72482770973011]],[[135.24028032643827,34.72482770973011],[135.23762666321315,34.725386186092365]],[[135.22355277075147,34.71742789793021],[135.22330229743685,34.71796489443238]],[[135.22330229743685,34.71796489443238],[135.22471036363794,34.71850189093455]],[[135.22471036363794,34.71850189093455],[135.225028532443,34.717986374292465]],[[135.225028532443,34.717986374292465],[135.22355277075147,34.71742789793021]],[[135.20995274672285,34.71375484185537],[135.2089102361701,34.71656870352674]],[[135.2089102361701,34.71656870352674],[135.21224085429958,34.715333611571744]],[[135.22355277075147,34.71742789793021],[135.22275396396432,34.71711643995895]],[[135.2219754658243,34.705066238450264],[135.2234647666139,34.7054206561417]],[[135.2234647666139,34.7054206561417],[135.2243786557348,34.70417482425666]],[[135.2243786557348,34.70417482425666],[135.22282165945475,34.70359486803432]],[[135.2159370280774,34.70333710971328],[135.21548346829147,34.70426074369701]],[[135.21548346829147,34.70426074369701],[135.21686445629638,34.70482995998931]],[[135.21686445629638,34.70482995998931],[135.21714200780715,34.70380966663519]],[[135.22152867558742,34.70885743375558],[135.22114281129194,34.709630708718706]],[[135.22228686508032,34.710028086130315],[135.22253733839491,34.70928703095732]],[[135.22253733839491,34.70928703095732],[135.22152867558742,34.70885743375558]],[[135.22393186549792,34.716654622967084],[135.22533316214995,34.717320498629775]],[[135.22533316214995,34.717320498629775],[135.22575964373968,34.71619280597522]],[[135.22575964373968,34.71619280597522],[135.22519777116906,34.71593504765418]],[[135.22519777116906,34.71593504765418],[135.22432449934243,34.71584912821383]],[[135.21777157586823,34.7020053583879],[135.2165259788442,34.70252087502998]],[[135.21744663751412,34.70267123405059],[135.2198769056208,34.703047131602105]],[[135.2198769056208,34.703047131602105],[135.2209058770754,34.7032189704828]],[[135.2243786557348,34.70417482425666],[135.22450727716662,34.703981505515884]],[[135.22450727716662,34.703981505515884],[135.22523838846334,34.702918252441584]],[[135.22523838846334,34.702918252441584],[135.22234102147266,34.70283233300124],[135.21777157586823,34.7020053583879]],[[135.2198769056208,34.703047131602105],[135.21942334583485,34.70438962285753]],[[135.21942334583485,34.70438962285753],[135.22037785225,34.70463664124853]],[[135.22003260524878,34.71597800737435],[135.21995137066025,34.71594578758422]],[[135.21961289320808,34.71655796359669],[135.22045908683853,34.716880161498]],[[135.22077048609455,34.71625724555548],[135.22003260524878,34.71597800737435]],[[135.22284873765093,34.7189100082762],[135.22413495196923,34.71940404505819]],[[135.22413495196923,34.71940404505819],[135.22471036363794,34.71850189093455]],[[135.21714200780715,34.70380966663519],[135.21942334583485,34.70438962285753]],[[135.22037785225,34.70463664124853],[135.2200190661507,34.707063865438336]],[[135.2200190661507,34.707063865438336],[135.22081787293786,34.707504202570114]],[[135.22081787293786,34.707504202570114],[135.2208584902321,34.7075256824302]],[[135.2208584902321,34.7075256824302],[135.2219754658243,34.705066238450264]],[[135.21867192589102,34.7056676745327],[135.21942334583485,34.70438962285753]],[[135.21563239837045,34.715043633460574],[135.2169795386301,34.715559150102656]],[[135.21772418902492,34.71436701786784],[135.21653951794227,34.71374410192532]],[[135.21772418902492,34.71436701786784],[135.2185906913025,34.71365818248498]],[[135.2185906913025,34.71365818248498],[135.2170066168263,34.71307822626264]],[[135.21972797554182,34.714087779686714],[135.21922025936354,34.71461403625884]],[[135.21922025936354,34.71461403625884],[135.22043200864235,34.71510807304084]],[[135.22043200864235,34.71510807304084],[135.22079079474167,34.714485157098316]],[[135.22079079474167,34.714485157098316],[135.21972797554182,34.714087779686714]],[[135.22462235950036,34.71010326564062],[135.22253733839491,34.70928703095732]],[[135.22228686508032,34.710028086130315],[135.2243041906953,34.710726181583134]],[[135.2243041906953,34.710726181583134],[135.22462235950036,34.71010326564062]],[[135.21867192589102,34.7066342682366],[135.2200190661507,34.707063865438336]],[[135.21903071199034,34.71495771402023],[135.21922025936354,34.71461403625884]],[[135.21972797554182,34.714087779686714],[135.2185906913025,34.71365818248498]],[[135.22848777200426,34.71122021836513],[135.22804775131644,34.71195053360808]],[[135.22920534420288,34.71226199157934],[135.22965890398882,34.7115101964763]],[[135.22965890398882,34.7115101964763],[135.22848777200426,34.71122021836513]],[[135.23719341207436,34.72348521847468],[135.23451944020212,34.722980441762644]],[[135.23653676581714,34.724312193088025],[135.23719341207436,34.72348521847468]],[[135.22848777200426,34.71122021836513],[135.2269578539204,34.710822840953526]],[[135.21548346829147,34.70426074369701],[135.21492159572085,34.70565693460265]],[[135.21492159572085,34.70565693460265],[135.21654628749133,34.70616171131469]],[[135.22596949976005,34.71048990312218],[135.22462235950036,34.71010326564062]],[[135.2215422146855,34.71477513520949],[135.22079079474167,34.714485157098316]],[[135.22043200864235,34.71510807304084],[135.22050647368184,34.71514029283097]],[[135.22050647368184,34.71514029283097],[135.22119019813525,34.71544101087218]],[[135.2208584902321,34.7075256824302],[135.22189423123578,34.7080948987225]],[[135.22189423123578,34.7080948987225],[135.22284196810187,34.70634429012543]],[[135.22284196810187,34.70634429012543],[135.22333614518206,34.705592495022394]],[[135.22333614518206,34.705592495022394],[135.2234647666139,34.7054206561417]],[[135.22045908683853,34.716880161498],[135.21995814020931,34.71779305555168]],[[135.21995814020931,34.71779305555168],[135.22036431315192,34.71794341457229]],[[135.22036431315192,34.71794341457229],[135.22204316131473,34.71860929023498]],[[135.23112789613128,34.7107691413033],[135.23029524159892,34.71039324375179]],[[135.23029524159892,34.71039324375179],[135.2301395419709,34.71067248193292]],[[135.2301395419709,34.71067248193292],[135.2296724430869,34.71146723675613]],[[135.2296724430869,34.71146723675613],[135.23061341040398,34.71185387423769]],[[135.23061341040398,34.71185387423769],[135.23112789613128,34.7107691413033]],[[135.22851485020044,34.7134648637442],[135.22822375959157,34.71399112031632]],[[135.22822375959157,34.71399112031632],[135.22926627014428,34.714345538007755]],[[135.22926627014428,34.714345538007755],[135.22988229910726,34.712895647451894]],[[135.22988229910726,34.712895647451894],[135.22887363629977,34.712852687731726]],[[135.23205532435026,34.71113429892478],[135.23204178525216,34.71113429892478]],[[135.23204178525216,34.71113429892478],[135.2312565175631,34.710822840953526]],[[135.2312565175631,34.710822840953526],[135.23112789613128,34.7107691413033]],[[135.23061341040398,34.71185387423769],[135.2315205299758,34.71228347143943]],[[135.2315205299758,34.71228347143943],[135.2315814559172,34.71215459227891]],[[135.2321094807426,34.71359374290472],[135.2317033078,34.7134648637442]],[[135.2317033078,34.7134648637442],[135.2310263528956,34.7149254942301]],[[135.2310263528956,34.7149254942301],[135.23140544764206,34.715043633460574]],[[135.23140544764206,34.715043633460574],[135.23171684689808,34.714463677238236]],[[135.23171684689808,34.714463677238236],[135.2321094807426,34.71359374290472]],[[135.24453160323765,34.71209015269864],[135.24380049194093,34.71362596269485]],[[135.24380049194093,34.71362596269485],[135.24479561565036,34.71399112031632]],[[135.24479561565036,34.71399112031632],[135.24550641829993,34.71243383046003]],[[135.24550641829993,34.71243383046003],[135.24453160323765,34.71209015269864]],[[135.21475235699475,34.70607579187434],[135.21456280962153,34.706236890825]],[[135.21456280962153,34.706236890825],[135.21594379762644,34.70759012201046]],[[135.21594379762644,34.70759012201046],[135.21658013523654,34.70838487683367]],[[135.21658013523654,34.70838487683367],[135.2169795386301,34.70710682515851]],[[135.2169795386301,34.70710682515851],[135.21706754276767,34.70682758697738]],[[135.21706754276767,34.70682758697738],[135.21475235699475,34.70607579187434]],[[135.22697816256755,34.71683720177782],[135.22540085764038,34.71904962736676]],[[135.22540085764038,34.71904962736676],[135.22596949976005,34.71948996449854]],[[135.22596949976005,34.71948996449854],[135.2272489445293,34.720177320021314]],[[135.2272489445293,34.720177320021314],[135.22879917126028,34.72034915890201]],[[135.22879917126028,34.72034915890201],[135.22779050845278,34.718684469745284]],[[135.22779050845278,34.718684469745284],[135.22697816256755,34.71683720177782]],[[135.22253733839491,34.712884907521854],[135.22180622709823,34.71253048983042]],[[135.22180622709823,34.71253048983042],[135.22120373723334,34.712884907521854]],[[135.22120373723334,34.712884907521854],[135.22228009553126,34.71337894430385]],[[135.22228009553126,34.71337894430385],[135.22253733839491,34.712884907521854]],[[135.2362998316006,34.703283410063065],[135.23390341123917,34.706279850545165]],[[135.23489176539954,34.706677227956774],[135.2379583711163,34.70421778397684]],[[135.2379583711163,34.70421778397684],[135.2362998316006,34.703283410063065]],[[135.23431635373083,34.70893261326589],[135.23378832890543,34.710038826060355]],[[135.23378832890543,34.710038826060355],[135.23443143606457,34.71027510452131]],[[135.23443143606457,34.71027510452131],[135.23485114810526,34.71042546354192]],[[135.23485114810526,34.71042546354192],[135.2349188435957,34.710457683332045]],[[135.2349188435957,34.710457683332045],[135.23545363797015,34.70926555109723]],[[135.23545363797015,34.70926555109723],[135.23431635373083,34.70893261326589]],[[135.2443555949625,34.720682096733356],[135.2432521584684,34.7203706387621]],[[135.2432521584684,34.7203706387621],[135.24245335168126,34.72221790672956]],[[135.24245335168126,34.72221790672956],[135.24355678817537,34.7224756650506]],[[135.24355678817537,34.7224756650506],[135.2443555949625,34.720682096733356]],[[135.21781219316247,34.718662989885196],[135.21641089651044,34.71849115100451]],[[135.21641089651044,34.71849115100451],[135.2174127897689,34.7193825651981]],[[135.2174127897689,34.7193825651981],[135.21781219316247,34.718662989885196]],[[135.24499870212165,34.71939330512815],[135.2438546483333,34.71901740757663]],[[135.2438546483333,34.71901740757663],[135.2432521584684,34.7203706387621]],[[135.2443555949625,34.720682096733356],[135.24499870212165,34.71939330512815]],[[135.22618612532943,34.713948160596146],[135.22580703058298,34.71605318688466]],[[135.22580703058298,34.71605318688466],[135.22697816256755,34.71651500387652]],[[135.22697816256755,34.71651500387652],[135.22744526145155,34.71453885674853]],[[135.22744526145155,34.71453885674853],[135.22618612532943,34.713948160596146]],[[135.23583950226563,34.73014397510158],[135.2333686168647,34.73191606355874]],[[135.2333686168647,34.73191606355874],[135.2359410455013,34.73378481138629]],[[135.2359410455013,34.73378481138629],[135.23838485270605,34.735513940123276]],[[135.23838485270605,34.735513940123276],[135.23874363880535,34.73580391823445]],[[135.23874363880535,34.73580391823445],[135.2403818696739,34.7336881520159]],[[135.2403818696739,34.7336881520159],[135.23575149812808,34.73193754341883],[135.23583950226563,34.73014397510158]],[[135.2416071580508,34.71284194780168],[135.2404427956153,34.71242309052999]],[[135.2404427956153,34.71242309052999],[135.24006370086886,34.713260805073375]],[[135.24006370086886,34.713260805073375],[135.24002308357458,34.71337894430385]],[[135.24002308357458,34.71337894430385],[135.24117390691202,34.71376558178541]],[[135.24117390691202,34.71376558178541],[135.2416071580508,34.71284194780168]],[[135.2207637165455,34.71268084885103],[135.22105480715436,34.712186812069035]],[[135.22105480715436,34.712186812069035],[135.2196602800514,34.71173573500721]],[[135.2196602800514,34.71173573500721],[135.22075694699646,34.71268084885103]],[[135.22075694699646,34.71268084885103],[135.2207637165455,34.71268084885103]],[[135.2420877960329,34.72002696100071],[135.24124160240245,34.72196014840852]],[[135.24124160240245,34.72196014840852],[135.24234503889656,34.72220716679952]],[[135.24234503889656,34.72220716679952],[135.24245335168126,34.72221790672956]],[[135.2432521584684,34.7203706387621],[135.2420877960329,34.72002696100071]],[[135.24641353787177,34.712734548501246],[135.24583135665404,34.714356277937796]],[[135.24583135665404,34.714356277937796],[135.247070184129,34.71479661506958]],[[135.247070184129,34.71479661506958],[135.2477674476805,34.71319636549311]],[[135.2477674476805,34.71319636549311],[135.24641353787177,34.712734548501246]],[[135.2420877960329,34.72002696100071],[135.24113328961775,34.71971550302945]],[[135.24113328961775,34.71971550302945],[135.23944090235685,34.72153055120678]],[[135.23944090235685,34.72153055120678],[135.24124160240245,34.72196014840852]],[[135.24641353787177,34.712734548501246],[135.24550641829993,34.71243383046003]],[[135.24479561565036,34.71399112031632],[135.24581104800689,34.714356277937796]],[[135.24581104800689,34.714356277937796],[135.24583135665404,34.714356277937796]],[[135.22822375959157,34.71399112031632],[135.22821022049348,34.71400186024637]],[[135.22821022049348,34.71400186024637],[135.2278378952961,34.71474291541936]],[[135.2278378952961,34.71474291541936],[135.22886009720168,34.71522621227131]],[[135.22886009720168,34.71522621227131],[135.22926627014428,34.714345538007755]],[[135.24000954447652,34.71936108533802],[135.2385947087264,34.72128353281579]],[[135.2385947087264,34.72128353281579],[135.23944090235685,34.72153055120678]],[[135.24113328961775,34.71971550302945],[135.24000954447652,34.71936108533802]],[[135.24269705544683,34.71864151002511],[135.24174931858073,34.71835153191394]],[[135.24174931858073,34.71835153191394],[135.24113328961775,34.71971550302945]],[[135.2420877960329,34.72002696100071],[135.24269705544683,34.71864151002511]],[[135.24265643815258,34.71322858528324],[135.2416071580508,34.71284194780168]],[[135.24117390691202,34.71376558178541],[135.24223672611186,34.71411999947684]],[[135.24223672611186,34.71411999947684],[135.24265643815258,34.71322858528324]],[[135.24422020398166,34.71523695220136],[135.24376664419572,34.71622502576535]],[[135.24376664419572,34.71622502576535],[135.24482946339558,34.71656870352674]],[[135.24482946339558,34.71656870352674],[135.24528302318149,34.715569890032704]],[[135.24528302318149,34.715569890032704],[135.24422020398166,34.71523695220136]],[[135.23060664085492,34.72193866854843],[135.22965213443976,34.722003108128696]],[[135.22965213443976,34.722003108128696],[135.23067433634534,34.72425849343781]],[[135.23196732021268,34.72228234630982],[135.23218394578208,34.721831269248]],[[135.23218394578208,34.721831269248],[135.23219748488017,34.72179904945787]],[[135.23219748488017,34.72179904945787],[135.23060664085492,34.72193866854843]],[[135.22042523909332,34.708288217463284],[135.2191525638731,34.70984550731957]],[[135.2191525638731,34.70984550731957],[135.22036431315192,34.71051138298226]],[[135.22036431315192,34.71051138298226],[135.22079079474167,34.71013548543075]],[[135.22152867558742,34.70885743375558],[135.22042523909332,34.708288217463284]],[[135.24355678817537,34.7224756650506],[135.24451806413956,34.7227226834416]],[[135.24451806413956,34.7227226834416],[135.246135986361,34.721208353305485]],[[135.246135986361,34.721208353305485],[135.2443555949625,34.720682096733356]],[[135.23989446214276,34.710693961793005],[135.23886549068814,34.71036102396166]],[[135.23886549068814,34.71036102396166],[135.23821561397995,34.71163907563682]],[[135.23821561397995,34.71163907563682],[135.23928520272884,34.71201497318834]],[[135.23928520272884,34.71201497318834],[135.23989446214276,34.710693961793005]],[[135.22303828502416,34.71373336199528],[135.2227471944153,34.714474417168276]],[[135.2227471944153,34.714474417168276],[135.22368816173233,34.71511881297088]],[[135.22368816173233,34.71511881297088],[135.224101104224,34.714227398777275]],[[135.224101104224,34.714227398777275],[135.22303828502416,34.71373336199528]],[[135.21951811952147,34.70785862026155],[135.21825221385032,34.708707074734974]],[[135.21825221385032,34.708707074734974],[135.2181100533204,34.70931925074745]],[[135.2181100533204,34.70931925074745],[135.2191525638731,34.70984550731957]],[[135.22042523909332,34.708288217463284],[135.21951811952147,34.70785862026155]],[[135.24608182996863,34.71970476309941],[135.24499870212165,34.71939330512815]],[[135.246135986361,34.721208353305485],[135.24707695367806,34.72002696100071]],[[135.24707695367806,34.72002696100071],[135.24608182996863,34.71970476309941]],[[135.23048478897215,34.71474291541936],[135.2304170934817,34.71472143555928]],[[135.2304170934817,34.71472143555928],[135.22926627014428,34.714345538007755]],[[135.22886009720168,34.71522621227131],[135.23001769008812,34.71578468863357]],[[135.23001769008812,34.71578468863357],[135.23048478897215,34.71474291541936]],[[135.24866102815426,34.71362596269485],[135.24813300332886,34.71519399248118]],[[135.24813300332886,34.71519399248118],[135.24816008152501,34.71520473241122]],[[135.24816008152501,34.71520473241122],[135.24906043154783,34.71547323066231]],[[135.24906043154783,34.71547323066231],[135.24866102815426,34.71362596269485]],[[135.22106157670342,34.7129708269622],[135.2207637165455,34.71268084885103]],[[135.22075694699646,34.71268084885103],[135.2204861650347,34.71331450472359]],[[135.2204861650347,34.71331450472359],[135.22127143272377,34.7136152227648]],[[135.22127143272377,34.7136152227648],[135.2219754658243,34.71387298108585]],[[135.2219754658243,34.71387298108585],[135.22106157670342,34.7129708269622]],[[135.2174127897689,34.7193825651981],[135.2170201559244,34.72008066065093]],[[135.2170201559244,34.72008066065093],[135.21899009469607,34.720961334914485]],[[135.21899009469607,34.720961334914485],[135.21914579432408,34.720295459251794]],[[135.21914579432408,34.720295459251794],[135.2174127897689,34.7193825651981]],[[135.22540085764038,34.71904962736676],[135.22471036363794,34.71850189093455]],[[135.22413495196923,34.71940404505819],[135.2237152399285,34.720177320021314]],[[135.2237152399285,34.720177320021314],[135.22485252416783,34.72090763526427]],[[135.22485252416783,34.72090763526427],[135.22596949976005,34.71948996449854]],[[135.2237152399285,34.720177320021314],[135.22299766772989,34.72085393561405]],[[135.22299766772989,34.72085393561405],[135.2223477910217,34.72251862477078]],[[135.2223477910217,34.72251862477078],[135.2218671530396,34.72344225875451]],[[135.2218671530396,34.72344225875451],[135.2232955278878,34.72451625175885]],[[135.2232955278878,34.72451625175885],[135.2241823388125,34.725654684343446]],[[135.2241823388125,34.725654684343446],[135.2247848286774,34.72408665455711]],[[135.2247848286774,34.72408665455711],[135.2246900549908,34.72308784106308],[135.22680892384145,34.72235752582012]],[[135.22680892384145,34.72235752582012],[135.22686984978284,34.722046067848865]],[[135.22686984978284,34.722046067848865],[135.22485252416783,34.72090763526427]],[[135.22036431315192,34.71794341457229],[135.22002583569974,34.719103327016974]],[[135.22002583569974,34.719103327016974],[135.2215557537836,34.71961884365906]],[[135.2215557537836,34.71961884365906],[135.22167083611734,34.7193825651981]],[[135.22167083611734,34.7193825651981],[135.22204316131473,34.71860929023498]],[[135.23271197060748,34.70968440836892],[135.23180485103563,34.70940517018779]],[[135.23180485103563,34.70940517018779],[135.2312565175631,34.710822840953526]],[[135.23204178525216,34.71113429892478],[135.23271197060748,34.70968440836892]],[[135.2306472581492,34.72031693911188],[135.22879917126028,34.72034915890201]],[[135.22879917126028,34.72034915890201],[135.22965213443976,34.722003108128696]],[[135.23060664085492,34.72193866854843],[135.2306472581492,34.72031693911188]],[[135.24558765288845,34.71830857219377],[135.24555380514323,34.71829783226372]],[[135.24555380514323,34.71829783226372],[135.24429466902112,34.717997114222506]],[[135.24429466902112,34.717997114222506],[135.2438546483333,34.71901740757663]],[[135.24499870212165,34.71939330512815],[135.24558765288845,34.71830857219377]],[[135.2212917413709,34.72018805995136],[135.2208855684283,34.72103651442479]],[[135.2208855684283,34.72103651442479],[135.22200931356952,34.72225012651969]],[[135.22200931356952,34.72225012651969],[135.2223477910217,34.72251862477078]],[[135.22299766772989,34.72085393561405],[135.2212917413709,34.72018805995136]],[[135.2362998316006,34.703283410063065],[135.234343431927,34.70231681635916]],[[135.234343431927,34.70231681635916],[135.23267812286227,34.70593617278378]],[[135.23928520272884,34.71201497318834],[135.2404427956153,34.71242309052999]],[[135.2404427956153,34.71242309052999],[135.24111975051966,34.71106985934452]],[[135.24111975051966,34.71106985934452],[135.23989446214276,34.710693961793005]],[[135.21919318116738,34.698976698115665],[135.21849591761588,34.70015809042044]],[[135.21849591761588,34.70015809042044],[135.22554978771933,34.701844259437244]],[[135.22554978771933,34.701844259437244],[135.22448019897044,34.701425402165555],[135.22508268883533,34.69963183384831],[135.21919318116738,34.698976698115665]],[[135.22686984978284,34.722046067848865],[135.2272489445293,34.720177320021314]],[[135.22228009553126,34.71337894430385],[135.22200931356952,34.71389446094593]],[[135.22200931356952,34.71389446094593],[135.2227471944153,34.714474417168276]],[[135.22303828502416,34.71373336199528],[135.22228009553126,34.71337894430385]],[[135.23141221719112,34.72592318259453],[135.23033585889317,34.725558024973054]],[[135.23033585889317,34.725558024973054],[135.22879240171122,34.726062801685096]],[[135.22879240171122,34.726062801685096],[135.22791236033555,34.727555651961126]],[[135.22791236033555,34.727555651961126],[135.22955059120412,34.72960697859941]],[[135.22955059120412,34.72960697859941],[135.2312091307198,34.72798524916286]],[[135.2312091307198,34.72798524916286],[135.23198762885983,34.72668571762761]],[[135.2237761658699,34.706677227956774],[135.22284196810187,34.70634429012543]],[[135.22189423123578,34.7080948987225],[135.22291643314136,34.708545975784325]],[[135.22291643314136,34.708545975784325],[135.2229841286318,34.708578195574454]],[[135.2229841286318,34.708578195574454],[135.2237761658699,34.706677227956774]],[[135.2352911687931,34.722003108128696],[135.23365293792455,34.72168091022739]],[[135.23365293792455,34.72168091022739],[135.23321968678576,34.72262602407121]],[[135.23451944020212,34.722980441762644],[135.2352911687931,34.722003108128696]],[[135.21781219316247,34.718662989885196],[135.2181845183599,34.717986374292465]],[[135.2181845183599,34.717986374292465],[135.21650567019705,34.717331238559815]],[[135.21650567019705,34.717331238559815],[135.21605887996017,34.717825275341816]],[[135.21605887996017,34.717825275341816],[135.21641089651044,34.71849115100451]],[[135.23789067562586,34.723281159803854],[135.23720695117245,34.72318450043347]],[[135.23720695117245,34.72318450043347],[135.23719341207436,34.72348521847468]],[[135.23709186883872,34.72488140938032],[135.23762666321315,34.725386186092365]],[[135.24028032643827,34.72482770973011],[135.2406594211847,34.72437663266828]],[[135.2406594211847,34.72437663266828],[135.24014493545738,34.724204793787585]],[[135.24014493545738,34.724204793787585],[135.23847962639266,34.723517438264814]],[[135.23847962639266,34.723517438264814],[135.23789067562586,34.723281159803854]],[[135.23744388538898,34.72087541547414],[135.23678723913176,34.72197088833856]],[[135.23678723913176,34.72197088833856],[135.23627952295348,34.722701203581515]],[[135.23627952295348,34.722701203581515],[135.23720695117245,34.72318450043347]],[[135.23789067562586,34.723281159803854],[135.2385947087264,34.72128353281579]],[[135.2385947087264,34.72128353281579],[135.23744388538898,34.72087541547414]],[[135.22761450017765,34.72482770973011],[135.2258408783282,34.72627760028596],[135.22609812119188,34.72961771852946]],[[135.22609812119188,34.72961771852946],[135.22733694866685,34.72991843657067],[135.22791236033555,34.727555651961126]],[[135.22879240171122,34.726062801685096],[135.22761450017765,34.72482770973011]],[[135.23365293792455,34.72168091022739],[135.23218394578208,34.721831269248]],[[135.24380049194093,34.71362596269485],[135.24339431899833,34.71445293730819]],[[135.24339431899833,34.71445293730819],[135.2431709238799,34.71490401437001]],[[135.2431709238799,34.71490401437001],[135.24422020398166,34.71523695220136]],[[135.24422020398166,34.71523695220136],[135.24479561565036,34.71399112031632]],[[135.22618612532943,34.713948160596146],[135.22570548734734,34.71372262206524]],[[135.22570548734734,34.71372262206524],[135.22550917042508,34.71415221926697]],[[135.22550917042508,34.71415221926697],[135.2253873185423,34.71471069562923]],[[135.2253873185423,34.71471069562923],[135.22519777116906,34.71593504765418]],[[135.22575964373968,34.71619280597522],[135.22580703058298,34.71605318688466]],[[135.24470084196375,34.70808415879246],[135.24359063592058,34.70786936019159]],[[135.24359063592058,34.70786936019159],[135.24282567687865,34.71011400557066]],[[135.24282567687865,34.71011400557066],[135.24396973066703,34.71030732431144]],[[135.24396973066703,34.71030732431144],[135.24470084196375,34.70808415879246]],[[135.23334153866855,34.716751282337476],[135.23217717623305,34.71655796359669]],[[135.23217717623305,34.71655796359669],[135.2313174435045,34.71835153191394]],[[135.2313174435045,34.71835153191394],[135.2324208799986,34.718802608975764]],[[135.2324208799986,34.718802608975764],[135.23334153866855,34.716751282337476]],[[135.22508945838436,34.709222591377056],[135.22462235950036,34.71010326564062]],[[135.22596949976005,34.71048990312218],[135.22632151631032,34.709630708718706]],[[135.22632151631032,34.709630708718706],[135.22627412946701,34.709619968788665]],[[135.22627412946701,34.709619968788665],[135.22508945838436,34.709222591377056]],[[135.2393867459645,34.70567841446274],[135.2379583711163,34.70421778397684]],[[135.23540625112685,34.706924246347775],[135.23638106618913,34.70737532340959]],[[135.23638106618913,34.70737532340959],[135.23742357674183,34.707880100121635]],[[135.23742357674183,34.707880100121635],[135.23797867976342,34.708137858442676]],[[135.23797867976342,34.708137858442676],[135.2393867459645,34.70567841446274]],[[135.2089102361701,34.71656870352674],[135.20886961887587,34.71669758268726]],[[135.20886961887587,34.71669758268726],[135.21153682119905,34.71775009583151]],[[135.21153682119905,34.71775009583151],[135.2124304016728,34.71536583136188]],[[135.22886009720168,34.71522621227131],[135.2284268460629,34.71714865974908]],[[135.2284268460629,34.71714865974908],[135.22935427428186,34.71755677709073]],[[135.22935427428186,34.71755677709073],[135.23001769008812,34.71578468863357]],[[135.23847962639266,34.723517438264814],[135.23944090235685,34.72153055120678]],[[135.23180485103563,34.70940517018779],[135.23083680552242,34.709125932006664]],[[135.23083680552242,34.709125932006664],[135.23029524159892,34.71039324375179]],[[135.23101958334658,34.71622502576535],[135.23097219650327,34.71620354590526]],[[135.23097219650327,34.71620354590526],[135.23049155852118,34.71601022716448]],[[135.23049155852118,34.71601022716448],[135.23001769008812,34.71578468863357]],[[135.22935427428186,34.71755677709073],[135.23028847204986,34.71795415450234]],[[135.23028847204986,34.71795415450234],[135.23101958334658,34.71622502576535]],[[135.2310263528956,34.7149254942301],[135.23049155852118,34.71601022716448]],[[135.23097219650327,34.71620354590526],[135.23140544764206,34.715043633460574]],[[135.2404563347134,34.70647316928595],[135.2393867459645,34.70567841446274]],[[135.23797867976342,34.708137858442676],[135.23841870045126,34.7083419171135]],[[135.23841870045126,34.7083419171135],[135.2404563347134,34.70647316928595]],[[135.21605887996017,34.717825275341816],[135.21479974383806,34.71850189093455]],[[135.21479974383806,34.71850189093455],[135.2170201559244,34.72008066065093]],[[135.24656923749978,34.71602096709452],[135.24528302318149,34.715569890032704]],[[135.24482946339558,34.71656870352674],[135.24604121267438,34.7169553410083]],[[135.24604121267438,34.7169553410083],[135.24656923749978,34.71602096709452]],[[135.2171013905129,34.71668684275721],[135.21650567019705,34.717331238559815]],[[135.2181845183599,34.717986374292465],[135.2186042304006,34.71726679897956]],[[135.2313174435045,34.71835153191394],[135.23067433634534,34.71977994260971]],[[135.23067433634534,34.71977994260971],[135.23148668223058,34.72032767904192]],[[135.23148668223058,34.72032767904192],[135.23234641495912,34.72047803806253]],[[135.23234641495912,34.72047803806253],[135.2324208799986,34.718802608975764]],[[135.22036431315192,34.71051138298226],[135.21913902477502,34.71117725864495]],[[135.21908486838268,34.71120947843509],[135.2196602800514,34.71173573500721]],[[135.22105480715436,34.712186812069035],[135.22173853160777,34.71128465794539]],[[135.22173853160777,34.71128465794539],[135.22036431315192,34.71051138298226]],[[135.2478892995633,34.71885630862598],[135.2466640111864,34.718555590584764]],[[135.2466640111864,34.718555590584764],[135.24608182996863,34.71970476309941]],[[135.24707695367806,34.72002696100071],[135.2478892995633,34.71885630862598]],[[135.23443143606457,34.71027510452131],[135.23368001612073,34.71186461416773]],[[135.23368001612073,34.71186461416773],[135.23410649771048,34.71204719297847]],[[135.23410649771048,34.71204719297847],[135.23485114810526,34.71042546354192]],[[135.21594379762644,34.70759012201046],[135.21586256303792,34.70782640047142]],[[135.21586256303792,34.70782640047142],[135.21546992919338,34.709082972286495]],[[135.21546992919338,34.709082972286495],[135.2163567401181,34.70917963165688]],[[135.2173180160823,34.70926555109723],[135.21658013523654,34.70838487683367]],[[135.23579211542233,34.71424887863736],[135.23481730036005,34.713561523114585]],[[135.23481730036005,34.713561523114585],[135.23447882290787,34.714345538007755]],[[135.23447882290787,34.714345538007755],[135.234032032671,34.715301391781615]],[[135.234032032671,34.715301391781615],[135.23378832890543,34.71580616849366]],[[135.23378832890543,34.71580616849366],[135.23493238269378,34.71617132611513]],[[135.23493238269378,34.71617132611513],[135.23579211542233,34.71424887863736]],[[135.24813300332886,34.71519399248118],[135.24711080142328,34.71480735499962]],[[135.24711080142328,34.71480735499962],[135.24656923749978,34.71602096709452]],[[135.24656923749978,34.71602096709452],[135.2476117480525,34.71635390492587]],[[135.2476117480525,34.71635390492587],[135.24816008152501,34.71520473241122]],[[135.23977937980902,34.731185748315795],[135.2415123843642,34.73246379999096]],[[135.2415123843642,34.73246379999096],[135.24026001779112,34.72942439978868]],[[135.22081787293786,34.707504202570114],[135.22042523909332,34.708288217463284]],[[135.22152867558742,34.70885743375558],[135.22189423123578,34.7080948987225]],[[135.22609812119188,34.72961771852946],[135.2253128535028,34.731894583698654],[135.22750618739295,34.731464986496924]],[[135.22750618739295,34.731464986496924],[135.22955059120412,34.72960697859941]],[[135.22003260524878,34.71597800737435],[135.22050647368184,34.71514029283097]],[[135.23689555191643,34.71768565625125],[135.2356025680491,34.71734197848986]],[[135.2356025680491,34.71734197848986],[135.23380863755256,34.7193073856878]],[[135.23380863755256,34.7193073856878],[135.23493915224284,34.71982290232989]],[[135.23493915224284,34.71982290232989],[135.23505423457658,34.719876601980104]],[[135.23505423457658,34.719876601980104],[135.23689555191643,34.71768565625125]],[[135.2356161071472,34.72139093211622],[135.2352911687931,34.722003108128696]],[[135.2352911687931,34.722003108128696],[135.23627952295348,34.722701203581515]],[[135.23678723913176,34.72197088833856],[135.2356161071472,34.72139093211622]],[[135.23629306205157,34.713153405772935],[135.2352573210479,34.71256270962055]],[[135.2352573210479,34.71256270962055],[135.23481730036005,34.713561523114585]],[[135.23579211542233,34.71424887863736],[135.23629306205157,34.713153405772935]],[[135.24359063592058,34.70786936019159],[135.2426428990545,34.70756864215038]],[[135.2426428990545,34.70756864215038],[135.24174931858073,34.709791807669355]],[[135.24174931858073,34.709791807669355],[135.2427850595844,34.71010326564062]],[[135.2427850595844,34.71010326564062],[135.24282567687865,34.71011400557066]],[[135.2431709238799,34.71490401437001],[135.2426632077016,34.715892087934]],[[135.2426632077016,34.715892087934],[135.24376664419572,34.71622502576535]],[[135.21739248112178,34.706269110615125],[135.21706754276767,34.70682758697738]],[[135.2169795386301,34.70710682515851],[135.2184688394197,34.707600861940506]],[[135.2184688394197,34.707600861940506],[135.2184823785178,34.70756864215038]],[[135.2184823785178,34.70756864215038],[135.21861099994962,34.70661278837651]],[[135.2359884323446,34.71651500387652],[135.2356025680491,34.71734197848986]],[[135.23689555191643,34.71768565625125],[135.23725433801576,34.716923121218166]],[[135.23725433801576,34.716923121218166],[135.2359884323446,34.71651500387652]],[[135.23251565368523,34.70226311670894],[135.23205532435026,34.70579655369322]],[[135.234343431927,34.70231681635916],[135.23416065410282,34.702349036149286]],[[135.23416065410282,34.702349036149286],[135.23251565368523,34.70226311670894]],[[135.21907809883365,34.71277750822142],[135.2185906913025,34.71365818248498]],[[135.21972797554182,34.714087779686714],[135.2204861650347,34.71331450472359]],[[135.2204861650347,34.71331450472359],[135.21907809883365,34.71277750822142]],[[135.23873686925631,34.71634316499583],[135.23873009970725,34.716364644855915]],[[135.23873009970725,34.716364644855915],[135.23832392676465,34.71723457918943]],[[135.23832392676465,34.71723457918943],[135.23973199296572,34.717696396181296]],[[135.23973199296572,34.717696396181296],[135.24046310426243,34.71793267464225]],[[135.24046310426243,34.71793267464225],[135.24138376293237,34.718233392683466]],[[135.24138376293237,34.718233392683466],[135.24053079975286,34.71762121667099]],[[135.24053079975286,34.71762121667099],[135.23961691063198,34.71696608093834]],[[135.23961691063198,34.71696608093834],[135.23873686925631,34.71634316499583]],[[135.23772143689976,34.7126486290609],[135.23716633387818,34.71374410192532]],[[135.23716633387818,34.71374410192532],[135.2381614575876,34.71442071751806]],[[135.2381614575876,34.71442071751806],[135.2386082478245,34.71344338388411]],[[135.2386082478245,34.71344338388411],[135.23881810384484,34.71299230682229]],[[135.23881810384484,34.71299230682229],[135.23772143689976,34.7126486290609]],[[135.23545363797015,34.70926555109723],[135.23638106618913,34.70737532340959]],[[135.23061341040398,34.71185387423769],[135.22988229910726,34.712895647451894]],[[135.22988229910726,34.712895647451894],[135.2310669701899,34.713271545003415]],[[135.2310669701899,34.713271545003415],[135.2315205299758,34.71228347143943]],[[135.22686984978284,34.722046067848865],[135.22965213443976,34.722003108128696]],[[135.22333614518206,34.705592495022394],[135.2243312688915,34.705893213063604]],[[135.2243312688915,34.705893213063604],[135.22523838846334,34.706150971384645]],[[135.22523838846334,34.706150971384645],[135.22520454071812,34.706022092224124]],[[135.22520454071812,34.706022092224124],[135.22508945838436,34.70554953530222]],[[135.22508945838436,34.70554953530222],[135.2243786557348,34.70417482425666]],[[135.23007184648048,34.70683832690742],[135.22927303969334,34.70863189522467]],[[135.22927303969334,34.70863189522467],[135.23083003597336,34.709115192076624]],[[135.23083003597336,34.709115192076624],[135.23112112658222,34.708417096623805]],[[135.23713925568202,34.711241698225216],[135.23821561397995,34.71163907563682]],[[135.23742357674183,34.707880100121635],[135.23655030491523,34.709641448648746]],[[135.23219748488017,34.72179904945787],[135.23234641495912,34.72047803806253]],[[135.23148668223058,34.72032767904192],[135.2306472581492,34.72031693911188]],[[135.2181100533204,34.70931925074745],[135.21735863337656,34.70926555109723]],[[135.23324676498194,34.70861041536458],[135.23273904880367,34.70969514829897]],[[135.23273904880367,34.70969514829897],[135.23378832890543,34.710038826060355]],[[135.228914253594,34.70666648802673],[135.22890071449592,34.706687967886815]],[[135.22890071449592,34.706687967886815],[135.22818991184636,34.708288217463284]],[[135.22818991184636,34.708288217463284],[135.22927303969334,34.70863189522467]],[[135.22204316131473,34.710586562492566],[135.2220702395109,34.71059730242261]],[[135.2220702395109,34.71059730242261],[135.22400633053738,34.711273918015344]],[[135.2317033078,34.7134648637442],[135.2310669701899,34.713271545003415]],[[135.2310669701899,34.713271545003415],[135.2304170934817,34.71472143555928]],[[135.23048478897215,34.71474291541936],[135.2310263528956,34.7149254942301]],[[135.23378832890543,34.71580616849366],[135.23334153866855,34.716751282337476]],[[135.23334153866855,34.716751282337476],[135.23453974884927,34.717062740308734]],[[135.23453974884927,34.717062740308734],[135.23493238269378,34.71617132611513]],[[135.22200931356952,34.71389446094593],[135.2215422146855,34.71477513520949]],[[135.22349184481007,34.71552693031253],[135.22368816173233,34.71511881297088]],[[135.23832392676465,34.71723457918943],[135.23831715721562,34.71725605904951]],[[135.23831715721562,34.71725605904951],[135.2380396057048,34.71787897499203]],[[135.2380396057048,34.71787897499203],[135.23955598469058,34.71817969303324]],[[135.23955598469058,34.71817969303324],[135.23973199296572,34.717696396181296]],[[135.22350538390816,34.71227273150938],[135.22267949892483,34.71184313430764]],[[135.22267949892483,34.71184313430764],[135.22253733839491,34.712884907521854]],[[135.22253733839491,34.712884907521854],[135.22322783239738,34.71320710542316]],[[135.22322783239738,34.71320710542316],[135.22350538390816,34.71227273150938]],[[135.23744388538898,34.72087541547414],[135.23650968762095,34.72048877799258]],[[135.23650968762095,34.72048877799258],[135.2356161071472,34.72139093211622]],[[135.2359884323446,34.71651500387652],[135.23493238269378,34.71617132611513]],[[135.23453974884927,34.717062740308734],[135.2356025680491,34.71734197848986]],[[135.22750618739295,34.731464986496924],[135.22851485020044,34.734042569707334]],[[135.22851485020044,34.734042569707334],[135.23146637358346,34.733505573205164]],[[135.23146637358346,34.733505573205164],[135.23185223787894,34.731894583698654]],[[135.23185223787894,34.731894583698654],[135.23076911003196,34.729703637969806],[135.2312091307198,34.72798524916286]],[[135.2349188435957,34.710457683332045],[135.23597489324652,34.710833580883566]],[[135.23655030491523,34.709641448648746],[135.23545363797015,34.70926555109723]],[[135.23713925568202,34.711241698225216],[135.23629306205157,34.713153405772935]],[[135.23629306205157,34.713153405772935],[135.23716633387818,34.71374410192532]],[[135.23772143689976,34.7126486290609],[135.23821561397995,34.71163907563682]],[[135.23073526228674,34.72438737259833],[135.22950997390984,34.724312193088025]],[[135.22950997390984,34.724312193088025],[135.23033585889317,34.725558024973054]],[[135.22200931356952,34.72225012651969],[135.22058770827036,34.72169165015743]],[[135.22058770827036,34.72169165015743],[135.21995137066025,34.722744163301684]],[[135.21995137066025,34.722744163301684],[135.22078402519261,34.723646317425334],[135.2200190661507,34.72597688224475]],[[135.22008676164114,34.72599836210483],[135.2218671530396,34.72344225875451]],[[135.21899009469607,34.720961334914485],[135.2188073168719,34.721831269248]],[[135.2188073168719,34.721831269248],[135.21995137066025,34.722744163301684]],[[135.22058770827036,34.72169165015743],[135.21899009469607,34.720961334914485]],[[135.22400633053738,34.711273918015344],[135.22366108353617,34.711929053747994]],[[135.22366108353617,34.711929053747994],[135.2249540674035,34.71239087073986]],[[135.2249540674035,34.71239087073986],[135.22523161891428,34.711929053747994]],[[135.22523161891428,34.711929053747994],[135.2254482444837,34.71172499507717]],[[135.23378832890543,34.710038826060355],[135.23308429580487,34.7115853759866]],[[135.24124160240245,34.72196014840852],[135.24014493545738,34.724204793787585]],[[135.2406594211847,34.72437663266828],[135.24153269301132,34.723947035466544]],[[135.24153269301132,34.723947035466544],[135.24234503889656,34.72220716679952]],[[135.22550917042508,34.71415221926697],[135.22434480798958,34.71372262206524]],[[135.22434480798958,34.71372262206524],[135.224101104224,34.714227398777275]],[[135.224101104224,34.714227398777275],[135.2253873185423,34.71471069562923]],[[135.21153682119905,34.71775009583151],[135.2126944140855,34.71928590582772]],[[135.2126944140855,34.71928590582772],[135.21486066977945,34.71617132611513]],[[135.22979429496968,34.71892074820624],[135.22779050845278,34.718684469745284]],[[135.23067433634534,34.71977994260971],[135.22979429496968,34.71892074820624]],[[135.24222995656282,34.72380741637598],[135.24153269301132,34.723947035466544]],[[135.2415123843642,34.73246379999096],[135.24227734340613,34.73205568264931]],[[135.24227734340613,34.73205568264931],[135.24147176706992,34.730906510134666],[135.24109944187254,34.726535358607],[135.24222995656282,34.72380741637598]],[[135.2188073168719,34.721831269248],[135.21656659613845,34.720929115124356]],[[135.21656659613845,34.720929115124356],[135.21331044304847,34.71998400128054]],[[135.21331044304847,34.71998400128054],[135.2126944140855,34.71928590582772]],[[135.20886961887587,34.71669758268726],[135.2084566763842,34.71908184715689],[135.2061617992584,34.7179219347122],[135.20287856797225,34.717320498629775],[135.20140957582979,34.71882408883585],[135.20052953445412,34.721788309527824],[135.19665735240116,34.72414035420733],[135.19868821711424,34.729037762307115],[135.19811280544553,34.73505212313141],[135.19710414263804,34.73845668095517],[135.1951138952192,34.74077650584454],[135.1963527226942,34.742376755421006]],[[135.1963527226942,34.742376755421006],[135.19774724979717,34.74268821339226],[135.2017209750858,34.74206529744975],[135.20508544096046,34.74270969325235],[135.20803019479445,34.74225861619053]],[[135.22303828502416,34.71373336199528],[135.22322783239738,34.71320710542316]],[[135.22180622709823,34.71253048983042],[135.22105480715436,34.712186812069035]],[[135.22106157670342,34.7129708269622],[135.22120373723334,34.712884907521854]],[[135.23185223787894,34.731894583698654],[135.2333686168647,34.73191606355874]],[[135.23583950226563,34.73014397510158],[135.23769435870358,34.728780003986074]],[[135.24528302318149,34.715569890032704],[135.24581104800689,34.714356277937796]],[[135.21546992919338,34.709082972286495],[135.21299227424342,34.70878225424528]],[[135.21299227424342,34.70878225424528],[135.21192268549453,34.7106187822827]],[[135.2196602800514,34.71945774470841],[135.2191525638731,34.71971550302945]],[[135.2191525638731,34.71971550302945],[135.21914579432408,34.720295459251794]],[[135.21914579432408,34.720295459251794],[135.2208855684283,34.72103651442479]],[[135.2212917413709,34.72018805995136],[135.2196602800514,34.71945774470841]],[[135.2170066168263,34.71307822626264],[135.2176294153383,34.712229771789204]],[[135.2176294153383,34.712229771789204],[135.21764972398543,34.71171425514712]],[[135.21479974383806,34.71850189093455],[135.21331044304847,34.71998400128054]],[[135.21656659613845,34.720929115124356],[135.2170201559244,34.72008066065093]],[[135.2416071580508,34.71284194780168],[135.24218933926855,34.71143501696599]],[[135.24218933926855,34.71143501696599],[135.24111975051966,34.71106985934452]],[[135.2426767467997,34.71322858528324],[135.24265643815258,34.71322858528324]],[[135.24223672611186,34.71411999947684],[135.24339431899833,34.71445293730819]],[[135.24380049194093,34.71362596269485],[135.2426767467997,34.71322858528324]],[[135.232170406684,34.715301391781615],[135.23140544764206,34.715043633460574]],[[135.23101958334658,34.71622502576535],[135.23200116795792,34.71651500387652]],[[135.23200116795792,34.71651500387652],[135.232170406684,34.715301391781615]],[[135.2278378952961,34.71474291541936],[135.22744526145155,34.71453885674853]],[[135.22697816256755,34.71651500387652],[135.22710678399937,34.71656870352674]],[[135.22710678399937,34.71656870352674],[135.2284268460629,34.71714865974908]],[[135.22267949892483,34.71184313430764],[135.22173853160777,34.71128465794539]],[[135.22445312077426,34.715569890032704],[135.22368816173233,34.71511881297088]],[[135.22432449934243,34.71584912821383],[135.22445312077426,34.715569890032704]],[[135.22366108353617,34.711929053747994],[135.22350538390816,34.71227273150938]],[[135.22322783239738,34.71320710542316],[135.22434480798958,34.71372262206524]],[[135.22434480798958,34.71372262206524],[135.2247374418341,34.712852687731726]],[[135.2247374418341,34.712852687731726],[135.2249540674035,34.71239087073986]],[[135.2237761658699,34.706677227956774],[135.2243312688915,34.705893213063604]],[[135.22935427428186,34.71755677709073],[135.22979429496968,34.71892074820624]],[[135.2313174435045,34.71835153191394],[135.23028847204986,34.71795415450234]],[[135.2237761658699,34.706677227956774],[135.22566487005307,34.70736458347955]],[[135.22566487005307,34.70736458347955],[135.22523838846334,34.706150971384645]],[[135.2420877960329,34.717159399679126],[135.24107236367635,34.716525743806564]],[[135.24107236367635,34.716525743806564],[135.24053079975286,34.71762121667099]],[[135.24138376293237,34.718233392683466],[135.24174931858073,34.71835153191394]],[[135.24174931858073,34.71835153191394],[135.2420877960329,34.717159399679126]],[[135.24718526646274,34.717320498629775],[135.2466640111864,34.718555590584764]],[[135.2478892995633,34.71885630862598],[135.2483699375454,34.71768565625125]],[[135.2483699375454,34.71768565625125],[135.24718526646274,34.717320498629775]],[[135.23838485270605,34.735513940123276],[135.23713925568202,34.736706072358096],[135.23335507776662,34.73697457060918]],[[135.23335507776662,34.73697457060918],[135.235121930067,34.73949845416938],[135.23782974968447,34.73801634382339],[135.23874363880535,34.73580391823445]],[[135.22445312077426,34.715569890032704],[135.22519777116906,34.71593504765418]],[[135.24174931858073,34.709791807669355],[135.24173577948264,34.70982402745949]],[[135.24173577948264,34.70982402745949],[135.24111975051966,34.71106985934452]],[[135.24218933926855,34.71143501696599],[135.2427850595844,34.71010326564062]],[[135.22523161891428,34.711929053747994],[135.22635536405554,34.712068672838555]],[[135.2181845183599,34.717986374292465],[135.21999198795453,34.71916776659724]],[[135.21999198795453,34.71916776659724],[135.22002583569974,34.719103327016974]],[[135.21995814020931,34.71779305555168],[135.21909840748077,34.717460117720336]],[[135.23965752792625,34.71432405814767],[135.23927166363075,34.71522621227131]],[[135.23927166363075,34.71522621227131],[135.24017201365356,34.715870608073914]],[[135.24017201365356,34.715870608073914],[135.24072034712609,34.71468921576914]],[[135.24072034712609,34.71468921576914],[135.23965752792625,34.71432405814767]],[[135.24604121267438,34.7169553410083],[135.24718526646274,34.717320498629775]],[[135.24718526646274,34.717320498629775],[135.2476117480525,34.71635390492587]],[[135.22173853160777,34.71128465794539],[135.2220702395109,34.71059730242261]],[[135.25435421889995,34.700340669231174],[135.24549287920183,34.69937407552727],[135.2397590711619,34.70145762195568],[135.2363269097968,34.70109246433421],[135.2361305928745,34.702349036149286],[135.234343431927,34.70231681635916]],[[135.2404563347134,34.70647316928595],[135.2426428990545,34.70756864215038]],[[135.24470084196375,34.70808415879246],[135.25329816924915,34.70781566054137],[135.25435421889995,34.700340669231174]],[[135.24223672611186,34.71411999947684],[135.24178316632594,34.715043633460574]],[[135.24178316632594,34.715043633460574],[135.24153269301132,34.715548410172616]],[[135.24153269301132,34.715548410172616],[135.2426632077016,34.715892087934]],[[135.24107236367635,34.716525743806564],[135.24017201365356,34.715870608073914]],[[135.24017201365356,34.715870608073914],[135.23961691063198,34.71696608093834]],[[135.247070184129,34.71479661506958],[135.24711080142328,34.71480735499962]],[[135.24866102815426,34.71362596269485],[135.2477674476805,34.71319636549311]],[[135.22167083611734,34.7193825651981],[135.2237152399285,34.720177320021314]],[[135.24453160323765,34.71209015269864],[135.24337401035118,34.711778694727386]],[[135.24337401035118,34.711778694727386],[135.2426767467997,34.71322858528324]],[[135.23579211542233,34.71424887863736],[135.23666538724896,34.714893274439966]],[[135.23666538724896,34.714893274439966],[135.23716633387818,34.71374410192532]],[[135.2359410455013,34.73378481138629],[135.23314522174627,34.736867171308745]],[[135.23314522174627,34.736867171308745],[135.23335507776662,34.73697457060918]],[[135.2403818696739,34.7336881520159],[135.23956275423964,34.73116426845571]],[[135.23881810384484,34.71299230682229],[135.23928520272884,34.71201497318834]],[[135.22566487005307,34.70736458347955],[135.22508945838436,34.709222591377056]],[[135.22627412946701,34.709619968788665],[135.22703908850895,34.70790157998172]],[[135.22703908850895,34.70790157998172],[135.22566487005307,34.70736458347955]],[[135.22747233964773,34.709877727109706],[135.2269578539204,34.710822840953526]],[[135.22848777200426,34.71122021836513],[135.22860962388705,34.71007104585048]],[[135.22860962388705,34.71007104585048],[135.22747233964773,34.709877727109706]],[[135.2352573210479,34.71256270962055],[135.23458713569258,34.71224051171925]],[[135.23458713569258,34.71224051171925],[135.2342012713971,34.71320710542316]],[[135.2342012713971,34.71320710542316],[135.23481730036005,34.713561523114585]],[[135.22747233964773,34.709877727109706],[135.22632151631032,34.709630708718706]],[[135.24153269301132,34.715548410172616],[135.24107236367635,34.716525743806564]],[[135.2420877960329,34.717159399679126],[135.2426632077016,34.715892087934]],[[135.21825221385032,34.708707074734974],[135.2184688394197,34.707600861940506]],[[135.24218933926855,34.71143501696599],[135.24337401035118,34.711778694727386]],[[135.24337401035118,34.711778694727386],[135.24396973066703,34.71030732431144]],[[135.21999198795453,34.71916776659724],[135.2196602800514,34.71945774470841]],[[135.2212917413709,34.72018805995136],[135.2215557537836,34.71961884365906]],[[135.22612519938804,34.7125734495506],[135.22589503472057,34.7132178453532]],[[135.22589503472057,34.7132178453532],[135.22821022049348,34.71400186024637]],[[135.23666538724896,34.714893274439966],[135.23771466735073,34.71565580947305]],[[135.23771466735073,34.71565580947305],[135.2381614575876,34.71442071751806]],[[135.21486066977945,34.71617132611513],[135.21651920929514,34.71648278408639]],[[135.22200931356952,34.71389446094593],[135.2219754658243,34.71387298108585]],[[135.22127143272377,34.7136152227648],[135.22079079474167,34.714485157098316]],[[135.23314522174627,34.736867171308745],[135.23104666154276,34.73542802068293]],[[135.23104666154276,34.73542802068293],[135.23134452170066,34.73684569144866]],[[135.23134452170066,34.73684569144866],[135.23314522174627,34.736867171308745]],[[135.2430829197423,34.72374297679572],[135.24222995656282,34.72380741637598]],[[135.24227734340613,34.73205568264931],[135.24555380514323,34.73436476760864],[135.24741543113024,34.73654497340745]],[[135.24741543113024,34.73654497340745],[135.24809238603459,34.735524680053324],[135.24619014275333,34.73207716250939],[135.24275798138822,34.731346847266444],[135.2430829197423,34.72374297679572]],[[135.24046310426243,34.71793267464225],[135.24000954447652,34.71936108533802]],[[135.23273904880367,34.70969514829897],[135.23271197060748,34.70968440836892]],[[135.23200116795792,34.71651500387652],[135.23217717623305,34.71655796359669]],[[135.23378832890543,34.71580616849366],[135.232170406684,34.715301391781615]],[[135.2476117480525,34.71635390492587],[135.24879641913512,34.716643883037044]],[[135.24879641913512,34.716643883037044],[135.24906043154783,34.71547323066231]],[[135.23022754610847,34.70259605454029],[135.22533316214995,34.702757153490936]],[[135.22533316214995,34.702757153490936],[135.22523838846334,34.702918252441584]],[[135.22450727716662,34.703981505515884],[135.22617258623134,34.70447554229788]],[[135.22617258623134,34.70447554229788],[135.2272963313726,34.70472256068888]],[[135.2272963313726,34.70472256068888],[135.2283997678667,34.70498031900992]],[[135.2283997678667,34.70498031900992],[135.22966567353785,34.70527029712109]],[[135.21951811952147,34.70785862026155],[135.2184823785178,34.70756864215038]],[[135.21374369418726,34.70726792410916],[135.21299227424342,34.70878225424528]],[[135.21586256303792,34.70782640047142],[135.21374369418726,34.70726792410916]],[[135.23104666154276,34.73542802068293],[135.23146637358346,34.733505573205164]],[[135.22851485020044,34.734042569707334],[135.22737756596112,34.73484806446059],[135.23122943936693,34.73741490774096]],[[135.23122943936693,34.73741490774096],[135.23134452170066,34.73684569144866]],[[135.2241823388125,34.725654684343446],[135.2228284290038,34.72685755650831]],[[135.21607918860732,34.7400247107415],[135.21950458042338,34.74107722388575],[135.22176560980395,34.7410127843055],[135.23122943936693,34.73741490774096]],[[135.22761450017765,34.72482770973011],[135.2247848286774,34.72408665455711]],[[135.22697816256755,34.71683720177782],[135.22710678399937,34.71656870352674]],[[135.22533316214995,34.717320498629775],[135.225028532443,34.717986374292465]],[[135.23251565368523,34.70226311670894],[135.2312091307198,34.702359776079334]],[[135.24000954447652,34.71936108533802],[135.2392175072384,34.71911406694702]],[[135.2392175072384,34.71911406694702],[135.23744388538898,34.72087541547414]],[[135.23873009970725,34.716364644855915],[135.23771466735073,34.71565580947305]],[[135.23771466735073,34.71565580947305],[135.23725433801576,34.716923121218166]],[[135.23725433801576,34.716923121218166],[135.23831715721562,34.71725605904951]],[[135.22818991184636,34.708288217463284],[135.22703908850895,34.70790157998172]],[[135.22747233964773,34.709877727109706],[135.22818991184636,34.708288217463284]],[[135.22077048609455,34.71625724555548],[135.22112250264482,34.715580629962744]],[[135.2229841286318,34.708578195574454],[135.22508945838436,34.709222591377056]],[[135.23601551054077,34.710855060743654],[135.2352573210479,34.71256270962055]],[[135.22508945838436,34.70554953530222],[135.22617258623134,34.70447554229788]],[[135.23955598469058,34.71817969303324],[135.2392175072384,34.71911406694702]],[[135.23221102397827,34.712347911019684],[135.2317033078,34.7134648637442]],[[135.2321094807426,34.71359374290472],[135.232793205196,34.713808541505585]],[[135.232793205196,34.713808541505585],[135.23329415182525,34.71274528843129]],[[135.23329415182525,34.71274528843129],[135.2333212300214,34.71270232871112]],[[135.24173577948264,34.70982402745949],[135.24057818659617,34.709362210467624]],[[135.24057818659617,34.709362210467624],[135.23989446214276,34.710693961793005]],[[135.23666538724896,34.714893274439966],[135.2359884323446,34.71651500387652]],[[135.2191525638731,34.71971550302945],[135.21781219316247,34.718662989885196]],[[135.2196602800514,34.71173573500721],[135.21907809883365,34.71277750822142]],[[135.23083003597336,34.709115192076624],[135.23083680552242,34.709125932006664]],[[135.2431573847818,34.71765343646112],[135.2420877960329,34.717159399679126]],[[135.24269705544683,34.71864151002511],[135.2431573847818,34.71765343646112]],[[135.2283997678667,34.70498031900992],[135.22766188702096,34.70656982865634]],[[135.22766188702096,34.70656982865634],[135.22764834792287,34.70661278837651]],[[135.22764834792287,34.70661278837651],[135.22890071449592,34.706687967886815]],[[135.2380396057048,34.71787897499203],[135.23803283615578,34.71790045485212]],[[135.23803283615578,34.71790045485212],[135.23650968762095,34.72048877799258]],[[135.22520454071812,34.706022092224124],[135.22653137233067,34.706387249845605]],[[135.22653137233067,34.706387249845605],[135.2272963313726,34.70472256068888]],[[135.22950997390984,34.724312193088025],[135.22680892384145,34.72235752582012]],[[135.2296724430869,34.71146723675613],[135.22965890398882,34.7115101964763]],[[135.2386082478245,34.71344338388411],[135.23982676665233,34.71388372101589]],[[135.23982676665233,34.71388372101589],[135.24002308357458,34.71337894430385]],[[135.24006370086886,34.713260805073375],[135.23881810384484,34.71299230682229]],[[135.2466640111864,34.718555590584764],[135.24558765288845,34.71830857219377]],[[135.2438546483333,34.71901740757663],[135.24269705544683,34.71864151002511]],[[135.23650968762095,34.72048877799258],[135.23505423457658,34.719876601980104]],[[135.23493915224284,34.71982290232989],[135.23325353453097,34.72064987694323]],[[135.23325353453097,34.72064987694323],[135.23416742365185,34.72088615540418]],[[135.23416742365185,34.72088615540418],[135.2356161071472,34.72139093211622]],[[135.2431573847818,34.71765343646112],[135.24376664419572,34.71622502576535]],[[135.23927166363075,34.71522621227131],[135.23925135498362,34.71523695220136]],[[135.23925135498362,34.71523695220136],[135.23873686925631,34.71634316499583]],[[135.23365293792455,34.72168091022739],[135.23416742365185,34.72088615540418]],[[135.23325353453097,34.72064987694323],[135.23234641495912,34.72047803806253]],[[135.22058770827036,34.72169165015743],[135.2208855684283,34.72103651442479]],[[135.25435421889995,34.700340669231174],[135.25495670876484,34.696302455534855],[135.25070543196543,34.69421890910644],[135.25511240839282,34.66670320833527],[135.25420528882097,34.66507073896867],[135.2506512755731,34.66398600603429],[135.2466978589316,34.671793935175835],[135.22288258539615,34.68341453948279],[135.22289612449424,34.686733177866195],[135.21445449683685,34.69610913679408],[135.21919318116738,34.698976698115665]],[[135.22554978771933,34.701844259437244],[135.22567840915116,34.70188721915742]],[[135.22567840915116,34.70188721915742],[135.22633505540838,34.69986811230926]],[[135.22633505540838,34.69986811230926],[135.2265042941345,34.6986652401444],[135.2185771522044,34.6968072322469],[135.21658690478557,34.69506736357987],[135.21882085596997,34.69556140036186],[135.22403340873356,34.691695025546245],[135.23803283615578,34.69338119456305],[135.2348240699091,34.698450441543535],[135.22804098176738,34.698718939794624],[135.22781758664894,34.700072170980086]],[[135.22781758664894,34.700072170980086],[135.2347292962225,34.7009421053136],[135.23416065410282,34.702349036149286]],[[135.2221311654523,34.72658905825722],[135.2232955278878,34.72451625175885]],[[135.2342012713971,34.71320710542316],[135.23329415182525,34.71274528843129]],[[135.232793205196,34.713808541505585],[135.23447882290787,34.714345538007755]],[[135.22311275006362,34.71635390492587],[135.22275396396432,34.71711643995895]],[[135.22355277075147,34.71742789793021],[135.22393186549792,34.716654622967084]],[[135.22633505540838,34.69986811230926],[135.22781758664894,34.700072170980086]],[[135.2247374418341,34.712852687731726],[135.22589503472057,34.7132178453532]],[[135.21456280962153,34.706236890825],[135.21374369418726,34.70726792410916]],[[135.2301395419709,34.71067248193292],[135.22860962388705,34.71007104585048]],[[135.21907809883365,34.71277750822142],[135.2176294153383,34.712229771789204]],[[135.2431573847818,34.71765343646112],[135.2441863562364,34.717975634362425]],[[135.2441863562364,34.717975634362425],[135.24482946339558,34.71656870352674]],[[135.24604121267438,34.7169553410083],[135.24555380514323,34.71829783226372]],[[135.23458713569258,34.71224051171925],[135.23410649771048,34.71204719297847]],[[135.2441863562364,34.717975634362425],[135.24429466902112,34.717997114222506]],[[135.2324208799986,34.718802608975764],[135.23380863755256,34.7193073856878]],[[135.23689555191643,34.71768565625125],[135.23803283615578,34.71790045485212]],[[135.22570548734734,34.71372262206524],[135.22589503472057,34.7132178453532]],[[135.1963527226942,34.742376755421006],[135.1956689982408,34.744675100450294],[135.19654903961646,34.74609277121602],[135.19884391674225,34.74650088855767],[135.1959194715554,34.751419776517544],[135.1940713846665,34.75337444378544],[135.20344721009192,34.75595202699586],[135.215720402508,34.75758449636245],[135.21676968260977,34.7588840278977],[135.22164375792116,34.7622993256515],[135.2281222163559,34.76429695263957],[135.2295912084984,34.763276659285445],[135.2344517447117,34.76582202270573],[135.23479699171293,34.76713229417103],[135.23984030575042,34.76914066108914],[135.24495131527834,34.76996763570248],[135.248309011604,34.770966449196514],[135.25113868310422,34.769892456192174],[135.2567709479085,34.771374566538164],[135.25980370588005,34.767293393121676],[135.25365018579942,34.76276114264336],[135.25518010388328,34.76266448327297],[135.2563038490245,34.75981840181147],[135.2583685614828,34.759098826498565],[135.25830086599237,34.75769189566288],[135.26033173070545,34.7560379464362],[135.2601692615284,34.75363220210648],[135.26176010555366,34.75153791574802],[135.25976985813483,34.74772524058262],[135.25834148328664,34.74638274932719],[135.25727189453775,34.747091584710056],[135.25548473359024,34.746006851775675],[135.25471300499925,34.74308559080387],[135.252966461346,34.74338630884508],[135.2505158845922,34.74203307765962],[135.24774036948432,34.74288153213305],[135.24631199463613,34.74219417661027],[135.244741459258,34.73973473263033],[135.24499870212165,34.738166702844],[135.24741543113024,34.73654497340745]],[[135.2430829197423,34.72374297679572],[135.24451806413956,34.7227226834416]],[[135.234032032671,34.715301391781615],[135.23171684689808,34.714463677238236]],[[135.21849591761588,34.70015809042044],[135.21777157586823,34.7020053583879]],[[135.22533316214995,34.702757153490936],[135.22567840915116,34.70188721915742]],[[135.22860962388705,34.71007104585048],[135.22927303969334,34.70863189522467]],[[135.21492159572085,34.70565693460265],[135.21475235699475,34.70607579187434]],[[135.2483699375454,34.71768565625125],[135.24879641913512,34.716643883037044]],[[135.23925135498362,34.71523695220136],[135.2381614575876,34.71442071751806]],[[135.24117390691202,34.71376558178541],[135.24072034712609,34.71468921576914]],[[135.24072034712609,34.71468921576914],[135.24178316632594,34.715043633460574]],[[135.24057818659617,34.709362210467624],[135.2394815196511,34.70884669382554]],[[135.22703908850895,34.70790157998172],[135.22764834792287,34.70661278837651]],[[135.22766188702096,34.70656982865634],[135.22653137233067,34.706387249845605]],[[135.22253733839491,34.70928703095732],[135.22291643314136,34.708545975784325]],[[135.23965752792625,34.71432405814767],[135.23982676665233,34.71388372101589]]]}