{"type":"Topology","bbox":[135.12345746960798,34.63464825147943,135.16718998980417,34.69444525063143],"objects":{"town":{"type":"GeometryCollection","geometries":[{"type":"Polygon","arcs":[[0,1,2,3,4]],"properties":{"name":"池田上町"}},{"type":"Polygon","arcs":[[-3,5,6,7,8,9]],"properties":{"name":"池田経町"}},{"type":"Polygon","arcs":[[10,11,12]],"properties":{"name":"池田塩町"}},{"type":"MultiPolygon","arcs":[[[13,14]],[[85,244,32,33,34,29,30,243,83,256,257,258,259]]],"properties":{"name":"一番町"}},{"type":"Polygon","arcs":[[15,16,17,18,19,20,21,22]],"properties":{"name":"池田宮町"}},{"type":"Polygon","arcs":[[23,24,25,26,27,28]],"properties":{"name":"一里山町"}},{"type":"MultiPolygon","arcs":[[[80,81,47,48,39,40,35,36,237]]],"properties":{"name":"鴬町"}},{"type":"MultiPolygon","arcs":[[[-117,50,-80,-90,42,-192,-62,220,172,173,174,221,227,197,44,181,147,52,149,194,195,-167]]],"properties":{"name":"腕塚町"}},{"type":"MultiPolygon","arcs":[[[182,183,184,185,225,66,67,252,224,54,254,168,57,58,59,169,255,56,222,253,69,226,187]]],"properties":{"name":"大塚町"}},{"type":"MultiPolygon","arcs":[[[165,114,235,77,87,188,190,63,236,199,200,-173,-221,61,191,-43,89,79,-51,116,166,167]]],"properties":{"name":"大橋町"}},{"type":"MultiPolygon","arcs":[[[74,75,70,71,72,228,229,230,231,232,233,234]]],"properties":{"name":"梅ヶ香町"}},{"type":"MultiPolygon","arcs":[[[132,92,265,351,139,269,270,266,267,268,137,350,264,90,129,130,141,142,143]]],"properties":{"name":"海運町"}},{"type":"MultiPolygon","arcs":[[[106,94,95,96,97,98,107,108]]],"properties":{"name":"重池町"}},{"type":"MultiPolygon","arcs":[[[123,124,110,127,160,161,162,152,101,102,103,104,105,153,163,164,126,112,125]]],"properties":{"name":"御屋敷通"}},{"type":"MultiPolygon","arcs":[[[261,262,178,179,180,135,136,120,121,122,117,118,133,175,176,260,144,-104,145]]],"properties":{"name":"大道通"}},{"type":"MultiPolygon","arcs":[[[333,820,374,286,155,156,157,158,159,284,372,819,332,302,303,304]]],"properties":{"name":"神楽町"}},{"type":"Polygon","arcs":[[192,193,-8]],"properties":{"name":"池田新町"}},{"type":"MultiPolygon","arcs":[[[211,212,-102,-153,-163,209,208,201,202,203,204,205,238,239,240,-11,241,242]]],"properties":{"name":"大谷町"}},{"type":"Polygon","arcs":[[213,214,215,216,217,218]],"properties":{"name":"池田谷町"}},{"type":"Polygon","arcs":[[-4,-10,245,-216,246]],"properties":{"name":"池田寺町"}},{"type":"Polygon","arcs":[[247,248,-5,-247,-215,249,250,251]],"properties":{"name":"池田広町"}},{"type":"MultiPolygon","arcs":[[[293,294,295,-887,274,349,279,323,324,319,320,321,322,277,347,348,271,272,940,-417,290,291,-900,-864,-641]]],"properties":{"name":"苅藻通"}},{"type":"MultiPolygon","arcs":[[[-241,-240,888,-517,889,890,747,723,724,725,-558,-219,-218,-217,-246,-9,-194,280,730,-12]]],"properties":{"name":"上池田"}},{"type":"MultiPolygon","arcs":[[[-261,-177,-176,-134,-119,-118,356,357,-728,289,861,-838,736,737,-105,-145]]],"properties":{"name":"川西通"}},{"type":"MultiPolygon","arcs":[[[-60,-316,753,-749,754,344,345,346,331,298,299,300,301,-188,-227,-70,-254,-223,-57,-256,-170]]],"properties":{"name":"片山町"}},{"type":"MultiPolygon","arcs":[[[571,572,-842,904,905,574,575,-504,-503,1001,1002,1003,933,931,563,-496,-495,605,606]]],"properties":{"name":"長田天神町"}},{"type":"MultiPolygon","arcs":[[[493,494,495,496,497,-751,-750,-754,315,-59,311,312,313,-583,-565,-569,-568]]],"properties":{"name":"名倉町"}},{"type":"MultiPolygon","arcs":[[[-150,-53,-148,-182,-45,-198,-228,-222,-175,376,377,757,758,-794,-735,318,811,473,460,974,-802,-919,-195]]],"properties":{"name":"久保町"}},{"type":"MultiPolygon","arcs":[[[-720,936,-924,912,-548,474,326,-744,-408,770,771,906,328,475,913,-810]]],"properties":{"name":"長楽町"}},{"type":"MultiPolygon","arcs":[[[-72,-71,491,-596,-595,443,-594,432,433,428,435,-355,434,430,-799,-482,441,-488,791,489,711,-295,335,-645,-661,-603,-229,-73]]],"properties":{"name":"東尻池町"}},{"type":"MultiPolygon","arcs":[[[-381,-936,-122,-981,-883,-650,586,-697,399,-982,-784,713,340,341,338,714,-622,-621,-733,1008,401,-957,584,-964]]],"properties":{"name":"五番町"}},{"type":"MultiPolygon","arcs":[[[-792,487,-442,481,798,-431,-435,354,355,352,-320,-325,-324,-280,-350,-275,886,-296,-712,-490]]],"properties":{"name":"浜添通"}},{"type":"MultiPolygon","arcs":[[[361,362,363,364,1012,-840,-766,359,445,446,447]]],"properties":{"name":"西丸山町"}},{"type":"Polygon","arcs":[[366,367,368,369,370,-40,-49,371]],"properties":{"name":"源平町"}},{"type":"MultiPolygon","arcs":[[[380,381,875,876,877,-600,878,-260,-259,378,934,-659,-835,-357,-123,935]]],"properties":{"name":"北町"}},{"type":"MultiPolygon","arcs":[[[-144,896,983,997,384,385,-916,-716,807,808,805,942,387,-971,-695,-701,-700]]],"properties":{"name":"日吉町"}},{"type":"MultiPolygon","arcs":[[[439,894,-6,-2,-1,-249,-248,389,884,885,-646,882,883,391,392,-692,895,436,437,-615,-212,-243,898]]],"properties":{"name":"蓮宮通"}},{"type":"MultiPolygon","arcs":[[[395,396,-521,-676,654,650,651,652,835,393,477,478,479]]],"properties":{"name":"庄山町"}},{"type":"MultiPolygon","arcs":[[[411,412,413,-800,1006,902,903,681,403,844,-510,845,846,405,682,679,900,1004,1005,415]]],"properties":{"name":"駒ヶ林町"}},{"type":"MultiPolygon","arcs":[[[923,924,925,545,873,742,406,407,743,-327,-475,547,-913]]],"properties":{"name":"浪松町"}},{"type":"MultiPolygon","arcs":[[[-994,-377,-174,-201,862,-373,-285,-160,-642,863,899,-292,-291,416,-941,-273,-555]]],"properties":{"name":"西尻池町"}},{"type":"MultiPolygon","arcs":[[[927,-648,928,988,989,419,420,-669,-708,-707,-665,-675,910,518,-312,-58,-169,-255,-55,-225,-253,-68,-67,-226,-186,-185]]],"properties":{"name":"長田町"}},{"type":"MultiPolygon","arcs":[[[-657,604,423,-610,948,484,485,-234,-233,-232,-231,-230,602,660,-644,-643,-159,785]]],"properties":{"name":"菅原通"}},{"type":"MultiPolygon","arcs":[[[-299,-332,-347,425,426,556,536,537,538]]],"properties":{"name":"寺池町"}},{"type":"MultiPolygon","arcs":[[[-1014,450,451,-624,-1000,1015,-778,448,-858,597,598,599,600]]],"properties":{"name":"三番町"}},{"type":"MultiPolygon","arcs":[[[-922,455,456,457,-955,-923]]],"properties":{"name":"高東町"}},{"type":"MultiPolygon","arcs":[[[-20,515,516,517,513,461,462,821,822,-21]]],"properties":{"name":"高取山町"}},{"type":"MultiPolygon","arcs":[[[-788,467,468,-362,-448,465,-551,-27,-26,-593,865,-826,-789]]],"properties":{"name":"萩乃町"}},{"type":"MultiPolygon","arcs":[[[624,625,569,-505,470,-509,-670,-590,-161,-128,-111,-125]]],"properties":{"name":"西代通"}},{"type":"MultiPolygon","arcs":[[[-367,961,501,502,503,-576,-575,-906,-368]]],"properties":{"name":"滝谷町"}},{"type":"MultiPolygon","arcs":[[[-651,-679,506,507,508,-471,504,-570,-626,966,-652]]],"properties":{"name":"戸崎通"}},{"type":"MultiPolygon","arcs":[[[-534,-629,512,509,510,-796,543,553,554,-272,-349,555]]],"properties":{"name":"庄田町"}},{"type":"MultiPolygon","arcs":[[[-204,-203,-672,859,-677,525,520,-397,521,522,-852,-1001,-205]]],"properties":{"name":"五位ノ池町"}},{"type":"MultiPolygon","arcs":[[[964,-17,-580,-579,892,893,-673,-663,559,560,529,530,-250,-214,557,-726,-725]]],"properties":{"name":"西山町"}},{"type":"MultiPolygon","arcs":[[[-846,-513,628,533,-556,-348,-278,-978,531,626,-977]]],"properties":{"name":"駒栄町"}},{"type":"MultiPolygon","arcs":[[[-710,-457,541,539,1024,-29,-28,550,-466,-447,551,552]]],"properties":{"name":"鹿松町"}},{"type":"MultiPolygon","arcs":[[[-606,-494,567,568,564,565,-582,635,939,-815,-616,-843,-572,-607]]],"properties":{"name":"明泉寺町"}},{"type":"Polygon","arcs":[[578,579,-16,580,581,-566,582,-314,583]],"properties":{"name":"林山町"}},{"type":"MultiPolygon","arcs":[[[-655,675,-526,676,-860,671,-202,-209,-210,-162,589,669,-508,-507,678]]],"properties":{"name":"山下町"}},{"type":"MultiPolygon","arcs":[[[825,-866,592,-25,590,1011,827,-81,828,-790]]],"properties":{"name":"雲雀ヶ丘"}},{"type":"Polygon","arcs":[[-433,593,-444,594,595,-492,-76,596]],"properties":{"name":"東尻池新町"}},{"type":"MultiPolygon","arcs":[[[658,-935,-379,-258,-257,-84,-244,-31,1007,-485,-949,609,-424,-605,656,-786,-729,834]]],"properties":{"name":"御蔵通"}},{"type":"MultiPolygon","arcs":[[[-829,-238,-37,612,-363,-469,-468,787,788,789]]],"properties":{"name":"大日丘町"}},{"type":"Polygon","arcs":[[613,-262,-146,-103,-213,614,-438]],"properties":{"name":"蓮池町"}},{"type":"MultiPolygon","arcs":[[[812,954,-709,-948,764,-360,765,766,618,615,814,815]]],"properties":{"name":"丸山町"}},{"type":"MultiPolygon","arcs":[[[-585,956,-402,-1009,732,620,621,-715,-339,973,998,999,623,-452,-451,1013,-601,-878,-877,-876,-382,963]]],"properties":{"name":"四番町"}},{"type":"MultiPolygon","arcs":[[[-684,630,631,-426,-346,-345,-755,748,749,750,-498,-633]]],"properties":{"name":"大丸町"}},{"type":"MultiPolygon","arcs":[[[-934,-1004,-1003,1023,-98,-97,-96,-95,-107,907,-818,-817,-631,683,632,-497,-564,-932]]],"properties":{"name":"房王寺町"}},{"type":"MultiPolygon","arcs":[[[-133,699,700,694,970,-388,-943,-806,-809,-808,-1017,638,-1010,-303,-333,-820,-863,-200,-237,-64,-191,-189,-88,-78,-236,-115,-166,701]]],"properties":{"name":"若松町"}},{"type":"Polygon","arcs":[[-294,640,641,642,643,644,-336]],"properties":{"name":"真野町"}},{"type":"MultiPolygon","arcs":[[[-341,-714,783,981,-400,696,-587,649,645,646,647,-928,-184,-183,-302,-301,-300,-539,-538,781,944,945,-951,987]]],"properties":{"name":"六番町"}},{"type":"MultiPolygon","arcs":[[[-911,674,664,706,707,668,-421,-420,-990,-989,-929,-647,-886,-885,-390,-252,-251,-531,-530,-561,-560,662,672,-894,-893,-584,-313,-519]]],"properties":{"name":"宮川町"}},{"type":"MultiPolygon","arcs":[[[853,-126,-113,-127,-165,-164,-154,-106,-738,908,-833,796,705,995,687,854]]],"properties":{"name":"水笠通"}},{"type":"MultiPolygon","arcs":[[[-896,691,-393,-392,-884,980,-121,-137,-136,-181,-180,-179,-263,-614,-437]]],"properties":{"name":"御船通"}},{"type":"MultiPolygon","arcs":[[[-765,947,708,-458,709,-553,-552,-446]]],"properties":{"name":"花山町"}},{"type":"MultiPolygon","arcs":[[[-688,-996,-706,-882,-304,1009,-639,1016,715,915,-386,916,-855]]],"properties":{"name":"松野通"}},{"type":"MultiPolygon","arcs":[[[-130,-91,-265,-351,-138,-269,-268,718,719,809,-914,-476,-329,-907,-772,803,-142,-131]]],"properties":{"name":"本庄町"}},{"type":"MultiPolygon","arcs":[[[832,-909,-737,837,-862,-290,727,-358,728,-158,-157,-156,-287,-375,-821,-334,-305,881,-797]]],"properties":{"name":"細田町"}},{"type":"MultiPolygon","arcs":[[[-975,-461,-474,-812,-319,734,793,-759,-758,-378,993,-554,-544,795,-511,-845,-404,-682,-904,-903,-1007,799,-414,800,801]]],"properties":{"name":"二葉町"}},{"type":"MultiPolygon","arcs":[[[871,-321,-353,761,926]]],"properties":{"name":"苅藻島町"}},{"type":"MultiPolygon","arcs":[[[-271,-270,-140,-352,-266,-93,-702,-168,-196,918,-801,-413,-412,830]]],"properties":{"name":"野田町"}},{"type":"MultiPolygon","arcs":[[[-370,-369,-905,-841,-1013,-365,-364,-613,-36,-41,-371]]],"properties":{"name":"桧川町"}},{"type":"MultiPolygon","arcs":[[[-598,857,-449,777,778,-14,775,-35,-34,-33,-245,-86,-879,-599]]],"properties":{"name":"二番町"}},{"type":"MultiPolygon","arcs":[[[-782,-537,-557,-427,-632,816,817,-908,-109,979,-952,-945]]],"properties":{"name":"前原町"}},{"type":"Polygon","arcs":[[-619,-767,839,840,841,-573,842]],"properties":{"name":"東丸山町"}},{"type":"MultiPolygon","arcs":[[[-396,-480,-479,952,-871,849,850,851,-523,-522]]],"properties":{"name":"平和台町"}},{"type":"MultiPolygon","arcs":[[[-851,-850,870,868,-462,-514,-518,-889,-239,-206,1000]]],"properties":{"name":"長尾町"}},{"type":"Polygon","arcs":[[-813,919,-22,-823,920,-542,-456,921,922]],"properties":{"name":"長者町"}},{"type":"Polygon","arcs":[[949,950,-946,951]],"properties":{"name":"七番町"}},{"type":"Polygon","arcs":[[975,-683,-406,-847,976,-627,-532,977,-323]],"properties":{"name":"南駒栄町"}},{"type":"MultiPolygon","arcs":[[[-891,-890,-516,-19,-18,-965,-724,-748]]],"properties":{"name":"宮丘町"}},{"type":"Polygon","arcs":[[-23,-920,-816,-940,-636,-581]],"properties":{"name":"堀切町"}},{"type":"Polygon","arcs":[[1017,-925,-937,-719,-267,-831,-416,-1006,1018]],"properties":{"name":"駒ケ林南町"}},{"type":"Polygon","arcs":[[1021,-1019,-1005,-901,-680,-976,-322,-872,-927,-762,-356,-436,-429]],"properties":{"name":""}}]}},"arcs":[[[135.14639747045098,34.66773125971114],[135.14582451714108,34.66705548604336]],[[135.14582451714108,34.66705548604336],[135.14507661625564,34.66739038272828]],[[135.14507661625564,34.66739038272828],[135.14499788984662,34.668502718146044]],[[135.14499788984662,34.668502718146044],[135.14564956956553,34.668347230399476]],[[135.14564956956553,34.668347230399476],[135.14639747045098,34.66773125971114]],[[135.14507661625564,34.66739038272828],[135.1448535580968,34.6670614663413]],[[135.1448535580968,34.6670614663413],[135.1420631442669,34.667928609543324]],[[135.1420631442669,34.667928609543324],[135.14258798699353,34.66831732890975]],[[135.14258798699353,34.66831732890975],[135.14272357136457,34.66941172343368]],[[135.14272357136457,34.66941172343368],[135.14499788984662,34.668502718146044]],[[135.1411446694953,34.66693588008446],[135.14002063132244,34.66711528902281]],[[135.14002063132244,34.66711528902281],[135.14124526435126,34.66750998868718]],[[135.14124526435126,34.66750998868718],[135.1411446694953,34.66693588008446]],[[135.15752413625546,34.66809605788578],[135.1586263059814,34.66884359512891]],[[135.1586263059814,34.66884359512891],[135.15752413625546,34.66809605788578]],[[135.14170450173705,34.6796081314299],[135.14177448076725,34.678298446179944],[135.1399244101559,34.67525447452594]],[[135.1399244101559,34.67525447452594],[135.13902343014186,34.674016552851334]],[[135.13902343014186,34.674016552851334],[135.1376325969163,34.67294607951918]],[[135.1376325969163,34.67294607951918],[135.13746639671953,34.67176796082401]],[[135.13746639671953,34.67176796082401],[135.13635985330424,34.67279657207055]],[[135.13635985330424,34.67279657207055],[135.1360187055319,34.676528277988226]],[[135.1360187055319,34.676528277988226],[135.13856419275606,34.67696483973821],[135.13888784577082,34.67886657448472],[135.1406154530793,34.680379589864806]],[[135.1406154530793,34.680379589864806],[135.14170450173705,34.6796081314299]],[[135.12847409133667,34.683698655224276],[135.12741565850462,34.68353718717976],[135.12537314556016,34.68534323715915],[135.1242972179706,34.68491863600506],[135.12585862508232,34.68235308818665],[135.12345746960798,34.684201000251655],[135.12445904447796,34.68677850866595],[135.12572741440064,34.68768751395359]],[[135.12572741440064,34.68768751395359],[135.12924386066905,34.689015140097375]],[[135.12924386066905,34.689015140097375],[135.13114641555308,34.68893141592615],[135.13329827073224,34.687645651867975]],[[135.13329827073224,34.687645651867975],[135.134072413754,34.687352617268665]],[[135.134072413754,34.687352617268665],[135.13314956529302,34.68601303052899]],[[135.13314956529302,34.68601303052899],[135.12847409133667,34.683698655224276]],[[135.15718298848316,34.668048215502225],[135.15772969965673,34.66749802809129]],[[135.15772969965673,34.66749802809129],[135.1567849827488,34.66687009680706]],[[135.1567849827488,34.66687009680706],[135.15600209234825,34.667641555241964]],[[135.15600209234825,34.667641555241964],[135.15574841836371,34.667886747457715]],[[135.15574841836371,34.667886747457715],[135.15711300945293,34.66812595937551]],[[135.15711300945293,34.66812595937551],[135.15718298848316,34.668048215502225]],[[135.13914151975536,34.68909886426861],[135.13868665605895,34.68910484456655]],[[135.13868665605895,34.68910484456655],[135.13764134429508,34.69077932799115]],[[135.13764134429508,34.69077932799115],[135.13873476664222,34.69066570233019]],[[135.13873476664222,34.69066570233019],[135.13998126811796,34.69100657931306]],[[135.13998126811796,34.69100657931306],[135.13992003646652,34.69027698296377]],[[135.13992003646652,34.69027698296377],[135.13914151975536,34.68909886426861]],[[135.1464936916175,34.65376128371164],[135.14573266966391,34.654592545125986]],[[135.14573266966391,34.654592545125986],[135.14668613395062,34.65521449611227]],[[135.14668613395062,34.65521449611227],[135.14747339804055,34.65440117559175]],[[135.14747339804055,34.65440117559175],[135.1464936916175,34.65376128371164]],[[135.13873476664222,34.69066570233019],[135.1389228352859,34.692065092049326]],[[135.1389228352859,34.692065092049326],[135.1408078954124,34.69218469800823]],[[135.1408078954124,34.69218469800823],[135.14103970095,34.691993328473984]],[[135.14103970095,34.691993328473984],[135.13998126811796,34.69100657931306]],[[135.14377325681784,34.65199111551992],[135.14299036641728,34.65281041633838]],[[135.14299036641728,34.65281041633838],[135.1439394570146,34.65342638702671]],[[135.1439394570146,34.65342638702671],[135.14471797372576,34.65260708620825]],[[135.14471797372576,34.65260708620825],[135.14377325681784,34.65199111551992]],[[135.147455903283,34.67402253314928],[135.14685670783678,34.67383714391298]],[[135.14685670783678,34.67383714391298],[135.14660303385224,34.67439929191981]],[[135.14660303385224,34.67439929191981],[135.1471891082303,34.67456674026227]],[[135.1471891082303,34.67456674026227],[135.147455903283,34.67402253314928]],[[135.14607381743622,34.67564319389237],[135.14568893277,34.67655219918001]],[[135.14568893277,34.67655219918001],[135.14605632267867,34.67706650480328]],[[135.14605632267867,34.67706650480328],[135.14669050764,34.67583456342661]],[[135.14669050764,34.67583456342661],[135.14607381743622,34.67564319389237]],[[135.1485230834938,34.65641055570127],[135.14754775076017,34.6557766441191]],[[135.14754775076017,34.6557766441191],[135.146847960458,34.656482319276606]],[[135.146847960458,34.656482319276606],[135.14782329319164,34.65713417175261]],[[135.14782329319164,34.65713417175261],[135.1485230834938,34.65641055570127]],[[135.14915289476576,34.67176796082401],[135.14812507775946,34.6711818916254]],[[135.14812507775946,34.6711818916254],[135.14776643522958,34.671779921419905]],[[135.14776643522958,34.671779921419905],[135.14766146668427,34.67205501512537]],[[135.14766146668427,34.67205501512537],[135.1486761626224,34.672294227043174]],[[135.1486761626224,34.672294227043174],[135.14915289476576,34.67176796082401]],[[135.15870940607977,34.659920990594976],[135.1578127997551,34.66105126690658]],[[135.1578127997551,34.66105126690658],[135.1569730513925,34.66188252832094]],[[135.1569730513925,34.66188252832094],[135.15692931449863,34.661924390406554]],[[135.15692931449863,34.661924390406554],[135.15960601240442,34.663192213570895]],[[135.15960601240442,34.663192213570895],[135.15959726502564,34.660142261618944]],[[135.15959726502564,34.660142261618944],[135.15870940607977,34.659920990594976]],[[135.1439394570146,34.65342638702671],[135.1432440404018,34.65415000307806]],[[135.1432440404018,34.65415000307806],[135.14418438362037,34.65475999346845]],[[135.14418438362037,34.65475999346845],[135.14488417392252,34.65404235771505]],[[135.14488417392252,34.65404235771505],[135.1439394570146,34.65342638702671]],[[135.13691093816718,34.69207107234727],[135.13703777515946,34.692411949330136]],[[135.13703777515946,34.692411949330136],[135.13900156169493,34.693434580278726],[135.1408078954124,34.69218469800823]],[[135.1389228352859,34.692065092049326],[135.13691093816718,34.69207107234727]],[[135.15580527632576,34.666218244331056],[135.15489554893293,34.66561423423862]],[[135.15489554893293,34.66561423423862],[135.15408641639604,34.66646941684475]],[[135.15408641639604,34.66646941684475],[135.1550223859252,34.66703156485158]],[[135.1550223859252,34.66703156485158],[135.15580527632576,34.666218244331056]],[[135.14418438362037,34.65475999346845],[135.14504162674052,34.65531616117733]],[[135.14504162674052,34.65531616117733],[135.14573266966391,34.654592545125986]],[[135.14573266966391,34.654592545125986],[135.14488417392252,34.65404235771505]],[[135.13914589344475,34.65030467149943],[135.13844610314257,34.651034267848715]],[[135.13844610314257,34.651034267848715],[135.1394258095656,34.651668179430885]],[[135.1394258095656,34.651668179430885],[135.14014746831472,34.65095054367749]],[[135.14014746831472,34.65095054367749],[135.13914589344475,34.65030467149943]],[[135.15382399503275,34.67679141109781],[135.1533735050257,34.67657014007384]],[[135.1533735050257,34.67657014007384],[135.1525818672464,34.678992160741565]],[[135.1525818672464,34.678992160741565],[135.15167213985356,34.679853323645645]],[[135.15167213985356,34.679853323645645],[135.15183834005035,34.67989518573126]],[[135.15183834005035,34.67989518573126],[135.15458064329695,34.67878285031349],[135.15453690640308,34.677227972847795]],[[135.15453690640308,34.677227972847795],[135.15382399503275,34.67679141109781]],[[135.14502413198295,34.661631355807245],[135.1442762310975,34.66239683394421]],[[135.1442762310975,34.66239683394421],[135.14463487362738,34.6626480064579]],[[135.14463487362738,34.6626480064579],[135.1452034532479,34.66302476522843]],[[135.1452034532479,34.66302476522843],[135.1455795905353,34.66263006556406]],[[135.1455795905353,34.66263006556406],[135.14594260675455,34.662223405303806]],[[135.14594260675455,34.662223405303806],[135.14502413198295,34.661631355807245]],[[135.15425261659283,34.67565515448826],[135.15382399503275,34.67679141109781]],[[135.15453690640308,34.677227972847795],[135.15569156040166,34.67712630778273],[135.1555997129245,34.67503320350198]],[[135.1555997129245,34.67503320350198],[135.15425261659283,34.67565515448826]],[[135.1402305684131,34.65856944325941],[135.1395395254897,34.65923923662925]],[[135.1395395254897,34.65923923662925],[135.1405017371552,34.65987314821142]],[[135.1405017371552,34.65987314821142],[135.1411884063892,34.659185413947746]],[[135.1411884063892,34.659185413947746],[135.1402305684131,34.65856944325941]],[[135.1418750756232,34.652080819989095],[135.14119715376796,34.65281041633838]],[[135.14119715376796,34.65281041633838],[135.14228620242574,34.653510111197946]],[[135.14228620242574,34.653510111197946],[135.14299036641728,34.65281041633838]],[[135.14299036641728,34.65281041633838],[135.1418750756232,34.652080819989095]],[[135.15049124371865,34.66515973159479],[135.149752090212,34.66471718954686]],[[135.149752090212,34.66471718954686],[135.1494109424397,34.66509992861535]],[[135.1494109424397,34.66509992861535],[135.1486761626224,34.66600295360504]],[[135.1486761626224,34.66600295360504],[135.14945905302295,34.66674451055022]],[[135.14945905302295,34.66674451055022],[135.14983519031037,34.66619432313928]],[[135.14983519031037,34.66619432313928],[135.15049124371865,34.66515973159479]],[[135.13929897257333,34.657977393762856],[135.1386341717863,34.65864718713269]],[[135.1386341717863,34.65864718713269],[135.1395395254897,34.65923923662925]],[[135.1402305684131,34.65856944325941],[135.13929897257333,34.657977393762856]],[[135.14208501271386,34.65975354225252],[135.1411884063892,34.659185413947746]],[[135.1405017371552,34.65987314821142],[135.1413764750329,34.66045323711209]],[[135.1413764750329,34.66045323711209],[135.14208501271386,34.65975354225252]],[[135.13844610314257,34.651034267848715],[135.1379737446886,34.6515904355576]],[[135.1379737446886,34.6515904355576],[135.137978118378,34.65199709581786]],[[135.137978118378,34.65199709581786],[135.13867790868017,34.6524276772699]],[[135.13867790868017,34.6524276772699],[135.1394258095656,34.651668179430885]],[[135.1494109424397,34.66509992861535],[135.14845310446358,34.6644959185229]],[[135.14845310446358,34.6644959185229],[135.1476483456161,34.66530923904342]],[[135.1476483456161,34.66530923904342],[135.1483656306758,34.66578766287902]],[[135.1483656306758,34.66578766287902],[135.1486761626224,34.66600295360504]],[[135.14162140163867,34.64775108427692],[135.14065481628379,34.64871989254401]],[[135.14065481628379,34.64871989254401],[135.1416082805705,34.64934782382823]],[[135.1416082805705,34.64934782382823],[135.14262297650865,34.648396956454974]],[[135.14262297650865,34.648396956454974],[135.14162140163867,34.64775108427692]],[[135.137978118378,34.65199709581786],[135.1370202804019,34.652529342334965]],[[135.1370202804019,34.652529342334965],[135.13796499730984,34.65315727361919]],[[135.13796499730984,34.65315727361919],[135.13867790868017,34.6524276772699]],[[135.1465418022008,34.663240055954454],[135.1455795905353,34.66263006556406]],[[135.1452034532479,34.66302476522843],[135.14613504908766,34.6636586768106]],[[135.14613504908766,34.6636586768106],[135.1465418022008,34.663240055954454]],[[135.1456583169443,34.653211096300694],[135.14471797372576,34.65260708620825]],[[135.14488417392252,34.65404235771505],[135.1456583169443,34.653211096300694]],[[135.14377325681784,34.65199111551992],[135.14264921864498,34.651261519170625]],[[135.14264921864498,34.651261519170625],[135.1418750756232,34.652080819989095]],[[135.1440881624538,34.66103332601275],[135.14335338263652,34.66182870563943]],[[135.14335338263652,34.66182870563943],[135.1442762310975,34.66239683394421]],[[135.14502413198295,34.661631355807245],[135.1440881624538,34.66103332601275]],[[135.1507449177032,34.66041735532441],[135.14937157923518,34.66190046921477]],[[135.14937157923518,34.66190046921477],[135.14935845816703,34.66191242981066]],[[135.14935845816703,34.66191242981066],[135.15046062789293,34.66236693245448]],[[135.15046062789293,34.66236693245448],[135.15126101305106,34.66259418377639]],[[135.15126101305106,34.66259418377639],[135.15136598159637,34.66075823230728]],[[135.15136598159637,34.66075823230728],[135.1507449177032,34.66041735532441]],[[135.1413764750329,34.66045323711209],[135.14285915573564,34.661697139084644]],[[135.14285915573564,34.661697139084644],[135.14293788214462,34.661709099680536]],[[135.14293788214462,34.661709099680536],[135.14335338263652,34.66182870563943]],[[135.1440881624538,34.66103332601275],[135.14306909282627,34.660381473536745]],[[135.14306909282627,34.660381473536745],[135.14208501271386,34.65975354225252]],[[135.14036177909475,34.65227218952333],[135.14119715376796,34.65281041633838]],[[135.1418750756232,34.652080819989095],[135.14105282201814,34.651548573471985]],[[135.14105282201814,34.651548573471985],[135.14036177909475,34.65227218952333]],[[135.146375602004,34.674919577841024],[135.14607381743622,34.67564319389237]],[[135.14669050764,34.67583456342661],[135.14697479745027,34.675098986779375]],[[135.14697479745027,34.675098986779375],[135.146375602004,34.674919577841024]],[[135.1502069539084,34.656195264975246],[135.14945905302295,34.656984664303984]],[[135.14945905302295,34.656984664303984],[135.15053498061255,34.65741524575603]],[[135.15053498061255,34.65741524575603],[135.15112105499063,34.65679927506769]],[[135.15112105499063,34.65679927506769],[135.1502069539084,34.656195264975246]],[[135.14845310446358,34.6644959185229],[135.14842248863786,34.66447797762906]],[[135.14842248863786,34.66447797762906],[135.14748214541933,34.663873967536624]],[[135.14748214541933,34.663873967536624],[135.1466074075416,34.664788953122205]],[[135.1466074075416,34.664788953122205],[135.1464936916175,34.66490257878316]],[[135.1464936916175,34.66490257878316],[135.14761335610098,34.66535110112903]],[[135.14761335610098,34.66535110112903],[135.1476483456161,34.66530923904342]],[[135.1464936916175,34.65376128371164],[135.1456583169443,34.653211096300694]],[[135.15103358120285,34.6704104331905],[135.15060495964275,34.67003965471791]],[[135.15060495964275,34.67003965471791],[135.1497477165226,34.66938780224191]],[[135.1497477165226,34.66938780224191],[135.14869803106936,34.67047023616995]],[[135.14869803106936,34.67047023616995],[135.14861930466034,34.67055396034118]],[[135.14861930466034,34.67055396034118],[135.1493978213715,34.67143904443704]],[[135.1493978213715,34.67143904443704],[135.15103358120285,34.6704104331905]],[[135.14504162674052,34.65531616117733],[135.14589449617128,34.655866348588276]],[[135.14589449617128,34.655866348588276],[135.14668613395062,34.65521449611227]],[[135.14589449617128,34.655866348588276],[135.146847960458,34.656482319276606]],[[135.14754775076017,34.6557766441191],[135.14668613395062,34.65521449611227]],[[135.1420631442669,34.667928609543324],[135.14184445979748,34.66793458984127]],[[135.14184445979748,34.66793458984127],[135.14258798699353,34.66831732890975]],[[135.14264921864498,34.651261519170625],[135.14184445979748,34.65074123324941]],[[135.14184445979748,34.65074123324941],[135.14105282201814,34.651548573471985]],[[135.14754775076017,34.6557766441191],[135.14832189378194,34.65496332359858]],[[135.14832189378194,34.65496332359858],[135.14747339804055,34.65440117559175]],[[135.14945905302295,34.656984664303984],[135.14875051534202,34.657738181845055]],[[135.14875051534202,34.657738181845055],[135.14966024273483,34.65833621163956]],[[135.14966024273483,34.65833621163956],[135.15053498061255,34.65741524575603]],[[135.14004687345877,34.66280349420447],[135.13945205170194,34.662791533608576]],[[135.13945205170194,34.662791533608576],[135.1384329820744,34.663724460088]],[[135.1384329820744,34.663724460088],[135.1397319678228,34.66478297282426],[135.13792563410533,34.66577570228313]],[[135.13792563410533,34.66577570228313],[135.13712962263662,34.66660696369748]],[[135.13712962263662,34.66660696369748],[135.13742703351502,34.667426264515946]],[[135.13742703351502,34.667426264515946],[135.14166513853255,34.66457366239619],[135.14177885445665,34.66310848939966]],[[135.14177885445665,34.66310848939966],[135.1416520174644,34.66274369122502]],[[135.1416520174644,34.66274369122502],[135.14004687345877,34.66280349420447]],[[135.14293788214462,34.661709099680536],[135.1416520174644,34.66274369122502]],[[135.14177885445665,34.66310848939966],[135.14312595078832,34.663820144855116]],[[135.14312595078832,34.663820144855116],[135.14316094030343,34.663814164557174]],[[135.14316094030343,34.663814164557174],[135.14463487362738,34.6626480064579]],[[135.1441712625522,34.67105032507062],[135.14452990508207,34.6699858320364]],[[135.14452990508207,34.6699858320364],[135.14458238935472,34.66990210786518]],[[135.14458238935472,34.66990210786518],[135.14274106612214,34.6694535855193]],[[135.14274106612214,34.6694535855193],[135.14255299747842,34.670069556207636]],[[135.14255299747842,34.670069556207636],[135.14260985544047,34.670858955536374]],[[135.14260985544047,34.670858955536374],[135.1441712625522,34.67105032507062]],[[135.1492884791368,34.6555912548828],[135.1485230834938,34.65641055570127]],[[135.1485230834938,34.65641055570127],[135.14945905302295,34.656984664303984]],[[135.1502069539084,34.656195264975246],[135.1492884791368,34.6555912548828]],[[135.147455903283,34.67402253314928],[135.1478714037749,34.67324509441643]],[[135.1478714037749,34.67324509441643],[135.1471847345409,34.673041764286296]],[[135.1471847345409,34.673041764286296],[135.14685670783678,34.67383714391298]],[[135.14861930466034,34.67055396034118],[135.14812507775946,34.6711818916254]],[[135.14915289476576,34.67176796082401],[135.1493978213715,34.67143904443704]],[[135.1492884791368,34.6555912548828],[135.14832189378194,34.65496332359858]],[[135.15692931449863,34.661924390406554],[135.15587962904536,34.663012804632544]],[[135.15587962904536,34.663012804632544],[135.15584463953024,34.66308456820788]],[[135.15584463953024,34.66308456820788],[135.15706489886966,34.663724460088]],[[135.15706489886966,34.663724460088],[135.1578127997551,34.66411317945442]],[[135.1578127997551,34.66411317945442],[135.15874439559488,34.66459160329002]],[[135.15874439559488,34.66459160329002],[135.1595272859954,34.66504610593384]],[[135.1595272859954,34.66504610593384],[135.15960601240442,34.663192213570895]],[[135.14228620242574,34.653510111197946],[135.1432440404018,34.65415000307806]],[[135.14782329319164,34.65713417175261],[135.14875051534202,34.657738181845055]],[[135.13764134429508,34.69077932799115],[135.13691093816718,34.69207107234727]],[[135.13742703351502,34.667426264515946],[135.13693280661414,34.6681379199714]],[[135.13693280661414,34.6681379199714],[135.1375145073028,34.66837115159126]],[[135.1375145073028,34.66837115159126],[135.14002063132244,34.66711528902281]],[[135.1411446694953,34.66693588008446],[135.14152518047212,34.66654716071803]],[[135.14152518047212,34.66654716071803],[135.14312595078832,34.663820144855116]],[[135.1567849827488,34.66687009680706],[135.15580527632576,34.666218244331056]],[[135.1550223859252,34.66703156485158],[135.15600209234825,34.667641555241964]],[[135.14272357136457,34.66941172343368],[135.14274106612214,34.6694535855193]],[[135.14458238935472,34.66990210786518],[135.14564956956553,34.668347230399476]],[[135.1476439719267,34.66816184116318],[135.14670362870817,34.66752792958101]],[[135.14670362870817,34.66752792958101],[135.14639747045098,34.66773125971114]],[[135.14452990508207,34.6699858320364],[135.14613067539827,34.67015926067681]],[[135.14613067539827,34.67015926067681],[135.14624001763298,34.66988416697134]],[[135.14624001763298,34.66988416697134],[135.1476439719267,34.66816184116318]],[[135.14766146668427,34.67205501512537],[135.1471847345409,34.673041764286296]],[[135.1478714037749,34.67324509441643],[135.1486761626224,34.672294227043174]],[[135.14660303385224,34.67439929191981],[135.146375602004,34.674919577841024]],[[135.14697479745027,34.675098986779375],[135.1471891082303,34.67456674026227]],[[135.15489554893293,34.66561423423862],[135.15381087396457,34.665243455766024]],[[135.15381087396457,34.665243455766024],[135.15323792065468,34.665829524964636]],[[135.15323792065468,34.665829524964636],[135.15321167851835,34.66585344615641]],[[135.15321167851835,34.66585344615641],[135.15408641639604,34.66646941684475]],[[135.14748214541933,34.663873967536624],[135.1465418022008,34.663240055954454]],[[135.14613504908766,34.6636586768106],[135.1462706334587,34.66457366239619]],[[135.1462706334587,34.66457366239619],[135.1466074075416,34.664788953122205]],[[135.14090411657895,34.650125262561076],[135.13992003646652,34.649491350978906]],[[135.13992003646652,34.649491350978906],[135.13914589344475,34.65030467149943]],[[135.14014746831472,34.65095054367749],[135.14090411657895,34.650125262561076]],[[135.14368578303007,34.647039428821465],[135.14247864475882,34.64668061094476]],[[135.14247864475882,34.64668061094476],[135.14190131775953,34.64741618759199]],[[135.14190131775953,34.64741618759199],[135.14162140163867,34.64775108427692]],[[135.14262297650865,34.648396956454974],[135.14312595078832,34.64787667053376]],[[135.14312595078832,34.64787667053376],[135.14368578303007,34.647039428821465]],[[135.1536053105633,34.654993225088305],[135.15346535250288,34.65536998385884]],[[135.15346535250288,34.65536998385884],[135.15319855745017,34.6560696787184]],[[135.15319855745017,34.6560696787184],[135.1552498177734,34.656655747917014]],[[135.1552498177734,34.656655747917014],[135.15566531826533,34.655639097266366]],[[135.15566531826533,34.655639097266366],[135.1536053105633,34.654993225088305]],[[135.15648757187037,34.65364765805068],[135.15458501698635,34.65324099779042]],[[135.15458501698635,34.65324099779042],[135.15420013232014,34.65394667294793]],[[135.15420013232014,34.65394667294793],[135.15608081875723,34.65462244661571]],[[135.15608081875723,34.65462244661571],[135.15648757187037,34.65364765805068]],[[135.14184445979748,34.66793458984127],[135.14145957513128,34.66767743702964]],[[135.14145957513128,34.66767743702964],[135.14032241589027,34.66883761483096]],[[135.14032241589027,34.66883761483096],[135.13967948355014,34.66975858071449]],[[135.13967948355014,34.66975858071449],[135.14255299747842,34.670069556207636]],[[135.1507449177032,34.66041735532441],[135.14976521128017,34.659861187615526]],[[135.14976521128017,34.659861187615526],[135.14839624650153,34.66127253793055]],[[135.14839624650153,34.66127253793055],[135.14937157923518,34.66190046921477]],[[135.1486455467967,34.662665947351734],[135.14748214541933,34.663873967536624]],[[135.14842248863786,34.66447797762906],[135.14959463739402,34.66327593774212]],[[135.14959463739402,34.66327593774212],[135.1486455467967,34.662665947351734]],[[135.1527699358901,34.65706838847522],[135.1526168567615,34.65741524575603]],[[135.1526168567615,34.65741524575603],[135.15228445636797,34.65806111793409]],[[135.15228445636797,34.65806111793409],[135.15363155269964,34.65857542355736]],[[135.15363155269964,34.65857542355736],[135.15434883775936,34.65891630054022]],[[135.15434883775936,34.65891630054022],[135.1544100694108,34.65868306892037]],[[135.1544100694108,34.65868306892037],[135.15482994359212,34.65766641826972]],[[135.15482994359212,34.65766641826972],[135.1527699358901,34.65706838847522]],[[135.1486761626224,34.672294227043174],[135.15023756973412,34.67326303531026]],[[135.15023756973412,34.67326303531026],[135.15239379860267,34.67148090652265]],[[135.15239379860267,34.67148090652265],[135.15235880908756,34.67145698533087]],[[135.15235880908756,34.67145698533087],[135.15128725518738,34.67061376332063]],[[135.15128725518738,34.67061376332063],[135.15103358120285,34.6704104331905]],[[135.14677798142776,34.65824052687243],[135.14575891180024,34.65765445767383]],[[135.14575891180024,34.65765445767383],[135.14465236838493,34.658826596071044]],[[135.14465236838493,34.658826596071044],[135.14559708529285,34.659460507653215]],[[135.14559708529285,34.659460507653215],[135.14677798142776,34.65824052687243]],[[135.1468873236625,34.68222152163187],[135.14655929695834,34.683339837347575]],[[135.14655929695834,34.683339837347575],[135.1481469462064,34.68366875373455]],[[135.1481469462064,34.68366875373455],[135.14889047340245,34.68327405407018]],[[135.14889047340245,34.68327405407018],[135.14793263542634,34.68234710788871]],[[135.14793263542634,34.68234710788871],[135.1468873236625,34.68222152163187]],[[135.14568893277,34.67655219918001],[135.1449716477103,34.6759661299814]],[[135.1449716477103,34.6759661299814],[135.14476171061966,34.676354849347824]],[[135.14476171061966,34.676354849347824],[135.1450153846042,34.67718013046424]],[[135.1450153846042,34.67718013046424],[135.1463887230722,34.67765257400189]],[[135.1463887230722,34.67765257400189],[135.14605632267867,34.67706650480328]],[[135.1472240977454,34.652995805574676],[135.1464936916175,34.65376128371164]],[[135.14747339804055,34.65440117559175],[135.14819943047905,34.653629717156846]],[[135.14819943047905,34.653629717156846],[135.1472240977454,34.652995805574676]],[[135.15721360430888,34.65191337164663],[135.1575897415963,34.65014320345492]],[[135.1575897415963,34.65014320345492],[135.15752413625546,34.65014320345492]],[[135.15752413625546,34.65014320345492],[135.15478183300883,34.650191045838476]],[[135.15478183300883,34.650191045838476],[135.15458501698635,34.65324099779042]],[[135.15648757187037,34.65364765805068],[135.15695118294556,34.652529342334965]],[[135.15695118294556,34.652529342334965],[135.15721360430888,34.65191337164663]],[[135.13819242915804,34.6496887008111],[135.1373264386591,34.64912057250632]],[[135.1373264386591,34.64912057250632],[135.13663102204632,34.64985016885561]],[[135.13663102204632,34.64985016885561],[135.13750138623465,34.650412316862436]],[[135.13750138623465,34.650412316862436],[135.13819242915804,34.6496887008111]],[[135.147455903283,34.67402253314928],[135.1478407879492,34.67414213910818]],[[135.1478407879492,34.67414213910818],[135.1496340005985,34.674644484135555]],[[135.1496340005985,34.674644484135555],[135.15023756973412,34.67326303531026]],[[135.14777080891898,34.6587548324957],[135.14677798142776,34.65824052687243]],[[135.14559708529285,34.659460507653215],[135.1465374285114,34.66006451774566]],[[135.1465374285114,34.66006451774566],[135.14777080891898,34.6587548324957]],[[135.15434883775936,34.65891630054022],[135.15385023716908,34.66047117800592]],[[135.15385023716908,34.66047117800592],[135.1569730513925,34.66188252832094]],[[135.1578127997551,34.66105126690658],[135.15434883775936,34.65891630054022]],[[135.15776468917184,34.67290421743356],[135.15700366721822,34.672354030022625]],[[135.15700366721822,34.672354030022625],[135.15618141361318,34.67318529143698]],[[135.15618141361318,34.67318529143698],[135.15694243556678,34.67374743944381]],[[135.15694243556678,34.67374743944381],[135.15776468917184,34.67290421743356]],[[135.1478407879492,34.67414213910818],[135.14751713493445,34.6760857359403]],[[135.14751713493445,34.6760857359403],[135.14824754106232,34.676875135269036]],[[135.14824754106232,34.676875135269036],[135.14890796816,34.67651033709439]],[[135.14890796816,34.67651033709439],[135.14960338477277,34.676007992067014]],[[135.14960338477277,34.676007992067014],[135.1496340005985,34.674644484135555]],[[135.15420013232014,34.65394667294793],[135.15388960037356,34.65442509678353]],[[135.15388960037356,34.65442509678353],[135.1536053105633,34.654993225088305]],[[135.15566531826533,34.655639097266366],[135.15608081875723,34.65462244661571]],[[135.14065481628379,34.64871989254401],[135.13992003646652,34.649491350978906]],[[135.14090411657895,34.650125262561076],[135.1416082805705,34.64934782382823]],[[135.1576640943159,34.6501551640508],[135.1575897415963,34.65014320345492]],[[135.15721360430888,34.65191337164663],[135.15824579500458,34.65215258356443]],[[135.15824579500458,34.65215258356443],[135.15920800667004,34.652188465352104]],[[135.15920800667004,34.652188465352104],[135.1576640943159,34.6501551640508]],[[135.15049124371865,34.66515973159479],[135.15123039722533,34.66440023375578]],[[135.15123039722533,34.66440023375578],[135.15049999109743,34.66388592813251]],[[135.15049999109743,34.66388592813251],[135.149752090212,34.66471718954686]],[[135.14002500501184,34.68499637987834],[135.13912402499778,34.68496647838862]],[[135.13912402499778,34.68496647838862],[135.13782941293877,34.68740045965223]],[[135.13782941293877,34.68740045965223],[135.13787314983267,34.68766957305975]],[[135.13787314983267,34.68766957305975],[135.13914589344475,34.687538006504965]],[[135.13914589344475,34.687538006504965],[135.13979319947424,34.68680242985773]],[[135.13979319947424,34.68680242985773],[135.1403486580266,34.686389789299525]],[[135.1403486580266,34.686389789299525],[135.14002500501184,34.68499637987834]],[[135.14721097667723,34.688052312128235],[135.14605194898928,34.68789084408372]],[[135.14605194898928,34.68789084408372],[135.14388697274194,34.68589342457009]],[[135.14388697274194,34.68589342457009],[135.14146832251006,34.68789682438166]],[[135.14146832251006,34.68789682438166],[135.14024368948128,34.688907494734366]],[[135.14024368948128,34.688907494734366],[135.13992003646652,34.69027698296377]],[[135.14103970095,34.691993328473984],[135.1427935503948,34.689762677340504],[135.14445117867305,34.68991218478913],[135.14721097667723,34.688052312128235]],[[135.14976521128017,34.659861187615526],[135.14879862592528,34.65923923662925]],[[135.14879862592528,34.65923923662925],[135.14744278221482,34.66065058694427]],[[135.14744278221482,34.66065058694427],[135.14839624650153,34.66127253793055]],[[135.15060933333214,34.655561353393075],[135.1502069539084,34.656195264975246]],[[135.15112105499063,34.65679927506769],[135.15169400830052,34.656195264975246]],[[135.15169400830052,34.656195264975246],[135.15060933333214,34.655561353393075]],[[135.15323792065468,34.665829524964636],[135.15237193015574,34.66522551487219]],[[135.15237193015574,34.66522551487219],[135.15080177566526,34.666798333231725]],[[135.15080177566526,34.666798333231725],[135.15091549158936,34.66734852064266]],[[135.15091549158936,34.66734852064266],[135.15155405024007,34.66754587047485]],[[135.15155405024007,34.66754587047485],[135.15321167851835,34.66585344615641]],[[135.14154267522966,34.654311471122575],[135.1408078954124,34.65508890985542]],[[135.1408078954124,34.65508890985542],[135.14166513853255,34.65558527458486]],[[135.14166513853255,34.65558527458486],[135.14180947028237,34.65566899875609]],[[135.14180947028237,34.65566899875609],[135.14249613951637,34.65492146151296]],[[135.14249613951637,34.65492146151296],[135.14154267522966,34.654311471122575]],[[135.14754775076017,34.66666078637899],[135.14670362870817,34.66752792958101]],[[135.1476439719267,34.66816184116318],[135.14789327222186,34.6680183140125]],[[135.14789327222186,34.6680183140125],[135.14821255154723,34.66715117081048]],[[135.14821255154723,34.66715117081048],[135.148221298926,34.66712126932075]],[[135.148221298926,34.66712126932075],[135.14754775076017,34.66666078637899]],[[135.13468473026842,34.66259418377639],[135.13394120307237,34.663353681615405]],[[135.13394120307237,34.663353681615405],[135.13451415638227,34.66373044038594]],[[135.13451415638227,34.66373044038594],[135.1345360248292,34.663748381279774]],[[135.1345360248292,34.663748381279774],[135.13542825746447,34.663078587909936]],[[135.13542825746447,34.663078587909936],[135.13468473026842,34.66259418377639]],[[135.15260810938273,34.669363881050124],[135.15182959267156,34.67006357590969]],[[135.15182959267156,34.67006357590969],[135.15294925715503,34.67084101464254]],[[135.15294925715503,34.67084101464254],[135.15364467376781,34.67008749710147]],[[135.15364467376781,34.67008749710147],[135.15260810938273,34.669363881050124]],[[135.1491703895233,34.64922223757139],[135.14731157153318,34.6514708295987]],[[135.14731157153318,34.6514708295987],[135.1481513198958,34.652015036711695]],[[135.1481513198958,34.652015036711695],[135.15006262215857,34.64959301604397]],[[135.15006262215857,34.64959301604397],[135.1491703895233,34.64922223757139]],[[135.13489466735905,34.64996977481451],[135.13532766260852,34.65118975559529]],[[135.13532766260852,34.65118975559529],[135.13587874747148,34.65060966669462]],[[135.13587874747148,34.65060966669462],[135.13489466735905,34.64996977481451]],[[135.1526168567615,34.65741524575603],[135.15112105499063,34.65679927506769]],[[135.15053498061255,34.65741524575603],[135.15228445636797,34.65806111793409]],[[135.1447048526576,34.647380305804326],[135.14418438362037,34.64831921258169]],[[135.14418438362037,34.64831921258169],[135.14353707759085,34.64900096654742]],[[135.14353707759085,34.64900096654742],[135.14431122061262,34.6495033115748]],[[135.14431122061262,34.6495033115748],[135.14596010151212,34.64787667053376]],[[135.14596010151212,34.64787667053376],[135.1447048526576,34.647380305804326]],[[135.1527699358901,34.65706838847522],[135.1529186413293,34.6567334917903]],[[135.1529186413293,34.6567334917903],[135.15169400830052,34.656195264975246]],[[135.14812507775946,34.6711818916254],[135.1469966658972,34.67041641348845]],[[135.1469966658972,34.67041641348845],[135.14660303385224,34.671086206858284]],[[135.14660303385224,34.671086206858284],[135.14639309676159,34.67197727125209]],[[135.14639309676159,34.67197727125209],[135.14776643522958,34.671779921419905]],[[135.15584463953024,34.66308456820788],[135.15469435922105,34.66422082481743]],[[135.15469435922105,34.66422082481743],[135.15563907612898,34.664848756101655]],[[135.15563907612898,34.664848756101655],[135.15706489886966,34.663724460088]],[[135.14960338477277,34.676007992067014],[135.15057434381706,34.67530829720745]],[[135.15057434381706,34.67530829720745],[135.1505830911958,34.6753023169095]],[[135.1505830911958,34.6753023169095],[135.1496340005985,34.674644484135555]],[[135.1596847388134,34.65291806170139],[135.1592648646321,34.652864239019884]],[[135.1592648646321,34.652864239019884],[135.1580446052927,34.65287021931783]],[[135.1580446052927,34.65287021931783],[135.15768158907343,34.65395863354382]],[[135.15768158907343,34.65395863354382],[135.15845135840584,34.65419784546162]],[[135.15845135840584,34.65419784546162],[135.15969785988156,34.654305490824626]],[[135.15969785988156,34.654305490824626],[135.1596847388134,34.65291806170139]],[[135.15824579500458,34.65215258356443],[135.1580446052927,34.65287021931783]],[[135.1592648646321,34.652864239019884],[135.15920800667004,34.652188465352104]],[[135.1458551329668,34.66556041155711],[135.14528217965687,34.665183652786574]],[[135.14528217965687,34.665183652786574],[135.14465674207432,34.66535708142698]],[[135.14465674207432,34.66535708142698],[135.14433308905956,34.6656919781119]],[[135.14433308905956,34.6656919781119],[135.14503287936174,34.66630196850229]],[[135.14503287936174,34.66630196850229],[135.1458551329668,34.66556041155711]],[[135.15726608858154,34.65496332359858],[135.15681559857452,34.655973993951285]],[[135.15681559857452,34.655973993951285],[135.15878813248875,34.65652418136222]],[[135.15878813248875,34.65652418136222],[135.15842948995888,34.6552982202835]],[[135.15842948995888,34.6552982202835],[135.15726608858154,34.65496332359858]],[[135.13912402499778,34.68496647838862],[135.1351046044497,34.686383809001576]],[[135.1351046044497,34.686383809001576],[135.13513522027543,34.68640174989542]],[[135.13513522027543,34.68640174989542],[135.13782941293877,34.68740045965223]],[[135.1563957243932,34.66887349661864],[135.1554072705914,34.66822164414263]],[[135.1554072705914,34.66822164414263],[135.15453690640308,34.66913064943027]],[[135.15453690640308,34.66913064943027],[135.15459376436513,34.66916653121794]],[[135.15459376436513,34.66916653121794],[135.15552973389427,34.66975858071449]],[[135.15552973389427,34.66975858071449],[135.1563957243932,34.66887349661864]],[[135.13631174272095,34.68302886185444],[135.13575191047923,34.68298699976882]],[[135.13575191047923,34.68298699976882],[135.13448354055654,34.681683294816814]],[[135.13448354055654,34.681683294816814],[135.13269470159662,34.682490635039386]],[[135.13269470159662,34.682490635039386],[135.13328514966406,34.684033551909195]],[[135.13328514966406,34.684033551909195],[135.13631174272095,34.68302886185444]],[[135.14452115770328,34.651219657085015],[135.14377325681784,34.65199111551992]],[[135.14471797372576,34.65260708620825],[135.14545712723242,34.6518296474754]],[[135.14545712723242,34.6518296474754],[135.14452115770328,34.651219657085015]],[[135.1349908885256,34.669483487009025],[135.13175873206745,34.66970475803299]],[[135.13175873206745,34.66970475803299],[135.13141758429515,34.6723779512144]],[[135.13141758429515,34.6723779512144],[135.1350346254195,34.671492867118545]],[[135.1350346254195,34.671492867118545],[135.1349908885256,34.669483487009025]],[[135.13513522027543,34.68640174989542],[135.13452727745042,34.68699977968991]],[[135.13452727745042,34.68699977968991],[135.13539764163875,34.687717415443316]],[[135.13539764163875,34.687717415443316],[135.13634673223606,34.68760378978236]],[[135.13634673223606,34.68760378978236],[135.13787314983267,34.68766957305975]],[[135.1405017371552,34.65987314821142],[135.1396619887926,34.66080607469084]],[[135.1396619887926,34.66080607469084],[135.14047112132948,34.66139214388945]],[[135.14047112132948,34.66139214388945],[135.1413764750329,34.66045323711209]],[[135.1456583169443,34.653211096300694],[135.1463887230722,34.65245159846168]],[[135.1463887230722,34.65245159846168],[135.14545712723242,34.6518296474754]],[[135.13815306595353,34.64832519287963],[135.1373264386591,34.64912057250632]],[[135.13819242915804,34.6496887008111],[135.1389709458692,34.648875380290576]],[[135.1389709458692,34.648875380290576],[135.13815306595353,34.64832519287963]],[[135.13394120307237,34.663353681615405],[135.13276468062685,34.66466336686536]],[[135.13276468062685,34.66466336686536],[135.133228291702,34.66437033226605]],[[135.133228291702,34.66437033226605],[135.13451415638227,34.66373044038594]],[[135.15608081875723,34.65462244661571],[135.15726608858154,34.65496332359858]],[[135.15726608858154,34.65496332359858],[135.15764659955835,34.65403039711916]],[[135.15764659955835,34.65403039711916],[135.15648757187037,34.65364765805068]],[[135.15874439559488,34.66459160329002],[135.157541631013,34.66612255956394]],[[135.157541631013,34.66612255956394],[135.15847760054217,34.66674451055022]],[[135.15847760054217,34.66674451055022],[135.1595272859954,34.66504610593384]],[[135.1552498177734,34.656655747917014],[135.15637822963566,34.65697868400604]],[[135.15637822963566,34.65697868400604],[135.15681559857452,34.655973993951285]],[[135.15681559857452,34.655973993951285],[135.15566531826533,34.655639097266366]],[[135.1559496080756,34.65799533465669],[135.15553410758366,34.65900002471145]],[[135.15553410758366,34.65900002471145],[135.15870940607977,34.659920990594976]],[[135.15870940607977,34.659920990594976],[135.15874439559488,34.65879071428338]],[[135.15874439559488,34.65879071428338],[135.1559496080756,34.65799533465669]],[[135.14522969538422,34.67985930394359],[135.14491041605885,34.681408201111346]],[[135.14491041605885,34.681408201111346],[135.14533029024017,34.6815876100497]],[[135.14533029024017,34.6815876100497],[135.14724159250295,34.68012841735111]],[[135.14724159250295,34.68012841735111],[135.14723721881356,34.68012243705317]],[[135.14723721881356,34.68012243705317],[135.1470666449274,34.679793520666195]],[[135.1470666449274,34.679793520666195],[135.14668176026123,34.679512446662784]],[[135.14668176026123,34.679512446662784],[135.14522969538422,34.67985930394359]],[[135.14659428647346,34.683866103566736],[135.14897794719022,34.68568411414201]],[[135.14897794719022,34.68568411414201],[135.15065744391543,34.685127946433134],[135.1506661912942,34.683931886844135]],[[135.1506661912942,34.683931886844135],[135.14817318834272,34.683752477905784]],[[135.14817318834272,34.683752477905784],[135.14659428647346,34.683866103566736]],[[135.1396619887926,34.66080607469084],[135.13957888869422,34.66084195647851]],[[135.13957888869422,34.66084195647851],[135.13918088295986,34.66165527699903]],[[135.13918088295986,34.66165527699903],[135.1393208410203,34.661649296701086]],[[135.1393208410203,34.661649296701086],[135.140274305307,34.661637336105194]],[[135.140274305307,34.661637336105194],[135.14047112132948,34.66139214388945]],[[135.14983956399976,34.65192533224252],[135.14913102631883,34.65266090888976]],[[135.14913102631883,34.65266090888976],[135.1499751483708,34.653217076598644]],[[135.1499751483708,34.653217076598644],[135.15069243343052,34.652481499951406]],[[135.15069243343052,34.652481499951406],[135.14983956399976,34.65192533224252]],[[135.1356731840702,34.66864026499878],[135.1349908885256,34.669483487009025]],[[135.1350346254195,34.671492867118545],[135.13635985330424,34.67279657207055]],[[135.13746639671953,34.67176796082401],[135.13819242915804,34.67101444328294]],[[135.13819242915804,34.67101444328294],[135.13638609544057,34.6695731914782]],[[135.13638609544057,34.6695731914782],[135.1356731840702,34.66864026499878]],[[135.14522969538422,34.675398001676626],[135.1449716477103,34.6759661299814]],[[135.14607381743622,34.67564319389237],[135.14522969538422,34.675398001676626]],[[135.13692405923535,34.662785553310634],[135.13542825746447,34.663078587909936]],[[135.1345360248292,34.663748381279774],[135.13517895716933,34.66412514005031]],[[135.13517895716933,34.66412514005031],[135.13644732709201,34.66498630295439]],[[135.13644732709201,34.66498630295439],[135.13712962263662,34.66405337647497]],[[135.13712962263662,34.66405337647497],[135.1380174815825,34.66279751390652]],[[135.1380174815825,34.66279751390652],[135.13692405923535,34.662785553310634]],[[135.1384329820744,34.663724460088],[135.13833676090786,34.66463346537564]],[[135.13833676090786,34.66463346537564],[135.13792563410533,34.66577570228313]],[[135.1441712625522,34.67105032507062],[135.14561020636103,34.6713014975843]],[[135.14561020636103,34.6713014975843],[135.1460475752999,34.67087689643021]],[[135.1460475752999,34.67087689643021],[135.14613067539827,34.67015926067681]],[[135.1531548205563,34.65310943123563],[135.15201766131526,34.65273865276304]],[[135.15201766131526,34.65273865276304],[135.1516633924748,34.65310943123563]],[[135.1516633924748,34.65310943123563],[135.1525731198676,34.65370746103013]],[[135.1525731198676,34.65370746103013],[135.1531548205563,34.65310943123563]],[[135.15023756973412,34.67326303531026],[135.15201328762586,34.67427370566297]],[[135.15201328762586,34.67427370566297],[135.15396395309318,34.672682946409594]],[[135.15396395309318,34.672682946409594],[135.153264162791,34.67214471959455]],[[135.153264162791,34.67214471959455],[135.15239379860267,34.67148090652265]],[[135.13180246896135,34.68234710788871],[135.1308971152579,34.683692674926334]],[[135.1308971152579,34.683692674926334],[135.13328514966406,34.684033551909195]],[[135.13269470159662,34.682490635039386],[135.13180246896135,34.68234710788871]],[[135.1516633924748,34.65310943123563],[135.15095485479384,34.6538629487767]],[[135.15095485479384,34.6538629487767],[135.15186458218668,34.65444901797531]],[[135.15186458218668,34.65444901797531],[135.1525731198676,34.65370746103013]],[[135.1370990068109,34.6476434389139],[135.13639484281933,34.64858234569127]],[[135.13639484281933,34.64858234569127],[135.1373264386591,34.64912057250632]],[[135.13815306595353,34.64832519287963],[135.13803935002943,34.64824744900635]],[[135.13803935002943,34.64824744900635],[135.1370990068109,34.6476434389139]],[[135.13341636034573,34.684613640809864],[135.13314956529302,34.68601303052899]],[[135.134072413754,34.687352617268665],[135.13452727745042,34.68699977968991]],[[135.1351046044497,34.686383809001576],[135.13509148338156,34.68637184840569]],[[135.13509148338156,34.68637184840569],[135.13341636034573,34.684613640809864]],[[135.15186458218668,34.65444901797531],[135.15279180433703,34.655047047769806]],[[135.15279180433703,34.655047047769806],[135.15346535250288,34.65536998385884]],[[135.15388960037356,34.65442509678353],[135.1525731198676,34.65370746103013]],[[135.1505830911958,34.6753023169095],[135.15201328762586,34.67427370566297]],[[135.1441712625522,34.67105032507062],[135.14263172388743,34.67276667058083]],[[135.14263172388743,34.67276667058083],[135.14463487362738,34.673197252032864]],[[135.14463487362738,34.673197252032864],[135.14493665819518,34.67282647356028]],[[135.14493665819518,34.67282647356028],[135.14561020636103,34.6713014975843]],[[135.14533029024017,34.6815876100497],[135.1468873236625,34.68222152163187]],[[135.14793263542634,34.68234710788871],[135.14819505678966,34.68096565906342]],[[135.14819505678966,34.68096565906342],[135.14724159250295,34.68012841735111]],[[135.14584201189862,34.678292465882],[135.14453427877143,34.67821472200872]],[[135.14453427877143,34.67821472200872],[135.14315656661404,34.67953636785456]],[[135.14315656661404,34.67953636785456],[135.14522969538422,34.67985930394359]],[[135.14522969538422,34.67985930394359],[135.14578515393657,34.67860942167309]],[[135.14578515393657,34.67860942167309],[135.14584201189862,34.678292465882]],[[135.13861667702872,34.66017814340661],[135.13957888869422,34.66084195647851]],[[135.1395395254897,34.65923923662925],[135.13861667702872,34.66017814340661]],[[135.1445124103245,34.682777689340746],[135.14423686789303,34.68407541399481]],[[135.14423686789303,34.68407541399481],[135.1447748316878,34.68476912855643]],[[135.1447748316878,34.68476912855643],[135.14553585364143,34.68472128617287]],[[135.14553585364143,34.68472128617287],[135.14563644849736,34.6846315817037]],[[135.14563644849736,34.6846315817037],[135.14659428647346,34.683866103566736]],[[135.14817318834272,34.683752477905784],[135.1481469462064,34.68366875373455]],[[135.14655929695834,34.683339837347575],[135.1445124103245,34.682777689340746]],[[135.1439307096358,34.67560133180675],[135.14365079351495,34.675433883464294]],[[135.14365079351495,34.675433883464294],[135.14327465622753,34.67723395314574],[135.1399244101559,34.67525447452594]],[[135.14170450173705,34.6796081314299],[135.14287665049318,34.679805481262086]],[[135.14287665049318,34.679805481262086],[135.14315656661404,34.67953636785456]],[[135.14453427877143,34.67821472200872],[135.1450153846042,34.67718013046424]],[[135.14476171061966,34.676354849347824],[135.1439307096358,34.67560133180675]],[[135.15176836102012,34.66877781185151],[135.1509286126575,34.66819174265291]],[[135.1509286126575,34.66819174265291],[135.15017196439328,34.66893329959809]],[[135.15017196439328,34.66893329959809],[135.15106419702855,34.66953730969053]],[[135.15106419702855,34.66953730969053],[135.15176836102012,34.66877781185151]],[[135.14089974288956,34.661631355807245],[135.14004687345877,34.66280349420447]],[[135.14285915573564,34.661697139084644],[135.14089974288956,34.661631355807245]],[[135.12572741440064,34.68768751395359],[135.1265846575208,34.69035472683706],[135.12933133445682,34.6922744024774]],[[135.12933133445682,34.6922744024774],[135.1314000895376,34.68991218478913]],[[135.1314000895376,34.68991218478913],[135.12924386066905,34.689015140097375]],[[135.15845135840584,34.65419784546162],[135.15842948995888,34.6552982202835]],[[135.15878813248875,34.65652418136222],[135.15876626404182,34.65766043797177]],[[135.15876626404182,34.65766043797177],[135.15874439559488,34.65879071428338]],[[135.15959726502564,34.660142261618944],[135.15969785988156,34.654305490824626]],[[135.15450191688797,34.66763557494402],[135.15447130106224,34.667599693156355]],[[135.15447130106224,34.667599693156355],[135.15308484152607,34.66750998868718]],[[135.15308484152607,34.66750998868718],[135.15255125142068,34.66792262924538]],[[135.15255125142068,34.66792262924538],[135.1534959683286,34.66854458023166]],[[135.1534959683286,34.66854458023166],[135.15450191688797,34.66763557494402]],[[135.15587962904536,34.663012804632544],[135.1546418749484,34.662444676327766]],[[135.1546418749484,34.662444676327766],[135.15377588444946,34.66361083442704]],[[135.15377588444946,34.66361083442704],[135.15469435922105,34.66422082481743]],[[135.14491041605885,34.681408201111346],[135.1446217525592,34.68158162975175]],[[135.1446217525592,34.68158162975175],[135.1445124103245,34.682777689340746]],[[135.15563907612898,34.664848756101655],[135.15489554893293,34.66561423423862]],[[135.15580527632576,34.666218244331056],[135.15654442983242,34.6654527661941]],[[135.15654442983242,34.6654527661941],[135.15563907612898,34.664848756101655]],[[135.13634673223606,34.68760378978236],[135.13592248436538,34.68910484456655]],[[135.13592248436538,34.68910484456655],[135.13868665605895,34.68910484456655]],[[135.13868665605895,34.68910484456655],[135.13914589344475,34.687538006504965]],[[135.14528217965687,34.665183652786574],[135.1462706334587,34.66457366239619]],[[135.14316094030343,34.663814164557174],[135.14465674207432,34.66535708142698]],[[135.14131086969206,34.683507285690034],[135.1410746904651,34.682538477422945]],[[135.1410746904651,34.682538477422945],[135.13996814704979,34.68286739380992]],[[135.13996814704979,34.68286739380992],[135.13952640442153,34.68430266531672],[135.14135023289657,34.68389002475852]],[[135.14135023289657,34.68389002475852],[135.14131086969206,34.683507285690034]],[[135.15552973389427,34.66975858071449],[135.15454565378184,34.67070944808775]],[[135.15454565378184,34.67070944808775],[135.15591899224987,34.67163639426922]],[[135.15591899224987,34.67163639426922],[135.15593211331802,34.67164835486511]],[[135.15593211331802,34.67164835486511],[135.15692056711984,34.67060778302268]],[[135.15692056711984,34.67060778302268],[135.15552973389427,34.66975858071449]],[[135.1386341717863,34.65864718713269],[135.13771569701467,34.65956217271828]],[[135.13771569701467,34.65956217271828],[135.13861667702872,34.66017814340661]],[[135.15201766131526,34.65273865276304],[135.15102920751346,34.65214062296854]],[[135.15102920751346,34.65214062296854],[135.15069243343052,34.652481499951406]],[[135.15069243343052,34.652481499951406],[135.1516633924748,34.65310943123563]],[[135.14890796816,34.67651033709439],[135.1509767232408,34.677210031953955]],[[135.1509767232408,34.677210031953955],[135.15172462412625,34.67631896756016]],[[135.15172462412625,34.67631896756016],[135.15057434381706,34.67530829720745]],[[135.1497958271059,34.67833432796762],[135.14723721881356,34.68012243705317]],[[135.14819505678966,34.68096565906342],[135.1505131121656,34.6792493135532]],[[135.1505131121656,34.6792493135532],[135.1497958271059,34.67833432796762]],[[135.14287665049318,34.679805481262086],[135.1429116400083,34.68142614200518]],[[135.1429116400083,34.68142614200518],[135.1446217525592,34.68158162975175]],[[135.14589449617128,34.655866348588276],[135.14465236838493,34.657104270262884]],[[135.14465236838493,34.657104270262884],[135.1457764065578,34.657630536482046]],[[135.1457764065578,34.657630536482046],[135.146847960458,34.656482319276606]],[[135.15363155269964,34.65857542355736],[135.15301486249587,34.66016020251278],[135.15168526092174,34.65970569986896]],[[135.15168526092174,34.65970569986896],[135.15136598159637,34.66075823230728]],[[135.15136598159637,34.66075823230728],[135.15350471570738,34.661864587427104]],[[135.15350471570738,34.661864587427104],[135.1535353315331,34.66188252832094]],[[135.1535353315331,34.66188252832094],[135.15385023716908,34.66047117800592]],[[135.14892546291756,34.66807811699195],[135.14891234184938,34.66811997907757]],[[135.14891234184938,34.66811997907757],[135.14901731039473,34.668574481721386]],[[135.14901731039473,34.668574481721386],[135.14973896914384,34.66938182194396]],[[135.14973896914384,34.66938182194396],[135.15017196439328,34.66893329959809]],[[135.15017196439328,34.66893329959809],[135.14892546291756,34.66807811699195]],[[135.13799998682495,34.66167321789286],[135.137212722735,34.66161939521136]],[[135.137212722735,34.66161939521136],[135.13599683708497,34.66128449852644]],[[135.13599683708497,34.66128449852644],[135.13548511542652,34.661810764745596]],[[135.13548511542652,34.661810764745596],[135.1368322117582,34.662719770033235]],[[135.1368322117582,34.662719770033235],[135.13799998682495,34.66167321789286]],[[135.15469435922105,34.66422082481743],[135.15381087396457,34.665243455766024]],[[135.15377588444946,34.66361083442704],[135.15281804647339,34.66315035148528]],[[135.15281804647339,34.66315035148528],[135.15176398733072,34.664561701800295]],[[135.15176398733072,34.664561701800295],[135.1525425040419,34.665028165040006]],[[135.1525425040419,34.665028165040006],[135.15377588444946,34.66361083442704]],[[135.1546418749484,34.662444676327766],[135.1535353315331,34.66188252832094]],[[135.15350471570738,34.661864587427104],[135.15281804647339,34.66315035148528]],[[135.14463487362738,34.673197252032864],[135.14488417392252,34.673890966594485]],[[135.14488417392252,34.673890966594485],[135.14576328548964,34.67414811940612]],[[135.14576328548964,34.67414811940612],[135.14600821209538,34.67359793199518]],[[135.14600821209538,34.67359793199518],[135.14463487362738,34.673197252032864]],[[135.14660303385224,34.671086206858284],[135.1460475752999,34.67087689643021]],[[135.14493665819518,34.67282647356028],[135.14606507005743,34.67267098581371]],[[135.14606507005743,34.67267098581371],[135.14639309676159,34.67197727125209]],[[135.14089974288956,34.661631355807245],[135.140274305307,34.661637336105194]],[[135.140274305307,34.661637336105194],[135.1394389306338,34.662791533608576]],[[135.1394389306338,34.662791533608576],[135.13945205170194,34.662791533608576]],[[135.14488417392252,34.673890966594485],[135.14465236838493,34.674417232813646]],[[135.14465236838493,34.674417232813646],[135.14553585364143,34.67466242502939]],[[135.14553585364143,34.67466242502939],[135.14576328548964,34.67414811940612]],[[135.1368322117582,34.662719770033235],[135.13692405923535,34.662785553310634]],[[135.1380174815825,34.66279751390652],[135.1385160821728,34.662725750331184]],[[135.1385160821728,34.662725750331184],[135.1393208410203,34.661649296701086]],[[135.13918088295986,34.66165527699903],[135.13799998682495,34.66167321789286]],[[135.1492884791368,34.649030868037144],[135.148221298926,34.648588325989216]],[[135.148221298926,34.648588325989216],[135.1463843493828,34.65086083920831]],[[135.1463843493828,34.65086083920831],[135.14731157153318,34.6514708295987]],[[135.1491703895233,34.64922223757139],[135.1492884791368,34.649030868037144]],[[135.1509767232408,34.677210031953955],[135.1497958271059,34.67833432796762]],[[135.1505131121656,34.6792493135532],[135.1510423285816,34.67982940245387]],[[135.1510423285816,34.67982940245387],[135.15167213985356,34.679853323645645]],[[135.1525818672464,34.678992160741565],[135.1509767232408,34.677210031953955]],[[135.1419931652367,34.65839003432106],[135.14101783250305,34.65779200452656]],[[135.14101783250305,34.65779200452656],[135.1402305684131,34.65856944325941]],[[135.1411884063892,34.659185413947746],[135.1419931652367,34.65839003432106]],[[135.14761335610098,34.66535110112903],[135.14680859725348,34.66618834284133]],[[135.14680859725348,34.66618834284133],[135.14754775076017,34.66666078637899]],[[135.14754775076017,34.66666078637899],[135.1483656306758,34.66578766287902]],[[135.14036177909475,34.65227218952333],[135.13963137296687,34.653049628256184]],[[135.13963137296687,34.653049628256184],[135.14048424239763,34.65360579596506]],[[135.14048424239763,34.65360579596506],[135.14119715376796,34.65281041633838]],[[135.15182959267156,34.67006357590969],[135.15106419702855,34.66953730969053]],[[135.15106419702855,34.66953730969053],[135.15060495964275,34.67003965471791]],[[135.15128725518738,34.67061376332063],[135.15182959267156,34.67006357590969]],[[135.13867790868017,34.6524276772699],[135.13960075714115,34.65303168736234]],[[135.13960075714115,34.65303168736234],[135.13963137296687,34.653049628256184]],[[135.14036177909475,34.65227218952333],[135.1394258095656,34.651668179430885]],[[135.148221298926,34.66712126932075],[135.1486761626224,34.66600295360504]],[[135.14289414525072,34.65892826113611],[135.14208501271386,34.65975354225252]],[[135.14306909282627,34.660381473536745],[135.14390446749948,34.65956217271828]],[[135.14390446749948,34.65956217271828],[135.14289414525072,34.65892826113611]],[[135.14600821209538,34.67359793199518],[135.1461525438452,34.67273078879316]],[[135.1461525438452,34.67273078879316],[135.14606507005743,34.67267098581371]],[[135.13699841195495,34.68361493105305],[135.13631174272095,34.68302886185444]],[[135.13328514966406,34.684033551909195],[135.13341636034573,34.684613640809864]],[[135.13509148338156,34.68637184840569],[135.13699841195495,34.68361493105305]],[[135.15553410758366,34.65900002471145],[135.1544100694108,34.65868306892037]],[[135.15591899224987,34.67163639426922],[135.15514922291746,34.67243177389591]],[[135.15514922291746,34.67243177389591],[135.15618141361318,34.67318529143698]],[[135.15700366721822,34.672354030022625],[135.15593211331802,34.67164835486511]],[[135.14372077254518,34.65667966910879],[135.14266233971316,34.65614742259169]],[[135.14266233971316,34.65614742259169],[135.14101783250305,34.65779200452656]],[[135.1419931652367,34.65839003432106],[135.14372077254518,34.65667966910879]],[[135.14247864475882,34.64668061094476],[135.14040988967804,34.64690786226667]],[[135.14040988967804,34.64690786226667],[135.14077290589728,34.64701550762968]],[[135.14077290589728,34.64701550762968],[135.14190131775953,34.64741618759199]],[[135.14260985544047,34.670858955536374],[135.14170887542645,34.67105630536856]],[[135.14170887542645,34.67105630536856],[135.14152518047212,34.67243775419385]],[[135.14152518047212,34.67243775419385],[135.14180072290358,34.6725633404507]],[[135.14180072290358,34.6725633404507],[135.14260548175108,34.672862355347945]],[[135.14260548175108,34.672862355347945],[135.14263172388743,34.67276667058083]],[[135.15046062789293,34.66236693245448],[135.14959463739402,34.66327593774212]],[[135.14959463739402,34.66327593774212],[135.15049999109743,34.66388592813251]],[[135.15123039722533,34.66440023375578],[135.15126101305106,34.66259418377639]],[[135.1375145073028,34.66837115159126],[135.14032241589027,34.66883761483096]],[[135.14145957513128,34.66767743702964],[135.14124526435126,34.66750998868718]],[[135.15459376436513,34.66916653121794],[135.15367966328293,34.67011141829325]],[[135.15367966328293,34.67011141829325],[135.15454565378184,34.67070944808775]],[[135.14913102631883,34.65266090888976],[135.14819943047905,34.653629717156846]],[[135.14819943047905,34.653629717156846],[135.1490522999098,34.65418588486573]],[[135.1490522999098,34.65418588486573],[135.1499751483708,34.653217076598644]],[[135.14769645619938,34.66202007517367],[135.1467211234657,34.66139214388945]],[[135.1467211234657,34.66139214388945],[135.14594260675455,34.662223405303806]],[[135.1465418022008,34.663240055954454],[135.14769645619938,34.66202007517367]],[[135.14782329319164,34.65713417175261],[135.14677798142776,34.65824052687243]],[[135.14777080891898,34.6587548324957],[135.14875051534202,34.657738181845055]],[[135.15695118294556,34.652529342334965],[135.1580446052927,34.65287021931783]],[[135.1357212946535,34.64927606025289],[135.13489466735905,34.64996977481451]],[[135.13587874747148,34.65060966669462],[135.13663102204632,34.64985016885561]],[[135.13663102204632,34.64985016885561],[135.1357212946535,34.64927606025289]],[[135.14170887542645,34.67105630536856],[135.1398500574363,34.67099052209117]],[[135.1398500574363,34.67099052209117],[135.13960075714115,34.671666295758946]],[[135.13960075714115,34.671666295758946],[135.14152518047212,34.67243775419385]],[[135.14774894047204,34.67811305694365],[135.14666426550366,34.67838815064912]],[[135.14666426550366,34.67838815064912],[135.14666863919305,34.678424032436794]],[[135.14666863919305,34.678424032436794],[135.1470666449274,34.679793520666195]],[[135.1497958271059,34.67833432796762],[135.14774894047204,34.67811305694365]],[[135.13861667702872,34.66017814340661],[135.137212722735,34.66161939521136]],[[135.1463887230722,34.67765257400189],[135.14666426550366,34.67838815064912]],[[135.14774894047204,34.67811305694365],[135.14824754106232,34.676875135269036]],[[135.14751713493445,34.6760857359403],[135.14669050764,34.67583456342661]],[[135.1500232589541,34.654819796447896],[135.1492884791368,34.6555912548828]],[[135.15060933333214,34.655561353393075],[135.1508148967334,34.655340082369115]],[[135.1508148967334,34.655340082369115],[135.1500232589541,34.654819796447896]],[[135.1636298066419,34.64941360710562],[135.15783904189144,34.64855842449949]],[[135.15783904189144,34.64855842449949],[135.1575897415963,34.65014320345492]],[[135.1576640943159,34.6501551640508],[135.1609531087361,34.65094456337954],[135.16403218606564,34.6510581890405],[135.1636298066419,34.64941360710562]],[[135.14105282201814,34.651548573471985],[135.14014746831472,34.65095054367749]],[[135.13844172945318,34.68293915738526],[135.13862105071811,34.684667463491365]],[[135.13862105071811,34.684667463491365],[135.13912402499778,34.68496647838862]],[[135.14002500501184,34.68499637987834],[135.14135898027536,34.684099335186595]],[[135.14135898027536,34.684099335186595],[135.14135023289657,34.68389002475852]],[[135.13996814704979,34.68286739380992],[135.13844172945318,34.68293915738526]],[[135.13914151975536,34.68909886426861],[135.14024368948128,34.688907494734366]],[[135.14146832251006,34.68789682438166],[135.13979319947424,34.68680242985773]],[[135.13532766260852,34.65118975559529],[135.13604932135763,34.65193131254047]],[[135.13604932135763,34.65193131254047],[135.13676660641735,34.6511777949994]],[[135.13676660641735,34.6511777949994],[135.13587874747148,34.65060966669462]],[[135.14600821209538,34.67359793199518],[135.14685670783678,34.67383714391298]],[[135.1471847345409,34.673041764286296],[135.1461525438452,34.67273078879316]],[[135.15752413625546,34.66809605788578],[135.15718298848316,34.668048215502225]],[[135.15711300945293,34.66812595937551],[135.1563957243932,34.66887349661864]],[[135.1563957243932,34.66887349661864],[135.15772095227794,34.669770541310385]],[[135.15772095227794,34.669770541310385],[135.1586263059814,34.66884359512891]],[[135.13967948355014,34.66975858071449],[135.1398500574363,34.67099052209117]],[[135.1538414897903,34.67147492622471],[135.153264162791,34.67214471959455]],[[135.15396395309318,34.672682946409594],[135.15444505892592,34.67319127173492]],[[135.15444505892592,34.67319127173492],[135.15514922291746,34.67243177389591]],[[135.15514922291746,34.67243177389591],[135.1538414897903,34.67147492622471]],[[135.1559496080756,34.65799533465669],[135.15482994359212,34.65766641826972]],[[135.15126101305106,34.66259418377639],[135.15281804647339,34.66315035148528]],[[135.14576328548964,34.67414811940612],[135.14660303385224,34.67439929191981]],[[135.13539764163875,34.687717415443316],[135.13318455480814,34.6886324010289],[135.13308833364158,34.69026502236788]],[[135.13308833364158,34.69026502236788],[135.13333326024735,34.690390608624725]],[[135.13333326024735,34.690390608624725],[135.13486405153336,34.69034874653911]],[[135.13486405153336,34.69034874653911],[135.13592248436538,34.68910484456655]],[[135.15637822963566,34.65697868400604],[135.1559496080756,34.65799533465669]],[[135.15876626404182,34.65766043797177],[135.15637822963566,34.65697868400604]],[[135.1490522999098,34.65418588486573],[135.1500232589541,34.654819796447896]],[[135.1500232589541,34.654819796447896],[135.15095485479384,34.6538629487767]],[[135.15095485479384,34.6538629487767],[135.1499751483708,34.653217076598644]],[[135.1448885476119,34.66019608430045],[135.14390446749948,34.65956217271828]],[[135.1440881624538,34.66103332601275],[135.1448885476119,34.66019608430045]],[[135.15764659955835,34.65403039711916],[135.15768158907343,34.65395863354382]],[[135.14434183643834,34.64952125246863],[135.14431122061262,34.6495033115748]],[[135.14353707759085,34.64900096654742],[135.1426011080617,34.64997575511245]],[[135.1426011080617,34.64997575511245],[135.14339274584103,34.65049604103367]],[[135.14339274584103,34.65049604103367],[135.14434183643834,34.64952125246863]],[[135.13604932135763,34.65193131254047],[135.1370202804019,34.652529342334965]],[[135.1379737446886,34.6515904355576],[135.13676660641735,34.6511777949994]],[[135.14344960380308,34.65554341249924],[135.1433665037047,34.65548958981774]],[[135.1433665037047,34.65548958981774],[135.14266233971316,34.65614742259169]],[[135.14372077254518,34.65667966910879],[135.14428935216569,34.656081639314294]],[[135.14428935216569,34.656081639314294],[135.14344960380308,34.65554341249924]],[[135.14077290589728,34.64701550762968],[135.13972322044404,34.64809196125978]],[[135.13972322044404,34.64809196125978],[135.14065481628379,34.64871989254401]],[[135.1472240977454,34.652995805574676],[135.1463887230722,34.65245159846168]],[[135.13939956742928,34.68123477247094],[135.13761072846935,34.68207201418324]],[[135.13761072846935,34.68207201418324],[135.13844172945318,34.68293915738526]],[[135.1410746904651,34.682538477422945],[135.14159515950234,34.68170123571065]],[[135.14159515950234,34.68170123571065],[135.13939956742928,34.68123477247094]],[[135.15172462412625,34.67631896756016],[135.15243753549657,34.67580466193689]],[[135.15243753549657,34.67580466193689],[135.1527699358901,34.674859774861574]],[[135.1527699358901,34.674859774861574],[135.15201328762586,34.67427370566297]],[[135.14879862592528,34.65923923662925],[135.14777080891898,34.6587548324957]],[[135.1465374285114,34.66006451774566],[135.14744278221482,34.66065058694427]],[[135.13141758429515,34.6723779512144],[135.1307221676824,34.67207295601921],[135.12866215998037,34.67435144953625],[135.12920887115393,34.67662994305329],[135.13180684265075,34.67729973642313]],[[135.13180684265075,34.67729973642313],[135.1360187055319,34.676528277988226]],[[135.15654442983242,34.6654527661941],[135.1578127997551,34.66411317945442]],[[135.14680859725348,34.66618834284133],[135.14582451714108,34.66705548604336]],[[135.13333326024735,34.690390608624725],[135.1330489704371,34.6908391309706]],[[135.1330489704371,34.6908391309706],[135.13135197895434,34.6935242847479]],[[135.13135197895434,34.6935242847479],[135.13333763393675,34.69444525063143],[135.13703777515946,34.692411949330136]],[[135.13691093816718,34.69207107234727],[135.13486405153336,34.69034874653911]],[[135.14312595078832,34.64787667053376],[135.14418438362037,34.64831921258169]],[[135.1447048526576,34.647380305804326],[135.14368578303007,34.647039428821465]],[[135.14559708529285,34.659460507653215],[135.1448885476119,34.66019608430045]],[[135.1448885476119,34.66019608430045],[135.1458201434517,34.6608000943929]],[[135.1458201434517,34.6608000943929],[135.1465374285114,34.66006451774566]],[[135.15123039722533,34.66440023375578],[135.15176398733072,34.664561701800295]],[[135.13548511542652,34.661810764745596],[135.13468473026842,34.66259418377639]],[[135.14839624650153,34.66127253793055],[135.14769645619938,34.66202007517367]],[[135.14769645619938,34.66202007517367],[135.14867178893303,34.66263604586201]],[[135.14867178893303,34.66263604586201],[135.14935845816703,34.66191242981066]],[[135.14135898027536,34.684099335186595],[135.1411446694953,34.686383809001576]],[[135.1411446694953,34.686383809001576],[135.14300348748546,34.68532529626532]],[[135.14300348748546,34.68532529626532],[135.1447748316878,34.68476912855643]],[[135.14423686789303,34.68407541399481],[135.14119715376796,34.68240093057021],[135.14131086969206,34.683507285690034]],[[135.14262297650865,34.648396956454974],[135.14353707759085,34.64900096654742]],[[135.1481513198958,34.652015036711695],[135.14913102631883,34.65266090888976]],[[135.14983956399976,34.65192533224252],[135.15022882235536,34.651267499468574]],[[135.15022882235536,34.651267499468574],[135.15006262215857,34.64959301604397]],[[135.13517895716933,34.66412514005031],[135.13491216211662,34.666116579265996]],[[135.13491216211662,34.666116579265996],[135.13496902007867,34.6666488257831]],[[135.13496902007867,34.6666488257831],[135.13497339376806,34.666678727272824]],[[135.13497339376806,34.666678727272824],[135.1357912736837,34.665937170327645]],[[135.1357912736837,34.665937170327645],[135.13644732709201,34.66498630295439]],[[135.1533735050257,34.67657014007384],[135.15243753549657,34.67580466193689]],[[135.14005562083756,34.65720593532795],[135.13929897257333,34.657977393762856]],[[135.14101783250305,34.65779200452656],[135.14005562083756,34.65720593532795]],[[135.14584201189862,34.678292465882],[135.14666863919305,34.678424032436794]],[[135.1550223859252,34.66703156485158],[135.15447130106224,34.667599693156355]],[[135.15450191688797,34.66763557494402],[135.1554072705914,34.66822164414263]],[[135.1554072705914,34.66822164414263],[135.15574841836371,34.667886747457715]],[[135.1394389306338,34.662791533608576],[135.1385160821728,34.662725750331184]],[[135.13712962263662,34.66405337647497],[135.13833676090786,34.66463346537564]],[[135.1486455467967,34.662665947351734],[135.14867178893303,34.66263604586201]],[[135.14966024273483,34.65833621163956],[135.14879862592528,34.65923923662925]],[[135.15168526092174,34.65970569986896],[135.15170712936867,34.659627955995674]],[[135.15170712936867,34.659627955995674],[135.14966024273483,34.65833621163956]],[[135.1314000895376,34.68991218478913],[135.1330489704371,34.6908391309706]],[[135.13308833364158,34.69026502236788],[135.13228794848348,34.68905102188505],[135.13329827073224,34.687645651867975]],[[135.1490522999098,34.65418588486573],[135.14832189378194,34.65496332359858]],[[135.13290901237664,34.66664284548515],[135.13203864818834,34.66686411650912],[135.13175873206745,34.66970475803299]],[[135.1356731840702,34.66864026499878],[135.13497339376806,34.666678727272824]],[[135.13496902007867,34.6666488257831],[135.13290901237664,34.66664284548515]],[[135.15821517917885,34.64696766524612],[135.15506174912971,34.6495033115748],[135.15752413625546,34.65014320345492]],[[135.15783904189144,34.64855842449949],[135.15821517917885,34.64696766524612]],[[135.13639484281933,34.64858234569127],[135.1357212946535,34.64927606025289]],[[135.14578515393657,34.67860942167309],[135.14668176026123,34.679512446662784]],[[135.15155405024007,34.66754587047485],[135.15153655548252,34.66756381136868]],[[135.15153655548252,34.66756381136868],[135.15241566704964,34.668060176098116]],[[135.15241566704964,34.668060176098116],[135.15255125142068,34.66792262924538]],[[135.15308484152607,34.66750998868718],[135.15408641639604,34.66646941684475]],[[135.13819242915804,34.6496887008111],[135.13914589344475,34.65030467149943]],[[135.13992003646652,34.649491350978906],[135.1389709458692,34.648875380290576]],[[135.14465236838493,34.658826596071044],[135.14390446749948,34.65956217271828]],[[135.14892546291756,34.66807811699195],[135.14907854204614,34.66739038272828]],[[135.14907854204614,34.66739038272828],[135.14821255154723,34.66715117081048]],[[135.14789327222186,34.6680183140125],[135.14784516163857,34.668155860865234]],[[135.14784516163857,34.668155860865234],[135.14891234184938,34.66811997907757]],[[135.1552498177734,34.656655747917014],[135.15482994359212,34.65766641826972]],[[135.14184445979748,34.65074123324941],[135.14090411657895,34.650125262561076]],[[135.13693280661414,34.6681379199714],[135.13638609544057,34.6695731914782]],[[135.13819242915804,34.67101444328294],[135.1395438991791,34.67164835486511]],[[135.1395438991791,34.67164835486511],[135.13960075714115,34.671666295758946]],[[135.14260548175108,34.672862355347945],[135.14365079351495,34.675433883464294]],[[135.1439307096358,34.67560133180675],[135.14396569915093,34.67501526260815]],[[135.14396569915093,34.67501526260815],[135.14465236838493,34.674417232813646]],[[135.14503287936174,34.66630196850229],[135.1448535580968,34.6670614663413]],[[135.14680859725348,34.66618834284133],[135.1458551329668,34.66556041155711]],[[135.13796499730984,34.65315727361919],[135.13883536149817,34.65382706698903]],[[135.13883536149817,34.65382706698903],[135.13960075714115,34.65303168736234]],[[135.14152518047212,34.66654716071803],[135.14433308905956,34.6656919781119]],[[135.15170712936867,34.659627955995674],[135.15228445636797,34.65806111793409]],[[135.148221298926,34.648588325989216],[135.14721097667723,34.64812784304745]],[[135.14721097667723,34.64812784304745],[135.14544400616427,34.65024486851998]],[[135.14544400616427,34.65024486851998],[135.1454615009218,34.650250848817926]],[[135.1454615009218,34.650250848817926],[135.1463843493828,34.65086083920831]],[[135.14300348748546,34.68532529626532],[135.14388697274194,34.68589342457009]],[[135.14388697274194,34.68589342457009],[135.14553585364143,34.68472128617287]],[[135.13676660641735,34.6511777949994],[135.13750138623465,34.650412316862436]],[[135.15425261659283,34.67565515448826],[135.1527699358901,34.674859774861574]],[[135.1467211234657,34.66139214388945],[135.1458201434517,34.6608000943929]],[[135.146375602004,34.674919577841024],[135.14553585364143,34.67466242502939]],[[135.14553585364143,34.67466242502939],[135.14522969538422,34.675398001676626]],[[135.15454565378184,34.67070944808775],[135.1538414897903,34.67147492622471]],[[135.13899281431614,34.64763147831802],[135.13803935002943,34.64824744900635]],[[135.1389709458692,34.648875380290576],[135.13972322044404,34.64809196125978]],[[135.13972322044404,34.64809196125978],[135.13899281431614,34.64763147831802]],[[135.14266233971316,34.65614742259169],[135.14180947028237,34.65566899875609]],[[135.14166513853255,34.65558527458486],[135.14005562083756,34.65720593532795]],[[135.1426011080617,34.64997575511245],[135.1416082805705,34.64934782382823]],[[135.14184445979748,34.65074123324941],[135.1426011080617,34.64997575511245]],[[135.13939956742928,34.68123477247094],[135.1406154530793,34.680379589864806]],[[135.13180684265075,34.67729973642313],[135.1322048483851,34.67862736256692],[135.13180246896135,34.68234710788871]],[[135.13448354055654,34.681683294816814],[135.13452727745042,34.68159359034764]],[[135.13452727745042,34.68159359034764],[135.1352183203738,34.68061282148466],[135.13761072846935,34.68207201418324]],[[135.13899281431614,34.64763147831802],[135.14033116326905,34.64687796077695]],[[135.14033116326905,34.64687796077695],[135.13814431857477,34.64608856144821]],[[135.13814431857477,34.64608856144821],[135.1370990068109,34.6476434389139]],[[135.1636298066419,34.64941360710562],[135.16628900979012,34.649724582598765],[135.16632837299463,34.64788863112965],[135.15821517917885,34.64696766524612]],[[135.1497477165226,34.66938780224191],[135.14973896914384,34.66938182194396]],[[135.14901731039473,34.668574481721386],[135.14785390901736,34.66980044280011]],[[135.14785390901736,34.66980044280011],[135.14869803106936,34.67047023616995]],[[135.1458551329668,34.66556041155711],[135.1464936916175,34.66490257878316]],[[135.1496340005985,34.68091183638191],[135.14819505678966,34.68096565906342]],[[135.14889047340245,34.68327405407018],[135.14970835331812,34.68230524580309]],[[135.14970835331812,34.68230524580309],[135.1496340005985,34.68091183638191]],[[135.15237193015574,34.66522551487219],[135.1525425040419,34.665028165040006]],[[135.14983519031037,34.66619432313928],[135.15080177566526,34.666798333231725]],[[135.14040988967804,34.64690786226667],[135.14033116326905,34.64687796077695]],[[135.1454615009218,34.650250848817926],[135.14452115770328,34.651219657085015]],[[135.14545712723242,34.6518296474754],[135.1463843493828,34.65086083920831]],[[135.1429116400083,34.68142614200518],[135.14159515950234,34.68170123571065]],[[135.15319855745017,34.6560696787184],[135.1529186413293,34.6567334917903]],[[135.14264921864498,34.651261519170625],[135.14339274584103,34.65049604103367]],[[135.1433665037047,34.65548958981774],[135.14249613951637,34.65492146151296]],[[135.1467211234657,34.66139214388945],[135.14744278221482,34.66065058694427]],[[135.15444505892592,34.67319127173492],[135.15513172815992,34.67427968596091]],[[135.15513172815992,34.67427968596091],[135.15556472340938,34.67381920301915]],[[135.15556472340938,34.67381920301915],[135.15618141361318,34.67318529143698]],[[135.13862105071811,34.684667463491365],[135.13699841195495,34.68361493105305]],[[135.15654442983242,34.6654527661941],[135.157541631013,34.66612255956394]],[[135.15564344981837,34.67502124290609],[135.1562863821585,34.674417232813646]],[[135.1562863821585,34.674417232813646],[135.15556472340938,34.67381920301915]],[[135.15513172815992,34.67427968596091],[135.15564344981837,34.67502124290609]],[[135.13276468062685,34.66466336686536],[135.13290901237664,34.66664284548515]],[[135.13491216211662,34.666116579265996],[135.13444855104143,34.66440023375578],[135.133228291702,34.66437033226605]],[[135.13761072846935,34.68207201418324],[135.13631174272095,34.68302886185444]],[[135.15241566704964,34.668060176098116],[135.15176836102012,34.66877781185151]],[[135.15176836102012,34.66877781185151],[135.15260810938273,34.669363881050124]],[[135.15260810938273,34.669363881050124],[135.1534959683286,34.66854458023166]],[[135.14624001763298,34.66988416697134],[135.14714537133642,34.67003367441996]],[[135.14714537133642,34.67003367441996],[135.14784516163857,34.668155860865234]],[[135.14563644849736,34.6846315817037],[135.1467298708445,34.684834911833825],[135.14605194898928,34.68789084408372]],[[135.14721097667723,34.688052312128235],[135.14857994145586,34.68754398680291],[135.14897794719022,34.68568411414201]],[[135.1509286126575,34.66819174265291],[135.15153655548252,34.66756381136868]],[[135.15091549158936,34.66734852064266],[135.1509286126575,34.66819174265291]],[[135.14180072290358,34.6725633404507],[135.13902343014186,34.674016552851334]],[[135.14522969538422,34.675398001676626],[135.14396569915093,34.67501526260815]],[[135.13771569701467,34.65956217271828],[135.13599683708497,34.66128449852644]],[[135.1463887230722,34.65245159846168],[135.14731157153318,34.6514708295987]],[[135.13452727745042,34.68159359034764],[135.13646044816016,34.68173711749832],[135.13575191047923,34.68298699976882]],[[135.1567849827488,34.66687009680706],[135.157541631013,34.66612255956394]],[[135.14048424239763,34.65360579596506],[135.14154267522966,34.654311471122575]],[[135.14154267522966,34.654311471122575],[135.14228620242574,34.653510111197946]],[[135.15798774733065,34.671319438478136],[135.15700366721822,34.672354030022625]],[[135.15776468917184,34.67290421743356],[135.15798774733065,34.671319438478136]],[[135.14452115770328,34.651219657085015],[135.14339274584103,34.65049604103367]],[[135.15478183300883,34.650191045838476],[135.1538021265858,34.65021496703025],[135.15554285496245,34.646692571540655],[135.15096360217262,34.646178265917385],[135.1492884791368,34.649030868037144]],[[135.15022882235536,34.651267499468574],[135.15102920751346,34.65214062296854]],[[135.1531548205563,34.65310943123563],[135.15458501698635,34.65324099779042]],[[135.14249613951637,34.65492146151296],[135.1432440404018,34.65415000307806]],[[135.1555997129245,34.67503320350198],[135.15564344981837,34.67502124290609]],[[135.14907854204614,34.66739038272828],[135.14945905302295,34.66674451055022]],[[135.1538414897903,34.67147492622471],[135.15294925715503,34.67084101464254]],[[135.15294925715503,34.67084101464254],[135.15235880908756,34.67145698533087]],[[135.13883536149817,34.65382706698903],[135.13971447306525,34.65444303767737]],[[135.13971447306525,34.65444303767737],[135.14048424239763,34.65360579596506]],[[135.13844610314257,34.651034267848715],[135.13750138623465,34.650412316862436]],[[135.1472240977454,34.652995805574676],[135.1481513198958,34.652015036711695]],[[135.1562863821585,34.674417232813646],[135.15694243556678,34.67374743944381]],[[135.14785390901736,34.66980044280011],[135.14740341901035,34.67008151680353]],[[135.14740341901035,34.67008151680353],[135.1469966658972,34.67041641348845]],[[135.14418438362037,34.65475999346845],[135.14344960380308,34.65554341249924]],[[135.14428935216569,34.656081639314294],[135.14504162674052,34.65531616117733]],[[135.15186458218668,34.65444901797531],[135.1508148967334,34.655340082369115]],[[135.15169400830052,34.656195264975246],[135.15279180433703,34.655047047769806]],[[135.14740341901035,34.67008151680353],[135.14714537133642,34.67003367441996]],[[135.14289414525072,34.65892826113611],[135.1419931652367,34.65839003432106]],[[135.1376325969163,34.67294607951918],[135.1395438991791,34.67164835486511]],[[135.13971447306525,34.65444303767737],[135.1408078954124,34.65508890985542]],[[135.15798774733065,34.671319438478136],[135.1574279150889,34.6709426797076]],[[135.1574279150889,34.6709426797076],[135.15692056711984,34.67060778302268]],[[135.13712962263662,34.66660696369748],[135.1357912736837,34.665937170327645]],[[135.1506661912942,34.683931886844135],[135.15083239149098,34.68356110837154]],[[135.15083239149098,34.68356110837154],[135.15014572225695,34.68321425109073]],[[135.15014572225695,34.68321425109073],[135.14970835331812,34.68230524580309]],[[135.14721097667723,34.64812784304745],[135.14628812821624,34.64769128129747]],[[135.14628812821624,34.64769128129747],[135.14596010151212,34.64787667053376]],[[135.14434183643834,34.64952125246863],[135.14544400616427,34.65024486851998]],[[135.15772969965673,34.66749802809129],[135.15847760054217,34.66674451055022]],[[135.15367966328293,34.67011141829325],[135.15364467376781,34.67008749710147]],[[135.14575891180024,34.65765445767383],[135.1457764065578,34.657630536482046]],[[135.14465236838493,34.657104270262884],[135.14289414525072,34.65892826113611]],[[135.12933133445682,34.6922744024774],[135.13135197895434,34.6935242847479]],[[135.1403486580266,34.686389789299525],[135.1411446694953,34.686383809001576]],[[135.15453690640308,34.66913064943027],[135.1534959683286,34.66854458023166]],[[135.15692056711984,34.67060778302268],[135.15772095227794,34.669770541310385]],[[135.1574279150889,34.6709426797076],[135.15772095227794,34.669770541310385]],[[135.14465236838493,34.657104270262884],[135.14372077254518,34.65667966910879]],[[135.13978445209548,34.642733614301065],[135.13814431857477,34.64608856144821]],[[135.14628812821624,34.64769128129747],[135.14946342671234,34.646919822862564],[135.14975646390138,34.645933073701634],[135.14758711396465,34.645723763273566],[135.13978445209548,34.642733614301065]],[[135.1496340005985,34.68091183638191],[135.15001013788591,34.68062478208055]],[[135.15001013788591,34.68062478208055],[135.1510423285816,34.67982940245387]],[[135.1596847388134,34.65291806170139],[135.1594616806546,34.65086083920831],[135.166568925911,34.65188945045485],[135.16718998980417,34.64810392185567],[135.16669576290326,34.63464825147943],[135.14307346651566,34.634803739226],[135.13953515180032,34.642631949236],[135.13978445209548,34.642733614301065]],[[135.15001013788591,34.68062478208055],[135.15091549158936,34.68204809299146],[135.15014572225695,34.68321425109073]],[[135.15083239149098,34.68356110837154],[135.15154092917192,34.682030152097624],[135.15060058595338,34.68067860476206],[135.15183834005035,34.67989518573126]],[[135.1308971152579,34.683692674926334],[135.12847409133667,34.683698655224276]]]}