{"type":"Topology","bbox":[135.13819383212635,34.63464825147943,135.1943930458034,34.714084632100935],"objects":{"town":{"type":"GeometryCollection","geometries":[{"type":"MultiPolygon","arcs":[[[95,-24,96,97,102,100,82,68,71,2,3,4,0,70,66,80,101,99]]],"properties":{"name":"芦原通"}},{"type":"MultiPolygon","arcs":[[[6,7,104,105,27,28,29,91,89,90,65,72,30,31,15,16,17,18]]],"properties":{"name":"石井町"}},{"type":"MultiPolygon","arcs":[[[606,607,498,-97,23,24,20,519,-318,-132,-144,520,521,522,523,524,14,10,11,608]]],"properties":{"name":"駅南通"}},{"type":"MultiPolygon","arcs":[[[34,35,36,37,38,39,103,52,53,54,55,44,45,46,47,48,49,50,42]]],"properties":{"name":"荒田町"}},{"type":"MultiPolygon","arcs":[[[619,620,621,58,459,-420,460,461,-79,60,61,56,622,623,624]]],"properties":{"name":"会下山町"}},{"type":"MultiPolygon","arcs":[[[-61,78,495,493,494,74,75,76,514,515,-62]]],"properties":{"name":"大井通"}},{"type":"MultiPolygon","arcs":[[[85,123,124,108,109,110,111,106,122,87,88,83,161,162,163,164]]],"properties":{"name":"今出在家町"}},{"type":"Polygon","arcs":[[92,93,94]],"properties":{"name":"磯之町"}},{"type":"Polygon","arcs":[[112,113,114,115,116]],"properties":{"name":"梅元町"}},{"type":"MultiPolygon","arcs":[[[135,119,120,121,117,133,146,147,148]]],"properties":{"name":"入江通"}},{"type":"MultiPolygon","arcs":[[[127,138,139,140,141,136,137,125,302,303,304,305,306,307]]],"properties":{"name":"永沢町"}},{"type":"MultiPolygon","arcs":[[[145,142,143,131,317,314,332,333,367,368,369]]],"properties":{"name":"駅前通"}},{"type":"MultiPolygon","arcs":[[[291,292,393,605,150,153,387,402,372,-47,-346,370,-391,-355,386,155,152,-596,395,392,294]]],"properties":{"name":"上沢通"}},{"type":"MultiPolygon","arcs":[[[-197,321,513,-247,156,157,158,159,512,319,642,643,336,337,338,339]]],"properties":{"name":"小松通"}},{"type":"MultiPolygon","arcs":[[[-740,201,168,677,165,-11,166,-148,-147,-134,-118,-471,-469]]],"properties":{"name":"小河通"}},{"type":"MultiPolygon","arcs":[[[239,240,241,731,-687,350,351,173,185,202,-181,-180,-573,679,432,433,625,450,451,-36,452,453,626,-448,430,678,204,205,187,188,184,175,171,352,348,-422,243,244]]],"properties":{"name":"菊水町"}},{"type":"MultiPolygon","arcs":[[[222,223,211,-249,362,-366,-199,-493,192,193,178,-162,-84,176,194,195,189,-384,364,213,224]]],"properties":{"name":"和田宮通"}},{"type":"MultiPolygon","arcs":[[[686,687,-429,-361,-360,-406,-405,-380,182,183,179,180,-203,-186,-174,-352,-351]]],"properties":{"name":"夢野町"}},{"type":"MultiPolygon","arcs":[[[198,365,-363,248,-212,-224,373,-158,-157,246,-514,-322,196,-340,-193,492]]],"properties":{"name":"笠松通"}},{"type":"Polygon","arcs":[[206,207,208,209]],"properties":{"name":"上祇園町"}},{"type":"Polygon","arcs":[[214,215,216,217,218]],"properties":{"name":"清水町"}},{"type":"MultiPolygon","arcs":[[[-190,-196,-195,-177,-89,219,220,-467,-511,296,297]]],"properties":{"name":"上庄通"}},{"type":"MultiPolygon","arcs":[[[380,381,382,-225,-214,-365,383,-298,384,-512,225,226,-123,-107,-112,-263]]],"properties":{"name":"和田崎町"}},{"type":"Polygon","arcs":[[228,229,-113,230,231,232]],"properties":{"name":"神田町"}},{"type":"Polygon","arcs":[[233,234,235,236,237,238]],"properties":{"name":"門口町"}},{"type":"Polygon","arcs":[[249,250,251,252,253,254,255,256,257,258,259,260,261,262,-111,263,264,265,266,267,268,-124,-86,-165,269,270,271,-5,272,273,-121,274,275,276,277,-95,278,279,280,281,282,283,284]],"properties":{"name":""}},{"type":"MultiPolygon","arcs":[[[286,287,288,289,290,-94,329,330,331]]],"properties":{"name":"本町"}},{"type":"MultiPolygon","arcs":[[[300,301,-25,-96,298,471,472,473]]],"properties":{"name":"御所通"}},{"type":"MultiPolygon","arcs":[[[308,-290,309,-543,-281,-534]]],"properties":{"name":"鍛冶屋町"}},{"type":"Polygon","arcs":[[311,-39,312,-210,-229,313]],"properties":{"name":"下祇園町"}},{"type":"MultiPolygon","arcs":[[[-510,-424,574,324,325,326,327,328,322,-261,-260,-259,399,400]]],"properties":{"name":"吉田町"}},{"type":"Polygon","arcs":[[340,341,342,-217,343]],"properties":{"name":"小山町"}},{"type":"MultiPolygon","arcs":[[[528,529,-295,-393,-396,595,-153,-156,-387,354,390,-371,345,-46,346,347,391,356,569,706,-441,-440,-501,531]]],"properties":{"name":"下沢通"}},{"type":"MultiPolygon","arcs":[[[-183,379,404,405,359,360,428,429,-344,-216,-215,357,403,375,376,-16,377,474,-184]]],"properties":{"name":"熊野町"}},{"type":"MultiPolygon","arcs":[[[-297,510,466,-221,-220,-88,-227,-226,511,-385]]],"properties":{"name":"三石通"}},{"type":"MultiPolygon","arcs":[[[764,-245,-244,421,-349,-353,-172,-176,-185,-189,-188,-206,-205,-679,-431,447,-627,-454,773,444,445,-718,-717,462,526,549,396,422,419,-460,-59,-622]]],"properties":{"name":"湊川町"}},{"type":"Polygon","arcs":[[406,407,408,409]],"properties":{"name":"北山町"}},{"type":"MultiPolygon","arcs":[[[-607,-764,723,724,455,411,412,413,-3,-72,-69,-83,-101,-103,-98,-499,-608]]],"properties":{"name":"松原通"}},{"type":"MultiPolygon","arcs":[[[-81,-67,-71,-1,-272,414,415,-473,-472,-299,-100,-102]]],"properties":{"name":"明和通"}},{"type":"Polygon","arcs":[[417,418,-257]],"properties":{"name":"高松町"}},{"type":"MultiPolygon","arcs":[[[-575,423,424,425,426,-486,822,-778,-819,823,-811,-325]]],"properties":{"name":"御崎町"}},{"type":"Polygon","arcs":[[435,436]],"properties":{"name":"佐比江町"}},{"type":"MultiPolygon","arcs":[[[663,664,-529,-532,500,439,440,-707,-570,-357,-392,-348,-757,-730,-634,-713,-490,-588,442,443,501,-478,-639]]],"properties":{"name":"中道通"}},{"type":"Polygon","arcs":[[-37,-452,456,-92,457,458]],"properties":{"name":"雪御所町"}},{"type":"Polygon","arcs":[[-4,-414,467,468,469,-273]],"properties":{"name":"切戸町"}},{"type":"Polygon","arcs":[[470,-122,-274,-470]],"properties":{"name":"南逆瀬川町"}},{"type":"MultiPolygon","arcs":[[[638,477,-502,-444,-443,587,489,712,633,729,-640,-657,728,631,713,714,486,487,588,-584,-583,609,475,-505,-604,719,720,-664]]],"properties":{"name":"水木通"}},{"type":"MultiPolygon","arcs":[[[-823,-485,-415,-271,-270,-164,-163,-179,-194,-339,776,777]]],"properties":{"name":"御崎本町"}},{"type":"Polygon","arcs":[[-38,-459,481,-313]],"properties":{"name":"下三条町"}},{"type":"Polygon","arcs":[[482,-254,483,484,485,-427]],"properties":{"name":"材木町"}},{"type":"MultiPolygon","arcs":[[[603,504,-476,-610,582,583,-589,-488,-487,-715,-714,-632,-729,656,-557,654,-307,-306,741,-554,732,615,585,765,506,502,604,785,-368,-334,786,-720]]],"properties":{"name":"大開通"}},{"type":"MultiPolygon","arcs":[[[508,-425,509,-401,-400,-258,-419,688]]],"properties":{"name":"金平町"}},{"type":"Polygon","arcs":[[-278,517,-330,-93]],"properties":{"name":"南仲町"}},{"type":"MultiPolygon","arcs":[[[533,-280,-279,-291,-309]]],"properties":{"name":"島上町"}},{"type":"MultiPolygon","arcs":[[[535,536,537,-612,650,651,652,653,-437,648,649,-140,-139,-128,-308,-655,-556]]],"properties":{"name":"湊町"}},{"type":"MultiPolygon","arcs":[[[-289,589,590,540,541,-282,542,-310]]],"properties":{"name":"七宮町"}},{"type":"MultiPolygon","arcs":[[[-29,702,-670,703,544,545,546,-628]]],"properties":{"name":"山王町"}},{"type":"MultiPolygon","arcs":[[[-252,548,-301,-474,-416,-484,-253]]],"properties":{"name":"和田山通"}},{"type":"MultiPolygon","arcs":[[[-507,-766,-586,-616,-733,553,-742,-305,-304,550,551,800,685,752,-599,-598,-146,-370,-369,-786,-605,-503]]],"properties":{"name":"塚本通"}},{"type":"MultiPolygon","arcs":[[[-347,-45,755,641,558,559,560,561,600,612,816,-651,611,-538,-537,-536,555,556,639,756]]],"properties":{"name":"新開地"}},{"type":"Polygon","arcs":[[563,564,565,-276]],"properties":{"name":"北逆瀬川町"}},{"type":"Polygon","arcs":[[566,-116,567,568]],"properties":{"name":"楠谷町"}},{"type":"Polygon","arcs":[[-314,-233,571]],"properties":{"name":"馬場町"}},{"type":"MultiPolygon","arcs":[[[-626,-434,-433,-680,572,-475,-378,-32,-31,-73,-66,-91,-90,-457,-451]]],"properties":{"name":"大同町"}},{"type":"Polygon","arcs":[[575,576,-207,-482]],"properties":{"name":"上三条町"}},{"type":"Polygon","arcs":[[577,578]],"properties":{"name":"里山町"}},{"type":"MultiPolygon","arcs":[[[-609,-12,-166,-678,-169,-202,739,-468,-413,-412,-456,-725,-724,763]]],"properties":{"name":"須佐野通"}},{"type":"MultiPolygon","arcs":[[[757,-620,-625,-624,-623,-57,-516,-515,-77,-76,-75,-495,-494,784,-48,-373,-403,-388,-154,-151,-606,-394,-293]]],"properties":{"name":"松本通"}},{"type":"MultiPolygon","arcs":[[[806,797,-815,-522,-521,-143,597,598,-753,-686,-801,-552,-709]]],"properties":{"name":"羽坂通"}},{"type":"Polygon","arcs":[[616,617,-342,618,-241]],"properties":{"name":"滝山町"}},{"type":"Polygon","arcs":[[-30,627,-547,628,629,-576,-458]],"properties":{"name":"湊山町"}},{"type":"MultiPolygon","arcs":[[[-268,-702,644,-266,645,646,-782,820]]],"properties":{"name":"中之島"}},{"type":"MultiPolygon","arcs":[[[658,-697,735,759,727,-545,-704,-669]]],"properties":{"name":"天王町"}},{"type":"MultiPolygon","arcs":[[[-337,-644,-643,-320,-513,-160,746,-329,-328,-327,-326,810,-824,818,-777,-338]]],"properties":{"name":"浜山通"}},{"type":"Polygon","arcs":[[-231,-117,-567,665]],"properties":{"name":"矢部町"}},{"type":"MultiPolygon","arcs":[[[-692,-691,693,742,-18,-712,695,696,-659,668,669,670,747]]],"properties":{"name":"千鳥町"}},{"type":"MultiPolygon","arcs":[[[813,-523,814,-798,-807,708,-551,-303,-126,-138,-137,673,671,-238,-237,-236]]],"properties":{"name":"三川口町"}},{"type":"Polygon","arcs":[[-577,-630,674,675,-568,-115,676,-208]],"properties":{"name":"平野町"}},{"type":"MultiPolygon","arcs":[[[-462,-461,-423,-397,-550,-527,-463,716,717,-446,-445,-774,-453,-35,-43,-51,-50,-49,-785,-496]]],"properties":{"name":"東山町"}},{"type":"MultiPolygon","arcs":[[[690,691,-748,-671,-703,-28,-106,-105,-8,-7,-19,-743,-694]]],"properties":{"name":"都由乃町"}},{"type":"MultiPolygon","arcs":[[[748,-55,-54,699,700,749]]],"properties":{"name":"西上橘通"}},{"type":"Polygon","arcs":[[-267,-645,701]],"properties":{"name":"船大工町"}},{"type":"MultiPolygon","arcs":[[[-404,-358,-219,795,-410,-409,710,711,-17,-377,-376]]],"properties":{"name":"氷室町"}},{"type":"Polygon","arcs":[[-275,743,744,-234,745,-564]],"properties":{"name":"東柳原町"}},{"type":"MultiPolygon","arcs":[[[-542,-541,-591,761,-649,-436,-654,-653,808,809,819,-283]]],"properties":{"name":"西出町"}},{"type":"Polygon","arcs":[[-629,-546,-728,-760,-736,-696,-711,-408,766,767,-579,768,-675]],"properties":{"name":"烏原町"}},{"type":"MultiPolygon","arcs":[[[805,770,-250,-285,-284,-820,-810,824]]],"properties":{"name":"東出町"}},{"type":"Polygon","arcs":[[-323,-747,771,-381,-262]],"properties":{"name":"遠矢浜町"}},{"type":"Polygon","arcs":[[-518,-277,-566,772]],"properties":{"name":"神明町"}},{"type":"MultiPolygon","arcs":[[[-141,-650,-762,-590,-288,-287,-332,793,-674,-142]]],"properties":{"name":"兵庫町"}},{"type":"MultiPolygon","arcs":[[[781,-647,782,-264,-110,-109,-125,-269,-821]]],"properties":{"name":"出在家町"}},{"type":"MultiPolygon","arcs":[[[-223,-383,-382,-772,-159,-374]]],"properties":{"name":"遠矢町"}},{"type":"Polygon","arcs":[[-783,-646,-265]],"properties":{"name":"築地町"}},{"type":"MultiPolygon","arcs":[[[-561,-560,787,788,-793,802]]],"properties":{"name":"西多聞通"}},{"type":"MultiPolygon","arcs":[[[796,-750,-701,791,792,-789]]],"properties":{"name":"西橘通"}},{"type":"Polygon","arcs":[[-773,801,-794,-331]],"properties":{"name":"西仲町"}},{"type":"Polygon","arcs":[[-209,-677,-114,-230]],"properties":{"name":"五宮町"}},{"type":"Polygon","arcs":[[-167,-15,-525,803,-744,-120,-136,-149]],"properties":{"name":"浜崎通"}},{"type":"Polygon","arcs":[[-565,-746,-239,-672,-802]],"properties":{"name":"西宮内町"}},{"type":"Polygon","arcs":[[-559,-642,-756,-56,-749,-797,-788]],"properties":{"name":"福原町"}},{"type":"Polygon","arcs":[[-804,-524,-814,-235,-745]],"properties":{"name":"西柳原町"}},{"type":"MultiPolygon","arcs":[[[-689,-418,-256,-255,-483,-426,-509]]],"properties":{"name":"浜中町"}},{"type":"Polygon","arcs":[[-619,-341,-430,-688,-732,-242]],"properties":{"name":"鵯越町"}},{"type":"Polygon","arcs":[[-218,-343,-618,825,-767,-407,-796]],"properties":{"name":"鵯越筋"}}]}},"arcs":[[[135.1688254667438,34.66175465518786],[135.1683702075871,34.66219159897566]],[[135.1683702075871,34.66219159897566],[135.16852196063934,34.6634309304465]],[[135.16852196063934,34.6634309304465],[135.1710961420439,34.66364543012415]],[[135.1710961420439,34.66364543012415],[135.1721471724427,34.663685152286675]],[[135.1721471724427,34.663685152286675],[135.1688254667438,34.66175465518786]],[[135.16104109721257,34.689004058681384],[135.1608387598096,34.68929800268408]],[[135.1608387598096,34.68929800268408],[135.16134460331705,34.68959194668678]],[[135.16134460331705,34.68959194668678],[135.16176051908982,34.689822335229444]],[[135.16176051908982,34.689822335229444],[135.16205278422746,34.68939333587415]],[[135.16205278422746,34.68939333587415],[135.16104109721257,34.689004058681384]],[[135.16603770696943,34.66668020334121],[135.16495857415356,34.66591753782069]],[[135.16495857415356,34.66591753782069],[135.16471127288327,34.665758649170584]],[[135.16471127288327,34.665758649170584],[135.16387382085426,34.66659281458365]],[[135.16387382085426,34.66659281458365],[135.16533514654245,34.667411091131704]],[[135.16533514654245,34.667411091131704],[135.16603770696943,34.66668020334121]],[[135.16013057889919,34.68778061607555],[135.16011933793234,34.687772671643046]],[[135.16011933793234,34.687772671643046],[135.1596753197425,34.68874189240871]],[[135.1596753197425,34.68874189240871],[135.1600631330982,34.689178836196504]],[[135.1600631330982,34.689178836196504],[135.1608387598096,34.68929800268408]],[[135.16104109721257,34.689004058681384],[135.16013057889919,34.68778061607555]],[[135.15962473539173,34.66242993195082],[135.1596078739415,34.66319259747134]],[[135.1596078739415,34.66319259747134],[135.16103547672915,34.66413798493948]],[[135.16103547672915,34.66413798493948],[135.16096803092816,34.663264097363886]],[[135.16096803092816,34.663264097363886],[135.16071510917445,34.663113153146284]],[[135.16071510917445,34.663113153146284],[135.15962473539173,34.66242993195082]],[[135.16397498955575,34.6897587797694],[135.1631487784936,34.6896078355518]],[[135.1631487784936,34.6896078355518],[135.16274972417105,34.69038638993732]],[[135.16274972417105,34.69038638993732],[135.16313191704336,34.690640611777496]],[[135.16313191704336,34.690640611777496],[135.16354783281614,34.69027516788225]],[[135.16354783281614,34.69027516788225],[135.16397498955575,34.6897587797694]],[[135.16134460331705,34.68822550429586],[135.16068138627395,34.68797922688819]],[[135.16068138627395,34.68797922688819],[135.16013057889919,34.68778061607555]],[[135.16104109721257,34.689004058681384],[135.16134460331705,34.68822550429586]],[[135.16707749640142,34.683474733657626],[135.1648686464189,34.68575478578668]],[[135.1648686464189,34.68575478578668],[135.16464944756567,34.68585806340925]],[[135.16464944756567,34.68585806340925],[135.1645876222481,34.686295007197046]],[[135.1645876222481,34.686295007197046],[135.16557682732932,34.68770911618301]],[[135.16557682732932,34.68770911618301],[135.16852196063934,34.68790772699564]],[[135.16852196063934,34.68790772699564],[135.16943809943615,34.68607256308689]],[[135.16943809943615,34.68607256308689],[135.17017438276366,34.68403878836551]],[[135.17017438276366,34.68403878836551],[135.16707749640142,34.683474733657626]],[[135.1656779960308,34.681027848445964],[135.16496419463698,34.68086895979585]],[[135.16496419463698,34.68086895979585],[135.1648686464189,34.68575478578668]],[[135.16707749640142,34.683474733657626],[135.1649698151204,34.68192556931907],[135.1656779960308,34.681027848445964]],[[135.16751027362446,34.67967729492005],[135.1666953035291,34.67884312950698]],[[135.1666953035291,34.67884312950698],[135.1666503396618,34.67889079610201]],[[135.1666503396618,34.67889079610201],[135.16561055022981,34.67980440584013]],[[135.16561055022981,34.67980440584013],[135.16443586919587,34.6806465156857]],[[135.16443586919587,34.6806465156857],[135.1644864535466,34.68067034898322]],[[135.1644864535466,34.68067034898322],[135.1645932427315,34.680725960010754]],[[135.1645932427315,34.680725960010754],[135.16496419463698,34.68086895979585]],[[135.1656779960308,34.681027848445964],[135.16624566485584,34.68052734919812],[135.17060715998667,34.68289479008473]],[[135.17060715998667,34.68289479008473],[135.17125913606296,34.681989124779115]],[[135.17125913606296,34.681989124779115],[135.1702586900149,34.68143301450374]],[[135.1702586900149,34.68143301450374],[135.16946620185323,34.68097223741842]],[[135.16946620185323,34.68097223741842],[135.16751027362446,34.67967729492005]],[[135.16067576579053,34.6776991312262],[135.16030481388506,34.676976187868206]],[[135.16030481388506,34.676976187868206],[135.15694376480226,34.679049684752115]],[[135.15694376480226,34.679049684752115],[135.15892217496472,34.68036846054802]],[[135.15892217496472,34.68036846054802],[135.15851750015878,34.679693183785055],[135.16183358537424,34.67910529577966]],[[135.16183358537424,34.67910529577966],[135.16155818168684,34.67858890766681]],[[135.16155818168684,34.67858890766681],[135.16067576579053,34.6776991312262]],[[135.1624068746827,34.68851150386605],[135.16208650712795,34.689401280306654]],[[135.16208650712795,34.689401280306654],[135.1631487784936,34.6896078355518]],[[135.1631487784936,34.6896078355518],[135.1633342544463,34.688932558788835]],[[135.1633342544463,34.688932558788835],[135.1624068746827,34.68851150386605]],[[135.1671842855863,34.66227104330071],[135.16621756243876,34.66234254319326]],[[135.16621756243876,34.66234254319326],[135.16638055645782,34.66360570796162]],[[135.16638055645782,34.66360570796162],[135.1673247976717,34.66352626363656]],[[135.1673247976717,34.66352626363656],[135.1671842855863,34.66227104330071]],[[135.1683702075871,34.66219159897566],[135.1671842855863,34.66227104330071]],[[135.1673247976717,34.66352626363656],[135.16852196063934,34.6634309304465]],[[135.1624068746827,34.68851150386605],[135.16134460331705,34.68822550429586]],[[135.16205278422746,34.68939333587415],[135.16208650712795,34.689401280306654]],[[135.16289585673988,34.67911324021216],[135.16286213383938,34.67908940691464]],[[135.16286213383938,34.67908940691464],[135.16179986247374,34.67839824128667]],[[135.16179986247374,34.67839824128667],[135.16177176005667,34.67837440798916]],[[135.16177176005667,34.67837440798916],[135.16155818168684,34.67858890766681]],[[135.16183358537424,34.67910529577966],[135.16247432048368,34.67952635070244]],[[135.16247432048368,34.67952635070244],[135.16289585673988,34.67911324021216]],[[135.16621756243876,34.66234254319326],[135.16484616448523,34.66242993195082]],[[135.16484616448523,34.66242993195082],[135.1649698151204,34.6637248744492]],[[135.1649698151204,34.6637248744492],[135.16638055645782,34.66360570796162]],[[135.1744571911267,34.660451768256976],[135.17252374483155,34.6609284342073]],[[135.17252374483155,34.6609284342073],[135.17259119063255,34.66127798923753]],[[135.17259119063255,34.66127798923753],[135.17542391427423,34.66188971054045]],[[135.17542391427423,34.66188971054045],[135.1758960348812,34.66023726857933]],[[135.1758960348812,34.66023726857933],[135.17566559506113,34.660126046524255]],[[135.17566559506113,34.660126046524255],[135.1744571911267,34.660451768256976]],[[135.1641998088924,34.688861058896286],[135.16334549541315,34.68890078105881]],[[135.16334549541315,34.68890078105881],[135.1633342544463,34.688932558788835]],[[135.16397498955575,34.6897587797694],[135.1641998088924,34.688861058896286]],[[135.1735185703962,34.66707742496648],[135.17388390181824,34.66823731211227]],[[135.17388390181824,34.66823731211227],[135.17483376351555,34.667983090272095]],[[135.17483376351555,34.667983090272095],[135.1735185703962,34.66707742496648]],[[135.16219329631286,34.66236637649077],[135.16071510917445,34.663113153146284]],[[135.16096803092816,34.663264097363886],[135.16208650712795,34.66397115185687]],[[135.16208650712795,34.66397115185687],[135.1637782726362,34.66381226320676]],[[135.1637782726362,34.66381226320676],[135.16363214006736,34.66250937627587]],[[135.16363214006736,34.66250937627587],[135.16219329631286,34.66236637649077]],[[135.16471127288327,34.66374870774671],[135.1649698151204,34.6637248744492]],[[135.16484616448523,34.66242993195082],[135.16363214006736,34.66250937627587]],[[135.1637782726362,34.66381226320676],[135.16471127288327,34.66374870774671]],[[135.17017438276366,34.68403878836551],[135.17060715998667,34.68289479008473]],[[135.16176051908982,34.689822335229444],[135.16226636259728,34.690092445934624]],[[135.16226636259728,34.690092445934624],[135.16274972417105,34.69038638993732]],[[135.17696954721364,34.66057887917706],[135.17664917965894,34.66045971268948]],[[135.17664917965894,34.66045971268948],[135.1758960348812,34.662421987518314]],[[135.1758960348812,34.662421987518314],[135.1759353782651,34.662421987518314]],[[135.1759353782651,34.662421987518314],[135.17605340841683,34.66245376524834]],[[135.17605340841683,34.66245376524834],[135.17799247519537,34.662469654113345],[135.1784589753189,34.66102376739736]],[[135.1784589753189,34.66102376739736],[135.17696954721364,34.66057887917706]],[[135.17129847944685,34.691458888325556],[135.1712816179966,34.691458888325556]],[[135.1712816179966,34.691458888325556],[135.17069146723793,34.69389782910471]],[[135.17069146723793,34.69389782910471],[135.17239447371298,34.69440627278506]],[[135.17239447371298,34.69440627278506],[135.1733780583108,34.691871998815834]],[[135.1733780583108,34.691871998815834],[135.17129847944685,34.691458888325556]],[[135.17018562373048,34.66623531512091],[135.16887043061112,34.66633859274348]],[[135.16887043061112,34.66633859274348],[135.16898284027945,34.66735548010417]],[[135.16898284027945,34.66735548010417],[135.1689997017297,34.66752231318678]],[[135.1689997017297,34.66752231318678],[135.17032613581588,34.667291924644125]],[[135.17032613581588,34.667291924644125],[135.17018562373048,34.66623531512091]],[[135.17664917965894,34.66045971268948],[135.1758960348812,34.66023726857933]],[[135.17542391427423,34.66188971054045],[135.17575552279578,34.662398154220796]],[[135.17575552279578,34.662398154220796],[135.1758960348812,34.662421987518314]],[[135.1712422746127,34.672352528150064],[135.17009569599583,34.67271002761281]],[[135.17009569599583,34.67271002761281],[135.1710624191434,34.674878857686785]],[[135.1710624191434,34.674878857686785],[135.1722258592105,34.674529302656545]],[[135.1722258592105,34.674529302656545],[135.1712422746127,34.672352528150064]],[[135.16085562125986,34.66744286886173],[135.16268789885348,34.66858686714251]],[[135.16268789885348,34.66858686714251],[135.16337359783023,34.667705035134404]],[[135.16337359783023,34.667705035134404],[135.16162562748784,34.66665637004369]],[[135.16162562748784,34.66665637004369],[135.16085562125986,34.66744286886173]],[[135.16887043061112,34.66633859274348],[135.16765640619326,34.66643392593354]],[[135.16765640619326,34.66643392593354],[135.1677688158616,34.66744286886173]],[[135.1677688158616,34.66744286886173],[135.16898284027945,34.66735548010417]],[[135.17172001570307,34.672352528150064],[135.1714839553996,34.672233361662485]],[[135.1714839553996,34.672233361662485],[135.1712422746127,34.672352528150064]],[[135.1722258592105,34.674529302656545],[135.17367594393184,34.67363158178343]],[[135.17367594393184,34.67363158178343],[135.1738614198846,34.673496526430846]],[[135.1738614198846,34.673496526430846],[135.1728441123863,34.67294836058797]],[[135.1728441123863,34.67294836058797],[135.17172001570307,34.672352528150064]],[[135.16362651958397,34.6688728667127],[135.16500915850432,34.66869014476507]],[[135.16500915850432,34.66869014476507],[135.16337359783023,34.667705035134404]],[[135.16268789885348,34.66858686714251],[135.16260921208564,34.668721922495095]],[[135.16260921208564,34.668721922495095],[135.16362651958397,34.6688728667127]],[[135.16765640619326,34.66643392593354],[135.16670092401253,34.66650542582609]],[[135.16670092401253,34.66650542582609],[135.16631873114025,34.66687881415385]],[[135.16631873114025,34.66687881415385],[135.1677688158616,34.66744286886173]],[[135.16136146476728,34.67518869055449],[135.16043970548705,34.67610230029261]],[[135.16043970548705,34.67610230029261],[135.1615075973361,34.676825243650605]],[[135.1615075973361,34.676825243650605],[135.16239001323243,34.67591957834499]],[[135.16239001323243,34.67591957834499],[135.16136146476728,34.67518869055449]],[[135.1615075973361,34.676825243650605],[135.1625923506354,34.677564075873605]],[[135.1625923506354,34.677564075873605],[135.16344666411464,34.6766663550005]],[[135.16344666411464,34.6766663550005],[135.16239001323243,34.67591957834499]],[[135.17420988985637,34.653969111332565],[135.1746089441789,34.653055501594444]],[[135.1746089441789,34.653055501594444],[135.17486186593263,34.65250733575157]],[[135.17486186593263,34.65250733575157],[135.17372090779918,34.65250733575157]],[[135.17372090779918,34.65250733575157],[135.17329375105956,34.653699000627384]],[[135.17329375105956,34.653699000627384],[135.17420988985637,34.653969111332565]],[[135.17252374483155,34.6609284342073],[135.17174811812015,34.66088076761227]],[[135.17174811812015,34.66088076761227],[135.17164694941866,34.66087282317976]],[[135.17164694941866,34.66087282317976],[135.17118606977854,34.66242993195082]],[[135.17118606977854,34.66242993195082],[135.17259119063255,34.66127798923753]],[[135.16658851434423,34.66552826062792],[135.16495857415356,34.66591753782069]],[[135.16603770696943,34.66668020334121],[135.16631873114025,34.66687881415385]],[[135.16670092401253,34.66650542582609],[135.16658851434423,34.66552826062792]],[[135.1687636414262,34.66536937197782],[135.16754961700835,34.665456760735374]],[[135.16754961700835,34.665456760735374],[135.16765640619326,34.66643392593354]],[[135.16887043061112,34.66633859274348],[135.1687636414262,34.66536937197782]],[[135.15861304837685,34.68368128890277],[135.15841071097387,34.68356212241518]],[[135.15841071097387,34.68356212241518],[135.157966692784,34.68422151031314]],[[135.157966692784,34.68422151031314],[135.1587760423959,34.68472995399348]],[[135.1587760423959,34.68472995399348],[135.15937181363802,34.68413412155557]],[[135.15937181363802,34.68413412155557],[135.15861304837685,34.68368128890277]],[[135.1744571911267,34.660451768256976],[135.17451339596084,34.65863249321324]],[[135.17451339596084,34.65863249321324],[135.17228768452807,34.658441826833105]],[[135.17228768452807,34.658441826833105],[135.17174811812015,34.66088076761227]],[[135.16061956095638,34.686859061904926],[135.16096803092816,34.686215562871986]],[[135.16096803092816,34.686215562871986],[135.1602486090509,34.68595339659931]],[[135.1602486090509,34.68595339659931],[135.15994510294644,34.6865253957397]],[[135.15994510294644,34.6865253957397],[135.15998444633036,34.68654128460471]],[[135.15998444633036,34.68654128460471],[135.16061956095638,34.686859061904926]],[[135.15970342215957,34.6843247879357],[135.15937181363802,34.68413412155557]],[[135.1587760423959,34.68472995399348],[135.15990575956255,34.685492619514]],[[135.15990575956255,34.685492619514],[135.16029919340167,34.68472200956097]],[[135.16029919340167,34.68472200956097],[135.16031043436848,34.684706120695964]],[[135.16031043436848,34.684706120695964],[135.15970342215957,34.6843247879357]],[[135.17525529977175,34.65701977341464],[135.17532836605616,34.656844995899526]],[[135.17532836605616,34.656844995899526],[135.17519347445418,34.656892662494556]],[[135.17519347445418,34.656892662494556],[135.1733443354103,34.65767121688008]],[[135.1733443354103,34.65767121688008],[135.17242257613006,34.658052549640345]],[[135.17242257613006,34.658052549640345],[135.17228768452807,34.658441826833105]],[[135.17451339596084,34.65863249321324],[135.17476069723114,34.65810816066788]],[[135.17476069723114,34.65810816066788],[135.17525529977175,34.65701977341464]],[[135.17344550411178,34.65571688648376],[135.17301272688874,34.656670218384406]],[[135.17301272688874,34.656670218384406],[135.17406375728754,34.65698005125211]],[[135.17406375728754,34.65698005125211],[135.1744290887096,34.65616177470406]],[[135.1744290887096,34.65616177470406],[135.17344550411178,34.65571688648376]],[[135.17018562373048,34.66623531512091],[135.17008445502898,34.66529787208527]],[[135.17008445502898,34.66529787208527],[135.1687636414262,34.66536937197782]],[[135.15990575956255,34.685492619514],[135.1602486090509,34.68595339659931]],[[135.16096803092816,34.686215562871986],[135.16176051908982,34.68541317518894]],[[135.16176051908982,34.68541317518894],[135.16069824772418,34.68496828696864]],[[135.16069824772418,34.68496828696864],[135.16029919340167,34.68472200956097]],[[135.16742034588978,34.69047377869489],[135.1667177854628,34.69289683060903]],[[135.1667177854628,34.69289683060903],[135.1677126110274,34.69288094174402]],[[135.1677126110274,34.69288094174402],[135.1689266354453,34.690886889185165]],[[135.1689266354453,34.690886889185165],[135.16742034588978,34.69047377869489]],[[135.1767053844931,34.653683111762376],[135.17564311312748,34.65336533446216]],[[135.17564311312748,34.65336533446216],[135.1752328178381,34.65428688863278]],[[135.1752328178381,34.65428688863278],[135.17630070968715,34.654612610365504]],[[135.17630070968715,34.654612610365504],[135.1767053844931,34.653683111762376]],[[135.15563981264975,34.68632678492706],[135.1544988545163,34.68590573000428]],[[135.1544988545163,34.68590573000428],[135.1532735891316,34.685619730434084]],[[135.1532735891316,34.685619730434084],[135.1518010224766,34.685603841569076]],[[135.1518010224766,34.685603841569076],[135.15273964320707,34.68645389584715],[135.15605010793914,34.68724833909769]],[[135.15605010793914,34.68724833909769],[135.15563981264975,34.68632678492706]],[[135.17566559506113,34.660126046524255],[135.17584545053043,34.65928393667868]],[[135.17584545053043,34.65928393667868],[135.1761826795354,34.65853716002317]],[[135.1761826795354,34.65853716002317],[135.17476069723114,34.65810816066788]],[[135.1771550231664,34.65247555802155],[135.17601968551634,34.652491446886565]],[[135.17601968551634,34.652491446886565],[135.17564311312748,34.65336533446216]],[[135.1767053844931,34.653683111762376],[135.1771550231664,34.65247555802155]],[[135.17687399899557,34.65875165970082],[135.1763512940379,34.65951432522134]],[[135.1763512940379,34.65951432522134],[135.1758960348812,34.66023726857933]],[[135.17664917965894,34.66045971268948],[135.17687399899557,34.65875165970082]],[[135.17048350935153,34.688368504080955],[135.1689266354453,34.690886889185165]],[[135.1689266354453,34.690886889185165],[135.1712816179966,34.691458888325556]],[[135.17129847944685,34.691458888325556],[135.17233826887883,34.68924239165655]],[[135.17233826887883,34.68924239165655],[135.17245629903056,34.68921855835903]],[[135.17245629903056,34.68921855835903],[135.17048350935153,34.688368504080955]],[[135.17066336482085,34.66952431017814],[135.17026993098173,34.66930186606799]],[[135.17026993098173,34.66930186606799],[135.16895473786238,34.67088280813657]],[[135.16895473786238,34.67088280813657],[135.17037672016662,34.671637529224576]],[[135.17037672016662,34.671637529224576],[135.17046102741787,34.67168519581961]],[[135.17046102741787,34.67168519581961],[135.17148957588302,34.66999303169596]],[[135.17148957588302,34.66999303169596],[135.17066336482085,34.66952431017814]],[[135.15443702919873,34.67899407372458],[135.15101415479836,34.68022546076292],[135.15124459461842,34.682338679809355]],[[135.15124459461842,34.682338679809355],[135.15311059511254,34.68331584500752]],[[135.15311059511254,34.68331584500752],[135.1526778178895,34.681941458184085],[135.15482484255443,34.681131126068536]],[[135.15482484255443,34.681131126068536],[135.15622996340844,34.681178792663566]],[[135.15622996340844,34.681178792663566],[135.15669646353197,34.68121057039359]],[[135.15669646353197,34.68121057039359],[135.15443702919873,34.67899407372458]],[[135.17564311312748,34.65336533446216],[135.1746089441789,34.653055501594444]],[[135.17420988985637,34.653969111332565],[135.17419864888953,34.65399294463008]],[[135.17419864888953,34.65399294463008],[135.17521033590444,34.65433455522781]],[[135.17521033590444,34.65433455522781],[135.1752328178381,34.65428688863278]],[[135.18228652452524,34.6704855865113],[135.1830790126869,34.67006453158851]],[[135.1830790126869,34.67006453158851],[135.1943930458034,34.66890464444272],[135.19360055764173,34.63547447246],[135.18135352427817,34.635267917214854],[135.1666953035291,34.63464825147943],[135.16718990606972,34.64810612014358],[135.16657165289396,34.65188767001615],[135.15946174137267,34.650862838222956],[135.15971466312638,34.65630477448916]],[[135.15971466312638,34.65630477448916],[135.16314315801017,34.65698005125211]],[[135.16314315801017,34.65698005125211],[135.1671168397853,34.66021343528181]],[[135.1671168397853,34.66021343528181],[135.16707749640142,34.65879932629585],[135.16548127911125,34.65738521730989]],[[135.16548127911125,34.65738521730989],[135.16331177251266,34.65670994054693]],[[135.16331177251266,34.65670994054693],[135.16001816923085,34.654366332957835]],[[135.16001816923085,34.654366332957835],[135.15973714506006,34.65149044839088],[135.16281154948862,34.6522531139114]],[[135.16281154948862,34.6522531139114],[135.16378951360304,34.65234050266896]],[[135.16378951360304,34.65234050266896],[135.16578478521572,34.65253116904909]],[[135.16578478521572,34.65253116904909],[135.1692076596161,34.65211805855881]],[[135.1692076596161,34.65211805855881],[135.1727204617511,34.65193533661119]],[[135.1727204617511,34.65193533661119],[135.17295090157117,34.6510693934681],[135.1678362616626,34.65114089336065],[135.16799925568165,34.64805050911605],[135.1739794500363,34.64867017485147]],[[135.1739794500363,34.64867017485147],[135.18330383202354,34.6496076178871],[135.18698524866105,34.65265033553667],[135.184309898555,34.65417566657771],[135.18515297106742,34.65554210896864],[135.18323638622255,34.656733773844444],[135.1826293740136,34.65559771999617],[135.1818874702027,34.657822161097684],[135.1815783436148,34.6554864979411],[135.18054979514966,34.65556594226615],[135.18058351805016,34.658545104455676],[135.1784589753189,34.66102376739736]],[[135.17605340841683,34.66245376524834],[135.17736298105277,34.66388376309931]],[[135.17736298105277,34.66388376309931],[135.1798303732724,34.662421987518314],[135.18270806078144,34.66169109972782],[135.18368602489582,34.663836096504276],[135.18604662793058,34.66323231963386],[135.18740678491724,34.666870869721336],[135.18257316917945,34.668157867787215],[135.18050483128235,34.66787186821702],[135.17872875852288,34.664868872729976],[135.17798123422853,34.664868872729976]],[[135.17798123422853,34.664868872729976],[135.1781835716315,34.66776859059445],[135.17598596261584,34.66781625718948]],[[135.17598596261584,34.66781625718948],[135.17490120931654,34.666966202911404]],[[135.17490120931654,34.666966202911404],[135.17296776302143,34.6649085948925],[135.1727879075521,34.66364543012415]],[[135.1727879075521,34.66364543012415],[135.17328813057614,34.66267620935849],[135.17575552279578,34.662398154220796]],[[135.17118606977854,34.66242993195082],[135.16927510541709,34.66149248891518]],[[135.16927510541709,34.66149248891518],[135.16716742413607,34.660324657336886]],[[135.16716742413607,34.660324657336886],[135.1688254667438,34.66175465518786]],[[135.1721471724427,34.663685152286675],[135.17396258858608,34.66688675858635],[135.17167505183573,34.66719659145406]],[[135.17167505183573,34.66719659145406],[135.17032613581588,34.667291924644125]],[[135.1689997017297,34.66752231318678],[135.17034299726612,34.667411091131704]],[[135.17034299726612,34.667411091131704],[135.17182680488796,34.66727603577911]],[[135.17182680488796,34.66727603577911],[135.17258557014912,34.667188647021554]],[[135.17258557014912,34.667188647021554],[135.1735185703962,34.66707742496648]],[[135.17483376351555,34.667983090272095],[135.1759691011656,34.66809431232717]],[[135.1759691011656,34.66809431232717],[135.17766648715724,34.669468699150606]],[[135.17766648715724,34.669468699150606],[135.1776159028065,34.67015192034607]],[[135.1776159028065,34.67015192034607],[135.17855452353697,34.67056503083635]],[[135.17855452353697,34.67056503083635],[135.18039242161402,34.670723919486456]],[[135.18039242161402,34.670723919486456],[135.18092074705513,34.67077158608149]],[[135.18092074705513,34.67077158608149],[135.18228652452524,34.6704855865113]],[[135.17388390181824,34.66823731211227],[135.17405813680415,34.671438918411944]],[[135.17405813680415,34.671438918411944],[135.17409185970465,34.67147069614197]],[[135.17409185970465,34.67147069614197],[135.1749236912502,34.67192352879477]],[[135.1749236912502,34.67192352879477],[135.1751316491366,34.67030286456367]],[[135.1751316491366,34.67030286456367],[135.1749517936673,34.66942103255557]],[[135.1749517936673,34.66942103255557],[135.17483376351555,34.667983090272095]],[[135.15776435538103,34.672900693992936],[135.15694376480226,34.67375074827102]],[[135.15694376480226,34.67375074827102],[135.1582814398553,34.67466435800914]],[[135.1582814398553,34.67466435800914],[135.15910765091746,34.67380635929855]],[[135.15910765091746,34.67380635929855],[135.15776435538103,34.672900693992936]],[[135.17525529977175,34.65701977341464],[135.17609275180075,34.657877772125225]],[[135.17609275180075,34.657877772125225],[135.17663231820868,34.65731371741734]],[[135.17663231820868,34.65731371741734],[135.17532836605616,34.656844995899526]],[[135.16219329631286,34.66236637649077],[135.16356469426637,34.661778488485375]],[[135.16356469426637,34.661778488485375],[135.16340732073073,34.660149879821766]],[[135.16340732073073,34.660149879821766],[135.15959663297465,34.66014193538926]],[[135.15959663297465,34.66014193538926],[135.15962473539173,34.66242993195082]],[[135.17009569599583,34.67271002761281],[135.16884794867747,34.673091360373064]],[[135.16884794867747,34.673091360373064],[135.1688648101277,34.673146971400605]],[[135.1688648101277,34.673146971400605],[135.16943809943615,34.67466435800914]],[[135.16943809943615,34.67466435800914],[135.16955612958787,34.67494241314682]],[[135.16955612958787,34.67494241314682],[135.16969664167328,34.675276079312056]],[[135.16969664167328,34.675276079312056],[135.1710624191434,34.674878857686785]],[[135.17603092648318,34.66937336596054],[135.1749517936673,34.66942103255557]],[[135.1751316491366,34.67030286456367],[135.17606464938368,34.67024725353613]],[[135.17606464938368,34.67024725353613],[135.17603092648318,34.66937336596054]],[[135.1703317562993,34.686390340387106],[135.16943809943615,34.68607256308689]],[[135.16852196063934,34.68790772699564],[135.16742034588978,34.69047377869489]],[[135.17048350935153,34.688368504080955],[135.1703317562993,34.686390340387106]],[[135.15966969925907,34.665536205060434],[135.1581802711538,34.66703770280395]],[[135.1581802711538,34.66703770280395],[135.160141819866,34.66816581221972]],[[135.160141819866,34.66816581221972],[135.16085562125986,34.66744286886173]],[[135.16162562748784,34.66665637004369],[135.15966969925907,34.665536205060434]],[[135.17381083553383,34.6549065543682],[135.172962142538,34.65463644366302]],[[135.172962142538,34.65463644366302],[135.1726417749833,34.6554864979411]],[[135.1726417749833,34.6554864979411],[135.17344550411178,34.65571688648376]],[[135.17344550411178,34.65571688648376],[135.17381083553383,34.6549065543682]],[[135.1725687086989,34.652404058129],[135.1727204617511,34.65193533661119]],[[135.1692076596161,34.65211805855881],[135.1690390451136,34.6550495541533]],[[135.1690390451136,34.6550495541533],[135.17179870247088,34.655359387021015]],[[135.17179870247088,34.655359387021015],[135.17200103987386,34.655303775993474]],[[135.17200103987386,34.655303775993474],[135.17231578694518,34.6544537217154]],[[135.17231578694518,34.6544537217154],[135.1721471724427,34.65346066765222]],[[135.1721471724427,34.65346066765222],[135.1725687086989,34.652404058129]],[[135.17388390181824,34.66823731211227],[135.172962142538,34.66845975622242]],[[135.172962142538,34.66845975622242],[135.1732431667088,34.67097814132663]],[[135.1732431667088,34.67097814132663],[135.17405813680415,34.671438918411944]],[[135.1581802711538,34.66703770280395],[135.15878166287933,34.66826908984229]],[[135.15878166287933,34.66826908984229],[135.15996758488012,34.66836442303235]],[[135.15996758488012,34.66836442303235],[135.160141819866,34.66816581221972]],[[135.17301272688874,34.656670218384406],[135.17237199177933,34.65647955200427]],[[135.17237199177933,34.65647955200427],[135.17185490730506,34.657822161097684]],[[135.17185490730506,34.657822161097684],[135.1716581903855,34.65837032694056]],[[135.1716581903855,34.65837032694056],[135.17242257613006,34.658052549640345]],[[135.17242257613006,34.658052549640345],[135.17301272688874,34.656670218384406]],[[135.15334665541602,34.683768677660325],[135.15331855299894,34.68378456652534]],[[135.15331855299894,34.68378456652534],[135.15158182362336,34.685476730648986]],[[135.15158182362336,34.685476730648986],[135.1518010224766,34.685603841569076]],[[135.1532735891316,34.685619730434084],[135.15334665541602,34.683768677660325]],[[135.16661099627788,34.67712713208581],[135.16555996587908,34.678136075013995]],[[135.16555996587908,34.678136075013995],[135.1666503396618,34.67889079610201]],[[135.1666953035291,34.67884312950698],[135.16769574957718,34.677865964308815]],[[135.16769574957718,34.677865964308815],[135.16661099627788,34.67712713208581]],[[135.1580397590684,34.68334762273754],[135.15738216250872,34.682958345544776]],[[135.15738216250872,34.682958345544776],[135.15689880093495,34.68348267809013]],[[135.15689880093495,34.68348267809013],[135.157264132357,34.68378456652534]],[[135.157264132357,34.68378456652534],[135.157966692784,34.68422151031314]],[[135.15841071097387,34.68356212241518],[135.1580397590684,34.68334762273754]],[[135.16446959209637,34.675665356504815],[135.16348600749856,34.67669813273052]],[[135.16348600749856,34.67669813273052],[135.16453141741394,34.677421076088514]],[[135.16453141741394,34.677421076088514],[135.1655712068459,34.676412133160326]],[[135.1655712068459,34.676412133160326],[135.16446959209637,34.675665356504815]],[[135.15563981264975,34.68632678492706],[135.15643230081142,34.68643006254963]],[[135.15643230081142,34.68643006254963],[135.1570224515701,34.68484117604856]],[[135.1570224515701,34.68484117604856],[135.15664587918124,34.684706120695964]],[[135.15664587918124,34.684706120695964],[135.15612879470694,34.68449162101832]],[[135.15612879470694,34.68449162101832],[135.1544988545163,34.68590573000428]],[[135.17521033590444,34.65433455522781],[135.17483376351555,34.65521638723592]],[[135.17483376351555,34.65521638723592],[135.17591851681485,34.65554210896864]],[[135.17591851681485,34.65554210896864],[135.17630070968715,34.654612610365504]],[[135.1744290887096,34.65616177470406],[135.17483376351555,34.65521638723592]],[[135.17483376351555,34.65521638723592],[135.17381083553383,34.6549065543682]],[[135.15996758488012,34.66836442303235],[135.16079379594228,34.668475645087426]],[[135.16079379594228,34.668475645087426],[135.16236753129877,34.66869014476507]],[[135.16236753129877,34.66869014476507],[135.16260921208564,34.668721922495095]],[[135.16555996587908,34.678136075013995],[135.1653913513766,34.678016908526416]],[[135.1653913513766,34.678016908526416],[135.16456514031444,34.678882851669506]],[[135.16456514031444,34.678882851669506],[135.16561055022981,34.67980440584013]],[[135.17601968551634,34.652491446886565],[135.17486186593263,34.65250733575157]],[[135.15853998209244,34.68576273021918],[135.15840509049045,34.68674783984985]],[[135.15840509049045,34.68674783984985],[135.15874793997884,34.68694645066249]],[[135.15874793997884,34.68694645066249],[135.16011933793234,34.687772671643046]],[[135.16013057889919,34.68778061607555],[135.16012495841576,34.68770911618301]],[[135.16012495841576,34.68770911618301],[135.15998444633036,34.68654128460471]],[[135.15994510294644,34.6865253957397],[135.15853998209244,34.68576273021918]],[[135.1739794500363,34.64867017485147],[135.17375463069968,34.65153017055341]],[[135.17375463069968,34.65153017055341],[135.17713816171613,34.65164139260848]],[[135.17713816171613,34.65164139260848],[135.1771550231664,34.65247555802155]],[[135.17591851681485,34.65554210896864],[135.17532836605616,34.656844995899526]],[[135.17663231820868,34.65731371741734],[135.1771662641332,34.6588787706209]],[[135.1771662641332,34.6588787706209],[135.17696954721364,34.66057887917706]],[[135.16348600749856,34.67669813273052],[135.16344666411464,34.6766663550005]],[[135.1625923506354,34.677564075873605],[135.16368834490154,34.67830290809661]],[[135.16368834490154,34.67830290809661],[135.16453141741394,34.677421076088514]],[[135.1763512940379,34.65951432522134],[135.17584545053043,34.65928393667868]],[[135.16453141741394,34.677421076088514],[135.1653913513766,34.678016908526416]],[[135.16661099627788,34.67712713208581],[135.1655712068459,34.676412133160326]],[[135.15918633768527,34.673734859406004],[135.15910765091746,34.67380635929855]],[[135.1582814398553,34.67466435800914],[135.1593661931546,34.67538730136713]],[[135.1593661931546,34.67538730136713],[135.160276711468,34.6744657471965]],[[135.160276711468,34.6744657471965],[135.15918633768527,34.673734859406004]],[[135.15993948246302,34.68163162531637],[135.1596191149083,34.68126618142112]],[[135.1596191149083,34.68126618142112],[135.15738216250872,34.682958345544776]],[[135.1580397590684,34.68334762273754],[135.15993948246302,34.68163162531637]],[[135.16378951360304,34.65234050266896],[135.16456514031444,34.653285890137106]],[[135.16456514031444,34.653285890137106],[135.1668301951311,34.653349445597144]],[[135.1668301951311,34.653349445597144],[135.16578478521572,34.65253116904909]],[[135.16368834490154,34.67830290809661],[135.16456514031444,34.678882851669506]],[[135.15643230081142,34.68643006254963],[135.15840509049045,34.68674783984985]],[[135.15853998209244,34.68576273021918],[135.15833202420603,34.68536550859391]],[[135.15833202420603,34.68536550859391],[135.1570224515701,34.68484117604856]],[[135.1556622945834,34.68782033823808],[135.15506652334133,34.688932558788835],[135.15675266836612,34.68923444722404]],[[135.15675266836612,34.68923444722404],[135.15819151212065,34.689401280306654]],[[135.15819151212065,34.689401280306654],[135.15764070474586,34.687995115753196]],[[135.15764070474586,34.687995115753196],[135.1556622945834,34.68782033823808]],[[135.16852196063934,34.6634309304465],[135.16863437030764,34.664376317914645]],[[135.16863437030764,34.664376317914645],[135.16870743659206,34.66503570581259]],[[135.16870743659206,34.66503570581259],[135.17128723848003,34.664845039432464]],[[135.17128723848003,34.664845039432464],[135.1710961420439,34.66364543012415]],[[135.16716742413607,34.660324657336886],[135.1671449422024,34.66026904630935]],[[135.1671449422024,34.66026904630935],[135.16633559259049,34.6606265457721]],[[135.16633559259049,34.6606265457721],[135.1671842855863,34.66227104330071]],[[135.16001816923085,34.654366332957835],[135.16247994096707,34.654366332957835]],[[135.16247994096707,34.654366332957835],[135.16281154948862,34.6522531139114]],[[135.15908516898378,34.68058296022566],[135.15897275931547,34.68047173817058]],[[135.15897275931547,34.68047173817058],[135.15669646353197,34.68121057039359]],[[135.15622996340844,34.681178792663566],[135.15738216250872,34.682958345544776]],[[135.1596191149083,34.68126618142112],[135.15908516898378,34.68058296022566]],[[135.16817911115095,34.65499394312577],[135.1666953035291,34.65493038766572]],[[135.1666953035291,34.65493038766572],[135.16655479144373,34.65492244323322]],[[135.16655479144373,34.65492244323322],[135.16615011663777,34.656860884764534]],[[135.16615011663777,34.656860884764534],[135.16733041815513,34.657901605422744]],[[135.16733041815513,34.657901605422744],[135.16817911115095,34.65499394312577]],[[135.15612879470694,34.68449162101832],[135.15578032473516,34.683943455175445]],[[135.15578032473516,34.683943455175445],[135.15334665541602,34.683768677660325]],[[135.16313753752675,34.68553234167653],[135.16179424199032,34.68542111962145]],[[135.16179424199032,34.68542111962145],[135.1616424889381,34.68718478363765]],[[135.1616424889381,34.68718478363765],[135.1627722061047,34.68724833909769]],[[135.1627722061047,34.68724833909769],[135.1629127181901,34.687256283530196]],[[135.1629127181901,34.687256283530196],[135.16313753752675,34.68553234167653]],[[135.17690210141265,34.674600802549094],[135.175974721649,34.67255908339521]],[[135.175974721649,34.67255908339521],[135.17567683602795,34.6744657471965],[135.17690210141265,34.674600802549094]],[[135.1744290887096,34.65616177470406],[135.17519347445418,34.656892662494556]],[[135.16204154326064,34.67267030545028],[135.1612265731653,34.673496526430846]],[[135.1612265731653,34.673496526430846],[135.1623057059812,34.67421946978883]],[[135.1623057059812,34.67421946978883],[135.16278344707155,34.67453724708905]],[[135.16278344707155,34.67453724708905],[135.1635703147498,34.67369513724348]],[[135.1635703147498,34.67369513724348],[135.16312629655994,34.67340119324078]],[[135.16312629655994,34.67340119324078],[135.16204154326064,34.67267030545028]],[[135.16431221856072,34.68439628782825],[135.16333987492973,34.68370512220028]],[[135.16333987492973,34.68370512220028],[135.16332863396292,34.68371306663279]],[[135.16332863396292,34.68371306663279],[135.16179424199032,34.68542111962145]],[[135.16313753752675,34.68553234167653],[135.16323870622824,34.68554028610903]],[[135.16323870622824,34.68554028610903],[135.16431221856072,34.68439628782825]],[[135.16394126665526,34.68562767486659],[135.1637782726362,34.68731189455774]],[[135.1637782726362,34.68731189455774],[135.16443586919587,34.687351616720264]],[[135.16443586919587,34.687351616720264],[135.1645876222481,34.686295007197046]],[[135.16464944756567,34.68585806340925],[135.16463820659885,34.68585806340925]],[[135.16463820659885,34.68585806340925],[135.16394126665526,34.68562767486659]],[[135.1673247976717,34.66352626363656],[135.16743720734004,34.664471651104705]],[[135.16743720734004,34.664471651104705],[135.16863437030764,34.664376317914645]],[[135.16443586919587,34.687351616720264],[135.1641998088924,34.688861058896286]],[[135.16397498955575,34.6897587797694],[135.16587471295037,34.690140112529654]],[[135.16587471295037,34.690140112529654],[135.16557682732932,34.68770911618301]],[[135.15892217496472,34.68036846054802],[135.15897275931547,34.68047173817058]],[[135.15908516898378,34.68058296022566],[135.16085000077643,34.681091403906]],[[135.16085000077643,34.681091403906],[135.16247432048368,34.67952635070244]],[[135.16210898906164,34.682974234409784],[135.16149073588585,34.68254523505449]],[[135.16149073588585,34.68254523505449],[135.15970342215957,34.6843247879357]],[[135.16031043436848,34.684706120695964],[135.16210898906164,34.682974234409784]],[[135.17687399899557,34.65875165970082],[135.17640187838862,34.658219382722955]],[[135.17640187838862,34.658219382722955],[135.1761826795354,34.65853716002317]],[[135.17128723848003,34.664845039432464],[135.17135468428103,34.665234316625224]],[[135.17135468428103,34.665234316625224],[135.17150081684983,34.666132037498336]],[[135.17150081684983,34.666132037498336],[135.17167505183573,34.66719659145406]],[[135.17150081684983,34.666132037498336],[135.17018562373048,34.66623531512091]],[[135.16356469426637,34.661778488485375],[135.16473375481692,34.661317711400066]],[[135.16473375481692,34.661317711400066],[135.16633559259049,34.6606265457721]],[[135.16633559259049,34.6606265457721],[135.16340732073073,34.660149879821766]],[[135.16012495841576,34.68770911618301],[135.16061956095638,34.686859061904926]],[[135.16183358537424,34.67106553008419],[135.16077693449202,34.670326697861185]],[[135.16077693449202,34.670326697861185],[135.15987203666205,34.671216474301794]],[[135.15987203666205,34.671216474301794],[135.16096241044474,34.671939417659786]],[[135.16096241044474,34.671939417659786],[135.16183358537424,34.67106553008419]],[[135.1716581903855,34.65837032694056],[135.17037672016662,34.66044382382447]],[[135.17037672016662,34.66044382382447],[135.17164694941866,34.66087282317976]],[[135.16587471295037,34.690140112529654],[135.16742034588978,34.69047377869489]],[[135.16615011663777,34.656860884764534],[135.16548127911125,34.65738521730989]],[[135.1671168397853,34.66021343528181],[135.1671449422024,34.66026904630935]],[[135.1671449422024,34.66026904630935],[135.1687524004594,34.659585825113886]],[[135.1687524004594,34.659585825113886],[135.16733041815513,34.657901605422744]],[[135.16613887567092,34.67398908124618],[135.16558806829616,34.673615692918425]],[[135.16558806829616,34.673615692918425],[135.16507660430528,34.673266137888184]],[[135.16507660430528,34.673266137888184],[135.1642054293758,34.674132081031274]],[[135.1642054293758,34.674132081031274],[135.1652845621917,34.67485502438927]],[[135.1652845621917,34.67485502438927],[135.16613887567092,34.67398908124618]],[[135.1587760423959,34.68472995399348],[135.15833202420603,34.68536550859391]],[[135.1733443354103,34.65767121688008],[135.17406375728754,34.65698005125211]],[[135.16375579070254,34.67993151676022],[135.16387944133768,34.67977262811011]],[[135.16387944133768,34.67977262811011],[135.16289585673988,34.67911324021216]],[[135.16247432048368,34.67952635070244],[135.16375579070254,34.67993151676022]],[[135.16103547672915,34.66413798493948],[135.16267103740324,34.66554414949294]],[[135.16267103740324,34.66554414949294],[135.16338483879707,34.66483709499995]],[[135.16338483879707,34.66483709499995],[135.16208650712795,34.66397115185687]],[[135.16096241044474,34.671939417659786],[135.16013057889919,34.67277358307285]],[[135.16013057889919,34.67277358307285],[135.1612265731653,34.673496526430846]],[[135.16204154326064,34.67267030545028],[135.16096241044474,34.671939417659786]],[[135.16163124797126,34.66942897698808],[135.16132212138336,34.66922242174294]],[[135.16132212138336,34.66922242174294],[135.1604509464539,34.670104253751035]],[[135.1604509464539,34.670104253751035],[135.16077693449202,34.670326697861185]],[[135.16183358537424,34.67106553008419],[135.16271600127055,34.670159864778576]],[[135.16271600127055,34.670159864778576],[135.16163124797126,34.66942897698808]],[[135.16456514031444,34.653285890137106],[135.16426725469339,34.65458083263548]],[[135.16426725469339,34.65458083263548],[135.16655479144373,34.65492244323322]],[[135.1666953035291,34.65493038766572],[135.1668301951311,34.653349445597144]],[[135.17609275180075,34.657877772125225],[135.17640187838862,34.658219382722955]],[[135.17687399899557,34.65875165970082],[135.1771662641332,34.6588787706209]],[[135.17329375105956,34.653699000627384],[135.172962142538,34.65463644366302]],[[135.17381083553383,34.6549065543682],[135.17419864888953,34.65399294463008]],[[135.16177176005667,34.67837440798916],[135.16070948869103,34.677667353496176]],[[135.16070948869103,34.677667353496176],[135.16067576579053,34.6776991312262]],[[135.16484616448523,34.66242993195082],[135.16473375481692,34.661317711400066]],[[135.17258557014912,34.667188647021554],[135.172962142538,34.66845975622242]],[[135.157264132357,34.68378456652534],[135.15664587918124,34.684706120695964]],[[135.1596078739415,34.66319259747134],[135.15966969925907,34.665536205060434]],[[135.16500915850432,34.66869014476507],[135.1662007009885,34.66922242174294]],[[135.1662007009885,34.66922242174294],[135.16712246026873,34.669834143045854]],[[135.16712246026873,34.669834143045854],[135.16730231573806,34.66965142109823]],[[135.16730231573806,34.66965142109823],[135.16745406879028,34.669484588015614]],[[135.16745406879028,34.669484588015614],[135.16533514654245,34.667411091131704]],[[135.16387382085426,34.66659281458365],[135.16267103740324,34.66554414949294]],[[135.16149073588585,34.68254523505449],[135.1604565669373,34.68194940261659]],[[135.1604565669373,34.68194940261659],[135.15861304837685,34.68368128890277]],[[135.1590795485004,34.67205063971486],[135.15882100626322,34.67187586219974]],[[135.15882100626322,34.67187586219974],[135.15776435538103,34.672900693992936]],[[135.15918633768527,34.673734859406004],[135.16013057889919,34.67277358307285]],[[135.16013057889919,34.67277358307285],[135.1590795485004,34.67205063971486]],[[135.1759691011656,34.66809431232717],[135.17603092648318,34.66937336596054]],[[135.17603092648318,34.66937336596054],[135.17766648715724,34.669468699150606]],[[135.1710624191434,34.674878857686785],[135.1716638108689,34.6762214667802]],[[135.1716638108689,34.6762214667802],[135.1718043229543,34.67645979975536]],[[135.1718043229543,34.67645979975536],[135.17300148592193,34.67617380018516]],[[135.17300148592193,34.67617380018516],[135.1729958654385,34.676134078022635]],[[135.1729958654385,34.676134078022635],[135.1722258592105,34.674529302656545]],[[135.17606464938368,34.67024725353613],[135.1765592519243,34.67215391733743]],[[135.1765592519243,34.67215391733743],[135.17686275802873,34.67222541722998]],[[135.17686275802873,34.67222541722998],[135.1781161258305,34.672281028257515],[135.17855452353697,34.67056503083635]],[[135.1776159028065,34.67015192034607],[135.17606464938368,34.67024725353613]],[[135.16341856169757,34.69130794410795],[135.16306447124236,34.69286505287901]],[[135.16306447124236,34.69286505287901],[135.16437966436172,34.69245194238873]],[[135.16437966436172,34.69245194238873],[135.1645201764471,34.692388386928684]],[[135.1645201764471,34.692388386928684],[135.16341856169757,34.69130794410795]],[[135.16340732073073,34.660149879821766],[135.16314315801017,34.65698005125211]],[[135.15971466312638,34.65630477448916],[135.15959663297465,34.66014193538926]],[[135.1604565669373,34.68194940261659],[135.15993948246302,34.68163162531637]],[[135.16884794867747,34.673091360373064],[135.16856130402326,34.672479639070154]],[[135.16856130402326,34.672479639070154],[135.16830838226952,34.67232075042004]],[[135.16830838226952,34.67232075042004],[135.16736414105563,34.67327408232069]],[[135.16736414105563,34.67327408232069],[135.16818473163437,34.67383019259607]],[[135.16818473163437,34.67383019259607],[135.1688648101277,34.673146971400605]],[[135.1716638108689,34.6762214667802],[135.17030927436565,34.67664252170298]],[[135.17030927436565,34.67664252170298],[135.17035423823296,34.67674579932555]],[[135.17035423823296,34.67674579932555],[135.17111300349413,34.67757996473862]],[[135.17111300349413,34.67757996473862],[135.17226520259442,34.67822346377156]],[[135.17226520259442,34.67822346377156],[135.17304644978924,34.678676296424364]],[[135.17304644978924,34.678676296424364],[135.17308579317316,34.67866835199186]],[[135.17308579317316,34.67866835199186],[135.1737377692494,34.6780010196614]],[[135.1737377692494,34.6780010196614],[135.1718043229543,34.67645979975536]],[[135.17034299726612,34.667411091131704],[135.17087694319065,34.66927008833797]],[[135.17087694319065,34.66927008833797],[135.17222023872708,34.668698089197584]],[[135.17222023872708,34.668698089197584],[135.17182680488796,34.66727603577911]],[[135.1743897453257,34.690489667559895],[135.1733780583108,34.691871998815834]],[[135.17239447371298,34.69440627278506],[135.17265301595012,34.694620772462706]],[[135.17265301595012,34.694620772462706],[135.17647494467303,34.694739938950285],[135.1754857395918,34.693524440776955],[135.17583983004704,34.69193555427588],[135.1743897453257,34.690489667559895]],[[135.16446959209637,34.675665356504815],[135.1633904592805,34.674950357579334]],[[135.1633904592805,34.674950357579334],[135.16239001323243,34.67591957834499]],[[135.17245629903056,34.68921855835903],[135.17318134139123,34.68825728202588],[135.1703317562993,34.686390340387106]],[[135.16102985624573,34.68700206169002],[135.16061956095638,34.686859061904926]],[[135.16068138627395,34.68797922688819],[135.16102985624573,34.68700206169002]],[[135.16817911115095,34.65499394312577],[135.1690390451136,34.6550495541533]],[[135.16587471295037,34.690140112529654],[135.16659413482762,34.692714108661406]],[[135.16659413482762,34.692714108661406],[135.1667177854628,34.69289683060903]],[[135.1448372435241,34.68973494647188],[135.14271270079286,34.68980644636443],[135.1404926098435,34.69257905330881],[135.13819383212635,34.69385810694219],[135.13856478403181,34.69526427149564],[135.14049823032693,34.69706765767437],[135.14190897166435,34.69628910328884]],[[135.14190897166435,34.69628910328884],[135.14302744786414,34.69481938327534],[135.14333657445204,34.69258699774132],[135.14826011792448,34.692142109521015],[135.1448372435241,34.68973494647188]],[[135.16743720734004,34.664471651104705],[135.16754961700835,34.665456760735374]],[[135.1687636414262,34.66536937197782],[135.16870743659206,34.66503570581259]],[[135.1638119955367,34.67089075256907],[135.1629127181901,34.67179641787469]],[[135.1629127181901,34.67179641787469],[135.1639862305226,34.672527305665184]],[[135.1639862305226,34.672527305665184],[135.16442462822903,34.672821249667884]],[[135.16442462822903,34.672821249667884],[135.16530704412534,34.67189175106475]],[[135.16530704412534,34.67189175106475],[135.1638119955367,34.67089075256907]],[[135.1639862305226,34.672527305665184],[135.16312629655994,34.67340119324078]],[[135.1635703147498,34.67369513724348],[135.1642054293758,34.674132081031274]],[[135.16507660430528,34.673266137888184],[135.16442462822903,34.672821249667884]],[[135.1749236912502,34.67192352879477],[135.17555880587622,34.67238430588009]],[[135.17555880587622,34.67238430588009],[135.1765592519243,34.67215391733743]],[[135.15987203666205,34.671216474301794],[135.1590795485004,34.67205063971486]],[[135.1615075973361,34.676825243650605],[135.16070948869103,34.677667353496176]],[[135.16179986247374,34.67839824128667],[135.1625923506354,34.677564075873605]],[[135.1612265731653,34.673496526430846],[135.160276711468,34.6744657471965]],[[135.160276711468,34.6744657471965],[135.16136146476728,34.67518869055449]],[[135.16136146476728,34.67518869055449],[135.1623057059812,34.67421946978883]],[[135.16362651958397,34.6688728667127],[135.16367148345128,34.66919858844542]],[[135.16367148345128,34.66919858844542],[135.164761857234,34.669929476235914]],[[135.164761857234,34.669929476235914],[135.1662007009885,34.66922242174294]],[[135.1737377692494,34.6780010196614],[135.1743953658091,34.67731779846594]],[[135.1743953658091,34.67731779846594],[135.17300148592193,34.67617380018516]],[[135.1605577356388,34.668721922495095],[135.15969218119272,34.669564032340666]],[[135.15969218119272,34.669564032340666],[135.1604509464539,34.670104253751035]],[[135.16132212138336,34.66922242174294],[135.1605577356388,34.668721922495095]],[[135.1593661931546,34.67538730136713],[135.16043970548705,34.67610230029261]],[[135.16405929680698,34.66530581651777],[135.16355345329956,34.66494831705503]],[[135.16355345329956,34.66494831705503],[135.16338483879707,34.66483709499995]],[[135.16471127288327,34.665758649170584],[135.16405929680698,34.66530581651777]],[[135.1629127181901,34.67179641787469],[135.16183358537424,34.67106553008419]],[[135.16204154326064,34.67267030545028],[135.1629127181901,34.67179641787469]],[[135.17419864888953,34.675887800614966],[135.1729958654385,34.676134078022635]],[[135.1743953658091,34.67731779846594],[135.17504172140195,34.67645979975536]],[[135.17504172140195,34.67645979975536],[135.17419864888953,34.675887800614966]],[[135.16558806829616,34.673615692918425],[135.1664761046759,34.672678249882786]],[[135.1664761046759,34.672678249882786],[135.16530704412534,34.67189175106475]],[[135.15124459461842,34.682338679809355],[135.15066006434313,34.685127175618746],[135.14894019641784,34.68647772914467]],[[135.14894019641784,34.68647772914467],[135.15158182362336,34.685476730648986]],[[135.15331855299894,34.68378456652534],[135.15311059511254,34.68331584500752]],[[135.15795545181717,34.6750536352019],[135.15605572842253,34.67464052471162]],[[135.15605572842253,34.67464052471162],[135.1556903970005,34.67712713208581]],[[135.1556903970005,34.67712713208581],[135.15694376480226,34.679049684752115]],[[135.16030481388506,34.676976187868206],[135.15978210892737,34.676753743758056]],[[135.15978210892737,34.676753743758056],[135.158804144813,34.67595135607501]],[[135.158804144813,34.67595135607501],[135.15795545181717,34.6750536352019]],[[135.1629127181901,34.687256283530196],[135.1637782726362,34.68731189455774]],[[135.16394126665526,34.68562767486659],[135.16323870622824,34.68554028610903]],[[135.16354783281614,34.69027516788225],[135.16341856169757,34.69130794410795]],[[135.1645201764471,34.692388386928684],[135.16613887567092,34.69263466433635]],[[135.16613887567092,34.69263466433635],[135.16659413482762,34.692714108661406]],[[135.17419864888953,34.675887800614966],[135.17367594393184,34.67363158178343]],[[135.16843765338808,34.675371412502116],[135.1672798338044,34.67473585790169]],[[135.1672798338044,34.67473585790169],[135.16640303839148,34.675617689909785]],[[135.16640303839148,34.675617689909785],[135.16745406879028,34.67631679997026]],[[135.16745406879028,34.67631679997026],[135.16843765338808,34.675371412502116]],[[135.1642054293758,34.674132081031274],[135.1633904592805,34.674950357579334]],[[135.16446959209637,34.675665356504815],[135.1652845621917,34.67485502438927]],[[135.15969218119272,34.669564032340666],[135.15878728336273,34.6704855865113]],[[135.15878728336273,34.6704855865113],[135.15987203666205,34.671216474301794]],[[135.17035423823296,34.67674579932555],[135.16910087043118,34.67742902052102]],[[135.16910087043118,34.67742902052102],[135.16937627411858,34.6784379634492]],[[135.16937627411858,34.6784379634492],[135.17111300349413,34.67757996473862]],[[135.1726417749833,34.6554864979411],[135.17243943758032,34.65625710789412]],[[135.17243943758032,34.65625710789412],[135.17237199177933,34.65647955200427]],[[135.1759353782651,34.66705359166896],[135.17598596261584,34.66781625718948]],[[135.17798123422853,34.664868872729976],[135.17724495090104,34.66433659575212]],[[135.17724495090104,34.66433659575212],[135.17577800472944,34.66381226320676]],[[135.17577800472944,34.66381226320676],[135.1759353782651,34.66705359166896]],[[135.175974721649,34.67255908339521],[135.17555880587622,34.67239225031259]],[[135.17555880587622,34.67239225031259],[135.1738614198846,34.673496526430846]],[[135.17419864888953,34.675887800614966],[135.17663231820868,34.67562563434229]],[[135.17663231820868,34.67562563434229],[135.17759904135625,34.675268134879545]],[[135.17759904135625,34.675268134879545],[135.1773011557352,34.67449752492652]],[[135.1773011557352,34.67449752492652],[135.17690210141265,34.674600802549094]],[[135.17030927436565,34.67664252170298],[135.16969664167328,34.675276079312056]],[[135.16955612958787,34.67494241314682],[135.16890977399504,34.67562563434229]],[[135.16890977399504,34.67562563434229],[135.17035423823296,34.67674579932555]],[[135.1603497777524,34.69262671990385],[135.16088934416035,34.691848165518316]],[[135.16088934416035,34.691848165518316],[135.15948422330632,34.69250755341626]],[[135.15948422330632,34.69250755341626],[135.15969780167615,34.69295244163657]],[[135.15969780167615,34.69295244163657],[135.1603497777524,34.69262671990385]],[[135.17231578694518,34.6544537217154],[135.172962142538,34.65463644366302]],[[135.17329375105956,34.653699000627384],[135.1721471724427,34.65346066765222]],[[135.15878728336273,34.6704855865113],[135.15820275308747,34.670104253751035]],[[135.15820275308747,34.670104253751035],[135.15882100626322,34.67187586219974]],[[135.1743897453257,34.690489667559895],[135.17233826887883,34.68924239165655]],[[135.16205278422746,34.69170516573322],[135.16171555522251,34.69227716487361]],[[135.16171555522251,34.69227716487361],[135.16088934416035,34.691848165518316]],[[135.16088934416035,34.691848165518316],[135.16257548918514,34.6929921637991]],[[135.16257548918514,34.6929921637991],[135.16242373613292,34.69157011038063]],[[135.16242373613292,34.69157011038063],[135.16205278422746,34.69170516573322]],[[135.1727879075521,34.670723919486456],[135.17148957588302,34.66999303169596]],[[135.17046102741787,34.67168519581961],[135.1714839553996,34.672233361662485]],[[135.17172001570307,34.672352528150064],[135.1727879075521,34.670723919486456]],[[135.16613887567092,34.69263466433635],[135.16485178496865,34.693452940884406],[135.16361527861713,34.69740132383959],[135.16100175382866,34.702024983557735],[135.15823085550454,34.70091276300698],[135.1567133249822,34.70204087242275],[135.15922006058577,34.704892923692185],[135.1583601266231,34.706156088460546]],[[135.1583601266231,34.706156088460546],[135.16004627164793,34.70663275441087],[135.16141766960146,34.70999324936065],[135.16118160929798,34.70768141950158],[135.16449769451344,34.709262361570154],[135.1656779960308,34.71088302580126],[135.16686953851502,34.7107956370437],[135.1696685392562,34.712821467332574],[135.17137154573126,34.71062085952858],[135.17192235310605,34.70763375290655],[135.174502154994,34.70407464714413],[135.17441784774277,34.69848971109283],[135.17265301595012,34.694620772462706]],[[135.17069146723793,34.69389782910471],[135.1677126110274,34.69288094174402]],[[135.16754961700835,34.665456760735374],[135.16658851434423,34.66552826062792]],[[135.16179424199032,34.68542111962145],[135.16176051908982,34.68541317518894]],[[135.16102985624573,34.68700206169002],[135.1616424889381,34.68718478363765]],[[135.1644864535466,34.68067034898322],[135.16307571220918,34.68202884694164]],[[135.16307571220918,34.68202884694164],[135.16344666411464,34.68355417798268]],[[135.16344666411464,34.68355417798268],[135.1645932427315,34.680725960010754]],[[135.16624566485584,34.6709384191641],[135.16530704412534,34.67189175106475]],[[135.1664761046759,34.672678249882786],[135.16740910492297,34.67172491798214]],[[135.16740910492297,34.67172491798214],[135.16624566485584,34.6709384191641]],[[135.15689880093495,34.68348267809013],[135.15553302346484,34.6832840672775]],[[135.15553302346484,34.6832840672775],[135.15578032473516,34.683943455175445]],[[135.16247994096707,34.654366332957835],[135.16426725469339,34.65458083263548]],[[135.16134460331705,34.68959194668678],[135.1607038682076,34.69017983469218]],[[135.1607038682076,34.69017983469218],[135.16119847074822,34.690545278587436]],[[135.16119847074822,34.690545278587436],[135.1619235131089,34.69096633351022]],[[135.1619235131089,34.69096633351022],[135.16226636259728,34.690092445934624]],[[135.1607038682076,34.69017983469218],[135.16012495841576,34.689576057821775]],[[135.16012495841576,34.689576057821775],[135.1590907894672,34.690068612637106]],[[135.1590907894672,34.690068612637106],[135.15866363272758,34.69280944185147]],[[135.15866363272758,34.69280944185147],[135.15948422330632,34.69250755341626]],[[135.16171555522251,34.69227716487361],[135.16119847074822,34.690545278587436]],[[135.17133782283076,34.6803446272505],[135.1702586900149,34.68143301450374]],[[135.17125913606296,34.681989124779115],[135.17230454597833,34.6809404596884]],[[135.17230454597833,34.6809404596884],[135.17133782283076,34.6803446272505]],[[135.1759353782651,34.66705359166896],[135.17490120931654,34.666966202911404]],[[135.16313191704336,34.690640611777496],[135.16242373613292,34.69157011038063]],[[135.16257548918514,34.6929921637991],[135.16306447124236,34.69286505287901]],[[135.1627722061047,34.68724833909769],[135.1624068746827,34.68851150386605]],[[135.16334549541315,34.68890078105881],[135.1637782726362,34.68731189455774]],[[135.1633904592805,34.674950357579334],[135.16278344707155,34.67453724708905]],[[135.17037672016662,34.671637529224576],[135.16845451483834,34.67225719496]],[[135.16845451483834,34.67225719496],[135.16856130402326,34.672479639070154]],[[135.15874793997884,34.68694645066249],[135.15764070474586,34.687995115753196]],[[135.15819151212065,34.689401280306654],[135.1590907894672,34.690068612637106]],[[135.1590907894672,34.690068612637106],[135.1596753197425,34.68874189240871]],[[135.1652845621917,34.67485502438927],[135.16640303839148,34.675617689909785]],[[135.1672798338044,34.67473585790169],[135.16645924322563,34.67421152535633]],[[135.16645924322563,34.67421152535633],[135.16613887567092,34.67398908124618]],[[135.16307571220918,34.68202884694164],[135.16085000077643,34.681091403906]],[[135.16210898906164,34.682974234409784],[135.16271038078713,34.68333967830503]],[[135.16271038078713,34.68333967830503],[135.16332863396292,34.68371306663279]],[[135.16333987492973,34.68370512220028],[135.16344666411464,34.68355417798268]],[[135.15969218119272,34.669564032340666],[135.15862428934366,34.668849033415185]],[[135.15862428934366,34.668849033415185],[135.15820275308747,34.670104253751035]],[[135.16271038078713,34.68333967830503],[135.16069824772418,34.68496828696864]],[[135.16638055645782,34.66360570796162],[135.16648172515931,34.664527262132246]],[[135.16648172515931,34.664527262132246],[135.16648172515931,34.664551095429765]],[[135.16648172515931,34.664551095429765],[135.16743720734004,34.664471651104705]],[[135.16134460331705,34.68822550429586],[135.1616424889381,34.68718478363765]],[[135.1603497777524,34.69262671990385],[135.16049591032123,34.69537549355071]],[[135.16049591032123,34.69537549355071],[135.16437966436172,34.69245194238873]],[[135.16890977399504,34.67562563434229],[135.16843765338808,34.675371412502116]],[[135.16745406879028,34.67631679997026],[135.16910087043118,34.67742902052102]],[[135.1655712068459,34.676412133160326],[135.16640303839148,34.675617689909785]],[[135.15482484255443,34.681131126068536],[135.15553302346484,34.6832840672775]],[[135.16736414105563,34.67327408232069],[135.1664761046759,34.672678249882786]],[[135.16645924322563,34.67421152535633],[135.16736414105563,34.67327408232069]],[[135.16648172515931,34.664551095429765],[135.16658851434423,34.66552826062792]],[[135.15866363272758,34.69280944185147],[135.15928750638676,34.69448571711011]],[[135.15928750638676,34.69448571711011],[135.15969780167615,34.69295244163657]],[[135.16236753129877,34.66869014476507],[135.16163124797126,34.66942897698808]],[[135.16271600127055,34.670159864778576],[135.16367148345128,34.66919858844542]],[[135.17008445502898,34.66529787208527],[135.17135468428103,34.665234316625224]],[[135.16818473163437,34.67383019259607],[135.1672798338044,34.67473585790169]],[[135.16943809943615,34.67466435800914],[135.16818473163437,34.67383019259607]],[[135.16012495841576,34.689576057821775],[135.1600631330982,34.689178836196504]],[[135.1689997017297,34.66752231318678],[135.168409550971,34.66823731211227]],[[135.168409550971,34.66823731211227],[135.17026993098173,34.66930186606799]],[[135.17066336482085,34.66952431017814],[135.17087694319065,34.66927008833797]],[[135.17372090779918,34.65250733575157],[135.1725687086989,34.652404058129]],[[135.16205278422746,34.69170516573322],[135.1619235131089,34.69096633351022]],[[135.17056781660278,34.67987590573268],[135.16946620185323,34.68097223741842]],[[135.17133782283076,34.6803446272505],[135.17056781660278,34.67987590573268]],[[135.16355345329956,34.66494831705503],[135.16471127288327,34.66374870774671]],[[135.164761857234,34.669929476235914],[135.1638119955367,34.67089075256907]],[[135.16624566485584,34.6709384191641],[135.164761857234,34.669929476235914]],[[135.1593661931546,34.67538730136713],[135.158804144813,34.67595135607501]],[[135.15978210892737,34.676753743758056],[135.16043970548705,34.67610230029261]],[[135.16751027362446,34.67967729492005],[135.16937627411858,34.6784379634492]],[[135.16910087043118,34.67742902052102],[135.16769574957718,34.677865964308815]],[[135.15694376480226,34.67375074827102],[135.15605572842253,34.67464052471162]],[[135.15795545181717,34.6750536352019],[135.1582814398553,34.67466435800914]],[[135.15928750638676,34.69448571711011],[135.16049591032123,34.69537549355071]],[[135.17710443881563,34.67281330523538],[135.17686275802873,34.67222541722998]],[[135.17555880587622,34.67238430588009],[135.17555880587622,34.67239225031259]],[[135.1773011557352,34.67449752492652],[135.17710443881563,34.67281330523538]],[[135.16648172515931,34.664527262132246],[135.16405929680698,34.66530581651777]],[[135.1556903970005,34.67712713208581],[135.15430775808017,34.67736546506097],[135.15443702919873,34.67899407372458]],[[135.1638119955367,34.67089075256907],[135.16271600127055,34.670159864778576]],[[135.15675266836612,34.68923444722404],[135.1560725898728,34.68994944614953],[135.15290825770956,34.68834467078344],[135.15074437159439,34.68870217024618],[135.14743390686232,34.68789183813063]],[[135.14743390686232,34.68789183813063],[135.1448372435241,34.68973494647188]],[[135.14190897166435,34.69628910328884],[135.14344898412034,34.69679754696918],[135.14457308080355,34.69945098742598],[135.1482994613084,34.699776709158705],[135.1518010224766,34.70229509426292],[135.1538300169898,34.70258109383312],[135.1583601266231,34.706156088460546]],[[135.18228652452524,34.6704855865113],[135.18157272313138,34.67267030545028],[135.18247200047796,34.673496526430846]],[[135.18247200047796,34.673496526430846],[135.1845178564414,34.67225719496],[135.18284857286685,34.671423029546936],[135.1830790126869,34.67006453158851]],[[135.17372090779918,34.65250733575157],[135.17375463069968,34.65153017055341]],[[135.17222023872708,34.668698089197584],[135.172962142538,34.66845975622242]],[[135.16463820659885,34.68585806340925],[135.16431221856072,34.68439628782825]],[[135.16368834490154,34.67830290809661],[135.16286213383938,34.67908940691464]],[[135.16387944133768,34.67977262811011],[135.16456514031444,34.678882851669506]],[[135.1716581903855,34.65837032694056],[135.17114672639462,34.65860071548322]],[[135.17114672639462,34.65860071548322],[135.1688198462604,34.65956199181637]],[[135.1688198462604,34.65956199181637],[135.17037672016662,34.66044382382447]],[[135.17409185970465,34.67147069614197],[135.1728441123863,34.67294836058797]],[[135.1759353782651,34.662421987518314],[135.17578362521286,34.66377254104423]],[[135.17578362521286,34.66377254104423],[135.17577800472944,34.66381226320676]],[[135.17724495090104,34.66433659575212],[135.17736298105277,34.66388376309931]],[[135.17713816171613,34.65164139260848],[135.1771550231664,34.65247555802155]],[[135.16375579070254,34.67993151676022],[135.16443586919587,34.6806465156857]],[[135.1605577356388,34.668721922495095],[135.16079379594228,34.668475645087426]],[[135.15878166287933,34.66826908984229],[135.15862428934366,34.668849033415185]],[[135.17226520259442,34.67822346377156],[135.1713097204137,34.67915296237469]],[[135.1713097204137,34.67915296237469],[135.172124690509,34.6796057950275]],[[135.172124690509,34.6796057950275],[135.17304644978924,34.678676296424364]],[[135.172124690509,34.6796057950275],[135.17133782283076,34.6803446272505]],[[135.17230454597833,34.6809404596884],[135.17310827510684,34.68016984973538]],[[135.17310827510684,34.68016984973538],[135.172124690509,34.6796057950275]],[[135.1732431667088,34.67097814132663],[135.1727879075521,34.670723919486456]],[[135.17037672016662,34.66044382382447],[135.16927510541709,34.66149248891518]],[[135.15605010793914,34.68724833909769],[135.1556622945834,34.68782033823808]],[[135.1713097204137,34.67915296237469],[135.17056781660278,34.67987590573268]],[[135.1679486713309,34.67116086327425],[135.16722924945364,34.66991358737091]],[[135.16722924945364,34.66991358737091],[135.16624566485584,34.6709384191641]],[[135.16740910492297,34.67172491798214],[135.1679486713309,34.67116086327425]],[[135.16830838226952,34.67232075042004],[135.16740910492297,34.67172491798214]],[[135.17222023872708,34.668698089197584],[135.1727879075521,34.670723919486456]],[[135.17310827510684,34.68016984973538],[135.17308579317316,34.67866835199186]],[[135.16745406879028,34.669484588015614],[135.168409550971,34.66823731211227]],[[135.18092074705513,34.67077158608149],[135.1802406685618,34.6743148029789]],[[135.1802406685618,34.6743148029789],[135.18247200047796,34.673496526430846]],[[135.16845451483834,34.67225719496],[135.1679486713309,34.67116086327425]],[[135.1792627044474,34.67300397161551],[135.17710443881563,34.67281330523538]],[[135.17759904135625,34.675268134879545],[135.17896481882636,34.674799413361725]],[[135.17896481882636,34.674799413361725],[135.1792627044474,34.67300397161551]],[[135.17179870247088,34.655359387021015],[135.17179870247088,34.656098219244015]],[[135.17179870247088,34.656098219244015],[135.17243943758032,34.65625710789412]],[[135.1726417749833,34.6554864979411],[135.17200103987386,34.655303775993474]],[[135.16895473786238,34.67088280813657],[135.16730231573806,34.66965142109823]],[[135.16712246026873,34.669834143045854],[135.16722924945364,34.66991358737091]],[[135.16745406879028,34.67631679997026],[135.16661099627788,34.67712713208581]],[[135.17504172140195,34.67645979975536],[135.17663231820868,34.67562563434229]],[[135.17185490730506,34.657822161097684],[135.17128723848003,34.6576871057451]],[[135.17128723848003,34.6576871057451],[135.17114672639462,34.65860071548322]],[[135.1792627044474,34.67300397161551],[135.18039242161402,34.670723919486456]],[[135.17578362521286,34.66377254104423],[135.1727879075521,34.66364543012415]],[[135.16331177251266,34.65670994054693],[135.16426725469339,34.65458083263548]],[[135.1687524004594,34.659585825113886],[135.1688198462604,34.65956199181637]],[[135.17128723848003,34.6576871057451],[135.17179870247088,34.656098219244015]],[[135.17896481882636,34.674799413361725],[135.1802406685618,34.6743148029789]],[[135.14894019641784,34.68647772914467],[135.14743390686232,34.68789183813063]]]}