{"type":"Topology","bbox":[135.16943724656628,34.617628113183386,135.26108908830287,34.735053052520456],"objects":{"town":{"type":"GeometryCollection","geometries":[{"type":"MultiPolygon","arcs":[[[108,109,110,18,19,6,7,8,9,2,3,4,5,0,10,20,106,128,129,130,131]]],"properties":{"name":"相生町"}},{"type":"MultiPolygon","arcs":[[[120,121,122,123,124,47,50,51,118,14,15,16,17,12,119,49,45,125]]],"properties":{"name":"旭通"}},{"type":"MultiPolygon","arcs":[[[53,127,31,26,137,22,23,24,136,28,32,126,55,56]]],"properties":{"name":"吾妻通"}},{"type":"MultiPolygon","arcs":[[[-418,440,457,358,35,36,37,33,355,356,456,442]]],"properties":{"name":"磯辺通"}},{"type":"MultiPolygon","arcs":[[[138,139,140,144,38,39,40,41,42,43,145,150,151,143]]],"properties":{"name":"生田町"}},{"type":"MultiPolygon","arcs":[[[-416,-313,155,157,68,149,135,59,160,158,159,57,132,133,147,148,66,156,153,498,499]]],"properties":{"name":"磯上通"}},{"type":"MultiPolygon","arcs":[[[76,77,78,-445,478,99,100,-543,-422,-216,-215,495,62,63,64,493,-310,97,476,-378,74,-315,406,407]]],"properties":{"name":"小野柄通"}},{"type":"MultiPolygon","arcs":[[[92,93,505,506,102,103,104,70,-264,-579,89,90,91,79,80,81,82,83,84,85,86,87,589,464,72,105,507,95]]],"properties":{"name":"海岸通"}},{"type":"Polygon","arcs":[[111,-92,112,113,114,115,116,117]],"properties":{"name":"明石町"}},{"type":"MultiPolygon","arcs":[[[-64,339,-23,-138,-27,-32,-128,-54,-559,708,503,776,161,671,341]]],"properties":{"name":"北本町通"}},{"type":"MultiPolygon","arcs":[[[-304,500,501,295,296,297,167,246,585,525,521,522,-410,523,584,245,164,165,-257,-345]]],"properties":{"name":"上筒井通"}},{"type":"MultiPolygon","arcs":[[[-86,412,-333,413,540,672,-237,-451,397,223,224,170,171,172,-40,173,225,226,398,673,539,-407,-314,415,416,417,418,419]]],"properties":{"name":"加納町"}},{"type":"Polygon","arcs":[[-82,174,175,176]],"properties":{"name":"京町"}},{"type":"MultiPolygon","arcs":[[[201,202,203,-595,179,-594,-683,-907,527,528,279,-283,648,647,281,529,530,-747,-859,-779,177,772,205,206]]],"properties":{"name":"籠池通"}},{"type":"MultiPolygon","arcs":[[[-634,-196,-291,-295,182,183,-732,752,596,597,-485,330,212,233,234,235,236,232,210,326,327,328,598,753,185,710,785,-642]]],"properties":{"name":"北長狭通"}},{"type":"MultiPolygon","arcs":[[[219,-647,307,238,677,678,187,188,189,679,240,305,-670,221,251,252,253,-151,254]]],"properties":{"name":"神若通"}},{"type":"MultiPolygon","arcs":[[[191,-714,-582,301,-202,302,303,304,-242,603,600,268,269,370,371,372,-42,368,395,-716,-715]]],"properties":{"name":"熊内町"}},{"type":"MultiPolygon","arcs":[[[-349,267,264,318,315,628,626,-383,-576,627,200,194,195,196,325]]],"properties":{"name":"楠町"}},{"type":"MultiPolygon","arcs":[[[868,-658,208,209,-110,-109,-132]]],"properties":{"name":"古湊通"}},{"type":"MultiPolygon","arcs":[[[455,-122,-121,-126,-46,-50,-120,-13,-24,-340,-63,-496,214,215,421,542,-101,-100,-479,444,-79,-78,-77,-408,-540,694,-623]]],"properties":{"name":"雲井通"}},{"type":"MultiPolygon","arcs":[[[-577,-387,228,229,-699,-698,781,782,486,496,-484,-483,-447,-235,-234,-213,-331,484,-598,-597,-753,-731,231,655,293,-183,294,290,-195,-201,-628,-575]]],"properties":{"name":"下山手通"}},{"type":"MultiPolygon","arcs":[[[243,859,716,717,-645,390,599,-43,-373,-372,-371,-270,-269,-601,-604,241,-305,-344,491,492]]],"properties":{"name":"熊内橋通"}},{"type":"MultiPolygon","arcs":[[[249,-567,-725,388,389,-119,-52,-51,-48,-125,-124,-123,-456,622,623,624,-563]]],"properties":{"name":"琴ノ緒町"}},{"type":"MultiPolygon","arcs":[[[256,-166,-165,-246,-585,-524,409,410,411,586,606,604,393,258,342,343,344]]],"properties":{"name":"坂口通"}},{"type":"MultiPolygon","arcs":[[[631,632,509,275,276,739,740,260,261,579,-569,577,-90,578,263,-71,-105,-104,-103,-507,-506,-94,629,652,653,-6]]],"properties":{"name":"栄町通"}},{"type":"MultiPolygon","arcs":[[[-204,-584,590,591,-608,-881,-705,-704,284,285,282,-280,-529,-528,906,682,593,-180,594]]],"properties":{"name":"中島通"}},{"type":"MultiPolygon","arcs":[[[400,-253,-252,-222,669,-306,-241,-680,-190,287,288,289,870,871,426,427,729,668,462,402]]],"properties":{"name":"国香通"}},{"type":"MultiPolygon","arcs":[[[-75,377,-477,-98,309,-494,-65,453,-161,-60,-136,-150,-69,-158,-156,312,313,314]]],"properties":{"name":"御幸通"}},{"type":"MultiPolygon","arcs":[[[662,475,353,373,320,572,573,-519,322,374,351,473,661,619,-288,-189,620]]],"properties":{"name":"大日通"}},{"type":"Polygon","arcs":[[-83,-177,331,332,333,334]],"properties":{"name":"江戸町"}},{"type":"MultiPolygon","arcs":[[[336,337,-489,-346,-19,-111,-210,-209,657,658]]],"properties":{"name":"中町通"}},{"type":"MultiPolygon","arcs":[[[490,347,348,349,-424,-635,641,642,-9,-8,-7,-20,345,488,-338,886,-539,-828]]],"properties":{"name":"多聞通"}},{"type":"MultiPolygon","arcs":[[[-806,823,-367,824,361,404,405,403,359,-560]]],"properties":{"name":"筒井町"}},{"type":"MultiPolygon","arcs":[[[-16,533,534,511,512,736,737,665,666,680,364,365,366,367,681,663,738,514,535]]],"properties":{"name":"東雲通"}},{"type":"MultiPolygon","arcs":[[[574,575,382,383,384,385,379,695,911,-757,-736,480,481,448,449,-398,450,-236,446,482,483,-497,-487,-783,-782,697,698,-230,-229,386,576]]],"properties":{"name":"中山手通"}},{"type":"MultiPolygon","arcs":[[[423,-350,-326,-197,633,634]],[[827,538,536,-319,-265,-268,-348,-491]]],"properties":{"name":"橘通"}},{"type":"Polygon","arcs":[[430,431,432,433,434,-172,435,436,437,438,439]],"properties":{"name":"神戸港地方"}},{"type":"MultiPolygon","arcs":[[[-553,-552,-551,-550,-549,460,458,-419,-443,-457,-357,-356,-34,-38,-473,-133,-58,-160,-612]]],"properties":{"name":"浜辺通"}},{"type":"Polygon","arcs":[[465,466,467,468,469,-87,-420,-459,470]],"properties":{"name":"新港町"}},{"type":"MultiPolygon","arcs":[[[-417,-500,-499,-154,-157,-67,-149,-148,-134,472,-37,-36,-359,-458,-441]]],"properties":{"name":"八幡通"}},{"type":"Polygon","arcs":[[515,-84,-335]],"properties":{"name":"伊藤町"}},{"type":"MultiPolygon","arcs":[[[-662,-474,-352,-375,-323,518,519,516,915,883,917,-405,-362,-825,-366,848,-289,-620]]],"properties":{"name":"割塚通"}},{"type":"MultiPolygon","arcs":[[[-250,562,563,564,-140,-139,-144,-152,-254,-401,588,-534,-15,-390,-389,724,566]]],"properties":{"name":"二宮町"}},{"type":"MultiPolygon","arcs":[[[723,616,-117,-116,544,545,-328,-327,-211,-233,-673,-541,-414,-332,-176]]],"properties":{"name":"三宮町"}},{"type":"Polygon","arcs":[[-461,548,549,550,551,552,553,554,555,-471]],"properties":{"name":"小野浜町"}},{"type":"MultiPolygon","arcs":[[[896,897,561,556,557,558,-57,559,-360,-404,-406,-918,-884,-916,-517,919]]],"properties":{"name":"脇浜町"}},{"type":"Polygon","arcs":[[-114,567,568,569]],"properties":{"name":"西町"}},{"type":"MultiPolygon","arcs":[[[-695,-674,-399,-227,-226,-174,-39,-145,-141,-565,-564,-625,-624]]],"properties":{"name":"布引町"}},{"type":"Polygon","arcs":[[-302,581,582,583,-203]],"properties":{"name":"中尾町"}},{"type":"MultiPolygon","arcs":[[[707,-285,703,704,880,607,-592,608,-713,900]]],"properties":{"name":"神仙寺通"}},{"type":"MultiPolygon","arcs":[[[761,762,614,611,-159,612,763]]],"properties":{"name":"真砂通"}},{"type":"MultiPolygon","arcs":[[[-439,-438,-437,-436,-171,-225,617,702,676,-760,-734]]],"properties":{"name":"北野町"}},{"type":"Polygon","arcs":[[635,-432,636,637]],"properties":{"name":"諏訪山町"}},{"type":"MultiPolygon","arcs":[[[686,840,-925,-921,927,839,-837,688,689,690,691,-745,-797,767,768,769,770,875,-468,-467,764,904,638,684,722]]],"properties":{"name":"港島"}},{"type":"MultiPolygon","arcs":[[[-146,-44,-600,-391,644,-718,-717,-860,-244,-493,784,-188,-679,-678,-239,-308,646,-220,-255]]],"properties":{"name":"旗塚通"}},{"type":"MultiPolygon","arcs":[[[-259,-394,-605,-607,-587,-412,865,-573,-321,-374,-354,-476,-663,-621,-785,-492,-343]]],"properties":{"name":"宮本通"}},{"type":"MultiPolygon","arcs":[[[-856,-855,700,-854,-853,-858,-857,-545,-115,-570,-580,-262,-261,-741,-740,-277,-276,-510,-633,-632,-5,-4]]],"properties":{"name":"元町通"}},{"type":"Polygon","arcs":[[-396,-369,-41,-173,-435,711,712,-609,-591,-583,713,-192,714,715]],"properties":{"name":"葺合町"}},{"type":"MultiPolygon","arcs":[[[-206,-773,-178,778,858,746,-531,-530,-282,-648,912,-522,-526,-586,-247,-168,-298,-297,-296,-502,-501,-303,-207]]],"properties":{"name":"野崎通"}},{"type":"Polygon","arcs":[[-294,-656,-232,730,731,-184]],"properties":{"name":"花隈町"}},{"type":"MultiPolygon","arcs":[[[-386,-900,-638,-637,-431,-440,733,759,-677,-703,-618,-224,-450,-449,-482,-481,735,756,-912,-696,-380]]],"properties":{"name":"山本通"}},{"type":"MultiPolygon","arcs":[[[-690,-689,836,837,-816,832,833,-770,-769,-768,796,744,-692,-691]]],"properties":{"name":"港島中町"}},{"type":"MultiPolygon","arcs":[[[-18,793,750,806,828,-917,804,805,-56,-127,-33,-29,-137,-25]]],"properties":{"name":"日暮通"}},{"type":"MultiPolygon","arcs":[[[-17,-536,-515,-739,-664,-682,-368,-824,-805,916,-829,-807,-751,-794]]],"properties":{"name":"八雲通"}},{"type":"Polygon","arcs":[[-113,-91,-578,-568]],"properties":{"name":"前町"}},{"type":"Polygon","arcs":[[773,774,-653,-630,-93,775]],"properties":{"name":"弁天町"}},{"type":"MultiPolygon","arcs":[[[872,913,892,845,928,830,-130,-129,-107,-21,-11,-1,-654,-775,786,874]]],"properties":{"name":"東川崎町"}},{"type":"MultiPolygon","arcs":[[[-454,-342,-672,-162,-777,-504,-709,-558,801,-820,-819,-818,-762,-764,-613]]],"properties":{"name":"南本町通"}},{"type":"MultiPolygon","arcs":[[[-365,-681,-667,-666,-738,-737,-513,-512,-535,-589,-403,-463,-669,-730,-428,-427,-872,-871,-290,-849]]],"properties":{"name":"若菜通"}},{"type":"MultiPolygon","arcs":[[[815,-838,-840,-928,920,921,843,905,-833]]],"properties":{"name":"港島南町"}},{"type":"MultiPolygon","arcs":[[[929,-926,908,-555,-554,-615,-763,817,818,819,-802,-557,-562,-898,909]]],"properties":{"name":"脇浜海岸通"}},{"type":"Polygon","arcs":[[825,-80,-112]],"properties":{"name":"播磨町"}},{"type":"Polygon","arcs":[[852,853,-701,854,855,-3,-10,-643,-786,-711,-186,-754,-599,-329,-546,856,857]],"properties":{"name":"元町高架通"}},{"type":"Polygon","arcs":[[-413,-85,-516,-334]],"properties":{"name":"東町"}},{"type":"Polygon","arcs":[[898,-433,-636,899,-385]],"properties":{"name":"再度筋町"}},{"type":"Polygon","arcs":[[-81,-826,-118,-617,-724,-175]],"properties":{"name":"浪花町"}},{"type":"Polygon","arcs":[[918]],"properties":{"name":"神戸空港"}},{"type":"Polygon","arcs":[[-875,-787,-774,923,-469,-876,-771,-834,-906,-844,-922,924,-841,-687,-723,-685,-639,-905,-765,-466,-556,-909,925,926],[-919]],"properties":{"name":"水面"}},{"type":"Polygon","arcs":[[-776,-96,-508,-106,-73,-465,-590,-88,-470,-924]],"properties":{"name":"波止場町"}}]}},"arcs":[[[135.18013408618089,34.68168982376282],[135.17867667615627,34.68093822899158]],[[135.17867667615627,34.68093822899158],[135.1786675100555,34.681912953460525]],[[135.1786675100555,34.681912953460525],[135.1786675100555,34.68198341547033]],[[135.1786675100555,34.68198341547033],[135.17966661504093,34.68313429496378]],[[135.17966661504093,34.68313429496378],[135.18077571323576,34.682511880543856]],[[135.18077571323576,34.682511880543856],[135.18013408618089,34.68168982376282]],[[135.17765007286852,34.68023360889355],[135.17700844581364,34.68090299798668]],[[135.17700844581364,34.68090299798668],[135.1781083779077,34.68160761808471]],[[135.1781083779077,34.68160761808471],[135.17834669652808,34.68176028577262]],[[135.17834669652808,34.68176028577262],[135.1786675100555,34.681912953460525]],[[135.17867667615627,34.68093822899158],[135.17867667615627,34.68091474165498]],[[135.17867667615627,34.68091474165498],[135.17765007286852,34.68023360889355]],[[135.20158276201485,34.69756726330514],[135.20080364344824,34.69723844059273]],[[135.20080364344824,34.69723844059273],[135.1998503689667,34.698800348476695]],[[135.1998503689667,34.698800348476695],[135.2004828299208,34.69923486420382]],[[135.2004828299208,34.69923486420382],[135.20049199602158,34.69921137686722]],[[135.20049199602158,34.69921137686722],[135.20104196206862,34.69836583274958]],[[135.20104196206862,34.69836583274958],[135.20158276201485,34.69756726330514]],[[135.17697178141051,34.67887134337069],[135.17643098146428,34.679482014122314]],[[135.17643098146428,34.679482014122314],[135.17765007286852,34.68023360889355]],[[135.17867667615627,34.68091474165498],[135.17836502872964,34.67844857131187]],[[135.17836502872964,34.67844857131187],[135.17697178141051,34.67887134337069]],[[135.20360847028806,34.69707402923652],[135.20237104668223,34.696604282504495]],[[135.20237104668223,34.696604282504495],[135.20158276201485,34.69756726330514]],[[135.20158276201485,34.69756726330514],[135.2030035076363,34.69814270305187]],[[135.2030035076363,34.69814270305187],[135.20360847028806,34.69707402923652]],[[135.20568000906516,34.698048753705464],[135.20477256508758,34.69757900697344]],[[135.20477256508758,34.69757900697344],[135.20416760243586,34.69862419345219]],[[135.20416760243586,34.69862419345219],[135.20513004301816,34.698999990837805]],[[135.20513004301816,34.698999990837805],[135.20568000906516,34.698048753705464]],[[135.2060649852981,34.69938753189172],[135.20659661914354,34.69845978209598]],[[135.20659661914354,34.69845978209598],[135.20568000906516,34.698048753705464]],[[135.20513004301816,34.698999990837805],[135.2060649852981,34.69938753189172]],[[135.20118861968115,34.69128440076435],[135.2000245248816,34.690098290266]],[[135.2000245248816,34.690098290266],[135.19951122323772,34.690896859710435]],[[135.19951122323772,34.690896859710435],[135.2003178401067,34.69137835011076]],[[135.2003178401067,34.69137835011076],[135.20063865363412,34.691589736140166]],[[135.20063865363412,34.691589736140166],[135.20118861968115,34.69128440076435]],[[135.19560646430384,34.702675759015875],[135.19605560324226,34.70413197388514]],[[135.19605560324226,34.70413197388514],[135.1961289320485,34.70619885950604]],[[135.1961289320485,34.70619885950604],[135.19668806419634,34.705271109710296]],[[135.19668806419634,34.705271109710296],[135.19718303363865,34.70448428393416]],[[135.19718303363865,34.70448428393416],[135.1978246606935,34.70342735378711]],[[135.1978246606935,34.70342735378711],[135.19798048440683,34.7031807367528]],[[135.19798048440683,34.7031807367528],[135.19560646430384,34.702675759015875]],[[135.19866794196562,34.696345921801885],[135.19758634207312,34.695911406074764]],[[135.19758634207312,34.695911406074764],[135.1971647014371,34.6965925388362]],[[135.1971647014371,34.6965925388362],[135.1980446471123,34.69737936461233]],[[135.1980446471123,34.69737936461233],[135.19866794196562,34.696345921801885]],[[135.19977704016046,34.696803924865605],[135.19866794196562,34.696345921801885]],[[135.1980446471123,34.69737936461233],[135.19830129793428,34.69761423797834]],[[135.19830129793428,34.69761423797834],[135.1989612571907,34.69815444672017]],[[135.1989612571907,34.69815444672017],[135.19977704016046,34.696803924865605]],[[135.2089248087426,34.69938753189172],[135.20774238174153,34.698906041491405]],[[135.20774238174153,34.698906041491405],[135.20715575129137,34.699822047618845]],[[135.20715575129137,34.699822047618845],[135.20838400879637,34.700315281687466]],[[135.20838400879637,34.700315281687466],[135.2089248087426,34.69938753189172]],[[135.20326015845828,34.69328082437545],[135.20217855856578,34.692799333975124]],[[135.20217855856578,34.692799333975124],[135.2014361044023,34.69406765015158]],[[135.2014361044023,34.69406765015158],[135.20253603649635,34.6945021658787]],[[135.20253603649635,34.6945021658787],[135.20326015845828,34.69328082437545]],[[135.20196773824776,34.695394684669544],[135.201491101007,34.69621674145058]],[[135.201491101007,34.69621674145058],[135.20238021278303,34.696569051499594]],[[135.20238021278303,34.696569051499594],[135.202719358512,34.695723507381956]],[[135.202719358512,34.695723507381956],[135.20196773824776,34.695394684669544]],[[135.19923624021422,34.693163387692444],[135.19962121644713,34.69250574226761]],[[135.19962121644713,34.69250574226761],[135.19875043687267,34.69212994488199]],[[135.19875043687267,34.69212994488199],[135.19836546063976,34.69278759030682]],[[135.19836546063976,34.69278759030682],[135.19923624021422,34.693163387692444]],[[135.18552375344174,34.68521292425298],[135.18517544161196,34.685800107668]],[[135.18517544161196,34.685800107668],[135.18714615328045,34.686446009424536]],[[135.18714615328045,34.686446009424536],[135.18747613290867,34.6856004653069]],[[135.18747613290867,34.6856004653069],[135.18552375344174,34.68521292425298]],[[135.19666056589398,34.694091137488186],[135.1971005387316,34.69336303005355]],[[135.1971005387316,34.69336303005355],[135.19604643714146,34.69292851432643]],[[135.19604643714146,34.69292851432643],[135.19559729820307,34.693656621761065]],[[135.19559729820307,34.693656621761065],[135.1960831015446,34.693856264122175]],[[135.1960831015446,34.693856264122175],[135.19657807098693,34.69405590648328]],[[135.19657807098693,34.69405590648328],[135.19666056589398,34.694091137488186]],[[135.19138089184256,34.68704493650786],[135.19215084430837,34.686997961834656]],[[135.19215084430837,34.686997961834656],[135.19254498664208,34.68698621816636]],[[135.19254498664208,34.68698621816636],[135.193819074651,34.686927499824854]],[[135.193819074651,34.686927499824854],[135.19418571868238,34.68691575615655]],[[135.19418571868238,34.68691575615655],[135.195175657567,34.686868781483355]],[[135.195175657567,34.686868781483355],[135.19559729820307,34.68685703781505]],[[135.19559729820307,34.68685703781505],[135.19600977273834,34.686046724702315]],[[135.19600977273834,34.686046724702315],[135.19318661369695,34.68616416138532]],[[135.19318661369695,34.68616416138532],[135.1899326479187,34.68598800636081]],[[135.1899326479187,34.68598800636081],[135.1898318208101,34.68691575615655]],[[135.1898318208101,34.68691575615655],[135.1898226547093,34.68703319283956]],[[135.1898226547093,34.68703319283956],[135.1909684173073,34.68706842384446]],[[135.1909684173073,34.68706842384446],[135.19138089184256,34.68704493650786]],[[135.18292058081914,34.68244141853405],[135.18213229615176,34.68260582989026]],[[135.18213229615176,34.68260582989026],[135.18259060119095,34.68378019672031]],[[135.18259060119095,34.68378019672031],[135.18343388246305,34.6835100923494]],[[135.18343388246305,34.6835100923494],[135.18292058081914,34.68244141853405]],[[135.1993462334236,34.69520678597674],[135.19978620626122,34.6944786785421]],[[135.19978620626122,34.6944786785421],[135.19870460636875,34.69402067547838]],[[135.19870460636875,34.69402067547838],[135.19827379963192,34.69474878291301]],[[135.19827379963192,34.69474878291301],[135.1982829657327,34.69474878291301]],[[135.1982829657327,34.69474878291301],[135.1993462334236,34.69520678597674]],[[135.18427716373515,34.68444958581344],[135.18367220108343,34.68508374390167]],[[135.18367220108343,34.68508374390167],[135.18355304177322,34.685189436916374]],[[135.18355304177322,34.685189436916374],[135.18499211959627,34.68603498103401]],[[135.18499211959627,34.68603498103401],[135.18517544161196,34.685800107668]],[[135.18552375344174,34.68521292425298],[135.18427716373515,34.68444958581344]],[[135.17836502872964,34.67844857131187],[135.17790672369046,34.67654609704718]],[[135.17790672369046,34.67654609704718],[135.1761285001384,34.67723897347691]],[[135.1761285001384,34.67723897347691],[135.17577102220784,34.677579539857625]],[[135.17577102220784,34.677579539857625],[135.17639431706112,34.67853077698997]],[[135.17639431706112,34.67853077698997],[135.17697178141051,34.67887134337069]],[[135.19189419348643,34.68913530946536],[135.19138089184256,34.68704493650786]],[[135.1909684173073,34.68706842384446],[135.1905101122681,34.687362015551976]],[[135.1905101122681,34.687362015551976],[135.18975849200382,34.688407202030724]],[[135.18975849200382,34.688407202030724],[135.1897676581046,34.68891217976765]],[[135.1897676581046,34.68891217976765],[135.1911792376253,34.68931146448986]],[[135.1911792376253,34.68931146448986],[135.1919216917888,34.68959331252908]],[[135.1919216917888,34.68959331252908],[135.19189419348643,34.68913530946536]],[[135.1989612571907,34.69815444672017],[135.1998503689667,34.698800348476695]],[[135.20080364344824,34.69723844059273],[135.19977704016046,34.696803924865605]],[[135.1967063963979,34.695523865020846],[135.1959272778313,34.69521852964503]],[[135.1959272778313,34.69521852964503],[135.19569812531168,34.69512458029863]],[[135.19569812531168,34.69512458029863],[135.19588144732737,34.69530073532314]],[[135.19588144732737,34.69530073532314],[135.1965230743822,34.695946637079665]],[[135.1965230743822,34.695946637079665],[135.1971647014371,34.6965925388362]],[[135.19758634207312,34.695911406074764],[135.1967063963979,34.695523865020846]],[[135.2060649852981,34.69938753189172],[135.20715575129137,34.699822047618845]],[[135.20774238174153,34.698906041491405],[135.20659661914354,34.69845978209598]],[[135.17790672369046,34.67654609704718],[135.17880500156724,34.676440404032476]],[[135.17880500156724,34.676440404032476],[135.1777783982795,34.67523080619752]],[[135.1777783982795,34.67523080619752],[135.17508356464907,34.67661655905698]],[[135.17508356464907,34.67661655905698],[135.1761285001384,34.67723897347691]],[[135.20217855856578,34.692799333975124],[135.2014452705031,34.69248225493101]],[[135.2014452705031,34.69248225493101],[135.20115195527802,34.69235307457971]],[[135.20115195527802,34.69235307457971],[135.20035450450982,34.69360964708786]],[[135.20035450450982,34.69360964708786],[135.2014361044023,34.69406765015158]],[[135.2030035076363,34.69814270305187],[135.20416760243586,34.69862419345219]],[[135.20477256508758,34.69757900697344],[135.20360847028806,34.69707402923652]],[[135.19589061342813,34.70065584806818],[135.1949006745435,34.700315281687466]],[[135.1949006745435,34.700315281687466],[135.19476318303174,34.700280050682565]],[[135.19476318303174,34.700280050682565],[135.19516649146624,34.701336980829616]],[[135.19516649146624,34.701336980829616],[135.19644057947517,34.70174800922013]],[[135.19644057947517,34.70174800922013],[135.19699971162296,34.7010199017855]],[[135.19699971162296,34.7010199017855],[135.19589061342813,34.70065584806818]],[[135.19516649146624,34.701336980829616],[135.19560646430384,34.702675759015875]],[[135.19798048440683,34.7031807367528],[135.1984479555468,34.70245262931817]],[[135.1984479555468,34.70245262931817],[135.19644057947517,34.70174800922013]],[[135.20115195527802,34.69235307457971],[135.2000336909824,34.69185984051108]],[[135.2000336909824,34.69185984051108],[135.19962121644713,34.69250574226761]],[[135.19923624021422,34.693163387692444],[135.20035450450982,34.69360964708786]],[[135.1984479555468,34.70245262931817],[135.19894292498913,34.70164231620543]],[[135.19894292498913,34.70164231620543],[135.19699971162296,34.7010199017855]],[[135.19760467427471,34.69249399859931],[135.1979988166084,34.69181286583788]],[[135.1979988166084,34.69181286583788],[135.1969905455222,34.69136660644246]],[[135.1969905455222,34.69136660644246],[135.19656890488613,34.692047739203886]],[[135.19656890488613,34.692047739203886],[135.19760467427471,34.69249399859931]],[[135.19875043687267,34.69212994488199],[135.1979988166084,34.69181286583788]],[[135.19760467427471,34.69249399859931],[135.19836546063976,34.69278759030682]],[[135.20326015845828,34.694807501254516],[135.20404844312566,34.69360964708786]],[[135.20404844312566,34.69360964708786],[135.20326015845828,34.69328082437545]],[[135.20253603649635,34.6945021658787],[135.20326015845828,34.694807501254516]],[[135.20620247680984,34.69714449124632],[135.20524003622756,34.6967334628558]],[[135.20524003622756,34.6967334628558],[135.20477256508758,34.69757900697344]],[[135.20568000906516,34.698048753705464],[135.20620247680984,34.69714449124632]],[[135.20862232741675,34.707760767390006],[135.20722908009762,34.70744368834589]],[[135.20722908009762,34.70744368834589],[135.2071832495937,34.707431944677595]],[[135.2071832495937,34.707431944677595],[135.20685326996548,34.70862979884425]],[[135.20685326996548,34.70862979884425],[135.20818235457912,34.70893513422006]],[[135.20818235457912,34.70893513422006],[135.20862232741675,34.707760767390006]],[[135.19534064738113,34.70347432846031],[135.1946165254192,34.70368571448972]],[[135.1946165254192,34.70368571448972],[135.19333327130948,34.70486008131977]],[[135.19333327130948,34.70486008131977],[135.19593644393206,34.70678604292107]],[[135.19593644393206,34.70678604292107],[135.1961289320485,34.70619885950604]],[[135.19605560324226,34.70413197388514],[135.19534064738113,34.70347432846031]],[[135.19254498664208,34.68698621816636],[135.19313161709223,34.6901100339343]],[[135.19313161709223,34.6901100339343],[135.19402072886825,34.690474087651616]],[[135.19402072886825,34.690474087651616],[135.193819074651,34.686927499824854]],[[135.20664244964746,34.70994508969391],[135.20589999548397,34.709663241654695]],[[135.20589999548397,34.709663241654695],[135.20551501925107,34.710778890143246]],[[135.20551501925107,34.710778890143246],[135.2062299751122,34.711178174865466]],[[135.2062299751122,34.711178174865466],[135.20664244964746,34.70994508969391]],[[135.18080321153812,34.685647439980094],[135.18060155732087,34.68591754435101]],[[135.18060155732087,34.68591754435101],[135.18042740140598,34.686211136058525]],[[135.18042740140598,34.686211136058525],[135.18358970617638,34.688207559669614]],[[135.18358970617638,34.688207559669614],[135.18371803158735,34.68803140464511]],[[135.18371803158735,34.68803140464511],[135.18080321153812,34.685647439980094]],[[135.20480006338994,34.703591765143315],[135.20439675495544,34.70443730926095]],[[135.20439675495544,34.70443730926095],[135.20568917516596,34.704836593983174]],[[135.20568917516596,34.704836593983174],[135.2060558191973,34.70420243589494]],[[135.2060558191973,34.70420243589494],[135.20480006338994,34.703591765143315]],[[135.19848461994994,34.70952231763509],[135.1974396844606,34.71063796612364]],[[135.1974396844606,34.71063796612364],[135.19875043687267,34.71167140893409],[135.1996303825479,34.710121244718415]],[[135.1996303825479,34.710121244718415],[135.1997495418581,34.709827653010905]],[[135.1997495418581,34.709827653010905],[135.19848461994994,34.70952231763509]],[[135.1774850830544,34.684766664857555],[135.178053381303,34.684437842145144]],[[135.178053381303,34.684437842145144],[135.17708177461992,34.683850658730115]],[[135.17708177461992,34.683850658730115],[135.17649514416976,34.6834983486811]],[[135.17649514416976,34.6834983486811],[135.17586268321568,34.68432040546214]],[[135.17586268321568,34.68432040546214],[135.17515689345532,34.68523641158958]],[[135.17515689345532,34.68523641158958],[135.17643098146428,34.6857296456582]],[[135.17643098146428,34.6857296456582],[135.1774850830544,34.684766664857555]],[[135.20342514827237,34.70862979884425],[135.20304933814023,34.708547593166145]],[[135.20304933814023,34.708547593166145],[135.2042500973429,34.71023868140142]],[[135.2042500973429,34.71023868140142],[135.20486422609542,34.710285656074625]],[[135.20486422609542,34.710285656074625],[135.20517587352208,34.70935790627888]],[[135.20517587352208,34.70935790627888],[135.2044334193586,34.70905257090307]],[[135.2044334193586,34.70905257090307],[135.20342514827237,34.70862979884425]],[[135.17577102220784,34.677579539857625],[135.17502856804435,34.67824892895076]],[[135.17502856804435,34.67824892895076],[135.17603683913057,34.678859599702385]],[[135.17603683913057,34.678859599702385],[135.17639431706112,34.67853077698997]],[[135.19166504096683,34.69198902086239],[135.1900518072289,34.69107301473495]],[[135.1900518072289,34.69107301473495],[135.18939184797247,34.6922708689016]],[[135.18939184797247,34.6922708689016],[135.19129839693548,34.69297548899963]],[[135.19129839693548,34.69297548899963],[135.19166504096683,34.69198902086239]],[[135.20145443660388,34.69620499778228],[135.2004186672153,34.69578222572346]],[[135.2004186672153,34.69578222572346],[135.20040033501374,34.69577048205516]],[[135.20040033501374,34.69577048205516],[135.19977704016046,34.696803924865605]],[[135.20080364344824,34.69723844059273],[135.20145443660388,34.69620499778228]],[[135.19984120286594,34.70194765158124],[135.19944706053224,34.70279319569888]],[[135.19944706053224,34.70279319569888],[135.20038200281218,34.703110274743]],[[135.20038200281218,34.703110274743],[135.20079447734744,34.70226473062536]],[[135.20079447734744,34.70226473062536],[135.19984120286594,34.70194765158124]],[[135.19401156276749,34.69864768078879],[135.19290246457265,34.698741630135196]],[[135.19290246457265,34.698741630135196],[135.19299412558047,34.69911742752081]],[[135.19299412558047,34.69911742752081],[135.1946165254192,34.70368571448972]],[[135.19534064738113,34.70347432846031],[135.19512066096232,34.70279319569888]],[[135.19512066096232,34.70279319569888],[135.19401156276749,34.69864768078879]],[[135.17918081169938,34.68897089810915],[135.17897915748213,34.68956982519248]],[[135.17897915748213,34.68956982519248],[135.17896082528057,34.689616799865675]],[[135.17896082528057,34.689616799865675],[135.1817656521204,34.690802910364035]],[[135.1817656521204,34.690802910364035],[135.1819856385392,34.6899925972513]],[[135.1819856385392,34.6899925972513],[135.17918081169938,34.68897089810915]],[[135.1937182475424,34.69328082437545],[135.19166504096683,34.69198902086239]],[[135.19129839693548,34.69297548899963],[135.19118840372607,34.69326908070715]],[[135.19118840372607,34.69326908070715],[135.1914633867496,34.69342174839505]],[[135.1914633867496,34.69342174839505],[135.19293912897578,34.69470180823981]],[[135.19293912897578,34.69470180823981],[135.1937182475424,34.69328082437545]],[[135.20294851103162,34.70298109439169],[135.20252687039556,34.70381489484103]],[[135.20252687039556,34.70381489484103],[135.20344348047394,34.70413197388514]],[[135.20344348047394,34.70413197388514],[135.20390178551312,34.703298173435805]],[[135.20390178551312,34.703298173435805],[135.20294851103162,34.70298109439169]],[[135.20259103310104,34.70619885950604],[135.20322349405512,34.706386758198846]],[[135.20322349405512,34.706386758198846],[135.20370929739667,34.705365059056696]],[[135.20370929739667,34.705365059056696],[135.20299434153554,34.70514192935899]],[[135.20299434153554,34.70514192935899],[135.20259103310104,34.70619885950604]],[[135.20974975781314,34.70799564075602],[135.20862232741675,34.707760767390006]],[[135.20818235457912,34.70893513422006],[135.20930978497555,34.70919349492267]],[[135.20930978497555,34.70919349492267],[135.20974975781314,34.70799564075602]],[[135.19588144732737,34.69530073532314],[135.19457986101608,34.69749680129534]],[[135.19457986101608,34.69749680129534],[135.19534064738113,34.69781388033945]],[[135.19534064738113,34.69781388033945],[135.1965230743822,34.695946637079665]],[[135.19984120286594,34.70194765158124],[135.2000336909824,34.70153662319073]],[[135.2000336909824,34.70153662319073],[135.19926373851655,34.70114908213681]],[[135.19926373851655,34.70114908213681],[135.19894292498913,34.70164231620543]],[[135.1984479555468,34.70245262931817],[135.19944706053224,34.70279319569888]],[[135.20621164291063,34.70645722020865],[135.2059458259879,34.70713835297008]],[[135.2059458259879,34.70713835297008],[135.2071832495937,34.707431944677595]],[[135.20722908009762,34.70744368834589],[135.2074765648188,34.70678604292107]],[[135.2074765648188,34.70678604292107],[135.20621164291063,34.70645722020865]],[[135.18714615328045,34.686446009424536],[135.1867886753499,34.68737375922028]],[[135.1867886753499,34.68737375922028],[135.18668784824126,34.687749556605894]],[[135.18668784824126,34.687749556605894],[135.18805359725803,34.68805489198171]],[[135.18805359725803,34.68805489198171],[135.18833774638233,34.68677483213695]],[[135.18833774638233,34.68677483213695],[135.18714615328045,34.686446009424536]],[[135.17333283939936,34.68156064341151],[135.17329617499624,34.68153715607491]],[[135.17329617499624,34.68153715607491],[135.17219624290217,34.68262931722686]],[[135.17219624290217,34.68262931722686],[135.17418528677226,34.682077364816735]],[[135.17418528677226,34.682077364816735],[135.17333283939936,34.68156064341151]],[[135.2010877925725,34.70561167609101],[135.20062948753335,34.7054824957397]],[[135.20062948753335,34.7054824957397],[135.1997587079589,34.70521239136879]],[[135.1997587079589,34.70521239136879],[135.19881459957816,34.70729102065798]],[[135.19881459957816,34.70729102065798],[135.19897958939225,34.70738497000439]],[[135.19897958939225,34.70738497000439],[135.19995119607535,34.70777251105831]],[[135.19995119607535,34.70777251105831],[135.2010877925725,34.70561167609101]],[[135.18355304177322,34.685189436916374],[135.18329639095128,34.68547128495559]],[[135.18329639095128,34.68547128495559],[135.18300307572622,34.685800107668]],[[135.18300307572622,34.685800107668],[135.18455214675865,34.68664565178564]],[[135.18455214675865,34.68664565178564],[135.18499211959627,34.68603498103401]],[[135.2096122663014,34.71104899451416],[135.20902563585125,34.71229382335402]],[[135.20902563585125,34.71229382335402],[135.20980475441786,34.71256392772493]],[[135.20980475441786,34.71256392772493],[135.21043721537194,34.71135432988997]],[[135.21043721537194,34.71135432988997],[135.2096122663014,34.71104899451416]],[[135.21054720858135,34.71283403209584],[135.20980475441786,34.71256392772493]],[[135.20980475441786,34.71256392772493],[135.20901646975045,34.714090604603996]],[[135.20901646975045,34.714090604603996],[135.20952977139433,34.7142785032968]],[[135.20952977139433,34.7142785032968],[135.21054720858135,34.71283403209584]],[[135.20524003622756,34.703098531074694],[135.20480006338994,34.703591765143315]],[[135.2060558191973,34.70420243589494],[135.20609248360043,34.70413197388514]],[[135.20609248360043,34.70413197388514],[135.20635830052316,34.70368571448972]],[[135.20635830052316,34.70368571448972],[135.20524003622756,34.703098531074694]],[[135.1780900457061,34.68441435480854],[135.178053381303,34.684437842145144]],[[135.1774850830544,34.684766664857555],[135.17670596448778,34.687162373190866]],[[135.17670596448778,34.687162373190866],[135.17943746252132,34.68772606926929]],[[135.17943746252132,34.68772606926929],[135.18042740140598,34.686211136058525]],[[135.18060155732087,34.68591754435101],[135.1780900457061,34.68441435480854]],[[135.2053775277393,34.708289232463535],[135.20553335145263,34.708324463468436]],[[135.20553335145263,34.708324463468436],[135.20629413781768,34.70850061849294]],[[135.20629413781768,34.70850061849294],[135.20685326996548,34.70862979884425]],[[135.2059458259879,34.70713835297008],[135.2053775277393,34.708289232463535]],[[135.20259103310104,34.70619885950604],[135.20168358912346,34.70825400145863]],[[135.20168358912346,34.70825400145863],[135.2026185314034,34.70846538748804]],[[135.2026185314034,34.70846538748804],[135.20304933814023,34.708547593166145]],[[135.20342514827237,34.70862979884425],[135.2038559550092,34.707925178746216]],[[135.2038559550092,34.707925178746216],[135.2045342464672,34.70676255558446]],[[135.2045342464672,34.70676255558446],[135.20322349405512,34.706386758198846]],[[135.20294851103162,34.70298109439169],[135.20199523655012,34.702675759015875]],[[135.20199523655012,34.702675759015875],[135.20159192811562,34.703497815796915]],[[135.20159192811562,34.703497815796915],[135.20252687039556,34.70381489484103]],[[135.20035450450982,34.69360964708786],[135.19978620626122,34.6944786785421]],[[135.19978620626122,34.6944786785421],[135.20090447055685,34.69494842527412]],[[135.20090447055685,34.69494842527412],[135.2014361044023,34.69406765015158]],[[135.19604643714146,34.69292851432643],[135.19656890488613,34.692047739203886]],[[135.19656890488613,34.692047739203886],[135.1952948168772,34.691519274130364]],[[135.1952948168772,34.691519274130364],[135.19483651183802,34.692435280257804]],[[135.19483651183802,34.692435280257804],[135.19604643714146,34.69292851432643]],[[135.17230623611158,34.68093822899158],[135.170042209218,34.68428517445724]],[[135.170042209218,34.68428517445724],[135.1711146430097,34.68446132948174]],[[135.1711146430097,34.68446132948174],[135.17219624290217,34.68262931722686]],[[135.17329617499624,34.68153715607491],[135.17230623611158,34.68093822899158]],[[135.21156464576833,34.70558818875441],[135.21134465934952,34.70622234684264]],[[135.21134465934952,34.70622234684264],[135.2127104083663,34.70653942588675]],[[135.2127104083663,34.70653942588675],[135.21306788629687,34.705928755135126]],[[135.21306788629687,34.705928755135126],[135.21156464576833,34.70558818875441]],[[135.17526688666473,34.68274675390986],[135.17450610029968,34.68366276003731]],[[135.17450610029968,34.68366276003731],[135.17586268321568,34.68432040546214]],[[135.17649514416976,34.6834983486811],[135.17526688666473,34.68274675390986]],[[135.1900518072289,34.69107301473495],[135.19009763773283,34.691061271066644]],[[135.19009763773283,34.691061271066644],[135.1886952243129,34.690215726949006]],[[135.1886952243129,34.690215726949006],[135.18852106839802,34.69041536931012]],[[135.18852106839802,34.69041536931012],[135.18753112951336,34.69163671081337]],[[135.18753112951336,34.69163671081337],[135.18939184797247,34.6922708689016]],[[135.19402072886825,34.690474087651616],[135.19483651183802,34.69079116669573]],[[135.19483651183802,34.69079116669573],[135.19512066096232,34.689980853582995]],[[135.19512066096232,34.689980853582995],[135.19497400334976,34.68905310378725]],[[135.19497400334976,34.68905310378725],[135.19418571868238,34.68691575615655]],[[135.17502856804435,34.67824892895076],[135.1739744664542,34.679223653419704]],[[135.1739744664542,34.679223653419704],[135.1739927986558,34.67929411542951]],[[135.1739927986558,34.67929411542951],[135.17502856804435,34.67989304251283]],[[135.17502856804435,34.67989304251283],[135.17603683913057,34.678859599702385]],[[135.20238021278303,34.696569051499594],[135.20237104668223,34.696604282504495]],[[135.20360847028806,34.69707402923652],[135.20409427362958,34.69626371612378]],[[135.20409427362958,34.69626371612378],[135.202719358512,34.695723507381956]],[[135.20621164291063,34.70645722020865],[135.20491005659935,34.70612839749624]],[[135.20491005659935,34.70612839749624],[135.2045342464672,34.70676255558446]],[[135.2045342464672,34.70676255558446],[135.2059458259879,34.70713835297008]],[[135.17643098146428,34.679482014122314],[135.1757343578047,34.68028058356675]],[[135.1757343578047,34.68028058356675],[135.1751752256569,34.68089125431838]],[[135.1751752256569,34.68089125431838],[135.17418528677226,34.682077364816735]],[[135.17418528677226,34.682077364816735],[135.17526688666473,34.68274675390986]],[[135.17526688666473,34.68274675390986],[135.1762476594486,34.68170156743112]],[[135.1762476594486,34.68170156743112],[135.17700844581364,34.68090299798668]],[[135.2105655407829,34.705365059056696],[135.20956643579748,34.70511844202239]],[[135.20956643579748,34.70511844202239],[135.20935561547944,34.70574085644232]],[[135.20935561547944,34.70574085644232],[135.2103547204649,34.705987473476625]],[[135.2103547204649,34.705987473476625],[135.2105655407829,34.705365059056696]],[[135.2000245248816,34.690098290266],[135.20046449771922,34.68960505619738]],[[135.20046449771922,34.68960505619738],[135.19969454525338,34.689100078460456]],[[135.19969454525338,34.689100078460456],[135.19882376567892,34.690474087651616]],[[135.19882376567892,34.690474087651616],[135.19951122323772,34.690896859710435]],[[135.21052887637978,34.701160825805104],[135.20951143919277,34.70076154108289]],[[135.20951143919277,34.70076154108289],[135.20785237495093,34.70385012584593]],[[135.20785237495093,34.70385012584593],[135.2088148155332,34.70407325554364]],[[135.2088148155332,34.70407325554364],[135.21052887637978,34.701160825805104]],[[135.2061199819028,34.701430930176016],[135.20529503283225,34.70269924635247]],[[135.20529503283225,34.70269924635247],[135.20654162253885,34.703392122782205]],[[135.20654162253885,34.703392122782205],[135.2065599547404,34.703356891777304]],[[135.2065599547404,34.703356891777304],[135.2074032360125,34.70194765158124]],[[135.2074032360125,34.70194765158124],[135.2061199819028,34.701430930176016]],[[135.19668806419634,34.705271109710296],[135.1969813794214,34.705564701417806]],[[135.1969813794214,34.705564701417806],[135.19881459957816,34.70729102065798]],[[135.1997587079589,34.70521239136879],[135.19941956222988,34.705106698354086]],[[135.19941956222988,34.705106698354086],[135.19848461994994,34.704836593983174]],[[135.19848461994994,34.704836593983174],[135.19718303363865,34.70448428393416]],[[135.2103547204649,34.705987473476625],[135.21134465934952,34.70622234684264]],[[135.21156464576833,34.70558818875441],[135.2105655407829,34.705365059056696]],[[135.1978338267943,34.693656621761065],[135.19836546063976,34.69278759030682]],[[135.19760467427471,34.69249399859931],[135.1971005387316,34.69336303005355]],[[135.1971005387316,34.69336303005355],[135.1978338267943,34.693656621761065]],[[135.17896082528057,34.689616799865675],[135.178731672761,34.69194204618918]],[[135.178731672761,34.69194204618918],[135.18062905562323,34.692834564980025]],[[135.18062905562323,34.692834564980025],[135.1817656521204,34.690802910364035]],[[135.17497357143966,34.6878552496206],[135.17294786316646,34.68925274614836]],[[135.17294786316646,34.68925274614836],[135.17277370725157,34.68947587584607]],[[135.17277370725157,34.68947587584607],[135.17583518491332,34.69194204618918]],[[135.17583518491332,34.69194204618918],[135.1778242287834,34.693092925682635]],[[135.1778242287834,34.693092925682635],[135.178731672761,34.69194204618918]],[[135.17897915748213,34.68956982519248],[135.17738425594578,34.68832499635262],[135.17497357143966,34.6878552496206]],[[135.19830129793428,34.69761423797834],[135.19742135225903,34.698671168125394]],[[135.19742135225903,34.698671168125394],[135.19834712843817,34.69905870917931]],[[135.19834712843817,34.69905870917931],[135.1998503689667,34.698800348476695]],[[135.1999145316722,34.704120230216844],[135.19897042329148,34.70381489484103]],[[135.19897042329148,34.70381489484103],[135.19848461994994,34.704836593983174]],[[135.19941956222988,34.705106698354086],[135.1999145316722,34.704120230216844]],[[135.20886981213792,34.707103121965176],[135.2074765648188,34.70678604292107]],[[135.20862232741675,34.707760767390006],[135.20886981213792,34.707103121965176]],[[135.1969813794214,34.705564701417806],[135.1969813794214,34.70702091628707],[135.1987871012758,34.708148308443924]],[[135.1987871012758,34.708148308443924],[135.19897958939225,34.70738497000439]],[[135.192123346006,34.6967334628558],[135.19290246457265,34.698741630135196]],[[135.19401156276749,34.69864768078879],[135.19395656616277,34.6966512571777]],[[135.19395656616277,34.6966512571777],[135.192123346006,34.6967334628558]],[[135.1995203893385,34.700738053746285],[135.19926373851655,34.70114908213681]],[[135.2000336909824,34.70153662319073],[135.20028117570357,34.7010081581172]],[[135.20028117570357,34.7010081581172],[135.1995203893385,34.700738053746285]],[[135.21164714067538,34.70163057253713],[135.21052887637978,34.701160825805104]],[[135.2088148155332,34.70407325554364],[135.2099514120304,34.70431987257795]],[[135.2099514120304,34.70431987257795],[135.21164714067538,34.70163057253713]],[[135.19483651183802,34.692435280257804],[135.19445153560508,34.69321036236564]],[[135.19445153560508,34.69321036236564],[135.19559729820307,34.693656621761065]],[[135.2119771203036,34.70785471673641],[135.21164714067538,34.70844190015144]],[[135.21164714067538,34.70844190015144],[135.2129945574906,34.708782466532156]],[[135.2129945574906,34.708782466532156],[135.21335203542117,34.70810133377072]],[[135.21335203542117,34.70810133377072],[135.2119771203036,34.70785471673641]],[[135.19559729820307,34.68685703781505],[135.19512066096232,34.689980853582995]],[[135.19483651183802,34.69079116669573],[135.1947906813341,34.69130788810096]],[[135.1947906813341,34.69130788810096],[135.1952948168772,34.691519274130364]],[[135.1952948168772,34.691519274130364],[135.1958447829242,34.69042711297841]],[[135.1958447829242,34.69042711297841],[135.1964222472736,34.689299720821566]],[[135.1964222472736,34.689299720821566],[135.19741218615823,34.68760863258628]],[[135.19741218615823,34.68760863258628],[135.19803548101154,34.68637554741473]],[[135.19803548101154,34.68637554741473],[135.19600977273834,34.686046724702315]],[[135.1993645656252,34.69521852964503],[135.19866794196562,34.696345921801885]],[[135.20040033501374,34.69577048205516],[135.1993645656252,34.69521852964503]],[[135.17649514416976,34.6834983486811],[135.17741175424814,34.68235921285595]],[[135.17741175424814,34.68235921285595],[135.1762476594486,34.68170156743112]],[[135.1711146430097,34.68446132948174],[135.1734794970119,34.68488410154056]],[[135.1734794970119,34.68488410154056],[135.17450610029968,34.68366276003731]],[[135.2043142600484,34.70242914198156],[135.20348931097786,34.70199462625445]],[[135.20348931097786,34.70199462625445],[135.20344348047394,34.70199462625445]],[[135.20344348047394,34.70199462625445],[135.20294851103162,34.70298109439169]],[[135.20390178551312,34.703298173435805],[135.2043142600484,34.70242914198156]],[[135.18402967901397,34.69750854496364],[135.1808582081428,34.69624022878718]],[[135.1808582081428,34.69624022878718],[135.17902498798605,34.696287203460386],[135.1793366354127,34.69793131702246],[135.1773200932403,34.69581745672836]],[[135.1773200932403,34.69581745672836],[135.17642181536348,34.69478401391792]],[[135.17642181536348,34.69478401391792],[135.17272787674764,34.6943847291957],[135.17442360539263,34.698483269432586],[135.17450610029968,34.70407325554364],[135.17204958528964,34.7075728686972],[135.17138045993244,34.710579247782135],[135.16967556518665,34.71282228842754],[135.17010637192348,34.71757847408926],[135.1797307777464,34.71929304966113],[135.18792527184706,34.726292275968255]],[[135.18792527184706,34.726292275968255],[135.18668784824126,34.724718624415985],[135.18714615328045,34.721242498599025],[135.18587206527152,34.72017382478368],[135.1872378142883,34.71833006886049],[135.1867886753499,34.71699129067423],[135.18423133323122,34.71501835439974],[135.18164649281022,34.714842199375234],[135.1808123776389,34.711600946924285],[135.18297557742386,34.70996857703051],[135.18303057402855,34.707889947741315],[135.18979515640694,34.709463599293585],[135.19367241703847,34.70668034990636],[135.19593644393206,34.70678604292107]],[[135.19333327130948,34.70486008131977],[135.1915275494551,34.703591765143315]],[[135.1915275494551,34.703591765143315],[135.18977682420538,34.702252986957056]],[[135.18977682420538,34.702252986957056],[135.18786110914158,34.7010433891221]],[[135.18786110914158,34.7010433891221],[135.185257936519,34.6988355794816]],[[135.185257936519,34.6988355794816],[135.1840755095179,34.699364044555125],[135.18402967901397,34.69750854496364]],[[135.1964222472736,34.689299720821566],[135.19787049119742,34.69000434091959]],[[135.19787049119742,34.69000434091959],[135.19880543347736,34.68851289504543]],[[135.19880543347736,34.68851289504543],[135.19741218615823,34.68760863258628]],[[135.1967063963979,34.695523865020846],[135.19739385395667,34.6943847291957]],[[135.19739385395667,34.6943847291957],[135.19666056589398,34.694091137488186]],[[135.19657807098693,34.69405590648328],[135.1959272778313,34.69521852964503]],[[135.1914633867496,34.69342174839505],[135.19114257322215,34.69544165934275]],[[135.19114257322215,34.69544165934275],[135.19015263433752,34.69744982662213]],[[135.19015263433752,34.69744982662213],[135.1914083901449,34.698048753705464]],[[135.1914083901449,34.698048753705464],[135.19290246457265,34.698741630135196]],[[135.192123346006,34.6967334628558],[135.19293912897578,34.69470180823981]],[[135.1734794970119,34.68488410154056],[135.17515689345532,34.68523641158958]],[[135.20253603649635,34.6945021658787],[135.20196773824776,34.695394684669544]],[[135.202719358512,34.695723507381956],[135.20326015845828,34.694807501254516]],[[135.1960831015446,34.693856264122175],[135.19538647788502,34.69481924492282]],[[135.19538647788502,34.69481924492282],[135.19569812531168,34.69512458029863]],[[135.19969454525338,34.689100078460456],[135.19880543347736,34.68851289504543]],[[135.19787049119742,34.69000434091959],[135.19882376567892,34.690474087651616]],[[135.198227969128,34.68628159806833],[135.19803548101154,34.68637554741473]],[[135.19880543347736,34.68851289504543],[135.20006118928475,34.68740899022518]],[[135.20006118928475,34.68740899022518],[135.198227969128,34.68628159806833]],[[135.20079447734744,34.70226473062536],[135.20125278238663,34.701336980829616]],[[135.20125278238663,34.701336980829616],[135.20028117570357,34.7010081581172]],[[135.18833774638233,34.68677483213695],[135.1886402277082,34.6857766203314]],[[135.1886402277082,34.6857766203314],[135.18747613290867,34.6856004653069]],[[135.2017752501313,34.68497805088697],[135.20393844991625,34.67847205864847]],[[135.20393844991625,34.67847205864847],[135.20373679569903,34.67835462196546]],[[135.20373679569903,34.67835462196546],[135.20359930418726,34.67826067261906]],[[135.20359930418726,34.67826067261906],[135.20240771108539,34.67874216301938],[135.20079447734744,34.683874146066714],[135.1990712504001,34.6835100923494],[135.19961205034633,34.680139659547145],[135.1985029521515,34.680010479195836],[135.19798048440683,34.68326347531509],[135.19640391507204,34.68307557662228],[135.1969263828167,34.67985781150793],[135.19582645072265,34.67972863115663],[135.19531314907877,34.682958139939274],[135.19374574584475,34.68278198491477],[135.19424988138786,34.679552476132116],[135.1931499492938,34.67943503944911],[135.19233416632406,34.684602253501346],[135.19317744759616,34.685647439980094]],[[135.19317744759616,34.685647439980094],[135.19318661369695,34.68616416138532]],[[135.198227969128,34.68628159806833],[135.19858544705855,34.68474317752096],[135.2017752501313,34.68497805088697]],[[135.2003178401067,34.69137835011076],[135.2000336909824,34.69185984051108]],[[135.2014452705031,34.69248225493101],[135.20063865363412,34.691589736140166]],[[135.20956643579748,34.70511844202239],[135.2083656765948,34.704813106646576]],[[135.2083656765948,34.704813106646576],[135.20806319526895,34.705435521066505]],[[135.20806319526895,34.705435521066505],[135.20935561547944,34.70574085644232]],[[135.19870460636875,34.69402067547838],[135.1978338267943,34.693656621761065]],[[135.1978338267943,34.693656621761065],[135.19739385395667,34.6943847291957]],[[135.19739385395667,34.6943847291957],[135.19827379963192,34.69474878291301]],[[135.18846607179333,34.69384452045387],[135.1871736515828,34.69600535542117]],[[135.1871736515828,34.69600535542117],[135.18862189550663,34.696709975519205]],[[135.18862189550663,34.696709975519205],[135.19015263433752,34.69744982662213]],[[135.19114257322215,34.69544165934275],[135.19007930553124,34.694549140551906]],[[135.19007930553124,34.694549140551906],[135.18846607179333,34.69384452045387]],[[135.18753112951336,34.69163671081337],[135.1874578007071,34.69173066015978]],[[135.1874578007071,34.69173066015978],[135.18670618044283,34.69308118201434]],[[135.18670618044283,34.69308118201434],[135.1885760650027,34.69366836542936]],[[135.1885760650027,34.69366836542936],[135.18939184797247,34.6922708689016]],[[135.1757343578047,34.68028058356675],[135.17502856804435,34.67989304251283]],[[135.17502856804435,34.67989304251283],[135.17442360539263,34.68045673859126]],[[135.17442360539263,34.68045673859126],[135.1751752256569,34.68089125431838]],[[135.20491005659935,34.70612839749624],[135.20512087691736,34.70577608744722]],[[135.20512087691736,34.70577608744722],[135.20370929739667,34.705365059056696]],[[135.20196773824776,34.695394684669544],[135.20090447055685,34.69494842527412]],[[135.20090447055685,34.69494842527412],[135.2004186672153,34.69578222572346]],[[135.20145443660388,34.69620499778228],[135.201491101007,34.69621674145058]],[[135.1885760650027,34.69366836542936],[135.18846607179333,34.69384452045387]],[[135.19007930553124,34.694549140551906],[135.19118840372607,34.69326908070715]],[[135.1969905455222,34.69136660644246],[135.19720136584021,34.691037783730046]],[[135.19720136584021,34.691037783730046],[135.1958447829242,34.69042711297841]],[[135.2038559550092,34.707925178746216],[135.20474506678522,34.708124821107326]],[[135.20474506678522,34.708124821107326],[135.2053775277393,34.708289232463535]],[[135.20774238174153,34.698906041491405],[135.20832901219168,34.69799003536396]],[[135.20832901219168,34.69799003536396],[135.207128252989,34.69752028863194]],[[135.207128252989,34.69752028863194],[135.20659661914354,34.69845978209598]],[[135.18259060119095,34.68378019672031],[135.1825631028886,34.68380368405691]],[[135.1825631028886,34.68380368405691],[135.18367220108343,34.68508374390167]],[[135.18427716373515,34.68444958581344],[135.18343388246305,34.6835100923494]],[[135.1825631028886,34.68380368405691],[135.1818848114306,34.684109019432725]],[[135.1818848114306,34.684109019432725],[135.18329639095128,34.68547128495559]],[[135.20204106705404,34.69981030395054],[135.2017752501313,34.70026830701426]],[[135.2017752501313,34.70026830701426],[135.20179358233287,34.700280050682565]],[[135.20179358233287,34.700280050682565],[135.2028018534191,34.700972927112296]],[[135.2028018534191,34.700972927112296],[135.20321432795436,34.700280050682565]],[[135.20321432795436,34.700280050682565],[135.20204106705404,34.69981030395054]],[[135.19497400334976,34.68905310378725],[135.195175657567,34.686868781483355]],[[135.2150202657638,34.7053533153884],[135.21351702523526,34.70508321101749]],[[135.21351702523526,34.70508321101749],[135.21306788629687,34.705928755135126]],[[135.21306788629687,34.705928755135126],[135.21447029971677,34.706351527193945]],[[135.21447029971677,34.706351527193945],[135.2150202657638,34.7053533153884]],[[135.21164714067538,34.70844190015144],[135.2110238458221,34.70953406130339]],[[135.2110238458221,34.70953406130339],[135.21189462539655,34.71067319712854]],[[135.21189462539655,34.71067319712854],[135.2129945574906,34.708782466532156]],[[135.21164714067538,34.70844190015144],[135.21066636789152,34.70819528311713]],[[135.21066636789152,34.70819528311713],[135.21031805606174,34.70925221326418]],[[135.21031805606174,34.70925221326418],[135.2110238458221,34.70953406130339]],[[135.20813652407523,34.710485298435735],[135.20807236136972,34.7119532569733]],[[135.20807236136972,34.7119532569733],[135.20897980534733,34.71227033601741]],[[135.20897980534733,34.71227033601741],[135.20902563585125,34.71229382335402]],[[135.2096122663014,34.71104899451416],[135.20874148672695,34.710708428133444]],[[135.20874148672695,34.710708428133444],[135.20813652407523,34.710485298435735]],[[135.19742135225903,34.698671168125394],[135.19589061342813,34.70065584806818]],[[135.19699971162296,34.7010199017855],[135.19834712843817,34.69905870917931]],[[135.2004828299208,34.69923486420382],[135.20047366382002,34.69931706988192]],[[135.20047366382002,34.69931706988192],[135.2017752501313,34.70026830701426]],[[135.20204106705404,34.69981030395054],[135.20049199602158,34.69921137686722]],[[135.17310368687978,34.68016314688374],[135.17230623611158,34.68093822899158]],[[135.17333283939936,34.68156064341151],[135.17411195796598,34.68077381763538]],[[135.17411195796598,34.68077381763538],[135.17310368687978,34.68016314688374]],[[135.1942132169847,34.693691852765966],[135.19445153560508,34.69321036236564]],[[135.1947906813341,34.69130788810096],[135.19409405767453,34.69357441608296]],[[135.19409405767453,34.69357441608296],[135.1942132169847,34.693691852765966]],[[135.1993645656252,34.69521852964503],[135.1993462334236,34.69520678597674]],[[135.1982829657327,34.69474878291301],[135.19758634207312,34.695911406074764]],[[135.1897676581046,34.68891217976765],[135.18873188871603,34.6901335212709]],[[135.18873188871603,34.6901335212709],[135.1886952243129,34.690215726949006]],[[135.19009763773283,34.691061271066644],[135.1911792376253,34.68931146448986]],[[135.17741175424814,34.68235921285595],[135.1781083779077,34.68160761808471]],[[135.20006118928475,34.68740899022518],[135.20068448413804,34.68811361032321]],[[135.20068448413804,34.68811361032321],[135.2014819349062,34.68914705313366]],[[135.2014819349062,34.68914705313366],[135.20237104668223,34.69076767935913]],[[135.20237104668223,34.69076767935913],[135.2029026805277,34.69181286583788]],[[135.2029026805277,34.69181286583788],[135.20411260583114,34.69353918507806]],[[135.20411260583114,34.69353918507806],[135.20468090407974,34.692670153623816]],[[135.20468090407974,34.692670153623816],[135.2049375549017,34.692247381565]],[[135.2049375549017,34.692247381565],[135.2061199819028,34.69124916975945],[135.21110634072915,34.69399718814178],[135.2132237100102,34.69321036236564],[135.21583604873356,34.69429077984929],[135.2145619607246,34.69258794794571],[135.21797175021618,34.6900513155928],[135.2075865580282,34.68428517445724],[135.20394761601705,34.68689226881995],[135.2017752501313,34.68497805088697]],[[135.20963976460374,34.698377576417876],[135.20956643579748,34.698342345412975]],[[135.20956643579748,34.698342345412975],[135.20947477478964,34.698448038427685]],[[135.20947477478964,34.698448038427685],[135.2089248087426,34.69938753189172]],[[135.20838400879637,34.700315281687466],[135.20951143919277,34.70076154108289]],[[135.21164714067538,34.70163057253713],[135.21279290327337,34.69981030395054]],[[135.21279290327337,34.69981030395054],[135.20963976460374,34.698377576417876]],[[135.19457986101608,34.69749680129534],[135.19435070849647,34.69749680129534]],[[135.19435070849647,34.69749680129534],[135.1943965390004,34.69863593712049]],[[135.1943965390004,34.69863593712049],[135.19476318303174,34.700280050682565]],[[135.1949006745435,34.700315281687466],[135.19621142695559,34.69817793405677]],[[135.19621142695559,34.69817793405677],[135.19534064738113,34.69781388033945]],[[135.1905101122681,34.687362015551976],[135.18980432250774,34.68733852821537]],[[135.18980432250774,34.68733852821537],[135.1897676581046,34.68833674002092]],[[135.1897676581046,34.68833674002092],[135.18975849200382,34.688407202030724]],[[135.1943965390004,34.69863593712049],[135.19401156276749,34.69864768078879]],[[135.19512066096232,34.70279319569888],[135.19560646430384,34.702675759015875]],[[135.2127104083663,34.70653942588675],[135.2140669912823,34.70685650493087]],[[135.2140669912823,34.70685650493087],[135.21447029971677,34.706351527193945]],[[135.1755785340914,34.686868781483355],[135.17503773414515,34.686504727766035]],[[135.17503773414515,34.686504727766035],[135.1737086495315,34.68727980987387],[135.17294786316646,34.68925274614836]],[[135.17497357143966,34.6878552496206],[135.1755785340914,34.686868781483355]],[[135.18980432250774,34.68733852821537],[135.1898226547093,34.68703319283956]],[[135.1898318208101,34.68691575615655],[135.18833774638233,34.68677483213695]],[[135.18805359725803,34.68805489198171],[135.1897676581046,34.68833674002092]],[[135.19870460636875,34.69402067547838],[135.19923624021422,34.693163387692444]],[[135.2026185314034,34.70846538748804],[135.20191274164307,34.71035611808443]],[[135.20191274164307,34.71035611808443],[135.2036817990943,34.712058949988005]],[[135.2036817990943,34.712058949988005],[135.2042500973429,34.71023868140142]],[[135.21066636789152,34.70819528311713],[135.20974975781314,34.70799564075602]],[[135.20930978497555,34.70919349492267],[135.21031805606174,34.70925221326418]],[[135.2119771203036,34.70785471673641],[135.21086802210877,34.707596356033804]],[[135.21086802210877,34.707596356033804],[135.21066636789152,34.70819528311713]],[[135.1995203893385,34.700738053746285],[135.20047366382002,34.69931706988192]],[[135.1899326479187,34.68598800636081],[135.1886402277082,34.6857766203314]],[[135.2036817990943,34.712058949988005],[135.20479089728914,34.71292798144224]],[[135.20479089728914,34.71292798144224],[135.20569834126675,34.711941513305]],[[135.20569834126675,34.711941513305],[135.2062299751122,34.71121340587037]],[[135.2062299751122,34.71121340587037],[135.2062299751122,34.711178174865466]],[[135.20551501925107,34.710778890143246],[135.20486422609542,34.710285656074625]],[[135.18575290596132,34.68911182212876],[135.185257936519,34.68989864790489]],[[135.185257936519,34.68989864790489],[135.18506544840255,34.69029793262711]],[[135.18506544840255,34.69029793262711],[135.1874578007071,34.69173066015978]],[[135.18852106839802,34.69041536931012],[135.18575290596132,34.68911182212876]],[[135.19897042329148,34.70381489484103],[135.1978246606935,34.70342735378711]],[[135.20158276201485,34.705823062120416],[135.2010877925725,34.70561167609101]],[[135.19995119607535,34.70777251105831],[135.20050116212235,34.707925178746216]],[[135.20050116212235,34.707925178746216],[135.20168358912346,34.70825400145863]],[[135.20259103310104,34.70619885950604],[135.20158276201485,34.705823062120416]],[[135.20991474762727,34.70729102065798],[135.20886981213792,34.707103121965176]],[[135.20974975781314,34.70799564075602],[135.20991474762727,34.70729102065798]],[[135.21086802210877,34.707596356033804],[135.20991474762727,34.70729102065798]],[[135.20685326996548,34.71246997837852],[135.20569834126675,34.711941513305]],[[135.20479089728914,34.71292798144224],[135.20630330391847,34.71430199063341]],[[135.20630330391847,34.71430199063341],[135.20632163612004,34.7142785032968]],[[135.20632163612004,34.7142785032968],[135.20685326996548,34.71246997837852]],[[135.20411260583114,34.69353918507806],[135.20404844312566,34.69360964708786]],[[135.20326015845828,34.694807501254516],[135.2045984091727,34.69544165934275]],[[135.2045984091727,34.69544165934275],[135.2050017176072,34.69470180823981]],[[135.2050017176072,34.69470180823981],[135.20411260583114,34.69353918507806]],[[135.19166504096683,34.69198902086239],[135.19245332563423,34.689851673231686]],[[135.19245332563423,34.689851673231686],[135.1919216917888,34.68959331252908]],[[135.19299412558047,34.69911742752081],[135.19265497985148,34.70026830701426]],[[135.19265497985148,34.70026830701426],[135.1915275494551,34.703591765143315]],[[135.20720158179526,34.704472540265854],[135.20609248360043,34.70413197388514]],[[135.20568917516596,34.704836593983174],[135.20685326996548,34.70516541669559]],[[135.20685326996548,34.70516541669559],[135.20720158179526,34.704472540265854]],[[135.19538647788502,34.69481924492282],[135.1952489863733,34.69467832090321]],[[135.1952489863733,34.69467832090321],[135.1943232101941,34.696663000846]],[[135.1943232101941,34.696663000846],[135.19435070849647,34.69749680129534]],[[135.17515689345532,34.68523641158958],[135.17286536825938,34.687831762284]],[[135.17286536825938,34.687831762284],[135.17277370725157,34.68947587584607]],[[135.17503773414515,34.686504727766035],[135.17643098146428,34.6857296456582]],[[135.170042209218,34.68428517445724],[135.16943724656628,34.68607021203891],[135.17286536825938,34.687831762284]],[[135.18213229615176,34.68260582989026],[135.18183898092667,34.68197167180203]],[[135.18183898092667,34.68197167180203],[135.18077571323576,34.682511880543856]],[[135.18077571323576,34.682511880543856],[135.18182981482587,34.68412076310103]],[[135.18182981482587,34.68412076310103],[135.1818848114306,34.684109019432725]],[[135.17708177461992,34.683850658730115],[135.17814504231083,34.68284070325627]],[[135.17814504231083,34.68284070325627],[135.17741175424814,34.68235921285595]],[[135.17814504231083,34.69348046673655],[135.1773200932403,34.69581745672836]],[[135.1808582081428,34.69624022878718],[135.18041823530518,34.6944199602006]],[[135.18041823530518,34.6944199602006],[135.17814504231083,34.69348046673655]],[[135.2225639667088,34.68062114994747],[135.22554294946355,34.67783790056024],[135.216367682579,34.67500767649981]],[[135.216367682579,34.67500767649981],[135.21449779801912,34.678108004931154]],[[135.21449779801912,34.678108004931154],[135.2225639667088,34.68062114994747]],[[135.17814504231083,34.68284070325627],[135.17842002533433,34.68258234255366]],[[135.17842002533433,34.68258234255366],[135.17834669652808,34.68176028577262]],[[135.20038200281218,34.703110274743],[135.1999145316722,34.704120230216844]],[[135.1999145316722,34.704120230216844],[135.2010877925725,34.70450777127076]],[[135.2010877925725,34.70450777127076],[135.20159192811562,34.703497815796915]],[[135.20159192811562,34.703497815796915],[135.20038200281218,34.703110274743]],[[135.21128966274483,34.711659665265785],[135.21043721537194,34.71135432988997]],[[135.21054720858135,34.71283403209584],[135.21128966274483,34.711659665265785]],[[135.1943232101941,34.696663000846],[135.19395656616277,34.6966512571777]],[[135.20806319526895,34.705435521066505],[135.2074765648188,34.70678604292107]],[[135.20886981213792,34.707103121965176],[135.20935561547944,34.70574085644232]],[[135.18183898092667,34.68197167180203],[135.1821597944541,34.68173679843602]],[[135.1821597944541,34.68173679843602],[135.18013408618089,34.68168982376282]],[[135.17670596448778,34.687162373190866],[135.1755785340914,34.686868781483355]],[[135.17918081169938,34.68897089810915],[135.17943746252132,34.68772606926929]],[[135.19720136584021,34.691037783730046],[135.19787049119742,34.69000434091959]],[[135.17502856804435,34.67824892895076],[135.17407529356285,34.67766174553573]],[[135.17407529356285,34.67766174553573],[135.1739744664542,34.679223653419704]],[[135.19621142695559,34.69817793405677],[135.1971647014371,34.6965925388362]],[[135.19969454525338,34.689100078460456],[135.20068448413804,34.68811361032321]],[[135.2083656765948,34.704813106646576],[135.20720158179526,34.704472540265854]],[[135.20685326996548,34.70516541669559],[135.20806319526895,34.705435521066505]],[[135.2051025447158,34.7010316454538],[135.20417676853663,34.70066759173648]],[[135.20417676853663,34.70066759173648],[135.2036359685904,34.70157185419563]],[[135.2036359685904,34.70157185419563],[135.2036909651951,34.701618828868824]],[[135.2036909651951,34.701618828868824],[135.20447008376172,34.70214729394235]],[[135.20447008376172,34.70214729394235],[135.2051025447158,34.7010316454538]],[[135.2024535415893,34.70171277821523],[135.20125278238663,34.701336980829616]],[[135.20079447734744,34.70226473062536],[135.20199523655012,34.702675759015875]],[[135.20199523655012,34.702675759015875],[135.2024535415893,34.70171277821523]],[[135.20524003622756,34.6967334628558],[135.20409427362958,34.69626371612378]],[[135.19409405767453,34.69357441608296],[135.1937182475424,34.69328082437545]],[[135.19395656616277,34.6966512571777],[135.1942132169847,34.693691852765966]],[[135.1893185191662,34.6988942978231],[135.18786110914158,34.7010433891221]],[[135.18977682420538,34.702252986957056],[135.1906659359814,34.699457993901525]],[[135.1906659359814,34.699457993901525],[135.1893185191662,34.6988942978231]],[[135.20344348047394,34.70413197388514],[135.20416760243586,34.70436684725115]],[[135.20416760243586,34.70436684725115],[135.20439675495544,34.70443730926095]],[[135.20480006338994,34.703591765143315],[135.20390178551312,34.703298173435805]],[[135.20447008376172,34.70214729394235],[135.20529503283225,34.70269924635247]],[[135.2061199819028,34.701430930176016],[135.2051025447158,34.7010316454538]],[[135.20714658519057,34.711600946924285],[135.2062299751122,34.71121340587037]],[[135.20685326996548,34.71246997837852],[135.20714658519057,34.711600946924285]],[[135.216367682579,34.67500767649981],[135.21775176379737,34.672670686508006]],[[135.21775176379737,34.672670686508006],[135.21944749244236,34.66969953842797]],[[135.21944749244236,34.66969953842797],[135.22098739737402,34.66723336808486]],[[135.22098739737402,34.66723336808486],[135.22248147180176,34.66473196673684],[135.22056575673795,34.66398037196561]],[[135.22056575673795,34.66398037196561],[135.21943832634156,34.665741922210685]],[[135.21943832634156,34.665741922210685],[135.21687181812212,34.66989918078907]],[[135.21687181812212,34.66989918078907],[135.2139020014682,34.674702341124]],[[135.2139020014682,34.674702341124],[135.21227960162946,34.67740338483312]],[[135.21227960162946,34.67740338483312],[135.21449779801912,34.678108004931154]],[[135.20046449771922,34.68960505619738],[135.2014819349062,34.68914705313366]],[[135.1942132169847,34.693691852765966],[135.1952489863733,34.69467832090321]],[[135.18062905562323,34.692834564980025],[135.1819856385392,34.69348046673655]],[[135.1819856385392,34.69348046673655],[135.1829480791215,34.6924000492529]],[[135.1829480791215,34.6924000492529],[135.18327805874972,34.69198902086239]],[[135.18327805874972,34.69198902086239],[135.1817656521204,34.690802910364035]],[[135.18182981482587,34.68412076310103],[135.18042740140598,34.68504851289677]],[[135.18042740140598,34.68504851289677],[135.1822697876635,34.68658693344414]],[[135.1822697876635,34.68658693344414],[135.18300307572622,34.685800107668]],[[135.19265497985148,34.70026830701426],[135.1906659359814,34.699457993901525]],[[135.20901646975045,34.714090604603996],[135.20819152067992,34.71380875656479]],[[135.20819152067992,34.71380875656479],[135.20732074110546,34.71347993385237]],[[135.20732074110546,34.71347993385237],[135.20696326317488,34.71370306355008]],[[135.20696326317488,34.71370306355008],[135.20930978497555,34.71510056007784]],[[135.20930978497555,34.71510056007784],[135.20952977139433,34.7142785032968]],[[135.20947477478964,34.698448038427685],[135.20832901219168,34.69799003536396]],[[135.178942493079,34.683944608076516],[135.1780900457061,34.68441435480854]],[[135.18080321153812,34.685647439980094],[135.178942493079,34.683944608076516]],[[135.18792527184706,34.726292275968255],[135.1981088098178,34.735053052520456],[135.1986862741672,34.72904029435058],[135.19666056589398,34.72414318466926],[135.2005286604247,34.72178270734085],[135.20136277559604,34.71898771428532],[135.20287518222534,34.71732011338665],[135.2061658124067,34.71791904046997],[135.20845733760265,34.71908166363173],[135.20886981213792,34.71669769896672]],[[135.20886981213792,34.71669769896672],[135.20630330391847,34.71430199063341]],[[135.20191274164307,34.71035611808443],[135.1996303825479,34.710121244718415]],[[135.1974396844606,34.71063796612364],[135.1979346539029,34.708054359097524],[135.19882376567892,34.70867677351745]],[[135.19882376567892,34.70867677351745],[135.1987871012758,34.708148308443924]],[[135.20204106705404,34.704836593983174],[135.2020502331548,34.704813106646576]],[[135.2020502331548,34.704813106646576],[135.2010877925725,34.70450777127076]],[[135.2010877925725,34.70450777127076],[135.20062948753335,34.7054824957397]],[[135.20158276201485,34.705823062120416],[135.20204106705404,34.704836593983174]],[[135.21086802210877,34.707596356033804],[135.21134465934952,34.70622234684264]],[[135.2103547204649,34.705987473476625],[135.20991474762727,34.70729102065798]],[[135.21775176379737,34.672670686508006],[135.22799946447358,34.675782758607646],[135.23188589120588,34.67344576861584],[135.21944749244236,34.66969953842797]],[[135.19313161709223,34.6901100339343],[135.19245332563423,34.689851673231686]],[[135.19742135225903,34.698671168125394],[135.19621142695559,34.69817793405677]],[[135.19897042329148,34.70381489484103],[135.19944706053224,34.70279319569888]],[[135.1979988166084,34.69181286583788],[135.19882376567892,34.690474087651616]],[[135.20474506678522,34.708124821107326],[135.2044334193586,34.70905257090307]],[[135.20517587352208,34.70935790627888],[135.20553335145263,34.708324463468436]],[[135.20344348047394,34.70199462625445],[135.2024535415893,34.70171277821523]],[[135.1819856385392,34.6899925972513],[135.18264559779564,34.688841717757846]],[[135.18264559779564,34.688841717757846],[135.18358970617638,34.688207559669614]],[[135.18580790256604,34.69533596632804],[135.18402967901397,34.69750854496364]],[[135.185257936519,34.6988355794816],[135.18620204489974,34.69763772531495],[135.1876869532267,34.69823665239827]],[[135.1876869532267,34.69823665239827],[135.18862189550663,34.696709975519205]],[[135.1871736515828,34.69600535542117],[135.18580790256604,34.69533596632804]],[[135.2028018534191,34.700972927112296],[135.20281101951986,34.7009846707806]],[[135.20281101951986,34.7009846707806],[135.2036359685904,34.70157185419563]],[[135.20417676853663,34.70066759173648],[135.20321432795436,34.700280050682565]],[[135.18455214675865,34.68664565178564],[135.18450631625473,34.68671611379545]],[[135.18450631625473,34.68671611379545],[135.1867886753499,34.68737375922028]],[[135.2139020014682,34.674702341124],[135.2119862864044,34.67391551534786]],[[135.2119862864044,34.67391551534786],[135.2082465172846,34.672400582137094]],[[135.2082465172846,34.672400582137094],[135.20714658519057,34.67418561971877]],[[135.20714658519057,34.67418561971877],[135.20811819187364,34.67545393589523],[135.21227960162946,34.67740338483312]],[[135.20818235457912,34.70893513422006],[135.20811819187364,34.71047355476743]],[[135.20811819187364,34.71047355476743],[135.20813652407523,34.710485298435735]],[[135.20874148672695,34.710708428133444],[135.20930978497555,34.70919349492267]],[[135.20050116212235,34.707925178746216],[135.1997495418581,34.709827653010905]],[[135.2030035076363,34.69814270305187],[135.20246270769007,34.69908219651591]],[[135.20246270769007,34.69908219651591],[135.20365430079198,34.69951671224303]],[[135.20365430079198,34.69951671224303],[135.20416760243586,34.69862419345219]],[[135.18264559779564,34.688841717757846],[135.185257936519,34.68989864790489]],[[135.18575290596132,34.68911182212876],[135.18371803158735,34.68803140464511]],[[135.19848461994994,34.70952231763509],[135.19882376567892,34.70867677351745]],[[135.18201313684156,34.69350395407316],[135.18041823530518,34.6944199602006]],[[135.18580790256604,34.69533596632804],[135.18201313684156,34.69350395407316]],[[135.20246270769007,34.69908219651591],[135.20204106705404,34.69981030395054]],[[135.20321432795436,34.700280050682565],[135.20365430079198,34.69951671224303]],[[135.1876869532267,34.69823665239827],[135.1893185191662,34.6988942978231]],[[135.1906659359814,34.699457993901525],[135.1914083901449,34.698048753705464]],[[135.20570750736752,34.69589966240647],[135.20591832768554,34.69561781436725]],[[135.20591832768554,34.69561781436725],[135.2050017176072,34.69470180823981]],[[135.2045984091727,34.69544165934275],[135.20570750736752,34.69589966240647]],[[135.20393844991625,34.67847205864847],[135.2064591276318,34.67667527739849],[135.21078552720172,34.67887134337069],[135.21043721537194,34.680574175274266]],[[135.21043721537194,34.680574175274266],[135.21138132375265,34.68071509929387],[135.21227960162946,34.67740338483312]],[[135.20714658519057,34.67418561971877],[135.20373679569903,34.67835462196546]],[[135.2070182597796,34.671836886058664],[135.20744906651643,34.6660355139182]],[[135.20744906651643,34.6660355139182],[135.20748573091956,34.660950505544065]],[[135.20748573091956,34.660950505544065],[135.20629413781768,34.65910674962088],[135.20422259904055,34.657897151785924]],[[135.20422259904055,34.657897151785924],[135.20415843633506,34.65929464831369],[135.2023435483799,34.659212442635585],[135.201491101007,34.67281161052761]],[[135.201491101007,34.67281161052761],[135.20558834805735,34.67296427821552],[135.2070182597796,34.671836886058664]],[[135.20589999548397,34.709663241654695],[135.20517587352208,34.70935790627888]],[[135.18384635699832,34.68098520366478],[135.18348887906774,34.68098520366478]],[[135.18348887906774,34.68098520366478],[135.1821597944541,34.68173679843602]],[[135.18292058081914,34.68244141853405],[135.18384635699832,34.68098520366478]],[[135.207128252989,34.69752028863194],[135.20620247680984,34.69714449124632]],[[135.20629413781768,34.70850061849294],[135.20589999548397,34.709663241654695]],[[135.20664244964746,34.70994508969391],[135.20666994794982,34.70993334602561]],[[135.20666994794982,34.70993334602561],[135.20685326996548,34.70862979884425]],[[135.18506544840255,34.69029793262711],[135.18327805874972,34.69198902086239]],[[135.1829480791215,34.6924000492529],[135.18663285163657,34.693198618697345]],[[135.18663285163657,34.693198618697345],[135.18670618044283,34.69308118201434]],[[135.20416760243586,34.70436684725115],[135.20370929739667,34.705365059056696]],[[135.20512087691736,34.70577608744722],[135.20568917516596,34.704836593983174]],[[135.178942493079,34.683944608076516],[135.17842002533433,34.68258234255366]],[[135.18348887906774,34.68098520366478],[135.18499211959627,34.68072684296217],[135.18598205848093,34.678002311916444],[135.18376386209127,34.67780266955534],[135.1844146552469,34.67672225207169]],[[135.1844146552469,34.67672225207169],[135.18233395036899,34.67629948001287]],[[135.18233395036899,34.67629948001287],[135.18134401148436,34.67631122368117]],[[135.18134401148436,34.67631122368117],[135.18116985556946,34.67632296734947]],[[135.18116985556946,34.67632296734947],[135.1804732319099,34.67635819835437]],[[135.1804732319099,34.67635819835437],[135.1799140997621,34.67638168569097]],[[135.1799140997621,34.67638168569097],[135.17880500156724,34.676440404032476]],[[135.20104196206862,34.69836583274958],[135.20246270769007,34.69908219651591]],[[135.21116133733386,34.66755044712897],[135.2085489986105,34.66649351698192]],[[135.2085489986105,34.66649351698192],[135.20744906651643,34.6660355139182]],[[135.2070182597796,34.671836886058664],[135.20714658519057,34.67418561971877]],[[135.2082465172846,34.672400582137094],[135.21116133733386,34.66755044712897]],[[135.2029026805277,34.69181286583788],[135.20217855856578,34.692799333975124]],[[135.2106388695892,34.66224230905713],[135.20748573091956,34.660950505544065]],[[135.2085489986105,34.66649351698192],[135.2106388695892,34.66224230905713]],[[135.20956643579748,34.698342345412975],[135.20867732402147,34.69741459561723]],[[135.20867732402147,34.69741459561723],[135.20832901219168,34.69799003536396]],[[135.20715575129137,34.699822047618845],[135.20660578524434,34.70069107907308]],[[135.20660578524434,34.70069107907308],[135.2078615410517,34.70118431314171]],[[135.2078615410517,34.70118431314171],[135.20838400879637,34.700315281687466]],[[135.20365430079198,34.69951671224303],[135.20460757527349,34.69989250962865]],[[135.20460757527349,34.69989250962865],[135.20513004301816,34.698999990837805]],[[135.2119862864044,34.67391551534786],[135.2148552759497,34.66907712400804]],[[135.2148552759497,34.66907712400804],[135.21116133733386,34.66755044712897]],[[135.2045984091727,34.69544165934275],[135.20409427362958,34.69626371612378]],[[135.20524003622756,34.6967334628558],[135.20570750736752,34.69589966240647]],[[135.20125278238663,34.701336980829616],[135.20179358233287,34.700280050682565]],[[135.2169451469284,34.658202487161745],[135.21453446242225,34.6571925316879]],[[135.21453446242225,34.6571925316879],[135.21246292364515,34.66056296449015]],[[135.21246292364515,34.66056296449015],[135.2149194386552,34.661549432627396]],[[135.2149194386552,34.661549432627396],[135.2169451469284,34.658202487161745]],[[135.20591832768554,34.69561781436725],[135.20677994115923,34.696181510445676]],[[135.20677994115923,34.696181510445676],[135.20762322243132,34.6966864881826]],[[135.20762322243132,34.6966864881826],[135.20867732402147,34.69741459561723]],[[135.20963976460374,34.698377576417876],[135.2105105441782,34.69682741220221]],[[135.2105105441782,34.69682741220221],[135.20468090407974,34.692670153623816]],[[135.20897980534733,34.71227033601741],[135.20819152067992,34.71380875656479]],[[135.2078615410517,34.70118431314171],[135.2074032360125,34.70194765158124]],[[135.2065599547404,34.703356891777304],[135.20785237495093,34.70385012584593]],[[135.19189419348643,34.68913530946536],[135.19215084430837,34.686997961834656]],[[135.20237104668223,34.69076767935913],[135.20118861968115,34.69128440076435]],[[135.17442360539263,34.68045673859126],[135.17411195796598,34.68077381763538]],[[135.20460757527349,34.69989250962865],[135.20554251755343,34.70026830701426]],[[135.20554251755343,34.70026830701426],[135.2060649852981,34.69938753189172]],[[135.1789516591798,34.6748080341387],[135.1777783982795,34.67523080619752]],[[135.1799140997621,34.67638168569097],[135.1789516591798,34.6748080341387]],[[135.21246292364515,34.66056296449015],[135.20572583956908,34.65776797143462]],[[135.20572583956908,34.65776797143462],[135.20422259904055,34.657897151785924]],[[135.2106388695892,34.66224230905713],[135.21737595366523,34.664884634424745]],[[135.21737595366523,34.664884634424745],[135.21943832634156,34.665741922210685]],[[135.22056575673795,34.66398037196561],[135.21995162798547,34.663710267594695]],[[135.21995162798547,34.663710267594695],[135.2149194386552,34.661549432627396]],[[135.22693619678267,34.66211312870582],[135.222004834561,34.660292860119235]],[[135.222004834561,34.660292860119235],[135.21995162798547,34.663710267594695]],[[135.22098739737402,34.66723336808486],[135.2333891317344,34.67109703495573],[135.23654227040402,34.66487289075645],[135.22693619678267,34.66211312870582]],[[135.21453446242225,34.6571925316879],[135.2168259876182,34.65322317180232]],[[135.2168259876182,34.65322317180232],[135.21424114719719,34.65215449798696]],[[135.21424114719719,34.65215449798696],[135.20959393409984,34.6551373897353]],[[135.20959393409984,34.6551373897353],[135.21453446242225,34.6571925316879]],[[135.1812156860734,34.67393900268446],[135.1802899098942,34.67429131273348]],[[135.1802899098942,34.67429131273348],[135.1804732319099,34.67635819835437]],[[135.18116985556946,34.67632296734947],[135.1812156860734,34.67393900268446]],[[135.20654162253885,34.703392122782205],[135.20635830052316,34.70368571448972]],[[135.20720158179526,34.704472540265854],[135.20785237495093,34.70385012584593]],[[135.20762322243132,34.6966864881826],[135.207128252989,34.69752028863194]],[[135.2148552759497,34.66907712400804],[135.21737595366523,34.664884634424745]],[[135.18611954999267,34.68900612911405],[135.18381885869596,34.687878736957195]],[[135.18381885869596,34.687878736957195],[135.1822697876635,34.68658693344414]],[[135.18042740140598,34.68504851289677],[135.17914414729626,34.68374496571541]],[[135.17914414729626,34.68374496571541],[135.1786675100555,34.68198341547033]],[[135.18873188871603,34.6901335212709],[135.18776944813376,34.68960505619738]],[[135.18776944813376,34.68960505619738],[135.18611954999267,34.68900612911405]],[[135.20666994794982,34.70993334602561],[135.20811819187364,34.71047355476743]],[[135.20299434153554,34.70514192935899],[135.20204106705404,34.704836593983174]],[[135.2024535415893,34.70171277821523],[135.20281101951986,34.7009846707806]],[[135.20620247680984,34.69714449124632],[135.20677994115923,34.696181510445676]],[[135.18663285163657,34.693198618697345],[135.18580790256604,34.69533596632804]],[[135.17914414729626,34.68374496571541],[135.17966661504093,34.68313429496378]],[[135.2127104083663,34.70653942588675],[135.2119771203036,34.70785471673641]],[[135.21335203542117,34.70810133377072],[135.2140669912823,34.70685650493087]],[[135.20685326996548,34.70516541669559],[135.20621164291063,34.70645722020865]],[[135.2148552759497,34.66907712400804],[135.21687181812212,34.66989918078907]],[[135.17508356464907,34.67661655905698],[135.17407529356285,34.67766174553573]],[[135.18805359725803,34.68805489198171],[135.18776944813376,34.68960505619738]],[[135.20524003622756,34.703098531074694],[135.205093378615,34.703004581728294]],[[135.205093378615,34.703004581728294],[135.2043142600484,34.70242914198156]],[[135.1831222350364,34.67019277249659],[135.1828472520129,34.67142585766815],[135.18452464845632,34.67225965811748],[135.18343388246305,34.67314043324002]],[[135.18343388246305,34.67314043324002],[135.18233395036899,34.67629948001287]],[[135.1844146552469,34.67672225207169],[135.18612871609346,34.67716851146711],[135.18939184797247,34.67231837645899],[135.18765945492436,34.67018102882829],[135.1831222350364,34.67019277249659]],[[135.201491101007,34.67281161052761],[135.20433259224995,34.675982400968756],[135.20359930418726,34.67826067261906]],[[135.18668784824126,34.687749556605894],[135.18611954999267,34.68900612911405]],[[135.20348931097786,34.70199462625445],[135.2036909651951,34.701618828868824]],[[135.2169451469284,34.658202487161745],[135.2193558314345,34.65424487094446]],[[135.2193558314345,34.65424487094446],[135.2168259876182,34.65322317180232]],[[135.20732074110546,34.71347993385237],[135.20685326996548,34.71246997837852]],[[135.20632163612004,34.7142785032968],[135.20696326317488,34.71370306355008]],[[135.2083656765948,34.704813106646576],[135.2088148155332,34.70407325554364]],[[135.2118579609934,34.70474264463677],[135.21088635431033,34.70451951493906]],[[135.21088635431033,34.70451951493906],[135.2105655407829,34.705365059056696]],[[135.21156464576833,34.70558818875441],[135.2118579609934,34.70474264463677]],[[135.1739927986558,34.67929411542951],[135.17310368687978,34.68016314688374]],[[135.205093378615,34.703004581728294],[135.20529503283225,34.70269924635247]],[[135.20447008376172,34.70214729394235],[135.2043142600484,34.70242914198156]],[[135.20460757527349,34.69989250962865],[135.20417676853663,34.70066759173648]],[[135.2051025447158,34.7010316454538],[135.20554251755343,34.70026830701426]],[[135.20956643579748,34.70511844202239],[135.2099514120304,34.70431987257795]],[[135.18222395715958,34.67357494896714],[135.1812156860734,34.67393900268446]],[[135.18134401148436,34.67631122368117],[135.18222395715958,34.67357494896714]],[[135.18450631625473,34.68671611379545],[135.18381885869596,34.687878736957195]],[[135.21164714067538,34.70163057253713],[135.21593687584217,34.70334514810901]],[[135.21593687584217,34.70334514810901],[135.21720179775033,34.701794983893336]],[[135.21720179775033,34.701794983893336],[135.21279290327337,34.69981030395054]],[[135.17583518491332,34.69194204618918],[135.17642181536348,34.69478401391792]],[[135.17814504231083,34.69348046673655],[135.1778242287834,34.693092925682635]],[[135.20886981213792,34.71669769896672],[135.20930978497555,34.71510056007784]],[[135.20660578524434,34.70069107907308],[135.2061199819028,34.701430930176016]],[[135.20252687039556,34.70381489484103],[135.2020502331548,34.704813106646576]],[[135.20299434153554,34.70514192935899],[135.20344348047394,34.70413197388514]],[[135.21043721537194,34.680574175274266],[135.21030888996097,34.6812787953723],[135.21996079408623,34.68274675390986],[135.2225639667088,34.68062114994747]],[[135.20959393409984,34.6551373897353],[135.20572583956908,34.65776797143462]],[[135.20807236136972,34.7119532569733],[135.20714658519057,34.711600946924285]],[[135.2105105441782,34.69682741220221],[135.21128049664404,34.69589966240647]],[[135.21128049664404,34.69589966240647],[135.2058816632824,34.69244702392611],[135.2049375549017,34.692247381565]],[[135.21720179775033,34.701794983893336],[135.21849421796085,34.70016261399956]],[[135.21849421796085,34.70016261399956],[135.2105105441782,34.69682741220221]],[[135.1819856385392,34.69348046673655],[135.18201313684156,34.69350395407316]],[[135.21128966274483,34.711659665265785],[135.21189462539655,34.71067319712854]],[[135.18343388246305,34.67314043324002],[135.18222395715958,34.67357494896714]],[[135.222004834561,34.660292860119235],[135.2169451469284,34.658202487161745]],[[135.21351702523526,34.70508321101749],[135.2118579609934,34.70474264463677]],[[135.20660578524434,34.70069107907308],[135.20554251755343,34.70026830701426]],[[135.21088635431033,34.70451951493906],[135.2099514120304,34.70431987257795]],[[135.23191338950824,34.641409041491976],[135.2361022975664,34.64164391485799],[135.23822883294824,34.63770978597731],[135.23854048037487,34.63526710297079],[135.2403370361285,34.63483258724367],[135.24053869034572,34.633082780666896],[135.23884296170073,34.63240164790546],[135.22971352532014,34.63167354047083],[135.2286685898308,34.630581379318876],[135.2271378509999,34.63147389810972],[135.21486444205047,34.630510917309074],[135.21100551362053,34.62934829414732],[135.20923645616926,34.63011163258685],[135.20880564943243,34.63375216976002],[135.2132787066149,34.639952826622704],[135.22854026441982,34.64112719345276],[135.2280361288767,34.6399175956178],[135.2320417149192,34.64021118732532],[135.23191338950824,34.641409041491976]],[[135.2150202657638,34.7053533153884],[135.21593687584217,34.70334514810901]],[[135.22436052246243,34.65627652556045],[135.22789863736494,34.65040469141019]],[[135.22789863736494,34.65040469141019],[135.21723846215346,34.650169818044176],[135.21424114719719,34.65215449798696]],[[135.2193558314345,34.65424487094446],[135.22436052246243,34.65627652556045]],[[135.18384635699832,34.68098520366478],[135.18646786182245,34.68258234255366],[135.1887593870184,34.6791062167367],[135.18826441757608,34.68113787135269],[135.19057427497359,34.6813962320553],[135.1901159699344,34.68551825962879],[135.19317744759616,34.685647439980094]],[[135.22789863736494,34.65040469141019],[135.24532339495485,34.6506982831177],[135.23888879220465,34.66125584091988],[135.22937437959112,34.65834341118135],[135.22693619678267,34.66211312870582]],[[135.21128049664404,34.69589966240647],[135.21294872698667,34.69474878291301],[135.2144519675152,34.69609930476757]],[[135.2144519675152,34.69609930476757],[135.22289394633702,34.686727857463744],[135.22288478023626,34.683416143002994],[135.2466983100724,34.67178991138546],[135.2506488995102,34.66398037196561],[135.25420534661427,34.66507253311756],[135.25606606507338,34.666798852357736],[135.26108908830287,34.65976439504571],[135.2439851442404,34.617628113183386],[135.20466257187817,34.627915566614654],[135.19373657974396,34.64085708908185],[135.1943965390004,34.66890096898353],[135.18371803158735,34.66994615546228],[135.1831222350364,34.67019277249659]],[[135.22436052246243,34.65627652556045],[135.222004834561,34.660292860119235]],[[135.1802899098942,34.67429131273348],[135.1789516591798,34.6748080341387]],[[135.21849421796085,34.70016261399956],[135.2191908416204,34.69897650350121],[135.2144519675152,34.69609930476757]]]}